{"type": "FeatureCollection", "features": [{"type": "Feature", "properties": {"id": 637714660, "name": "Pit Stop Espresso", "category": "cafe", "tags": ["cafe", "coffee-shop", "coffee"], "sources": ["osm", "overture"], "phone": "12069993358", "address": "3830 204th St SW", "stations": [{"stopCode": 40, "lines": "1,2", "name": "Lynnwood City Center Station", "walkingMeters": 1125, "walkingSeconds": 809, "band": 15}]}, "geometry": {"type": "Point", "coordinates": [-122.2857023, 47.813507]}}, {"type": "Feature", "properties": {"id": "96524950-5123-445e-a7df-896200d054dd", "name": "Speedtrap Espresso", "category": "cafe", "tags": ["cafe", "coffee"], "sources": ["overture"], "website": "http://www.agr.wa.gov", "phone": "(425) 778-1091", "address": "4130 Alderwood Mall Blvd", "stations": [{"stopCode": 40, "lines": "1,2", "name": "Lynnwood City Center Station", "walkingMeters": 521, "walkingSeconds": 374, "band": 10}]}, "geometry": {"type": "Point", "coordinates": [-122.2897263, 47.8171577]}}, {"type": "Feature", "properties": {"id": "de12c473-484d-445b-8fe7-d48215359b65", "name": "Salty's on Alkai Beach Seattle Wa", "category": "restaurant", "tags": ["restaurant"], "sources": ["overture"], "address": "198th St SW", "stations": [{"stopCode": 40, "lines": "1,2", "name": "Lynnwood City Center Station", "walkingMeters": 836, "walkingSeconds": 601, "band": 10}]}, "geometry": {"type": "Point", "coordinates": [-122.2889633, 47.8188286]}}, {"type": "Feature", "properties": {"id": "25c615d7-7725-4279-a5c4-4c3d502567aa", "name": "Banh Mi Land", "category": "restaurant", "tags": ["restaurant", "vietnamese", "asian"], "sources": ["overture"], "phone": "+14253611524", "address": "4114 198th St SW Ste 2b", "stations": [{"stopCode": 40, "lines": "1,2", "name": "Lynnwood City Center Station", "walkingMeters": 841, "walkingSeconds": 605, "band": 10}]}, "geometry": {"type": "Point", "coordinates": [-122.2892151, 47.8190689]}}, {"type": "Feature", "properties": {"id": "25d893e6-f9c6-4e97-bdab-db1492c77af7", "name": "Stricker's Cafe", "category": "restaurant", "tags": ["restaurant", "american"], "sources": ["overture"], "website": "http://strickerscafe.com", "phone": "(425) 672-8309", "address": "19820 40th Ave W", "stations": [{"stopCode": 40, "lines": "1,2", "name": "Lynnwood City Center Station", "walkingMeters": 778, "walkingSeconds": 559, "band": 10}]}, "geometry": {"type": "Point", "coordinates": [-122.2879944, 47.8187981]}}, {"type": "Feature", "properties": {"id": "ac3250c0-178a-4d1f-aea5-351fc6a009e9", "name": "Integrity Stonework Llc", "category": "restaurant", "tags": ["restaurant"], "sources": ["overture"], "website": "https://integritystonework.com", "address": "19902 40th Ave W Ste 100", "stations": [{"stopCode": 40, "lines": "1,2", "name": "Lynnwood City Center Station", "walkingMeters": 804, "walkingSeconds": 600, "band": 10}]}, "geometry": {"type": "Point", "coordinates": [-122.2875443, 47.8182793]}}, {"type": "Feature", "properties": {"id": "a39b632b-0e90-408d-9822-e5a0fd2dbdd3", "name": "Tokuni", "category": "restaurant", "tags": ["restaurant", "japanese", "asian"], "sources": ["overture"], "website": "http://www.tokunikatsu.com/", "phone": "+14252423838", "address": "19888 40th Ave W", "stations": [{"stopCode": 40, "lines": "1,2", "name": "Lynnwood City Center Station", "walkingMeters": 932, "walkingSeconds": 670, "band": 10}]}, "geometry": {"type": "Point", "coordinates": [-122.2874603, 47.8192596]}}, {"type": "Feature", "properties": {"id": "d4c6a320-bdd7-4b80-9c65-f3b254424ee3", "name": "Kinect", "category": "attraction", "tags": ["attraction", "landmark", "historical", "building"], "sources": ["overture"], "website": "https://www.kinectlynnwood.com/?utm_source=facebook&utm_medium=social", "phone": "+14252178036", "address": "4200 Alderwood Mall Blvd", "stations": [{"stopCode": 40, "lines": "1,2", "name": "Lynnwood City Center Station", "walkingMeters": 512, "walkingSeconds": 368, "band": 10}]}, "geometry": {"type": "Point", "coordinates": [-122.2898407, 47.8171005]}}, {"type": "Feature", "properties": {"id": "4325088b-a7f2-434f-b8ee-b61f7a39055b", "name": "Ember Apartments", "category": "attraction", "tags": ["attraction", "landmark", "historical", "building"], "sources": ["overture"], "website": "https://emberapartments.com/?utm_source=businessprofile&utm_medium=search&utm_campaign=general", "phone": "+18665520818", "address": "19888 40th Ave W", "stations": [{"stopCode": 40, "lines": "1,2", "name": "Lynnwood City Center Station", "walkingMeters": 844, "walkingSeconds": 608, "band": 10}]}, "geometry": {"type": "Point", "coordinates": [-122.2877274, 47.8186798]}}, {"type": "Feature", "properties": {"id": "c1072c97-b6fa-461d-87cf-6485568a898f", "name": "Poplar Lane Apartments", "category": "attraction", "tags": ["attraction", "landmark", "historical", "building"], "sources": ["overture"], "website": "http://www.poplarlaneapts.com/", "phone": "+14256708444", "address": "3518 204th St SW"}, "geometry": {"type": "Point", "coordinates": [-122.2807236, 47.8132515]}}, {"type": "Feature", "properties": {"id": "c0c0a267-eeeb-41cb-8589-f013f7eea64a", "name": "Brambly Park, Lynnwood, Washington", "category": "park", "tags": ["park"], "sources": ["overture"]}, "geometry": {"type": "Point", "coordinates": [-122.2836304, 47.8112526]}}, {"type": "Feature", "properties": {"id": "761b7ef3-2af7-4a4d-aca1-47d7e948fea8", "name": "Willow Brook Park, Lynnwood, Washington", "category": "park", "tags": ["park"], "sources": ["overture"]}, "geometry": {"type": "Point", "coordinates": [-122.2806625, 47.8122711]}}, {"type": "Feature", "properties": {"id": 562091672, "name": "Hilton Garden Inn", "category": "hotel", "tags": ["hotel"], "sources": ["osm"], "website": "https://www.hilton.com/en/hotels/sealngi-hilton-garden-inn-seattle-lynnwood/", "phone": "+1-425-320-5905", "address": "3801 Alderwood Mall Boulevard", "stations": [{"stopCode": 40, "lines": "1,2", "name": "Lynnwood City Center Station", "walkingMeters": 1012, "walkingSeconds": 729, "band": 15}]}, "geometry": {"type": "Point", "coordinates": [-122.2843929, 47.8194148]}}, {"type": "Feature", "properties": {"id": "07eee55a-c0c0-44d2-82a4-10369db66232", "name": "Hilton Garden Inn Seattle", "category": "hotel", "tags": ["hotel"], "sources": ["overture"], "website": "http://hilton.com/en/hotels/SEALNGI", "phone": "+14253205905", "address": "3801 Alderwood Mall Blvd", "stations": [{"stopCode": 40, "lines": "1,2", "name": "Lynnwood City Center Station", "walkingMeters": 1051, "walkingSeconds": 757, "band": 15}]}, "geometry": {"type": "Point", "coordinates": [-122.2845535, 47.8194542]}}, {"type": "Feature", "properties": {"id": 368495785, "name": "Dania", "category": "furniture", "tags": ["furniture"], "sources": ["osm"], "website": "https://daniafurniture.com", "stations": [{"stopCode": 40, "lines": "1,2", "name": "Lynnwood City Center Station", "walkingMeters": 1007, "walkingSeconds": 726, "band": 15}]}, "geometry": {"type": "Point", "coordinates": [-122.2856014, 47.819404]}}, {"type": "Feature", "properties": {"id": 2498919076, "name": "Mor Furniture", "category": "furniture", "tags": ["furniture"], "sources": ["osm"], "address": "4029 Alderwood Mall Boulevard", "stations": [{"stopCode": 40, "lines": "1,2", "name": "Lynnwood City Center Station", "walkingMeters": 666, "walkingSeconds": 479, "band": 10}]}, "geometry": {"type": "Point", "coordinates": [-122.2882321, 47.8177642]}}, {"type": "Feature", "properties": {"id": 8689345547, "name": "Zumiez Home Office", "category": "clothes", "tags": ["clothes"], "sources": ["osm"], "address": "4001 204th Street Southwest", "stations": [{"stopCode": 40, "lines": "1,2", "name": "Lynnwood City Center Station", "walkingMeters": 1191, "walkingSeconds": 856, "band": 15}]}, "geometry": {"type": "Point", "coordinates": [-122.2869898, 47.8146593]}}, {"type": "Feature", "properties": {"id": 562916601, "name": "Anna\u2019s Home Furnishings", "category": "furniture", "tags": ["furniture"], "sources": ["osm", "overture"], "website": "https://www.annashome.com/", "phone": "+14257710857", "address": "19909 40th Ave W", "stations": [{"stopCode": 40, "lines": "1,2", "name": "Lynnwood City Center Station", "walkingMeters": 912, "walkingSeconds": 657, "band": 10}]}, "geometry": {"type": "Point", "coordinates": [-122.2864838, 47.8186189]}}, {"type": "Feature", "properties": {"id": "28edb238-14ed-423b-8baf-1ec340850463", "name": "Mor Furniture for Less", "category": "furniture", "tags": ["furniture"], "sources": ["overture"], "website": "https://www.morfurniture.com/store/lynnwood-showroom", "phone": "+14255527828", "address": "4029 Alderwood Mall Blvd", "stations": [{"stopCode": 40, "lines": "1,2", "name": "Lynnwood City Center Station", "walkingMeters": 664, "walkingSeconds": 477, "band": 10}]}, "geometry": {"type": "Point", "coordinates": [-122.2882462, 47.8177567]}}, {"type": "Feature", "properties": {"id": "00ae8e30-cc8a-4280-8824-dba1110dcf8a", "name": "Best International Food And Meals", "category": "supermarket", "tags": ["supermarket"], "sources": ["overture"], "website": "http://www.bestfoodandmeals.com", "phone": "12069108735", "address": "4202 198th St Sw  Ste 1", "stations": [{"stopCode": 40, "lines": "1,2", "name": "Lynnwood City Center Station", "walkingMeters": 678, "walkingSeconds": 506, "band": 10}]}, "geometry": {"type": "Point", "coordinates": [-122.2897568, 47.8188477]}}, {"type": "Feature", "properties": {"id": "30659375-3021-43a3-a955-e8c577bbfca0", "name": "Smile LLC", "category": "clothes", "tags": ["clothes"], "sources": ["overture"], "phone": "+14255829941", "address": "4208 198th St SW", "stations": [{"stopCode": 40, "lines": "1,2", "name": "Lynnwood City Center Station", "walkingMeters": 645, "walkingSeconds": 464, "band": 10}]}, "geometry": {"type": "Point", "coordinates": [-122.2897949, 47.8189011]}}, {"type": "Feature", "properties": {"id": "8c7e1a2b-4784-48e6-986a-62826029fd99", "name": "Bella's Voice Used Furniture", "category": "furniture", "tags": ["furniture"], "sources": ["overture"], "website": "http://bellasvoice.org", "phone": "14253611841", "address": "4001 198th St Sw  Ste 1b", "stations": [{"stopCode": 40, "lines": "1,2", "name": "Lynnwood City Center Station", "walkingMeters": 926, "walkingSeconds": 691, "band": 15}]}, "geometry": {"type": "Point", "coordinates": [-122.2875061, 47.8197327]}}, {"type": "Feature", "properties": {"id": "f741d938-38eb-41d3-a193-62fbb8e4e4bb", "name": "East West Bookshop", "category": "books", "tags": ["books"], "sources": ["overture"], "address": "20715 Larch Way"}, "geometry": {"type": "Point", "coordinates": [-122.2833328, 47.8102188]}}, {"type": "Feature", "properties": {"id": 3712377558, "name": "Chase", "category": "bank", "tags": ["bank"], "sources": ["osm"], "website": "https://locator.chase.com/wa/lynnwood/4001-alderwood-mall-blvd", "phone": "+1-425-771-7283", "hours": "Mo-Fr 09:00-17:00; Sa 09:00-13:00; Su closed", "stations": [{"stopCode": 40, "lines": "1,2", "name": "Lynnwood City Center Station", "walkingMeters": 729, "walkingSeconds": 524, "band": 10}]}, "geometry": {"type": "Point", "coordinates": [-122.287622, 47.8179099]}}, {"type": "Feature", "properties": {"id": "cf6a2d3d-e61d-4d62-91fc-9dcb48ce7cba", "name": "Chase Mortgage", "category": "bank", "tags": ["bank", "credit", "union"], "sources": ["overture"], "website": "https://www.chase.com/locator/banking/us/wa/lynnwood/4001-alderwood-mall-blvd", "phone": "+14257717283", "address": "4001 Alderwood Mall Blvd", "stations": [{"stopCode": 40, "lines": "1,2", "name": "Lynnwood City Center Station", "walkingMeters": 722, "walkingSeconds": 519, "band": 10}]}, "geometry": {"type": "Point", "coordinates": [-122.2875977, 47.8178558]}}, {"type": "Feature", "properties": {"id": 12417310682, "name": "Anytime Fitness", "category": "fitness_centre", "tags": ["fitness-centre", "gym"], "sources": ["osm", "overture"], "website": "https://www.anytimefitness.com/gyms/4761/lynnwood-wa-98036/", "phone": "+14254099067", "address": "4114 198th St SW", "stations": [{"stopCode": 40, "lines": "1,2", "name": "Lynnwood City Center Station", "walkingMeters": 832, "walkingSeconds": 598, "band": 10}]}, "geometry": {"type": "Point", "coordinates": [-122.2889028, 47.8189402]}}, {"type": "Feature", "properties": {"id": 236031248, "name": "Experience Momentum", "category": "sports_centre", "tags": ["sports-centre", "fitness-centre", "gym"], "sources": ["osm", "overture"], "website": "https://www.experiencemomentum.com", "phone": "14257760803", "address": "4030 Alderwood Mall Blvd", "stations": [{"stopCode": 40, "lines": "1,2", "name": "Lynnwood City Center Station", "walkingMeters": 683, "walkingSeconds": 491, "band": 10}]}, "geometry": {"type": "Point", "coordinates": [-122.2886669, 47.8169709]}}, {"type": "Feature", "properties": {"id": "87febb97-5672-4e63-b9b9-afcc628c5002", "name": "Crossfit Alderwood", "category": "fitness_centre", "tags": ["fitness-centre", "gym"], "sources": ["overture"], "website": "http://www.crossfit.com/", "address": "4030 Alderwood Mall Blvd", "stations": [{"stopCode": 40, "lines": "1,2", "name": "Lynnwood City Center Station", "walkingMeters": 619, "walkingSeconds": 445, "band": 10}]}, "geometry": {"type": "Point", "coordinates": [-122.2885208, 47.8170395]}}, {"type": "Feature", "properties": {"id": "d4f6b913-063b-4d91-9333-da251d22f97d", "name": "7Figure Cleaners", "category": "fitness_centre", "tags": ["fitness-centre", "fitness", "trainer"], "sources": ["overture"], "website": "https://7figurecleaners.com/"}, "geometry": {"type": "Point", "coordinates": [-122.2825623, 47.8138733]}}]}