{"type": "FeatureCollection", "features": [{"type": "Feature", "properties": {"id": 1329182012, "name": "Subway", "category": "fast_food", "tags": ["fast-food", "sandwich", "takeaway", "restaurant"], "sources": ["osm", "overture"], "website": "https://www.subway.com", "phone": "12063282352", "address": "806 12th Ave", "hours": "Mo-Fr 07:30-21:30; Sa-Su 10:00-20:00", "stations": [{"stopCode": 49, "lines": "1,2", "name": "Capitol Hill Station", "walkingMeters": 1293, "walkingSeconds": 930, "band": 15}]}, "geometry": {"type": "Point", "coordinates": [-122.3165649, 47.6094924]}}, {"type": "Feature", "properties": {"id": 1313765037, "name": "Starbucks", "category": "cafe", "tags": ["cafe", "coffee-shop", "outdoor-seating", "takeaway", "coffee"], "sources": ["osm", "overture"], "website": "https://www.starbucks.com/store-locator/store/18529/", "phone": "+12063298028", "address": "800 12th Ave", "hours": "Mo-Fr 04:30-22:00; Sa-Su 04:30-20:00", "stations": [{"stopCode": 49, "lines": "1,2", "name": "Capitol Hill Station", "walkingMeters": 1306, "walkingSeconds": 940, "band": 15}]}, "geometry": {"type": "Point", "coordinates": [-122.3165764, 47.6093696]}}, {"type": "Feature", "properties": {"id": "6925a98b-0af5-4fd4-b511-33d521af486e", "name": "Starbucks", "category": "cafe", "tags": ["cafe", "coffee"], "sources": ["overture"], "website": "http://starbucks.com/store-locator/store/20149", "phone": "(206) 728-6581", "address": "1600 E Jefferson St"}, "geometry": {"type": "Point", "coordinates": [-122.3110275, 47.6064835]}}, {"type": "Feature", "properties": {"id": 4238680692, "name": "Carmelo\u2019s Tacos", "category": "fast_food", "tags": ["fast-food", "mexican", "vegetarian", "vegan", "restaurant", "taco", "latin-american"], "sources": ["osm", "overture"], "website": "https://carmelostacos.com", "phone": "+12065380001", "address": "1223 E Cherry St Spc C121A"}, "geometry": {"type": "Point", "coordinates": [-122.3165765, 47.607687]}}, {"type": "Feature", "properties": {"id": 2375220621, "name": "Taco Del Mar", "category": "fast_food", "tags": ["fast-food", "mexican", "takeaway", "vegetarian", "restaurant", "taco", "texmex"], "sources": ["osm", "overture"], "website": "http://www.tacodelmar.com/", "phone": "+12063240079", "address": "816 12th Ave", "stations": [{"stopCode": 49, "lines": "1,2", "name": "Capitol Hill Station", "walkingMeters": 1261, "walkingSeconds": 907, "band": 15}]}, "geometry": {"type": "Point", "coordinates": [-122.3165471, 47.6097785]}}, {"type": "Feature", "properties": {"id": 11423900167, "name": "Seoul Bowl", "category": "fast_food", "tags": ["fast-food", "korean", "outdoor-seating"], "sources": ["osm"], "address": "722 12th Avenue", "hours": "11:00-21:00", "stations": [{"stopCode": 49, "lines": "1,2", "name": "Capitol Hill Station", "walkingMeters": 1369, "walkingSeconds": 985, "band": 15}]}, "geometry": {"type": "Point", "coordinates": [-122.3165568, 47.6087113]}}, {"type": "Feature", "properties": {"id": 1328054593, "name": "Panwa Thai", "category": "fast_food", "tags": ["fast-food", "thai", "takeaway", "vegetarian", "vegan", "air-conditioned", "restaurant", "asian"], "sources": ["osm", "overture"], "website": "http://www.panwathai.com", "phone": "+12063255828", "address": "812 12th Ave", "hours": "11:00-21:00", "stations": [{"stopCode": 49, "lines": "1,2", "name": "Capitol Hill Station", "walkingMeters": 1270, "walkingSeconds": 914, "band": 15}]}, "geometry": {"type": "Point", "coordinates": [-122.31656, 47.6096999]}}, {"type": "Feature", "properties": {"id": "9b7d9aca-5cc3-4716-be63-0dc5b867a283", "name": "Yoshino Teriyaki", "category": "restaurant", "tags": ["restaurant"], "sources": ["overture"], "website": "https://www.yoshino.business", "address": "812 12th Ave", "stations": [{"stopCode": 49, "lines": "1,2", "name": "Capitol Hill Station", "walkingMeters": 1285, "walkingSeconds": 924, "band": 15}]}, "geometry": {"type": "Point", "coordinates": [-122.3164749, 47.6096802]}}, {"type": "Feature", "properties": {"id": "7d94605a-7bc4-43ca-865b-cd6df56af7a7", "name": "Cherry Street Coffee House", "category": "cafe", "tags": ["cafe", "coffee"], "sources": ["overture"], "website": "http://cherryst.com", "phone": "(206) 454-3592", "address": "1223 E Cherry St"}, "geometry": {"type": "Point", "coordinates": [-122.316658, 47.6075401]}}, {"type": "Feature", "properties": {"id": 2375220484, "name": "Byrek + Baguette", "category": "cafe", "tags": ["cafe", "mediterranean", "restaurant"], "sources": ["osm", "overture"], "website": "http://www.byrekandbaguette.com/", "phone": "+12065380758", "address": "732 12th Ave", "hours": "08:00-22:00", "stations": [{"stopCode": 49, "lines": "1,2", "name": "Capitol Hill Station", "walkingMeters": 1343, "walkingSeconds": 967, "band": 15}]}, "geometry": {"type": "Point", "coordinates": [-122.316552, 47.6089415]}}, {"type": "Feature", "properties": {"id": 2375220502, "name": "Plantiful Superfoods", "category": "fast_food", "tags": ["fast-food", "wheelchair-accessible", "vegan"], "sources": ["osm"], "address": "734 12th Avenue", "hours": "Mo-Su 08:00-20:00", "stations": [{"stopCode": 49, "lines": "1,2", "name": "Capitol Hill Station", "walkingMeters": 1334, "walkingSeconds": 961, "band": 15}]}, "geometry": {"type": "Point", "coordinates": [-122.316564, 47.609101]}}, {"type": "Feature", "properties": {"id": 2375220578, "name": "Batch Baking Company", "category": "cafe", "tags": ["cafe", "cookies", "dessert", "outdoor-seating", "bakery"], "sources": ["osm", "overture"], "website": "http://www.batchbakingco.com/", "phone": "+12063229223", "address": "808 12th Ave", "hours": "Mo-Sa 11:00-18:00", "stations": [{"stopCode": 49, "lines": "1,2", "name": "Capitol Hill Station", "walkingMeters": 1288, "walkingSeconds": 926, "band": 15}]}, "geometry": {"type": "Point", "coordinates": [-122.3165667, 47.6095403]}}, {"type": "Feature", "properties": {"id": 2375303472, "name": "Red Lounge", "category": "bar", "tags": ["bar", "jamaican", "restaurant", "caribbean"], "sources": ["osm", "overture"], "website": "https://www.tasteofthecaribbeanseattle.com/", "phone": "+12063239112", "address": "1212 E Jefferson St"}, "geometry": {"type": "Point", "coordinates": [-122.3159671, 47.6064051]}}, {"type": "Feature", "properties": {"id": 2375303480, "name": "Peloton Cafe", "category": "cafe", "tags": ["cafe", "outdoor-seating", "vegetarian", "vegan", "wifi"], "sources": ["osm"], "website": "https://www.pelotonseattle.com/", "phone": "+1-206-569-4265", "address": "1224 East Jefferson Street", "hours": "We-Fr 09:00-20:00; Sa, Su 09:00-14:00"}, "geometry": {"type": "Point", "coordinates": [-122.3156535, 47.6063134]}}, {"type": "Feature", "properties": {"id": 2375318773, "name": "Zobel", "category": "restaurant", "tags": ["restaurant", "ethiopian"], "sources": ["osm"], "website": "http://zobelrestaurant.com", "phone": "+1-206-323-1408", "address": "1219 East Jefferson Street"}, "geometry": {"type": "Point", "coordinates": [-122.3159174, 47.6060688]}}, {"type": "Feature", "properties": {"id": 228868295, "name": "Ba Bar", "category": "restaurant", "tags": ["restaurant", "vietnamese", "outdoor-seating", "takeaway", "wheelchair-accessible", "has-bar", "bar-and-grill", "bar", "grill"], "sources": ["osm", "overture"], "website": "http://babarseattle.com/", "phone": "+12063282030", "address": "550 12th Ave", "hours": "Su-Th 09:00-02:00; Fr-Sa 09:00-04:00"}, "geometry": {"type": "Point", "coordinates": [-122.3165029, 47.6070111]}}, {"type": "Feature", "properties": {"id": 3986999060, "name": "Boon Boona Coffee", "category": "cafe", "tags": ["cafe", "coffee-shop", "outdoor-seating", "coffee"], "sources": ["osm", "overture"], "website": "https://www.boonboonacoffee.com/", "phone": "+12063285829", "address": "1223 East Cherry Street", "hours": "Mo-Su 08:00-17:00"}, "geometry": {"type": "Point", "coordinates": [-122.316576, 47.6075434]}}, {"type": "Feature", "properties": {"id": 4115243592, "name": "Jucivana", "category": "cafe", "tags": ["cafe", "drive-through", "coffee", "bar-and-grill"], "sources": ["osm", "overture"], "website": "http://www.jucivana.com/", "phone": "+12069222296", "address": "110 Boren Ave S"}, "geometry": {"type": "Point", "coordinates": [-122.3172187, 47.601582]}}, {"type": "Feature", "properties": {"id": 4318642396, "name": "Cherry Street Market", "category": "cafe", "tags": ["cafe", "american", "restaurant"], "sources": ["osm", "overture"], "website": "http://cherryst.com", "phone": "+12062966000", "address": "Su Campus Walk", "stations": [{"stopCode": 49, "lines": "1,2", "name": "Capitol Hill Station", "walkingMeters": 1287, "walkingSeconds": 926, "band": 15}]}, "geometry": {"type": "Point", "coordinates": [-122.318281, 47.6083936]}}, {"type": "Feature", "properties": {"id": "bd5a636f-95bb-4bc3-a650-bf88962f0f96", "name": "Malay Satay Hut", "category": "restaurant", "tags": ["restaurant", "malaysian"], "sources": ["overture"], "website": "http://www.malaysatayhut.com/", "phone": "(206) 324-4091", "address": "212 12th Ave S", "stations": [{"stopCode": 53, "lines": "1,2", "name": "International District Station", "walkingMeters": 1072, "walkingSeconds": 770, "band": 15}]}, "geometry": {"type": "Point", "coordinates": [-122.3168335, 47.6004219]}}, {"type": "Feature", "properties": {"id": 5745627836, "name": "Bar Bayonne", "category": "bar", "tags": ["bar", "restaurant", "french"], "sources": ["osm", "overture"], "website": "http://barbayonne.com/", "phone": "+12064837175", "address": "1315 E Jefferson St"}, "geometry": {"type": "Point", "coordinates": [-122.314839, 47.6060679]}}, {"type": "Feature", "properties": {"id": 7005736607, "name": "L'Oursin", "category": "restaurant", "tags": ["restaurant", "french", "european"], "sources": ["osm", "overture"], "website": "http://www.loursinseattle.com/", "phone": "+12064857173", "address": "1315 E Jefferson St", "hours": "17:00-22:00"}, "geometry": {"type": "Point", "coordinates": [-122.3146829, 47.6060679]}}, {"type": "Feature", "properties": {"id": 10281772027, "name": "Jules", "category": "restaurant", "tags": ["restaurant", "asian"], "sources": ["osm"], "address": "227 12th Avenue South", "stations": [{"stopCode": 53, "lines": "1,2", "name": "International District Station", "walkingMeters": 982, "walkingSeconds": 705, "band": 15}]}, "geometry": {"type": "Point", "coordinates": [-122.3174362, 47.60019]}}, {"type": "Feature", "properties": {"id": 12277179421, "name": "Drip Drip Coffeehouse", "category": "cafe", "tags": ["cafe", "coffee-shop", "outdoor-seating", "wifi", "coffee"], "sources": ["osm", "overture"], "website": "http://www.Dripdripcoffeehouse.com/", "phone": "+12064857030", "address": "355 15th Ave", "hours": "Mo-Su 08:00-17:30"}, "geometry": {"type": "Point", "coordinates": [-122.3130772, 47.606026]}}, {"type": "Feature", "properties": {"id": 12424022873, "name": "Viet Express", "category": "restaurant", "tags": ["restaurant", "vietnamese"], "sources": ["osm"], "stations": [{"stopCode": 53, "lines": "1,2", "name": "International District Station", "walkingMeters": 1023, "walkingSeconds": 734, "band": 15}]}, "geometry": {"type": "Point", "coordinates": [-122.3167768, 47.6003177]}}, {"type": "Feature", "properties": {"id": 12784816612, "name": "The Byte Cafe", "category": "cafe", "tags": ["cafe"], "sources": ["osm"], "website": "https://dineoncampus.com/", "address": "901 12th Avenue", "hours": "Tu-Th 07:30-15:00; Fr 07:30-12:30", "stations": [{"stopCode": 49, "lines": "1,2", "name": "Capitol Hill Station", "walkingMeters": 1206, "walkingSeconds": 868, "band": 15}]}, "geometry": {"type": "Point", "coordinates": [-122.3187053, 47.6090139]}}, {"type": "Feature", "properties": {"id": 13728560022, "name": "M\u00ec La Cay", "category": "restaurant", "tags": ["restaurant", "vietnamese"], "sources": ["osm", "overture"], "website": "https://www.milacayseattle.com", "phone": "+12063226840", "address": "212 12th Ave S", "stations": [{"stopCode": 53, "lines": "1,2", "name": "International District Station", "walkingMeters": 1021, "walkingSeconds": 733, "band": 15}]}, "geometry": {"type": "Point", "coordinates": [-122.3168329, 47.6003797]}}, {"type": "Feature", "properties": {"id": 13874140756, "name": "Egg Squared", "category": "cafe", "tags": ["cafe"], "sources": ["osm"]}, "geometry": {"type": "Point", "coordinates": [-122.3157671, 47.6018363]}}, {"type": "Feature", "properties": {"id": 13874577094, "name": "Creative Justice Cafe", "category": "cafe", "tags": ["cafe"], "sources": ["osm"], "hours": "Mo-Fr 07:00-15:00"}, "geometry": {"type": "Point", "coordinates": [-122.314448, 47.6028343]}}, {"type": "Feature", "properties": {"id": 228868276, "name": "Migoto", "category": "restaurant", "tags": ["restaurant", "japanese", "sushi", "outdoor-seating", "takeaway", "delivery", "asian"], "sources": ["osm", "overture"], "website": "https://www.gomigoto.com", "phone": "+12063291112", "address": "514 12th Ave"}, "geometry": {"type": "Point", "coordinates": [-122.3165151, 47.6067257]}}, {"type": "Feature", "properties": {"id": "5dddcf52-c8d6-40d0-a97d-0816ebddc696", "name": "Blue Nile Ethiopian Restaurant", "category": "restaurant", "tags": ["restaurant", "ethiopian", "african"], "sources": ["overture"], "website": "http://bluenilecafe.com", "phone": "+12063208501", "address": "456 12th Ave"}, "geometry": {"type": "Point", "coordinates": [-122.3164902, 47.6057281]}}, {"type": "Feature", "properties": {"id": "79dfd0ef-e526-45db-869f-0f6137a36180", "name": "The Usual", "category": "cafe", "tags": ["cafe", "coffee"], "sources": ["overture"], "website": "https://theusual.squarespace.com", "address": "1414 E Yesler Way"}, "geometry": {"type": "Point", "coordinates": [-122.3134766, 47.6018219]}}, {"type": "Feature", "properties": {"id": "be36cd96-b807-4a92-9ad6-0273b15851a9", "name": "Egg Squared Cafe", "category": "cafe", "tags": ["cafe", "breakfast-and-brunch"], "sources": ["overture"], "address": "104 12th Ave Ste I"}, "geometry": {"type": "Point", "coordinates": [-122.3157272, 47.6018028]}}, {"type": "Feature", "properties": {"id": "6deeb8a5-0bac-4554-bbba-dd7269f33eed", "name": "Banh Cuon Tan Dinh Deli", "category": "restaurant", "tags": ["restaurant"], "sources": ["overture"], "website": "http://banhcuontandinhdeliseattle.24cafes.com", "phone": "+12067269990", "address": "1212 S Main St Ste A", "stations": [{"stopCode": 53, "lines": "1,2", "name": "International District Station", "walkingMeters": 1037, "walkingSeconds": 744, "band": 15}]}, "geometry": {"type": "Point", "coordinates": [-122.3164749, 47.6001701]}}, {"type": "Feature", "properties": {"id": "09e4eadd-aa58-43e7-8eef-bfa800a1e444", "name": "Saba Ethiopian Cuisine", "category": "restaurant", "tags": ["restaurant", "ethiopian"], "sources": ["overture"], "website": "http://sabaethiopiancuisine.com", "phone": "(206) 328-2290", "address": "110 12th Ave"}, "geometry": {"type": "Point", "coordinates": [-122.3167267, 47.6020432]}}, {"type": "Feature", "properties": {"id": "2cbd4024-872e-4623-a9ee-483f155aa59e", "name": "North Shore Hawaiian BBQ", "category": "restaurant", "tags": ["restaurant", "asian"], "sources": ["overture"], "website": "http://northshoreseattle.com/", "phone": "(206) 621-1121", "address": "110 Boren Ave S"}, "geometry": {"type": "Point", "coordinates": [-122.3171387, 47.6014442]}}, {"type": "Feature", "properties": {"id": "31341504-bcab-47fc-9278-99f5472e79c2", "name": "Beck's Bar & Grill", "category": "restaurant", "tags": ["restaurant", "sandwich"], "sources": ["overture"], "website": "http://www.thehoneyhole.com/", "phone": "+12067078280", "address": "1305 E. Jefferson St."}, "geometry": {"type": "Point", "coordinates": [-122.315094, 47.605999]}}, {"type": "Feature", "properties": {"id": "87795903-84c4-44d1-8b14-cad33928151e", "name": "HoneyHole Central District", "category": "restaurant", "tags": ["restaurant", "sandwich"], "sources": ["overture"], "website": "https://thehoneyhole.com", "phone": "(206) 707-8280", "address": "1305 E Jefferson St"}, "geometry": {"type": "Point", "coordinates": [-122.3150711, 47.6059647]}}, {"type": "Feature", "properties": {"id": "c1d89bd0-9c9a-46b8-afc1-656068ef5078", "name": "Central Smoke Bar & Smokery", "category": "bar", "tags": ["bar", "barbecue", "asian"], "sources": ["overture"], "website": "http://centralsmokeseattle.com/", "phone": "2063287090", "address": "1305 E Jefferson St"}, "geometry": {"type": "Point", "coordinates": [-122.3150711, 47.6059685]}}, {"type": "Feature", "properties": {"id": "b19609e9-4876-49bd-9603-250df9507bbe", "name": "Seven Beef", "category": "restaurant", "tags": ["restaurant", "steakhouse"], "sources": ["overture"], "website": "http://www.sevenbeef.com", "phone": "(206) 328-7090", "address": "1305 E Jefferson St"}, "geometry": {"type": "Point", "coordinates": [-122.3150787, 47.6060944]}}, {"type": "Feature", "properties": {"id": "6723a92e-304e-4222-bfb5-198f875f1608", "name": "The Capercaillie", "category": "pub", "tags": ["pub"], "sources": ["overture"], "website": "http://thecapercaillie.com", "phone": "(206) 866-4438", "address": "1315 E Jefferson St"}, "geometry": {"type": "Point", "coordinates": [-122.3147659, 47.605999]}}, {"type": "Feature", "properties": {"id": "8ad70244-09a1-4af3-a8a3-fb5120eaef6d", "name": "Taste of the Caribbean", "category": "restaurant", "tags": ["restaurant", "caribbean", "jamaican"], "sources": ["overture"], "website": "http://www.tasteofthecaribbeanseattle.com/", "phone": "+12063239112", "address": "1212 E Jefferson St"}, "geometry": {"type": "Point", "coordinates": [-122.3159943, 47.6064453]}}, {"type": "Feature", "properties": {"id": "99814cc7-7239-403e-ab5b-29ed9e2ba05e", "name": "Ambassel Ethiopian Cuisine & Bar", "category": "restaurant", "tags": ["restaurant", "ethiopian"], "sources": ["overture"], "website": "http://ambasselethiopianrestaurant.com/", "phone": "(206) 860-7074", "address": "1224 E Jefferson St"}, "geometry": {"type": "Point", "coordinates": [-122.3157349, 47.6063232]}}, {"type": "Feature", "properties": {"id": "375bff95-5c51-4554-9235-a949a31fe273", "name": "Happy Grillmore", "category": "restaurant", "tags": ["restaurant", "burger"], "sources": ["overture"], "website": "https://www.happygrillmoreburgers.com", "phone": "(206) 698-1584", "address": "509 13th Ave"}, "geometry": {"type": "Point", "coordinates": [-122.3156738, 47.606411]}}, {"type": "Feature", "properties": {"id": "a96e608b-14ff-4336-8928-55c623a9d4b2", "name": "Mitten Sweets And Coffee", "category": "bakery", "tags": ["bakery"], "sources": ["overture"], "website": "http://www.mittensweetsandcoffee.com", "phone": "(206) 499-0508", "address": "509 13th Ave"}, "geometry": {"type": "Point", "coordinates": [-122.3156738, 47.606411]}}, {"type": "Feature", "properties": {"id": "74146fa8-10a2-40d5-b347-8b06c0b44802", "name": "Nate's Wings & Waffles", "category": "restaurant", "tags": ["restaurant", "chicken"], "sources": ["overture"], "website": "https://natesww.com", "phone": "(971) 400-2078", "address": "1224 E Jefferson St"}, "geometry": {"type": "Point", "coordinates": [-122.3157959, 47.6062622]}}, {"type": "Feature", "properties": {"id": "bbeb68d8-3134-4c31-aa3b-a7feff9cf181", "name": "Zobel Ethiopian Cuisine", "category": "restaurant", "tags": ["restaurant", "ethiopian", "african"], "sources": ["overture"], "website": "https://grubhub.com/restaurant/Zobel-1219-E-Jefferson-St-Seattle/314171", "phone": "+12063231408", "address": "1219 E Jefferson St"}, "geometry": {"type": "Point", "coordinates": [-122.315979, 47.6061058]}}, {"type": "Feature", "properties": {"id": "aaaa353d-c7ab-442a-8a0c-8c47d4cc1dfa", "name": "Oma Bap", "category": "restaurant", "tags": ["restaurant", "asian", "fusion"], "sources": ["overture"], "website": "http://omabap.com/", "phone": "2065380080", "address": "1223 E Cherry St"}, "geometry": {"type": "Point", "coordinates": [-122.3165207, 47.6077995]}}, {"type": "Feature", "properties": {"id": "b0506135-f54d-4175-a4d3-63cfb9bdbff2", "name": "Mr Saigon Banh Mi", "category": "restaurant", "tags": ["restaurant", "sandwich"], "sources": ["overture"], "website": "https://www.mrsaigonbanhmi.com/", "phone": "2063258700", "address": "734 12th Ave", "stations": [{"stopCode": 49, "lines": "1,2", "name": "Capitol Hill Station", "walkingMeters": 1349, "walkingSeconds": 971, "band": 15}]}, "geometry": {"type": "Point", "coordinates": [-122.3163757, 47.6088867]}}, {"type": "Feature", "properties": {"id": "56c97a6e-2b3b-44b7-8ab3-289f80a4dbfd", "name": "Seoul Bowl Seattle University", "category": "restaurant", "tags": ["restaurant", "korean", "barbecue", "asian"], "sources": ["overture"], "website": "http://Seoulbowlco.com/", "phone": "+12063246303", "address": "722 12th Ave", "stations": [{"stopCode": 49, "lines": "1,2", "name": "Capitol Hill Station", "walkingMeters": 1371, "walkingSeconds": 987, "band": 15}]}, "geometry": {"type": "Point", "coordinates": [-122.3165512, 47.6087074]}}, {"type": "Feature", "properties": {"id": "77d375f1-aea7-45ff-9132-96b0b0378e50", "name": "Niche", "category": "restaurant", "tags": ["restaurant", "gluten-free", "gluten", "free"], "sources": ["overture"], "website": "http://nicheseattle.com", "phone": "(206) 999-2801", "address": "808 12th Ave", "stations": [{"stopCode": 49, "lines": "1,2", "name": "Capitol Hill Station", "walkingMeters": 1285, "walkingSeconds": 924, "band": 15}]}, "geometry": {"type": "Point", "coordinates": [-122.3165283, 47.6095657]}}, {"type": "Feature", "properties": {"id": "1a6d6232-b317-47b5-afc5-f63bef7de3f8", "name": "Plantiful Capitol Hill", "category": "restaurant", "tags": ["restaurant", "vegetarian", "health-food"], "sources": ["overture"], "website": "http://plantiful.us/", "phone": "+12068296868", "address": "734 12th Ave", "stations": [{"stopCode": 49, "lines": "1,2", "name": "Capitol Hill Station", "walkingMeters": 1337, "walkingSeconds": 963, "band": 15}]}, "geometry": {"type": "Point", "coordinates": [-122.3165283, 47.6090889]}}, {"type": "Feature", "properties": {"id": "8e86df65-9713-4e27-b4fa-036ec9da864b", "name": "MotMot Coffee", "category": "cafe", "tags": ["cafe", "coffee"], "sources": ["overture"], "website": "https://motmotcoffee.com/", "phone": "+14259027190", "stations": [{"stopCode": 49, "lines": "1,2", "name": "Capitol Hill Station", "walkingMeters": 1414, "walkingSeconds": 1055, "band": 15}]}, "geometry": {"type": "Point", "coordinates": [-122.3184738, 47.6093445]}}, {"type": "Feature", "properties": {"id": 4031902189, "name": "Loo Wit", "category": "artwork", "tags": ["artwork"], "sources": ["osm"], "stations": [{"stopCode": 49, "lines": "1,2", "name": "Capitol Hill Station", "walkingMeters": 1279, "walkingSeconds": 921, "band": 15}]}, "geometry": {"type": "Point", "coordinates": [-122.3180785, 47.6086668]}}, {"type": "Feature", "properties": {"id": 4238241210, "name": "\"Untitled\" Joel Shapiro", "category": "artwork", "tags": ["artwork"], "sources": ["osm"], "stations": [{"stopCode": 49, "lines": "1,2", "name": "Capitol Hill Station", "walkingMeters": 1249, "walkingSeconds": 899, "band": 15}]}, "geometry": {"type": "Point", "coordinates": [-122.318227, 47.608969]}}, {"type": "Feature", "properties": {"id": 4238317689, "name": "Justice (Just Ice)", "category": "artwork", "tags": ["artwork"], "sources": ["osm"], "stations": [{"stopCode": 49, "lines": "1,2", "name": "Capitol Hill Station", "walkingMeters": 1350, "walkingSeconds": 972, "band": 15}]}, "geometry": {"type": "Point", "coordinates": [-122.318765, 47.608543]}}, {"type": "Feature", "properties": {"id": 4239833986, "name": "Water Wall", "category": "artwork", "tags": ["artwork"], "sources": ["osm"], "stations": [{"stopCode": 49, "lines": "1,2", "name": "Capitol Hill Station", "walkingMeters": 1241, "walkingSeconds": 894, "band": 15}]}, "geometry": {"type": "Point", "coordinates": [-122.3184595, 47.6090375]}}, {"type": "Feature", "properties": {"id": 4343694775, "name": "Cloud Veil", "category": "artwork", "tags": ["artwork"], "sources": ["osm"]}, "geometry": {"type": "Point", "coordinates": [-122.3164867, 47.6072639]}}, {"type": "Feature", "properties": {"id": 7298235289, "name": "Shinran Shonin Statue", "category": "artwork", "tags": ["artwork"], "sources": ["osm"]}, "geometry": {"type": "Point", "coordinates": [-122.3130738, 47.6001768]}}, {"type": "Feature", "properties": {"id": 13756473405, "name": "Labyrinth", "category": "artwork", "tags": ["artwork"], "sources": ["osm"], "stations": [{"stopCode": 49, "lines": "1,2", "name": "Capitol Hill Station", "walkingMeters": 1128, "walkingSeconds": 812, "band": 15}]}, "geometry": {"type": "Point", "coordinates": [-122.3198861, 47.6096734]}}, {"type": "Feature", "properties": {"id": "b06e7af7-ab14-4f81-a078-e852bd068ba7", "name": "Wisteria View Manor", "category": "attraction", "tags": ["attraction", "landmark", "historical", "building"], "sources": ["overture"], "website": "http://www.wisteriaview.org/", "phone": "+12063259810", "address": "Wisteria View Manor, 1400 South Main St"}, "geometry": {"type": "Point", "coordinates": [-122.3136368, 47.600399]}}, {"type": "Feature", "properties": {"id": "12ed96a5-e797-4609-ad2a-7831e37c6359", "name": "Anthem on 12th", "category": "attraction", "tags": ["attraction", "landmark", "historical", "building"], "sources": ["overture"], "website": "http://www.AnthemOn12.com/", "phone": "+18559710187", "address": "103 12th Ave"}, "geometry": {"type": "Point", "coordinates": [-122.3169022, 47.6020012]}}, {"type": "Feature", "properties": {"id": "67a75e76-48ef-4677-8fa5-d3ef8cf1f76c", "name": "Emerson Seattle", "category": "attraction", "tags": ["attraction", "landmark", "historical", "building"], "sources": ["overture"], "website": "https://emersonseattle.com/?utm_knock=sm", "phone": "+12069443294", "address": "125 Boren Ave S"}, "geometry": {"type": "Point", "coordinates": [-122.3178406, 47.6012802]}}, {"type": "Feature", "properties": {"id": "63c7a508-b108-4ab6-bd64-53a522f63e74", "name": "Mason & Main", "category": "attraction", "tags": ["attraction", "landmark", "historical", "building"], "sources": ["overture"], "website": "https://www.masonandmainapartments.com/", "phone": "+18665153966", "address": "209 12th Ave S", "stations": [{"stopCode": 53, "lines": "1,2", "name": "International District Station", "walkingMeters": 1011, "walkingSeconds": 726, "band": 15}]}, "geometry": {"type": "Point", "coordinates": [-122.3178177, 47.6004524]}}, {"type": "Feature", "properties": {"id": "179eb6fe-124c-4290-aeae-55f587fca788", "name": "Alder Flats", "category": "attraction", "tags": ["attraction", "landmark", "historical", "building"], "sources": ["overture"], "website": "http://thealderflats.com/", "phone": "+18556604810", "address": "220 10th Ave"}, "geometry": {"type": "Point", "coordinates": [-122.3191681, 47.6041679]}}, {"type": "Feature", "properties": {"id": "d5ad5be9-c39b-4d80-840e-a7a450e126a2", "name": "Alcove First Hill", "category": "attraction", "tags": ["attraction", "landmark", "historical", "building"], "sources": ["overture"], "phone": "+14254848822", "address": "220 10th Ave"}, "geometry": {"type": "Point", "coordinates": [-122.3190384, 47.6042137]}}, {"type": "Feature", "properties": {"id": "baa2a6b9-6c5a-4407-8fc8-341388e41714", "name": "Vantage Park Apartments", "category": "attraction", "tags": ["attraction", "landmark", "historical", "building"], "sources": ["overture"], "website": "https://vantagepark.securityproperties.com/", "phone": "+12067372496", "address": "1011 E Terrace St"}, "geometry": {"type": "Point", "coordinates": [-122.3184204, 47.6050949]}}, {"type": "Feature", "properties": {"id": "63e4d6cd-4984-43c4-b5a2-daa8ca6c4167", "name": "Epic Condominiums", "category": "attraction", "tags": ["attraction", "landmark", "historical", "building"], "sources": ["overture"], "website": "http://www.seattlecondo.com/property/701653/", "phone": "+12063246210", "address": "412 11th Ave"}, "geometry": {"type": "Point", "coordinates": [-122.3179016, 47.6057892]}}, {"type": "Feature", "properties": {"id": "a20ee012-4eed-47b1-9208-f9824d86a35e", "name": "Reverb Apartments", "category": "attraction", "tags": ["attraction", "landmark", "historical", "building"], "sources": ["overture"], "website": "http://reverb11.com/", "phone": "+15642148804", "address": "1023 E Alder St"}, "geometry": {"type": "Point", "coordinates": [-122.3183823, 47.6042709]}}, {"type": "Feature", "properties": {"id": "e6ee5f81-3e1b-429d-9706-8102c587b926", "name": "Pointe At First Hill", "category": "attraction", "tags": ["attraction", "landmark", "historical", "building"], "sources": ["overture"], "phone": "+12066246433", "address": "300 10th Ave"}, "geometry": {"type": "Point", "coordinates": [-122.3188477, 47.6047897]}}, {"type": "Feature", "properties": {"id": "8d9073aa-73f0-4a40-8982-407b124346d0", "name": "Abbottsford Apartments", "category": "attraction", "tags": ["attraction", "landmark", "historical", "building"], "sources": ["overture"], "website": "https://www.pacificcrestre.com/listings/detail/1629b026-f5c7-45fa-a178-00f564e2c552", "phone": "+14256061688", "address": "151 11th Ave"}, "geometry": {"type": "Point", "coordinates": [-122.3182983, 47.6028175]}}, {"type": "Feature", "properties": {"id": "0e03b43b-21b0-4098-b5b2-ed432bd09bf0", "name": "Tapestry", "category": "attraction", "tags": ["attraction", "landmark", "historical", "building"], "sources": ["overture"], "website": "https://www.instagram.com/tapestryseattle/", "phone": "+12067370946", "address": "104 12th Ave S"}, "geometry": {"type": "Point", "coordinates": [-122.3165512, 47.602562]}}, {"type": "Feature", "properties": {"id": "a26471d4-d3d2-4751-b4da-7d74bfd38c3c", "name": "Decibel on 12th", "category": "attraction", "tags": ["attraction", "landmark", "historical", "building"], "sources": ["overture"], "website": "https://thesocialdm.co/decibel", "phone": "+15642323106", "address": "301 12th Ave"}, "geometry": {"type": "Point", "coordinates": [-122.3168945, 47.6045227]}}, {"type": "Feature", "properties": {"id": "6d4c49c6-3c8a-4b33-b1c4-f1f94f5885f8", "name": "13th and Fir", "category": "attraction", "tags": ["attraction", "landmark", "historical", "building"], "sources": ["overture"], "website": "https://www.13fir.com/", "phone": "+12065847723", "address": "115 13th Ave"}, "geometry": {"type": "Point", "coordinates": [-122.3151627, 47.6021881]}}, {"type": "Feature", "properties": {"id": "de5d77fb-32cb-4248-be58-2a36742b13b6", "name": "The Baldwin", "category": "attraction", "tags": ["attraction", "landmark", "historical", "building"], "sources": ["overture"], "phone": "+12066231089", "address": "1305 E Fir St"}, "geometry": {"type": "Point", "coordinates": [-122.3147659, 47.6024818]}}, {"type": "Feature", "properties": {"id": "62c91413-121c-4799-8d65-7df73ec90fd5", "name": "206 Zulu", "category": "gallery", "tags": ["gallery", "art"], "sources": ["overture"], "website": "https://206zulu.org", "phone": "12063221151", "address": "153 14th Ave"}, "geometry": {"type": "Point", "coordinates": [-122.3145294, 47.6028404]}}, {"type": "Feature", "properties": {"id": "78bab568-a7a8-4ba7-8278-071f8177ef36", "name": "Craft Apartments", "category": "attraction", "tags": ["attraction", "landmark", "historical", "building"], "sources": ["overture"], "website": "http://www.craftapartments.com/", "phone": "+12064549038", "address": "1315 E Jefferson St"}, "geometry": {"type": "Point", "coordinates": [-122.3147812, 47.6060333]}}, {"type": "Feature", "properties": {"id": "a7612dbc-6513-421b-aa02-609c6a0b0771", "name": "The Douglas", "category": "attraction", "tags": ["attraction", "landmark", "historical", "building"], "sources": ["overture"], "website": "https://www.thedouglasatseattleu.com/?switch_cls%5Bid%5D=69313&utm_source=businessprofile&utm_medium=search&utm_campaign=general", "phone": "+12068603024", "address": "1223 E Cherry St"}, "geometry": {"type": "Point", "coordinates": [-122.3161163, 47.6079636]}}, {"type": "Feature", "properties": {"id": "c06a059a-4940-4f10-90c5-2c83752571cb", "name": "Rianna Apartments", "category": "attraction", "tags": ["attraction", "landmark", "historical", "building"], "sources": ["overture"], "website": "http://www.equityapartments.com/seattle/capitol-hill/rianna-apartments", "phone": "+12063237000", "address": "810 12th Ave", "stations": [{"stopCode": 49, "lines": "1,2", "name": "Capitol Hill Station", "walkingMeters": 1273, "walkingSeconds": 916, "band": 15}]}, "geometry": {"type": "Point", "coordinates": [-122.3166428, 47.6096725]}}, {"type": "Feature", "properties": {"id": "342f6de5-a89c-4c8b-b55f-e0c9b1c518b4", "name": "Pipsqueak Gallery", "category": "gallery", "tags": ["gallery", "art"], "sources": ["overture"], "address": "173 16th Ave"}, "geometry": {"type": "Point", "coordinates": [-122.3114166, 47.6034241]}}, {"type": "Feature", "properties": {"id": "3983c038-4d96-4e60-826b-dd8e1e8f5a94", "name": "Midori Condominiums", "category": "attraction", "tags": ["attraction", "landmark", "historical", "building"], "sources": ["overture"], "address": "1515 E Yesler Wy"}, "geometry": {"type": "Point", "coordinates": [-122.3121948, 47.6015892]}}, {"type": "Feature", "properties": {"id": 25807525, "name": "Wisteria Park", "category": "park", "tags": ["park"], "sources": ["osm", "overture"], "address": "1430 South Main St"}, "geometry": {"type": "Point", "coordinates": [-122.3124087, 47.6004448]}}, {"type": "Feature", "properties": {"id": 118121998, "name": "Seattle University Park", "category": "park", "tags": ["park"], "sources": ["osm", "overture"], "address": "Seattle University, 901 12th Ave"}, "geometry": {"type": "Point", "coordinates": [-122.3174645, 47.6071287]}}, {"type": "Feature", "properties": {"id": 426372578, "name": "James \"Cisco\" Morris Biodiversity Garden", "category": "garden", "tags": ["garden"], "sources": ["osm"], "stations": [{"stopCode": 49, "lines": "1,2", "name": "Capitol Hill Station", "walkingMeters": 1113, "walkingSeconds": 802, "band": 15}]}, "geometry": {"type": "Point", "coordinates": [-122.3197752, 47.6097956]}}, {"type": "Feature", "properties": {"id": 1036639868, "name": "12th Ave Square Park", "category": "park", "tags": ["park"], "sources": ["osm"], "website": "https://www.seattle.gov/parks/find/parks/12th-ave-square-park", "address": "564 12th Avenue", "hours": "Mo-Su 04:00-23:30"}, "geometry": {"type": "Point", "coordinates": [-122.3164525, 47.607275]}}, {"type": "Feature", "properties": {"id": "daf53d34-1339-4e4d-8cfc-ba0f70672975", "name": "Japanese Tea Garden", "category": "park", "tags": ["park"], "sources": ["overture"], "website": "http://www.seattleu.edu/grounds/gardens/ethnobotanical/", "phone": "+12062966000", "address": "11th Ave"}, "geometry": {"type": "Point", "coordinates": [-122.3192062, 47.6070175]}}, {"type": "Feature", "properties": {"id": "6c46d4b1-edd7-4707-95ba-1b2ffb3e6ae7", "name": "Lake Washington Blvd / Seward Park", "category": "park", "tags": ["park"], "sources": ["overture"], "stations": [{"stopCode": 49, "lines": "1,2", "name": "Capitol Hill Station", "walkingMeters": 1445, "walkingSeconds": 1078, "band": 15}]}, "geometry": {"type": "Point", "coordinates": [-122.317276, 47.6092606]}}, {"type": "Feature", "properties": {"id": 10723871204, "name": "The Art Inn", "category": "hotel", "tags": ["hotel", "wifi"], "sources": ["osm"], "phone": "+1-206-775-8799", "address": "1225 East Jefferson Street"}, "geometry": {"type": "Point", "coordinates": [-122.3156718, 47.6060457]}}, {"type": "Feature", "properties": {"id": "93939476-d21f-45f1-a22b-56f9ce3943bd", "name": "The ART INN Seattle", "category": "guest_house", "tags": ["guest-house", "inn"], "sources": ["overture"], "website": "https://theartinn.com/locations/seattle/", "phone": "+12067758799", "address": "1225 E Jefferson St"}, "geometry": {"type": "Point", "coordinates": [-122.3157043, 47.6061096]}}, {"type": "Feature", "properties": {"id": "9c0e0761-3e12-415b-9774-7cc2d66411fd", "name": "The Inn at Cherry Hill", "category": "hotel", "tags": ["hotel"], "sources": ["overture"], "website": "http://www.swedish.org", "phone": "+12063202164", "address": "500 17th Ave"}, "geometry": {"type": "Point", "coordinates": [-122.3102112, 47.6076508]}}, {"type": "Feature", "properties": {"id": 228858879, "name": "Circle K", "category": "convenience", "tags": ["convenience"], "sources": ["osm", "overture"], "website": "https://www.circlek.com/", "phone": "+12063291006", "address": "700 12th Ave"}, "geometry": {"type": "Point", "coordinates": [-122.3162645, 47.6083366]}}, {"type": "Feature", "properties": {"id": 2375303474, "name": "Peloton Cafe & Bike Shop", "category": "bicycle", "tags": ["bicycle", "cafe", "american"], "sources": ["osm", "overture"], "website": "http://www.pelotonseattle.com/", "phone": "+12065694265", "address": "1224 E Jefferson St", "hours": "Sa-Mo 09:00-14:00; Tu-Fr 09:00-21:00"}, "geometry": {"type": "Point", "coordinates": [-122.31575, 47.6063169]}}, {"type": "Feature", "properties": {"id": 2375307053, "name": "Providence Market", "category": "convenience", "tags": ["convenience"], "sources": ["osm", "overture"], "phone": "12063952106", "address": "1625 E Jefferson St"}, "geometry": {"type": "Point", "coordinates": [-122.310417, 47.6060369]}}, {"type": "Feature", "properties": {"id": 13568159715, "name": "Yellow Bee Market & Caf\u00e9", "category": "convenience", "tags": ["convenience", "outdoor-seating"], "sources": ["osm"], "address": "922 East Yesler Way", "stations": [{"stopCode": 52, "lines": "1,2", "name": "Pioneer Square Station", "walkingMeters": 955, "walkingSeconds": 688, "band": 15}]}, "geometry": {"type": "Point", "coordinates": [-122.3198538, 47.6019418]}}, {"type": "Feature", "properties": {"id": 13874541871, "name": "Capitol International Market Wine & Beer", "category": "convenience", "tags": ["convenience"], "sources": ["osm"]}, "geometry": {"type": "Point", "coordinates": [-122.3171619, 47.6040059]}}, {"type": "Feature", "properties": {"id": 13874587408, "name": "Capitol International Market", "category": "convenience", "tags": ["convenience"], "sources": ["osm"]}, "geometry": {"type": "Point", "coordinates": [-122.3169726, 47.6028105]}}, {"type": "Feature", "properties": {"id": 228885720, "name": "Food Market", "category": "convenience", "tags": ["convenience"], "sources": ["osm"], "address": "427 12th Avenue", "hours": "24/7"}, "geometry": {"type": "Point", "coordinates": [-122.3172716, 47.6059238]}}, {"type": "Feature", "properties": {"id": "ac042c16-4d43-42b3-ac31-0868ee9814c5", "name": "Ngoc Tri Jewelry", "category": "jewelry", "tags": ["jewelry"], "sources": ["overture"], "website": "http://nhokgen198.wixsite.com/webpage/ngoc-tri-jewelry-store", "phone": "+12068605844", "address": "206 12th Ave S", "stations": [{"stopCode": 53, "lines": "1,2", "name": "International District Station", "walkingMeters": 1132, "walkingSeconds": 845, "band": 15}]}, "geometry": {"type": "Point", "coordinates": [-122.3167343, 47.6002731]}}, {"type": "Feature", "properties": {"id": "d8415543-0e68-47f9-a333-0111f4a0547e", "name": "The Stemmery", "category": "florist", "tags": ["florist"], "sources": ["overture"], "website": "http://www.thestemmery.com", "phone": "(206) 588-6770", "address": "103 12th Ave Apt 215"}, "geometry": {"type": "Point", "coordinates": [-122.3170166, 47.6018143]}}, {"type": "Feature", "properties": {"id": "b8491cae-f4b8-40cc-9a76-3362abee81ba", "name": "Yellow Bee", "category": "supermarket", "tags": ["supermarket", "vietnamese"], "sources": ["overture"], "website": "http://shopyellowbee.com/", "phone": "+12065380839", "address": "922 E Yesler Wy", "stations": [{"stopCode": 52, "lines": "1,2", "name": "Pioneer Square Station", "walkingMeters": 1114, "walkingSeconds": 831, "band": 15}]}, "geometry": {"type": "Point", "coordinates": [-122.3198395, 47.6018257]}}, {"type": "Feature", "properties": {"id": "d86b2e76-cce4-4b53-95ee-c09612edf343", "name": "Southsea Grocery", "category": "convenience", "tags": ["convenience"], "sources": ["overture"], "phone": "12066248371", "address": "917 E Jefferson St"}, "geometry": {"type": "Point", "coordinates": [-122.3199692, 47.6060295]}}, {"type": "Feature", "properties": {"id": "3ad4f9f3-9b4b-4b6f-a5e6-4f157af75811", "name": "Williams Flower & Gift - Capitol Hill Florist", "category": "florist", "tags": ["florist"], "sources": ["overture"], "website": "https://www.williamsflowers.com", "phone": "+18004587430", "address": "1125 12th Ave Ste 2"}, "geometry": {"type": "Point", "coordinates": [-122.3170471, 47.6023064]}}, {"type": "Feature", "properties": {"id": "56b9e0ea-b7f1-40cc-a897-ae189b2d9847", "name": "Lemon Grass Restaurant", "category": "deli", "tags": ["deli", "delicatessen"], "sources": ["overture"], "website": "http://www.originallemongrass.com", "phone": "(206) 860-8164", "address": "514 12th Ave"}, "geometry": {"type": "Point", "coordinates": [-122.3165741, 47.6067123]}}, {"type": "Feature", "properties": {"id": "cbd27e0f-f2a4-4ebd-bcec-6a2440803ffe", "name": "Seattle University Bookstore", "category": "books", "tags": ["books"], "sources": ["overture"], "website": "https://www.seattleu.edu/campus-store", "phone": "+12062965821", "address": "823 12th Ave", "stations": [{"stopCode": 49, "lines": "1,2", "name": "Capitol Hill Station", "walkingMeters": 1178, "walkingSeconds": 848, "band": 15}]}, "geometry": {"type": "Point", "coordinates": [-122.317421, 47.6098099]}}, {"type": "Feature", "properties": {"id": "617cdc3e-2726-43b1-96f7-c43403d85d14", "name": "Tazs Jewelry Creations", "category": "jewelry", "tags": ["jewelry"], "sources": ["overture"], "website": "www.tazsjewelrycreations.com", "phone": "3608880299", "address": "555 16th Ave"}, "geometry": {"type": "Point", "coordinates": [-122.3119354, 47.6076088]}}, {"type": "Feature", "properties": {"id": 2375303497, "name": "MTI Physical Therapy", "category": "clinic", "tags": ["clinic"], "sources": ["osm"], "website": "https://mtipt.com/", "address": "506 12th Avenue"}, "geometry": {"type": "Point", "coordinates": [-122.3164883, 47.6064792]}}, {"type": "Feature", "properties": {"id": 1066764914, "name": "Swedish Medical Center Cherry Hill Campus", "category": "hospital", "tags": ["hospital", "emergency"], "sources": ["osm"], "website": "http://www.swedish.org/locations/cherry-hill-campus", "phone": "+1-206-320-2000", "address": "500 17th Avenue", "hours": "24/7"}, "geometry": {"type": "Point", "coordinates": [-122.310904, 47.6071124]}}, {"type": "Feature", "properties": {"id": "665dcdbf-a5ed-469f-84d0-0aa493535535", "name": "Center For Multicultural Health", "category": "clinic", "tags": ["clinic", "medical"], "sources": ["overture"], "website": "http://www.multi-culturalhealth.org", "phone": "+12064616910", "address": "1120 E Terrace St"}, "geometry": {"type": "Point", "coordinates": [-122.3170166, 47.6052856]}}, {"type": "Feature", "properties": {"id": "11a74fd1-67d4-48cf-aae5-7cee3774e803", "name": "Swedish Cherry Hill 3 East Telemetry", "category": "hospital", "tags": ["hospital"], "sources": ["overture"], "website": "http://swedish.org", "address": "1700 Jefferson"}, "geometry": {"type": "Point", "coordinates": [-122.3144836, 47.6079865]}}, {"type": "Feature", "properties": {"id": "ddf3030b-35d9-4aa5-9a1e-456503271f1d", "name": "Swedish Cardiovascular Wellness", "category": "clinic", "tags": ["clinic", "medical"], "sources": ["overture"], "website": "https://www.swedish.org/locations/cherry-hill-campus/cardiovascular-wellness", "phone": "+12063203320", "address": "550 17th Ave #100"}, "geometry": {"type": "Point", "coordinates": [-122.3101349, 47.6076469]}}, {"type": "Feature", "properties": {"id": "12acf0e2-6562-48e5-8614-677479387dc6", "name": "Swedish Epilepsy Center", "category": "hospital", "tags": ["hospital"], "sources": ["overture"], "website": "https://www.swedish.org/locations/cherry-hill-campus/epilepsy-center?Is=location&y_source=1_OTU3Njg5Ni03MTUtbG9jYXRpb24ud2Vic2l0ZQ==", "phone": "2063203492", "address": "550 17th Ave Ste 540"}, "geometry": {"type": "Point", "coordinates": [-122.3102646, 47.6069107]}}, {"type": "Feature", "properties": {"id": "9fadea93-b09c-4c70-bcbc-9f35f74b7d1d", "name": "Swedish Deep Brain Stimulation - Seattle", "category": "clinic", "tags": ["clinic", "medical"], "sources": ["overture"], "website": "https://www.swedish.org/services/neuroscience-institute/our-services/deep-brain-stimulation", "phone": "2063202847", "address": "550 17th Ave Ste 540"}, "geometry": {"type": "Point", "coordinates": [-122.3102646, 47.6069107]}}, {"type": "Feature", "properties": {"id": "92d0db04-5557-4539-b2b5-f2d3eb69761b", "name": "Swedish Cerebrovascular Center - Seattle", "category": "hospital", "tags": ["hospital"], "sources": ["overture"], "website": "https://www.swedish.org/locations/cherry-hill-campus/cerebrovascular-center?Is=location&y_source=1_OTU3NjkwMi00ODMtbG9jYXRpb24ud2Vic2l0ZQ%3D%3D", "phone": "2063203470", "address": "550 17th Ave Ste 110"}, "geometry": {"type": "Point", "coordinates": [-122.3102646, 47.6069107]}}, {"type": "Feature", "properties": {"id": "ed81e73c-794c-4cf1-89f4-969cf72b93d4", "name": "Swedish Blood Management - Cherry Hill", "category": "clinic", "tags": ["clinic", "medical"], "sources": ["overture"], "website": "https://www.swedish.org/locations/blood-management?Is=location&y_source=1_OTU3Njg1My03MTUtbG9jYXRpb24ud2Vic2l0ZQ==", "phone": "2063202000", "address": "500 17th Ave # 120"}, "geometry": {"type": "Point", "coordinates": [-122.3103027, 47.6069031]}}, {"type": "Feature", "properties": {"id": "438627d8-b847-4a42-a72b-39833eb8f05f", "name": "Swedish Anticoagulation Clinic - Cherry Hill", "category": "clinic", "tags": ["clinic", "medical"], "sources": ["overture"], "website": "https://www.swedish.org/locations/cherry-hill-campus/anticoagulation-clinic?Is=location&y_source=1_OTU3Njg1NS03MTUtbG9jYXRpb24ud2Vic2l0ZQ==", "phone": "2063202848", "address": "500 17th Ave, Room 139W"}, "geometry": {"type": "Point", "coordinates": [-122.3103027, 47.6069031]}}, {"type": "Feature", "properties": {"id": "3f940f82-c2bf-46c9-b295-f9f79c50e0db", "name": "Swedish John L. Locke Jr. Advanced Cardiac Support Program", "category": "clinic", "tags": ["clinic", "medical"], "sources": ["overture"], "website": "https://www.swedish.org/locations/cherry-hill-campus/center-for-advanced-cardiac-support?Is=location&y_source=1_OTU3NjgyOC03MTUtbG9jYXRpb24ud2Vic2l0ZQ==", "phone": "2063202982", "address": "1600 E Jefferson St Ste 600"}, "geometry": {"type": "Point", "coordinates": [-122.3110046, 47.6061707]}}, {"type": "Feature", "properties": {"id": "7d75c2a5-e27b-4737-a577-ec9fdeea3505", "name": "Swedish Cherry Hill-Jefferson Tower", "category": "hospital", "tags": ["hospital"], "sources": ["overture"], "website": "http://www.swedish.org", "phone": "+12063202000", "address": "1600 E Jefferson St"}, "geometry": {"type": "Point", "coordinates": [-122.3111267, 47.6064301]}}, {"type": "Feature", "properties": {"id": "6fae1492-1b1a-4ad6-9a1d-adcc8e4e4cc5", "name": "Swedish Multiple Sclerosis Center", "category": "clinic", "tags": ["clinic", "medical"], "sources": ["overture"], "website": "http://www.swedish.org/services/neuroscience-institute/neuroscience-services/multiple-sclerosis#axzz2j30he3kk", "phone": "+12063202200", "address": "1600 E Jefferson St A Level"}, "geometry": {"type": "Point", "coordinates": [-122.3112259, 47.6064796]}}, {"type": "Feature", "properties": {"id": "6b869d3d-95c4-428b-b774-908981dbdbab", "name": "Providence Medical Center Office", "category": "hospital", "tags": ["hospital"], "sources": ["overture"], "website": "https://washington.providence.org/contact-us", "phone": "+12063254464", "address": "1600 E Jefferson St Ste 101"}, "geometry": {"type": "Point", "coordinates": [-122.3110352, 47.6065025]}}, {"type": "Feature", "properties": {"id": "168ee6f5-714e-413e-9f0b-ddc9efc5ec47", "name": "Swedish Breast Center - Comprehensive Breast Center", "category": "clinic", "tags": ["clinic", "medical"], "sources": ["overture"], "website": "http://www.swedish.org/breasthealth", "phone": "2063204880", "address": "1600 E Jefferson St Ste 300"}, "geometry": {"type": "Point", "coordinates": [-122.311058, 47.6064758]}}, {"type": "Feature", "properties": {"id": "75ef7eae-a9eb-4dc3-834b-6f62c6987319", "name": "Swedish Cherry Hill 4 East Telemetry", "category": "hospital", "tags": ["hospital"], "sources": ["overture"], "website": "http://swedish.org", "address": "550 17th Ave"}, "geometry": {"type": "Point", "coordinates": [-122.310524, 47.6066551]}}, {"type": "Feature", "properties": {"id": "82e56c65-56b1-4d37-99d6-8b0f48d0c9e2", "name": "Swedish Hospital Cherry Hill Campus", "category": "hospital", "tags": ["hospital"], "sources": ["overture"], "website": "https://www.swedish.org/locations/cherry-hill-campus?Is=location&y_source=1_OTU3Njg1OC00NDAtbG9jYXRpb24ud2Vic2l0ZQ==", "phone": "+12063202000", "address": "500 17th Ave"}, "geometry": {"type": "Point", "coordinates": [-122.3105698, 47.607193]}}, {"type": "Feature", "properties": {"id": "8eac5aef-46f0-4bf6-ba6b-bd22fa2b3f8c", "name": "Swedish Cherry Hill CVICU", "category": "hospital", "tags": ["hospital"], "sources": ["overture"], "website": "http://www.swedish.org", "phone": "(206) 320-3278", "address": "500 17th Ave"}, "geometry": {"type": "Point", "coordinates": [-122.3105621, 47.6073837]}}, {"type": "Feature", "properties": {"id": "f1d6c5a8-94c5-4aa7-8720-3002811fdd83", "name": "After-Hours Clinic", "category": "clinic", "tags": ["clinic", "medical"], "sources": ["overture"], "website": "https://cdchc.org/clinic/after-hours-clinic", "phone": "(206) 320-5556", "address": "550 16th Ave"}, "geometry": {"type": "Point", "coordinates": [-122.3113174, 47.6074448]}}, {"type": "Feature", "properties": {"id": "9b96e903-f10f-454f-9de4-72d7ba526a95", "name": "Swedish Wound Healing Center", "category": "clinic", "tags": ["clinic", "medical"], "sources": ["overture"], "website": "https://www.swedish.org/locations/cherry-hill-campus/wound-healing-center?Is=location&y_source=1_OTU3Njg4Mi03MTUtbG9jYXRpb24ud2Vic2l0ZQ==", "phone": "2063202492", "address": "540 16th Ave"}, "geometry": {"type": "Point", "coordinates": [-122.311554, 47.607338]}}, {"type": "Feature", "properties": {"id": "5f63b44f-32e9-49bf-b37d-20ccce737a5d", "name": "Swedish Cherry Hill Pharmacy", "category": "pharmacy", "tags": ["pharmacy"], "sources": ["overture"], "website": "http://www.swedish.org", "phone": "(206) 320-2699", "address": "550 17th Ave #180"}, "geometry": {"type": "Point", "coordinates": [-122.3119049, 47.6053123]}}, {"type": "Feature", "properties": {"id": "a751b6ef-422a-4322-a84d-bed995f0e711", "name": "Seattle Keiro", "category": "hospital", "tags": ["hospital"], "sources": ["overture"], "website": "http://www.keironorthwest.org", "phone": "(206) 323-7100", "address": "1601 E Yesler Way"}, "geometry": {"type": "Point", "coordinates": [-122.3107452, 47.6013031]}}, {"type": "Feature", "properties": {"id": 118121856, "name": "Lemieux Library & McGoldrick Learning Commons", "category": "library", "tags": ["library"], "sources": ["osm"], "address": "725 11th Avenue", "stations": [{"stopCode": 49, "lines": "1,2", "name": "Capitol Hill Station", "walkingMeters": 1208, "walkingSeconds": 870, "band": 15}]}, "geometry": {"type": "Point", "coordinates": [-122.3188571, 47.6088328]}}, {"type": "Feature", "properties": {"id": "64d2f73f-f6cd-4d47-9f33-b8b353aa32f4", "name": "U.S. Bank ATM", "category": "bank", "tags": ["bank", "credit", "union"], "sources": ["overture"], "website": "https://locations.usbank.com/index/washington/seattle.html", "phone": "8008722657", "address": "1000 E James Way", "stations": [{"stopCode": 49, "lines": "1,2", "name": "Capitol Hill Station", "walkingMeters": 1556, "walkingSeconds": 1161, "band": 15}]}, "geometry": {"type": "Point", "coordinates": [-122.3182983, 47.6083755]}}, {"type": "Feature", "properties": {"id": "132aebfc-7d88-495c-86c3-8d52a8bfa580", "name": "Lemieux Library and McGoldrick Learning Commons", "category": "library", "tags": ["library"], "sources": ["overture"], "website": "http://www.seattleu.edu/library", "phone": "+12062966210", "address": "901 12th Ave", "stations": [{"stopCode": 49, "lines": "1,2", "name": "Capitol Hill Station", "walkingMeters": 1481, "walkingSeconds": 1105, "band": 15}]}, "geometry": {"type": "Point", "coordinates": [-122.3188629, 47.6088562]}}, {"type": "Feature", "properties": {"id": 2375303465, "name": "Arcaro Boxing", "category": "sports_centre", "tags": ["sports-centre", "boxing"], "sources": ["osm"], "address": "1208 East Jefferson Street"}, "geometry": {"type": "Point", "coordinates": [-122.3162986, 47.6063395]}}, {"type": "Feature", "properties": {"id": 80716727, "name": "Redhawk Center", "category": "sports_centre", "tags": ["sports-centre"], "sources": ["osm"], "address": "550 14th Avenue"}, "geometry": {"type": "Point", "coordinates": [-122.3134846, 47.607274]}}, {"type": "Feature", "properties": {"id": 1132697773, "name": "William F. Eisminger Fitness Center", "category": "fitness_centre", "tags": ["fitness-centre"], "sources": ["osm"], "address": "550 14th Avenue"}, "geometry": {"type": "Point", "coordinates": [-122.3137255, 47.6068009]}}, {"type": "Feature", "properties": {"id": "75162842-0840-4225-b4a0-2c844ccf9ed3", "name": "Balanced Humans Office Yoga", "category": "fitness_centre", "tags": ["fitness-centre", "yoga", "studio"], "sources": ["overture"], "website": "http://www.bhofficeyoga.com/", "phone": "6467891872", "address": "103 12th Ave"}, "geometry": {"type": "Point", "coordinates": [-122.3171997, 47.6020164]}}, {"type": "Feature", "properties": {"id": "9ef6586b-b784-4787-93ba-55e81ddab09d", "name": "Mountain Flow Yoga", "category": "fitness_centre", "tags": ["fitness-centre", "yoga", "studio"], "sources": ["overture"], "website": "http://www.liveloveflowyoga.com", "phone": "(206) 322-3569", "address": "1223 E Cherry St"}, "geometry": {"type": "Point", "coordinates": [-122.3164063, 47.6078758]}}, {"type": "Feature", "properties": {"id": "0b438bda-6cc7-4c22-8ed8-0f5a84f86fad", "name": "Live Love Flow", "category": "fitness_centre", "tags": ["fitness-centre", "yoga", "studio"], "sources": ["overture"], "website": "https://liveloveflowstudios.com", "phone": "(206) 322-3569", "address": "1223 E Cherry St"}, "geometry": {"type": "Point", "coordinates": [-122.3161774, 47.6078682]}}]}