{"type": "FeatureCollection", "features": [{"type": "Feature", "properties": {"id": 638107711, "name": "Starbucks", "category": "cafe", "tags": ["cafe", "coffee-shop", "takeaway", "coffee", "fast-food"], "sources": ["osm", "overture"], "website": "https://www.starbucks.com/store-locator/store/1006824/", "phone": "+12538540344", "address": "23930 102nd Ave Se"}, "geometry": {"type": "Point", "coordinates": [-122.2044059, 47.3872155]}}, {"type": "Feature", "properties": {"id": "d46ce7e4-0736-4a0e-8cf9-feb6fb0b38ec", "name": "Starbucks", "category": "cafe", "tags": ["cafe", "coffee"], "sources": ["overture"], "website": "https://www.starbucks.com/store-locator/store/1016213", "phone": "+12538595500", "address": "10201 SE 240th St"}, "geometry": {"type": "Point", "coordinates": [-122.2054749, 47.3862419]}}, {"type": "Feature", "properties": {"id": 410978238, "name": "IHOP", "category": "restaurant", "tags": ["restaurant", "breakfast", "pancake", "diner", "breakfast-and-brunch", "american"], "sources": ["osm", "overture"], "website": "http://www.ihop.com/", "phone": "+12534807142", "address": "24060 104th Ave SE", "hours": "07:00-22:00"}, "geometry": {"type": "Point", "coordinates": [-122.2018281, 47.3853349]}}, {"type": "Feature", "properties": {"id": 3618096315, "name": "Taco Bell", "category": "fast_food", "tags": ["fast-food", "tex-mex", "takeaway", "fast", "food", "taco", "mexican"], "sources": ["osm", "overture"], "website": "http://www.tacobell.com/", "phone": "+12538568011", "address": "23920 104th Avenue, S.E.", "hours": "06:00-04:00"}, "geometry": {"type": "Point", "coordinates": [-122.2017793, 47.3872109]}}, {"type": "Feature", "properties": {"id": 3675503805, "name": "Tasty Indian Cuisine", "category": "restaurant", "tags": ["restaurant", "indian"], "sources": ["osm", "overture"], "website": "http://www.tastysweetsindiancuisine.com", "phone": "+12538540309", "address": "24202 104th Ave SE", "hours": "Mo-Th 11:00-20:30; Fr-Sa 11:00-21:30; Su 11:00-20:00"}, "geometry": {"type": "Point", "coordinates": [-122.20126, 47.3848853]}}, {"type": "Feature", "properties": {"id": 3675503809, "name": "Saigon Soul Vietnamese Restaurant", "category": "restaurant", "tags": ["restaurant", "vietnamese", "asian", "noodles"], "sources": ["osm", "overture"], "website": "https://www.foodbooking.com/api/fb/3g5_g_b", "phone": "+12535206620", "address": "24202 104th Ave SE", "hours": "Mo-Sa 10:00-20:30; Su 10:00-19:30"}, "geometry": {"type": "Point", "coordinates": [-122.2012644, 47.3847866]}}, {"type": "Feature", "properties": {"id": 3725140966, "name": "Happy Donuts", "category": "fast_food", "tags": ["fast-food", "donut", "wifi"], "sources": ["osm"], "address": "10214 Southeast 240th Street", "hours": "04:00-14:00"}, "geometry": {"type": "Point", "coordinates": [-122.2041366, 47.3875749]}}, {"type": "Feature", "properties": {"id": "3384c4ce-3f1b-43a5-b73d-f16b0b024534", "name": "Pizza Hut Express", "category": "restaurant", "tags": ["restaurant", "pizza"], "sources": ["overture"], "phone": "2538568011", "address": "23920 104th Ave SE"}, "geometry": {"type": "Point", "coordinates": [-122.2017746, 47.3872032]}}, {"type": "Feature", "properties": {"id": 4388510389, "name": "Soho Teriyaki", "category": "restaurant", "tags": ["restaurant", "japanese", "asian"], "sources": ["osm", "overture"], "website": "http://sohoteriyaki.com/index.html", "phone": "+12538541977", "address": "10423 SE 240th St", "hours": "Mo-Fr 10:00-21:00; Su off"}, "geometry": {"type": "Point", "coordinates": [-122.2012571, 47.3866663]}}, {"type": "Feature", "properties": {"id": 4918194044, "name": "Curry & Kabab", "category": "restaurant", "tags": ["restaurant", "indian"], "sources": ["osm", "overture"], "website": "https://www.currynkababkent.com/", "phone": "+12535202440", "address": "10415 SE 240th St", "hours": "Mo-Th 11:00-21:30; Fr-Sa 11:00-22:00; Su 12:00-21:00"}, "geometry": {"type": "Point", "coordinates": [-122.2012575, 47.3867461]}}, {"type": "Feature", "properties": {"id": "31f45646-a2dd-444f-b9a8-9b10ca44156d", "name": "Jet City Pizza", "category": "restaurant", "tags": ["restaurant", "pizza"], "sources": ["overture"], "website": "http://jetcitypizza.com/", "phone": "(253) 859-8300", "address": "24202 104th Ave SE"}, "geometry": {"type": "Point", "coordinates": [-122.201149, 47.3848381]}}, {"type": "Feature", "properties": {"id": 6014518367, "name": "Fortune Seafood Restaurant", "category": "restaurant", "tags": ["restaurant", "seafood"], "sources": ["osm", "overture"], "website": "https://www.fortuneseafoodkent.com", "phone": "12538527360", "address": "23719 104th Ave SE", "hours": "11:30-22:00"}, "geometry": {"type": "Point", "coordinates": [-122.2030679, 47.389215]}}, {"type": "Feature", "properties": {"id": 6014518702, "name": "Mary's Fine Foods", "category": "restaurant", "tags": ["restaurant", "diner", "american"], "sources": ["osm", "overture"], "website": "http://menuatmarys.com/menu", "phone": "+12538542650", "address": "23641 104th Ave SE", "hours": "Mo-Sa 07:00-15:00; Su 07:00-13:00"}, "geometry": {"type": "Point", "coordinates": [-122.203053, 47.3895014]}}, {"type": "Feature", "properties": {"id": 6014519162, "name": "Cushitic Cuisine", "category": "restaurant", "tags": ["restaurant"], "sources": ["osm"], "address": "23629 104th Avenue Southeast"}, "geometry": {"type": "Point", "coordinates": [-122.203066, 47.3897445]}}, {"type": "Feature", "properties": {"id": 6014520732, "name": "Mehfil Indian Cuisine", "category": "restaurant", "tags": ["restaurant", "indian"], "sources": ["osm"], "address": "23619 104th Avenue Southeast"}, "geometry": {"type": "Point", "coordinates": [-122.2030695, 47.3899683]}}, {"type": "Feature", "properties": {"id": 6014520737, "name": "Shsnasheel", "category": "restaurant", "tags": ["restaurant", "middle-eastern"], "sources": ["osm"], "address": "23803 104th Avenue Southeast", "hours": "Mo-Th,Su 14:00-23:00; Fr-Sa 14:00-24:00"}, "geometry": {"type": "Point", "coordinates": [-122.203124, 47.3890168]}}, {"type": "Feature", "properties": {"id": 6014521423, "name": "Pizza Twist", "category": "restaurant", "tags": ["restaurant", "pizza", "italian"], "sources": ["osm", "overture"], "website": "https://www.pizzatwist.com/locations/best-pizza-in-kent-wa", "phone": "+12535202990", "address": "23623 104th Ave SE", "hours": "Mo-Th 10:00-24:00; Fr-Su 10:00-01:00"}, "geometry": {"type": "Point", "coordinates": [-122.2030647, 47.3898486]}}, {"type": "Feature", "properties": {"id": 444508781, "name": "Can-Am Pizza", "category": "restaurant", "tags": ["restaurant", "pizza", "takeaway", "delivery", "italian"], "sources": ["osm", "overture"], "website": "http://www.canampizza.com/", "phone": "+12538567777", "address": "23819 104th Ave SE", "hours": "Mo-Th 15:00-23:00; Fr-Su 11:00-23:00"}, "geometry": {"type": "Point", "coordinates": [-122.202971, 47.388202]}}, {"type": "Feature", "properties": {"id": 13058873319, "name": "LadyBuy Bikini Espresso", "category": "cafe", "tags": ["cafe", "coffee-shop"], "sources": ["osm"]}, "geometry": {"type": "Point", "coordinates": [-122.202543, 47.3858659]}}, {"type": "Feature", "properties": {"id": 13058873330, "name": "Sofra Turkish Grill", "category": "restaurant", "tags": ["restaurant", "turkish", "middle-eastern"], "sources": ["osm", "overture"], "website": "https://sofratg.com/", "phone": "+12534807348", "address": "24228 104th Ave SE #105", "hours": "Mo-Fr 10:00-21:00"}, "geometry": {"type": "Point", "coordinates": [-122.2014729, 47.3843026]}}, {"type": "Feature", "properties": {"id": 13058927256, "name": "Khmer Style", "category": "restaurant", "tags": ["restaurant"], "sources": ["osm"], "phone": "+1-253-905-4634", "hours": "10:00-21:00"}, "geometry": {"type": "Point", "coordinates": [-122.2014186, 47.3842176]}}, {"type": "Feature", "properties": {"id": 410978698, "name": "Jack in the Box", "category": "fast_food", "tags": ["fast-food", "burger", "takeaway", "drive-through", "fast", "food"], "sources": ["osm", "overture"], "website": "https://www.jackinthebox.com", "phone": "+12538543044", "address": "23911 104th Ave SE", "hours": "24/7"}, "geometry": {"type": "Point", "coordinates": [-122.2026546, 47.3878613]}}, {"type": "Feature", "properties": {"id": 638107712, "name": "Popeyes", "category": "fast_food", "tags": ["fast-food", "chicken", "indoor-seating", "takeaway", "delivery", "drive-through", "fast", "food", "cajun-and-creole"], "sources": ["osm", "overture"], "website": "https://www.popeyes.com/store-locator/store/restaurant_84842", "phone": "+12538561173", "address": "23920 102nd Ave SE", "hours": "10:00-21:00"}, "geometry": {"type": "Point", "coordinates": [-122.2045389, 47.3875464]}}, {"type": "Feature", "properties": {"id": 410978247, "name": "Mexi-Drive Mexican Restaurant", "category": "restaurant", "tags": ["restaurant", "mexican"], "sources": ["osm"], "website": "https://www.mexidrivekent.com/", "phone": "+1-253-999-3733", "address": "24020 104th Avenue Southeast", "hours": "24/7"}, "geometry": {"type": "Point", "coordinates": [-122.2018237, 47.3863866]}}, {"type": "Feature", "properties": {"id": 638107717, "name": "Pink Devil Espresso", "category": "cafe", "tags": ["cafe", "coffee-shop"], "sources": ["osm"]}, "geometry": {"type": "Point", "coordinates": [-122.2024725, 47.3890227]}}, {"type": "Feature", "properties": {"id": 638107816, "name": "Yoli", "category": "restaurant", "tags": ["restaurant", "mexican"], "sources": ["osm"], "address": "10218 Southeast 240th Street"}, "geometry": {"type": "Point", "coordinates": [-122.2037122, 47.3876571]}}, {"type": "Feature", "properties": {"id": 638134319, "name": "Paolo's Italian Restaurant", "category": "restaurant", "tags": ["restaurant", "italian", "pizza"], "sources": ["osm", "overture"], "website": "http://paolositalian.com/", "phone": "+12538502233", "address": "23810 104th Ave SE", "hours": "Mo-Th 11:30-20:00; Fr 11:30-21:00; Sa 16:00-21:00; Su 16:00-19:30"}, "geometry": {"type": "Point", "coordinates": [-122.2015943, 47.3886131]}}, {"type": "Feature", "properties": {"id": "36e04d94-6078-47d7-a2be-b006be049acc", "name": "Good Vibes Espresso", "category": "cafe", "tags": ["cafe", "coffee"], "sources": ["overture"], "phone": "+15038809014", "address": "23803 104th Ave SE"}, "geometry": {"type": "Point", "coordinates": [-122.2031631, 47.3890762]}}, {"type": "Feature", "properties": {"id": 1421059062, "name": "Arielle's Gourmet Cup", "category": "cafe", "tags": ["cafe", "coffee-shop", "coffee"], "sources": ["osm", "overture"], "phone": "+12538595665", "address": "23822 104th Ave SE", "hours": "Mo-Sa 07:30-15:00; Su 08:00-15:00"}, "geometry": {"type": "Point", "coordinates": [-122.2012377, 47.3884481]}}, {"type": "Feature", "properties": {"id": 1421059069, "name": "Taqueria El Manguito", "category": "fast_food", "tags": ["fast-food", "mexican"], "sources": ["osm"]}, "geometry": {"type": "Point", "coordinates": [-122.2024879, 47.3887854]}}, {"type": "Feature", "properties": {"id": "c59fa44c-8c8e-40ff-b9db-050cf74400de", "name": "Taste Of Europe", "category": "restaurant", "tags": ["restaurant"], "sources": ["overture"], "website": "http://www.taste-of-europe.com", "phone": "(253) 852-7737", "address": "23636 104th Ave SE"}, "geometry": {"type": "Point", "coordinates": [-122.2012329, 47.389389]}}, {"type": "Feature", "properties": {"id": "04882a31-9c45-46da-bb80-640ee8897042", "name": "Pardon My Cheesesteak", "category": "restaurant", "tags": ["restaurant"], "sources": ["overture"], "phone": "8884440934", "address": "24060 104th Ave SE"}, "geometry": {"type": "Point", "coordinates": [-122.2018433, 47.385437]}}, {"type": "Feature", "properties": {"id": "48338636-e4c8-41c7-a741-e842a51c91c9", "name": "Kf Sushi", "category": "restaurant", "tags": ["restaurant", "sushi"], "sources": ["overture"], "website": "https://www.kfsushi.com", "phone": "+12066183450", "address": "23636 104th Ave Se Ste A1"}, "geometry": {"type": "Point", "coordinates": [-122.2014694, 47.3892021]}}, {"type": "Feature", "properties": {"id": "fc7f272a-ea1d-47fc-a49d-380eeed3d629", "name": "Tenderfix By Noah Schnapp", "category": "fast_food", "tags": ["fast-food", "fast", "food"], "sources": ["overture"], "website": "https://www.tenderfix.com", "phone": "+18884135074", "address": "24060 104th Ave SE"}, "geometry": {"type": "Point", "coordinates": [-122.2018433, 47.3852806]}}, {"type": "Feature", "properties": {"id": "a80eb348-2893-42c3-9d28-c9d84daad3c4", "name": "Chang's Mongolian Grill", "category": "restaurant", "tags": ["restaurant", "mongolian"], "sources": ["overture"], "website": "http://changsgrill.com/chang_offer.html", "phone": "(253) 850-6264", "address": "24060 104th Ave SE"}, "geometry": {"type": "Point", "coordinates": [-122.20224, 47.3858147]}}, {"type": "Feature", "properties": {"id": "c9dea49f-f045-4dcd-9871-5e6c53335b29", "name": "Taco Twist", "category": "restaurant", "tags": ["restaurant", "indian", "burger"], "sources": ["overture"], "website": "https://www.tacotwist.com/", "phone": "+12538524773", "address": "23623 104th Ave SE D"}, "geometry": {"type": "Point", "coordinates": [-122.2031784, 47.3898697]}}, {"type": "Feature", "properties": {"id": "37628e29-8b7e-402b-bfdc-d793ae2c3ad7", "name": "Skycreek Llc", "category": "restaurant", "tags": ["restaurant"], "sources": ["overture"], "address": "23617 104th Ave Se Ste C"}, "geometry": {"type": "Point", "coordinates": [-122.2029343, 47.3899803]}}, {"type": "Feature", "properties": {"id": "7075df64-4d29-44b4-83b2-2f377de05d1b", "name": "Punjab Sweets", "category": "restaurant", "tags": ["restaurant", "indian"], "sources": ["overture"], "website": "https://punjabsweetsonline.com", "phone": "12538593236", "address": "23617 104th Ave Se  Ste C"}, "geometry": {"type": "Point", "coordinates": [-122.2029343, 47.3899803]}}, {"type": "Feature", "properties": {"id": "ad53fe12-70a3-4328-87d2-85a8880c9e35", "name": "Afghan & Mediterranean Restaurant", "category": "restaurant", "tags": ["restaurant", "afghan", "arabic"], "sources": ["overture"], "address": "23729 104th Ave SE"}, "geometry": {"type": "Point", "coordinates": [-122.2032166, 47.3891945]}}, {"type": "Feature", "properties": {"id": "fb257fe8-b397-4ec9-9d19-92626d6f2793", "name": "Mazag Hookah Lounge", "category": "bar", "tags": ["bar", "hookah"], "sources": ["overture"], "address": "23651 104th Ave SE"}, "geometry": {"type": "Point", "coordinates": [-122.2032242, 47.3893089]}}, {"type": "Feature", "properties": {"id": "c956206a-5511-4a6c-9de0-3794361113d7", "name": "Medina Cafe & Grill", "category": "restaurant", "tags": ["restaurant"], "sources": ["overture"], "website": "https://www.medinacafegrill.com/?utm_source=bing&utm_medium=websiteurl&utm_campaign=search", "phone": "2533081687", "address": "23629 104th Ave SE"}, "geometry": {"type": "Point", "coordinates": [-122.2031937, 47.3897018]}}, {"type": "Feature", "properties": {"id": "e4765e2a-48fe-49c0-bfdc-d83253640fd8", "name": "Naan Twist Indian Food", "category": "restaurant", "tags": ["restaurant"], "sources": ["overture"], "website": "https://www.naantwistkent.com/?utm_source=bing&utm_medium=websiteurl&utm_campaign=search", "phone": "2538524773", "address": "23623 104th Ave SE D"}, "geometry": {"type": "Point", "coordinates": [-122.2031784, 47.3898735]}}, {"type": "Feature", "properties": {"id": "a1638915-da7d-4e98-a858-4fe62b0455b7", "name": "Benson Curry Pizza", "category": "restaurant", "tags": ["restaurant", "pizza"], "sources": ["overture"], "website": "http://www.eatbensonpizza.com", "phone": "(253) 520-2990", "address": "23623 104th Ave SE"}, "geometry": {"type": "Point", "coordinates": [-122.2031708, 47.3899841]}}, {"type": "Feature", "properties": {"id": "3dac1bc3-75a0-4ecd-9eb6-18c2c41b1527", "name": "Lucky Devil Latte", "category": "cafe", "tags": ["cafe", "coffee"], "sources": ["overture"], "phone": "15038809014", "address": "23803 104th Ave SE"}, "geometry": {"type": "Point", "coordinates": [-122.2032394, 47.3889618]}}, {"type": "Feature", "properties": {"id": "c028cfa3-819f-4dd7-9efd-28db2351139a", "name": "Shanasheel Restaurant", "category": "restaurant", "tags": ["restaurant", "mediterranean", "middle-eastern"], "sources": ["overture"], "website": "https://www.mediterraneankent.com/", "phone": "+12532364117", "address": "23729 104th Ave SE"}, "geometry": {"type": "Point", "coordinates": [-122.2031097, 47.3890533]}}, {"type": "Feature", "properties": {"id": "a1ee003e-1426-4fc1-aa59-9012fe7c18d2", "name": "Watan Bakery and Halal Store", "category": "bakery", "tags": ["bakery"], "sources": ["overture"], "phone": "+12539813846", "address": "23811 104th Ave SE"}, "geometry": {"type": "Point", "coordinates": [-122.2029419, 47.3885651]}}, {"type": "Feature", "properties": {"id": "d8cbe802-8a32-41c9-9ad4-f04a14edc844", "name": "Y\u00f5li Mexican Restaurant", "category": "restaurant", "tags": ["restaurant", "mexican", "latin-american", "texmex"], "sources": ["overture"], "website": "http://yolimexicanrestaurant.com/", "phone": "+12532364553", "address": "10218 SE 240th St"}, "geometry": {"type": "Point", "coordinates": [-122.2037125, 47.3876534]}}, {"type": "Feature", "properties": {"id": "c0d1c86d-d78b-4b7b-a75e-fce76e9eeb2b", "name": "India Combo", "category": "restaurant", "tags": ["restaurant", "indian"], "sources": ["overture"], "website": "http://www.indiacombo.com/", "phone": "(253) 520-2440", "address": "24023 104th Ave SE"}, "geometry": {"type": "Point", "coordinates": [-122.203064, 47.3861694]}}, {"type": "Feature", "properties": {"id": "9a4f14b3-aacb-49ef-bf2e-70b0000f2359", "name": "Casey's Grill & Sports Bar", "category": "restaurant", "tags": ["restaurant"], "sources": ["overture"], "website": "https://www.caseyssportsbar.com", "address": "24228 104th Ave SE"}, "geometry": {"type": "Point", "coordinates": [-122.2015152, 47.3842087]}}, {"type": "Feature", "properties": {"id": "9962c6d9-90d9-42c8-b778-4be7562c49be", "name": "Afghan Bakery", "category": "bakery", "tags": ["bakery"], "sources": ["overture"], "phone": "+12538540255", "address": "24228 104th Ave SE"}, "geometry": {"type": "Point", "coordinates": [-122.2014542, 47.3843536]}}, {"type": "Feature", "properties": {"id": "654a9c49-f83b-4e6c-9175-6a13ddeb34a8", "name": "Singh & Deep Llc", "category": "restaurant", "tags": ["restaurant"], "sources": ["overture"], "address": "24202 104th Ave Se Ste 106"}, "geometry": {"type": "Point", "coordinates": [-122.2015076, 47.3847923]}}, {"type": "Feature", "properties": {"id": "ec90eea7-0772-4171-9169-324eb908ff63", "name": "Solteros Market", "category": "restaurant", "tags": ["restaurant", "mexican"], "sources": ["overture"]}, "geometry": {"type": "Point", "coordinates": [-122.2015076, 47.3847923]}}, {"type": "Feature", "properties": {"id": "0aa005cc-e315-4fcb-85df-3fa9b526358c", "name": "La bonita market kent", "category": "restaurant", "tags": ["restaurant"], "sources": ["overture"], "address": "24202 104th Ave SE"}, "geometry": {"type": "Point", "coordinates": [-122.2015152, 47.3847885]}}, {"type": "Feature", "properties": {"id": "73b30313-60e4-4ccf-b6db-bb45a9b2a37f", "name": "Mexi Drive", "category": "restaurant", "tags": ["restaurant", "mexican", "taco", "texmex"], "sources": ["overture"], "website": "https://bit.ly/4gYYiKA", "phone": "+12539993733", "address": "24020 104th Ave SE"}, "geometry": {"type": "Point", "coordinates": [-122.2018585, 47.3863678]}}, {"type": "Feature", "properties": {"id": "0091701a-2710-47c2-9c12-572c0e40d3cf", "name": "Aguacateros Taqueria & Restaurant", "category": "restaurant", "tags": ["restaurant", "mexican"], "sources": ["overture"], "website": "https://aguacateros-taqueria.net/", "phone": "2538542148", "address": "24020 104th Ave SE Ste 104"}, "geometry": {"type": "Point", "coordinates": [-122.2018433, 47.3863449]}}, {"type": "Feature", "properties": {"id": "a9ec8304-46ae-4d8b-9a2e-bf2674f45585", "name": "Berrios Enterprises, Inc.", "category": "restaurant", "tags": ["restaurant"], "sources": ["overture"], "website": "goldensteerrestaurant.com", "phone": "+12538521144", "address": "23826 104th Ave SE"}, "geometry": {"type": "Point", "coordinates": [-122.2017136, 47.388073]}}, {"type": "Feature", "properties": {"id": "eacc2c1c-1d46-447e-b203-d6b1e3978700", "name": "Maharaja Cuisine Inc", "category": "restaurant", "tags": ["restaurant"], "sources": ["overture"], "website": "https://www.maharajindiacuisine.com", "address": "10314 SE 244th St"}, "geometry": {"type": "Point", "coordinates": [-122.2029037, 47.3835869]}}, {"type": "Feature", "properties": {"id": "ad9e0f22-8d98-4e59-ab8d-f9b79488c664", "name": "Bakery Express", "category": "bakery", "tags": ["bakery"], "sources": ["overture"], "website": "https://www.bakery-express.com", "phone": "+12538502827", "address": "10214 Se 240th St Ste D"}, "geometry": {"type": "Point", "coordinates": [-122.2040405, 47.3874893]}}, {"type": "Feature", "properties": {"id": "35c23c82-f1c4-4d91-b66a-8a3f77300a31", "name": "Ashley Terrace Apartments", "category": "attraction", "tags": ["attraction", "landmark", "historical", "building"], "sources": ["overture"], "website": "https://neiders.com/properties/ashley-terrace-apartments/", "phone": "+12536002382", "address": "23704 100th Ave SE"}, "geometry": {"type": "Point", "coordinates": [-122.2069244, 47.3893051]}}, {"type": "Feature", "properties": {"id": 426268474, "name": "Canterbury Park", "category": "park", "tags": ["park"], "sources": ["osm", "overture"], "website": "http://www.canterburypark.com", "phone": "+12538565000", "address": "24409 100th Ave SE", "hours": "dawn-dusk"}, "geometry": {"type": "Point", "coordinates": [-122.2085216, 47.3831098]}}, {"type": "Feature", "properties": {"id": 410978248, "name": "7-Eleven", "category": "convenience", "tags": ["convenience"], "sources": ["osm", "overture"], "website": "http://www.7-eleven.com/", "phone": "+12534093738", "address": "10255 Se 240Th St Kent, WA 98030"}, "geometry": {"type": "Point", "coordinates": [-122.2028337, 47.3864949]}}, {"type": "Feature", "properties": {"id": 6344461717, "name": "Grocery Outlet", "category": "supermarket", "tags": ["supermarket", "variety-store", "discount"], "sources": ["osm", "overture"], "website": "https://www.groceryoutlet.com/circulars/storeid/197", "phone": "+12538561057", "address": "23910 104th Ave SE", "hours": "08:00-21:00"}, "geometry": {"type": "Point", "coordinates": [-122.2005311, 47.3875734]}}, {"type": "Feature", "properties": {"id": 3618096318, "name": "Food Mart", "category": "convenience", "tags": ["convenience"], "sources": ["osm"]}, "geometry": {"type": "Point", "coordinates": [-122.2026993, 47.3873198]}}, {"type": "Feature", "properties": {"id": 13058873317, "name": "Mud Bay", "category": "pet", "tags": ["pet"], "sources": ["osm", "overture"], "website": "http://www.mudbay.com/pet-store/KNT-kent-WA", "phone": "2538595818", "address": "10245 SE 240th St", "hours": "Mo-Fr 10:00-19:30; Sa-Su 09:00-19:00"}, "geometry": {"type": "Point", "coordinates": [-122.2032776, 47.3866819]}}, {"type": "Feature", "properties": {"id": "7d5c8e95-7ddf-4f7a-95c5-5f2d68924b72", "name": "Circle K", "category": "convenience", "tags": ["convenience"], "sources": ["overture"], "website": "www.circlek.com", "phone": "12538546637", "address": "10255 SE 240th St"}, "geometry": {"type": "Point", "coordinates": [-122.2026978, 47.3867111]}}, {"type": "Feature", "properties": {"id": "4ea11cc0-57e7-4d57-9cae-05e2d229fc73", "name": "Smoke Plus", "category": "tobacco", "tags": ["tobacco"], "sources": ["overture"], "website": "https://smokeplus.net", "phone": "+12538567850", "address": "23635 104th Ave SE"}, "geometry": {"type": "Point", "coordinates": [-122.2031555, 47.3896255]}}, {"type": "Feature", "properties": {"id": 3618096325, "name": "McLendon Hardware", "category": "hardware", "tags": ["hardware"], "sources": ["osm", "overture"], "website": "http://www.mclendons.com/", "phone": "+12538502722", "address": "23662 104th Ave SE", "hours": "Mo-Sa 08:00-20:00; Su 09:00-19:00"}, "geometry": {"type": "Point", "coordinates": [-122.2005439, 47.3885186]}}, {"type": "Feature", "properties": {"id": 3618096326, "name": "International Home Furniture", "category": "furniture", "tags": ["furniture"], "sources": ["osm"], "address": "23918 104th Avenue Southeast", "hours": "Mo-Sa 07:30-22:00; Su 08:00-21:00; Mo-Th 12:00-19:30; Fr-Su 14:00-19:30"}, "geometry": {"type": "Point", "coordinates": [-122.2006358, 47.3880556]}}, {"type": "Feature", "properties": {"id": "376ebcca-f338-40ea-adbe-00e26678ce07", "name": "International Home Furniture", "category": "furniture", "tags": ["furniture"], "sources": ["overture"], "address": "23832 104th Ave SE"}, "geometry": {"type": "Point", "coordinates": [-122.2020798, 47.3880119]}}, {"type": "Feature", "properties": {"id": 3675503808, "name": "La Bonita Market", "category": "supermarket", "tags": ["supermarket"], "sources": ["osm"], "address": "24202 104th Avenue Southeast", "hours": "09:00-21:00"}, "geometry": {"type": "Point", "coordinates": [-122.2012644, 47.3850797]}}, {"type": "Feature", "properties": {"id": 3675503810, "name": "K Cloud Smoke Shop", "category": "tobacco", "tags": ["tobacco"], "sources": ["osm"], "address": "24202 104th Avenue Southeast"}, "geometry": {"type": "Point", "coordinates": [-122.2012711, 47.3846894]}}, {"type": "Feature", "properties": {"id": 3725140963, "name": "NW Vape Shop", "category": "tobacco", "tags": ["tobacco"], "sources": ["osm"], "address": "10214 Southeast 240th Street"}, "geometry": {"type": "Point", "coordinates": [-122.203988, 47.3875732]}}, {"type": "Feature", "properties": {"id": 3725140965, "name": "Tienda Mexicana", "category": "convenience", "tags": ["convenience"], "sources": ["osm"], "address": "10214 Southeast 240th Street", "hours": "Mo-Fr 09:00-20:30; Sa-Su 09:00-19:00"}, "geometry": {"type": "Point", "coordinates": [-122.203911, 47.3875762]}}, {"type": "Feature", "properties": {"id": "c1705908-371b-47e9-9751-74a8e6fe23a1", "name": "Fred Meyer Jewelers", "category": "jewelry", "tags": ["jewelry"], "sources": ["overture"], "website": "https://www.fredmeyerjewelers.com", "phone": "(253) 859-5515", "address": "10201 SE 240th St"}, "geometry": {"type": "Point", "coordinates": [-122.2054291, 47.3858414]}}, {"type": "Feature", "properties": {"id": 4388479992, "name": "Indian Village", "category": "supermarket", "tags": ["supermarket"], "sources": ["osm"], "address": "10457 Southeast 240th Street", "hours": "10:00-20:00"}, "geometry": {"type": "Point", "coordinates": [-122.2000887, 47.3866261]}}, {"type": "Feature", "properties": {"id": 6014520787, "name": "Zip Global", "category": "convenience", "tags": ["convenience"], "sources": ["osm"], "address": "23639 104th Avenue Southeast"}, "geometry": {"type": "Point", "coordinates": [-122.2030617, 47.389555]}}, {"type": "Feature", "properties": {"id": 6014520984, "name": "Pacific Market & Halal Meat", "category": "supermarket", "tags": ["supermarket"], "sources": ["osm"], "address": "23643 104th Avenue Southeast"}, "geometry": {"type": "Point", "coordinates": [-122.2030994, 47.3894277]}}, {"type": "Feature", "properties": {"id": 6014521019, "name": "Mahindra Gold & Diamonds", "category": "jewelry", "tags": ["jewelry"], "sources": ["osm"], "phone": "+1-425-515-2149", "address": "23635 104th Avenue Southeast"}, "geometry": {"type": "Point", "coordinates": [-122.203061, 47.3896554]}}, {"type": "Feature", "properties": {"id": 6014521435, "name": "Indian Selection", "category": "clothes", "tags": ["clothes"], "sources": ["osm", "overture"], "website": "http://www.theindianselection.com", "phone": "12535204847", "address": "23637 104th Ave SE"}, "geometry": {"type": "Point", "coordinates": [-122.2030562, 47.3896031]}}, {"type": "Feature", "properties": {"id": "a0219c5d-cd89-4cac-887a-de59c5461579", "name": "Taste Of Europe", "category": "supermarket", "tags": ["supermarket"], "sources": ["overture"], "website": "http://www.taste-of-europe.com/", "phone": "+12538527737", "address": "24225 104th Ave SE"}, "geometry": {"type": "Point", "coordinates": [-122.2025986, 47.3841705]}}, {"type": "Feature", "properties": {"id": 13058873309, "name": "Punjab Grocery & Bazaar", "category": "supermarket", "tags": ["supermarket"], "sources": ["osm"], "address": "23805 104th Avenue Southeast"}, "geometry": {"type": "Point", "coordinates": [-122.2030878, 47.3887967]}}, {"type": "Feature", "properties": {"id": 638133785, "name": "Save-U-More", "category": "supermarket", "tags": ["supermarket"], "sources": ["osm"], "address": "23636 104th Avenue Southeast", "hours": "Mo-Sa 08:00-20:00,Su 09:00-19:00"}, "geometry": {"type": "Point", "coordinates": [-122.2012722, 47.3894468]}}, {"type": "Feature", "properties": {"id": 639254412, "name": "Victory Golf Repair", "category": "sports", "tags": ["sports"], "sources": ["osm"], "phone": "+1-206-432-0908", "address": "24615 104th Avenue Southeast"}, "geometry": {"type": "Point", "coordinates": [-122.2028988, 47.3811678]}}, {"type": "Feature", "properties": {"id": "85acbc4d-b24c-4782-9c34-976e3ead9ba2", "name": "Jacksons Food Stores", "category": "convenience", "tags": ["convenience"], "sources": ["overture"], "website": "http://www.jacksonsfoodstores.com/", "phone": "2538548492", "address": "23953 104th Ave SE"}, "geometry": {"type": "Point", "coordinates": [-122.2026901, 47.3873253]}}, {"type": "Feature", "properties": {"id": "9b671b23-35ab-42d9-aa92-30d4c63bf23a", "name": "Inorex Inc", "category": "supermarket", "tags": ["supermarket"], "sources": ["overture"], "website": "inorex.com", "address": "23636 104th Ave SE"}, "geometry": {"type": "Point", "coordinates": [-122.2014694, 47.3892021]}}, {"type": "Feature", "properties": {"id": "eb1e6953-e797-466a-8f7a-29c417044b1b", "name": "Save U More Supermarket", "category": "supermarket", "tags": ["supermarket"], "sources": ["overture"], "website": "inorex.com", "phone": "+12538540836", "address": "23636 104th Ave SE"}, "geometry": {"type": "Point", "coordinates": [-122.2014694, 47.3892021]}}, {"type": "Feature", "properties": {"id": "8b6f5902-89df-4ce3-a1c7-a3303137d91c", "name": "Magic Flavors", "category": "deli", "tags": ["deli", "delicatessen"], "sources": ["overture"], "website": "http://www.magic-flavors.com", "phone": "(253) 981-6590", "address": "23636 104th Ave SE # 2"}, "geometry": {"type": "Point", "coordinates": [-122.2013931, 47.3894272]}}, {"type": "Feature", "properties": {"id": "87e0ecda-43e3-4bd5-9ba0-47b6fe487f55", "name": "Discount Direct Kent WA", "category": "variety_store", "tags": ["variety-store", "discount"], "sources": ["overture"], "website": "http://www.shopdiscountdirect.com/", "phone": "+12538594817", "address": "23826 104th Ave SE"}, "geometry": {"type": "Point", "coordinates": [-122.201683, 47.3880844]}}, {"type": "Feature", "properties": {"id": "ade4bb63-f7fe-41d4-8032-09d7cff0a44e", "name": "Kent Pacific Market", "category": "supermarket", "tags": ["supermarket"], "sources": ["overture"], "phone": "12538525497", "address": "23643 104th Ave SE"}, "geometry": {"type": "Point", "coordinates": [-122.2031708, 47.3894463]}}, {"type": "Feature", "properties": {"id": "2a07b181-3fdf-4e1a-9f8f-f8c75b12adc2", "name": "K.K Food & Video", "category": "supermarket", "tags": ["supermarket"], "sources": ["overture"], "website": "http://www.seattleindian.com/seattle/businessdetail.asp?id=31", "phone": "(253) 854-5236", "address": "23805 104th Ave SE"}, "geometry": {"type": "Point", "coordinates": [-122.2031784, 47.3887787]}}, {"type": "Feature", "properties": {"id": "f7b5c38d-15c1-4fd9-a402-1c6190c0db86", "name": "Spice Bazaar Llc", "category": "supermarket", "tags": ["supermarket"], "sources": ["overture"], "website": "http://www.spicebazaardeli.com", "address": "23805 104th Ave SE"}, "geometry": {"type": "Point", "coordinates": [-122.203186, 47.3887939]}}, {"type": "Feature", "properties": {"id": "e99df7bd-237b-4669-be23-08224423fbc5", "name": "PunjabGroceryBazaar.com", "category": "supermarket", "tags": ["supermarket"], "sources": ["overture"], "website": "https://punjabgrocerybazaar.com/", "phone": "+12538545236", "address": "23805 104th Ave SE"}, "geometry": {"type": "Point", "coordinates": [-122.2031174, 47.3888054]}}, {"type": "Feature", "properties": {"id": "4d29c619-6209-49a7-8a0d-aab906609e19", "name": "New Kumar Jewelers", "category": "jewelry", "tags": ["jewelry"], "sources": ["overture"], "website": "http://kumarjewelersinc.com", "phone": "(253) 852-6326", "address": "23811 104th Ave SE Ste 102"}, "geometry": {"type": "Point", "coordinates": [-122.2023621, 47.3884964]}}, {"type": "Feature", "properties": {"id": "5fcf3f0a-483a-41f6-b7f2-03003f5ec3e7", "name": "Nanu Fashion", "category": "clothes", "tags": ["clothes", "womens"], "sources": ["overture"], "phone": "+12064996735", "address": "24017 104th Ave SE"}, "geometry": {"type": "Point", "coordinates": [-122.2030258, 47.3862114]}}, {"type": "Feature", "properties": {"id": "fe825681-4a38-4f8c-930d-ed6c69b47082", "name": "Asian Planet Food Market Llc", "category": "supermarket", "tags": ["supermarket"], "sources": ["overture"], "address": "24202 104th Ave Se Ste 101"}, "geometry": {"type": "Point", "coordinates": [-122.2015076, 47.3847923]}}, {"type": "Feature", "properties": {"id": "5c8624e7-afeb-4343-89e1-3278be86968e", "name": "JNJ Burmese Market", "category": "supermarket", "tags": ["supermarket"], "sources": ["overture"], "website": "http://jnjasiaburmesemarket.com/", "phone": "+12532660022", "address": "24216 100th Pl SE"}, "geometry": {"type": "Point", "coordinates": [-122.2062607, 47.3847122]}}, {"type": "Feature", "properties": {"id": "1a11ed7b-7757-454e-9c4c-4e5afefdfaed", "name": "NW Smokes", "category": "tobacco", "tags": ["tobacco"], "sources": ["overture"], "phone": "+12532467199", "address": "10214 SE 240th St C"}, "geometry": {"type": "Point", "coordinates": [-122.204071, 47.3875504]}}, {"type": "Feature", "properties": {"id": "d1074a75-6428-407f-a0c0-db7f6cefa4f2", "name": "Fred Meyer", "category": "pharmacy", "tags": ["pharmacy"], "sources": ["overture"], "website": "https://www.fredmeyer.com/stores/grocery/wa/kent/kent/701/00172?cid=loc_70100172_bg", "phone": "2538595500", "address": "10201 Se 240Th St"}, "geometry": {"type": "Point", "coordinates": [-122.205452, 47.3857956]}}, {"type": "Feature", "properties": {"id": 3725140960, "name": "Concentra Occupational Therapy", "category": "clinic", "tags": ["clinic"], "sources": ["osm"], "address": "24031 104th Avenue Southeast", "hours": "Mo-Fr 08:00-17:00"}, "geometry": {"type": "Point", "coordinates": [-122.2029433, 47.3861638]}}, {"type": "Feature", "properties": {"id": "f0b4a28c-d9bc-4032-b6e2-989b0cedc625", "name": "Concentra Urgent Care", "category": "clinic", "tags": ["clinic", "medical"], "sources": ["overture"], "website": "https://www.concentra.com/urgent-care-centers/washington/portland/kent-urgent-care/?utm_source=Yext&utm_medium=Referral&utm_campaign=LocalPage", "phone": "+12538521824", "address": "24031 104th Ave SE"}, "geometry": {"type": "Point", "coordinates": [-122.202858, 47.3862038]}}, {"type": "Feature", "properties": {"id": 13058873327, "name": "Rainier Beach Medical Clinic - Kent Branch", "category": "clinic", "tags": ["clinic"], "sources": ["osm"], "address": "24213 104th Avenue Southeast"}, "geometry": {"type": "Point", "coordinates": [-122.2025773, 47.3846863]}}, {"type": "Feature", "properties": {"id": 13058873337, "name": "Easthill Medical Clinic", "category": "clinic", "tags": ["clinic", "medical"], "sources": ["osm", "overture"], "phone": "12538522770", "address": "10413 SE 244th St"}, "geometry": {"type": "Point", "coordinates": [-122.201747, 47.3830122]}}, {"type": "Feature", "properties": {"id": "6293d286-2744-476c-83f6-8e64b96160a6", "name": "Kubec", "category": "pharmacy", "tags": ["pharmacy"], "sources": ["overture"], "website": "http://fredmeyer.com", "phone": "(253) 859-5533", "address": "10201 SE 240th St"}, "geometry": {"type": "Point", "coordinates": [-122.2054291, 47.3858414]}}, {"type": "Feature", "properties": {"id": 410978695, "name": "U.S. Bank", "category": "bank", "tags": ["bank", "credit", "union"], "sources": ["osm", "overture"], "website": "https://www.usbank.com/locations/washington/kent/10231-se-240th-st-bank-atm/?utm_source=facebook&utm_medium=organic&utm_campaign=facebook_listing", "phone": "+12538542034", "address": "10231 SE 240th St", "hours": "Mo-Fr 09:00-17:00; Sa 09:00-13:00"}, "geometry": {"type": "Point", "coordinates": [-122.2032212, 47.3873485]}}, {"type": "Feature", "properties": {"id": 638133820, "name": "Chase", "category": "bank", "tags": ["bank"], "sources": ["osm"], "website": "https://locator.chase.com/wa/kent/23630-104th-ave-se", "phone": "+1-253-854-8260", "address": "23630 104th Avenue Southeast", "hours": "Mo-Fr 09:00-17:00; Sa 09:00-13:00; Su closed"}, "geometry": {"type": "Point", "coordinates": [-122.201854, 47.3899045]}}, {"type": "Feature", "properties": {"id": 4544407691, "name": "Planet Fitness", "category": "fitness_centre", "tags": ["fitness-centre", "gym"], "sources": ["osm", "overture"], "website": "https://www.planetfitness.com/gyms/kent-104th-ave-wa?utm_medium=organic&utm_source=extnet", "phone": "+12538542123", "address": "24044 104th Ave SE A", "hours": "Mo-Fr 04:00-21:00; Sa-Su 07:00-19:00"}, "geometry": {"type": "Point", "coordinates": [-122.200551, 47.3856125]}}]}