{"type": "FeatureCollection", "features": [{"type": "Feature", "properties": {"id": 4778231861, "name": "Five Sisters Thai", "category": "restaurant", "tags": ["restaurant", "thai", "wheelchair-accessible"], "sources": ["osm"], "phone": "+1-425-793-4990", "address": "14252 Southeast 176th Street", "hours": "Mo-Sa 11:00-21:00; Su 12:00-21:00"}, "geometry": {"type": "Point", "coordinates": [-122.1495908, 47.4456355]}}, {"type": "Feature", "properties": {"id": 4796051063, "name": "The Golden Peacock", "category": "restaurant", "tags": ["restaurant", "chinese"], "sources": ["osm"], "website": "https://www.goldenpeacockrenton.com", "phone": "+1-425-226-1802", "address": "14412 Southeast Petrovitsky Road", "hours": "Mo-Sa 16:00-22:00; Su 15:00-21:00"}, "geometry": {"type": "Point", "coordinates": [-122.147531, 47.4440929]}}, {"type": "Feature", "properties": {"id": "044bf999-c831-4e07-9e01-fc49965fe89f", "name": "La Fuente", "category": "restaurant", "tags": ["restaurant", "mexican"], "sources": ["overture"], "website": "http://lafuente.com/", "phone": "(425) 235-1311", "address": "14400 SE Petrovitsky Rd"}, "geometry": {"type": "Point", "coordinates": [-122.1491013, 47.4448357]}}, {"type": "Feature", "properties": {"id": 640583639, "name": "There Ya Go Espresso", "category": "cafe", "tags": ["cafe", "coffee-shop", "coffee"], "sources": ["osm", "overture"], "website": "https://piyw.top/there-ya-go-espresso", "phone": "+14252710999", "address": "14516 SE Petrovitsky Rd", "hours": "Mo-Fr 05:00-17:00, Sa-Su 07:00-17:00"}, "geometry": {"type": "Point", "coordinates": [-122.1470335, 47.4439575]}}, {"type": "Feature", "properties": {"id": 640583723, "name": "Uno Maz", "category": "restaurant", "tags": ["restaurant", "mexican"], "sources": ["osm"], "address": "14400 Southeast Petrovitsky Road"}, "geometry": {"type": "Point", "coordinates": [-122.1491265, 47.4448948]}}, {"type": "Feature", "properties": {"id": "1895a185-84dd-4c36-a1ad-3c330c988e32", "name": "Golden Peacock", "category": "restaurant", "tags": ["restaurant", "chinese", "asian"], "sources": ["overture"], "website": "http://goldenpeacockrenton.com/", "phone": "+14252261803", "address": "14412 SE Petrovitsky Rd"}, "geometry": {"type": "Point", "coordinates": [-122.1476517, 47.4441185]}}, {"type": "Feature", "properties": {"id": "c694a2e7-b1f4-424b-a9f6-4cd5dbb19612", "name": "Five Thai Sis., Llc", "category": "restaurant", "tags": ["restaurant"], "sources": ["overture"], "address": "14252 SE 176th St"}, "geometry": {"type": "Point", "coordinates": [-122.1497269, 47.4458122]}}, {"type": "Feature", "properties": {"id": "1bad86f7-b4bd-453f-8941-93aa4d37e4b2", "name": "Five Sisters Thai Cuisine", "category": "restaurant", "tags": ["restaurant", "thai", "asian"], "sources": ["overture"], "website": "http://5sistersthai.com/", "phone": "+14257934990", "address": "14252 SE 176th St"}, "geometry": {"type": "Point", "coordinates": [-122.149559, 47.4457054]}}, {"type": "Feature", "properties": {"id": "8b39bab3-a571-4d6d-a93f-0636005183ae", "name": "Fairwood Apartments", "category": "attraction", "tags": ["attraction", "landmark", "historical", "building"], "sources": ["overture"], "website": "https://www.thefairwoodapts.com/", "phone": "+14255323979", "address": "14300 SE 171st Way"}, "geometry": {"type": "Point", "coordinates": [-122.1485977, 47.4468956]}}, {"type": "Feature", "properties": {"id": "e433a7bb-0f6c-48b4-9b27-b980933c089e", "name": "Fairway Drive Condominiums", "category": "attraction", "tags": ["attraction", "landmark", "historical", "building"], "sources": ["overture"], "phone": "+14252711585", "address": "14401 SE Petrovitsky Rd Apt F201"}, "geometry": {"type": "Point", "coordinates": [-122.1479568, 47.4432182]}}, {"type": "Feature", "properties": {"id": "b683f415-7756-4537-b22c-c0ec24aba369", "name": "The Ardenport", "category": "attraction", "tags": ["attraction", "landmark", "historical", "building"], "sources": ["overture"], "website": "https://www.theardenport.com/", "phone": "+14252770974", "address": "15030 SE 179th St"}, "geometry": {"type": "Point", "coordinates": [-122.1406174, 47.4434814]}}, {"type": "Feature", "properties": {"id": 4778231895, "name": "Dank's", "category": "cannabis", "tags": ["cannabis"], "sources": ["osm"], "website": "https://menu.dankswarehouse.com/renton/menu", "phone": "+1-425-572-6439", "address": "14300 Southeast Petrovitsky Road", "hours": "Mo-Su 08:00-23:55"}, "geometry": {"type": "Point", "coordinates": [-122.1494475, 47.4447037]}}, {"type": "Feature", "properties": {"id": 4778231904, "name": "The Wine Alley", "category": "wine", "tags": ["wine", "wifi", "bar"], "sources": ["osm", "overture"], "website": "http://www.thewinealleywa.com/", "phone": "+14252245141", "address": "14276 SE 176th St", "hours": "Tu-Th 12:00-19:00; Fr-Sa 12:00-21:00; Su 12:00-17:00"}, "geometry": {"type": "Point", "coordinates": [-122.1493423, 47.4453908]}}, {"type": "Feature", "properties": {"id": 4810793851, "name": "Liquor & Wine", "category": "alcohol", "tags": ["alcohol"], "sources": ["osm"], "address": "14410 Southeast Petrovitsky Road"}, "geometry": {"type": "Point", "coordinates": [-122.1481365, 47.4442561]}}, {"type": "Feature", "properties": {"id": "c8415b91-acd9-4431-8a6c-4f4b5ac7c40d", "name": "JSM Liquor", "category": "alcohol", "tags": ["alcohol"], "sources": ["overture"], "website": "https://pr.business/renton-liquor-and-wine-renton-washington", "phone": "+14259703526", "address": "14410 SE Petrovitsky Rd"}, "geometry": {"type": "Point", "coordinates": [-122.1480865, 47.4442711]}}, {"type": "Feature", "properties": {"id": "778b9dc0-58b5-4490-9f86-6a8b5785cee8", "name": "Terramar Retail Center Llc", "category": "department_store", "tags": ["department-store", "department"], "sources": ["overture"], "website": "https://www.trcretail.com", "phone": "14252550429", "address": "14254 SE 176th St"}, "geometry": {"type": "Point", "coordinates": [-122.1496429, 47.4457359]}}, {"type": "Feature", "properties": {"id": "02073717-a636-4c04-a8c4-7ef167cc9490", "name": "Heritage Flowers - Renton Florist", "category": "florist", "tags": ["florist"], "sources": ["overture"], "website": "http://www.heritageflowers.com/", "phone": "4252281655", "address": "14410 SE Petrovitsky Rd Ste 102"}, "geometry": {"type": "Point", "coordinates": [-122.1489944, 47.4442253]}}, {"type": "Feature", "properties": {"id": 4796051064, "name": "University of Washington Medical Center - Fairwood Clinic", "category": "clinic", "tags": ["clinic", "wheelchair-accessible"], "sources": ["osm"], "hours": "Mo-Fr 07:00-17:30"}, "geometry": {"type": "Point", "coordinates": [-122.148465, 47.4444743]}}, {"type": "Feature", "properties": {"id": "b9afbeb0-916d-4ebf-8758-3ce65eda0d83", "name": "Fairwood Primary Care", "category": "hospital", "tags": ["hospital"], "sources": ["overture"], "website": "http://www.valleymed.org/Locations.htm?intClinicID=14", "phone": "(425) 227-9777", "address": "14410 SE Petrovitsky Rd Ste 104"}, "geometry": {"type": "Point", "coordinates": [-122.1482773, 47.4444351]}}]}