{"type": "FeatureCollection", "features": [{"type": "Feature", "properties": {"id": 5759741381, "name": "Sultan Gyro and Schwarma", "category": "restaurant", "tags": ["restaurant", "mediterranean"], "sources": ["osm"], "website": "https://sultangyroandshawarmagrill.shop/", "phone": "+1-206-629-4330", "hours": "Mo-Su 11:00-20:30"}, "geometry": {"type": "Point", "coordinates": [-122.3463008, 47.7562033]}}, {"type": "Feature", "properties": {"id": "d7382c25-8763-49c4-88c5-8bab19121e80", "name": "Sultan Gyro and Shawarma Grill", "category": "restaurant", "tags": ["restaurant", "mediterranean", "middle-eastern"], "sources": ["overture"], "phone": "+12066294330", "address": "17505 Aurora Ave N"}, "geometry": {"type": "Point", "coordinates": [-122.3462219, 47.7561531]}}, {"type": "Feature", "properties": {"id": "dbd1cde0-e148-4c56-b0c0-db7a0e0cce0f", "name": "Seatac Computers", "category": "restaurant", "tags": ["restaurant"], "sources": ["overture"], "phone": "+12065421971", "address": "17034 Aurora Ave N"}, "geometry": {"type": "Point", "coordinates": [-122.3452072, 47.753521]}}, {"type": "Feature", "properties": {"id": "047c60dc-0493-4bfe-bed0-53606ba7e800", "name": "One Cup Coffee", "category": "cafe", "tags": ["cafe", "coffee"], "sources": ["overture"], "website": "http://www.onecup.org", "phone": "(206) 316-8366", "address": "16929 Aurora Avenue N."}, "geometry": {"type": "Point", "coordinates": [-122.3459091, 47.7518158]}}, {"type": "Feature", "properties": {"id": "1c26790e-0ec1-4dd6-91d2-19b2bb585242", "name": "Red Crane Steak & Sushi Cafe", "category": "restaurant", "tags": ["restaurant", "sushi"], "sources": ["overture"], "website": "http://www.clubhollywoodredcrane.com", "phone": "(206) 546-4444", "address": "16716 Aurora Ave N"}, "geometry": {"type": "Point", "coordinates": [-122.3451462, 47.7512169]}}, {"type": "Feature", "properties": {"id": "758495de-02d8-4ba2-a4d2-79f96e85f532", "name": "Drift On Inn Roadhouse", "category": "restaurant", "tags": ["restaurant", "american"], "sources": ["overture"], "website": "http://www.driftoninn.com", "phone": "2065339988", "address": "16708 Aurora Ave N"}, "geometry": {"type": "Point", "coordinates": [-122.3449554, 47.7507896]}}, {"type": "Feature", "properties": {"id": "58cf2993-5f15-44ec-ba4a-ab81bdb3e970", "name": "Escape Bar and Dance Club", "category": "bar", "tags": ["bar"], "sources": ["overture"], "phone": "+12065421010", "address": "16708 Aurora Ave N"}, "geometry": {"type": "Point", "coordinates": [-122.3449478, 47.7507896]}}, {"type": "Feature", "properties": {"id": "bd7c631c-53cb-47cb-8ca3-97937439fc67", "name": "Black Coffee Northwest Caf\u00e9", "category": "cafe", "tags": ["cafe"], "sources": ["overture"], "website": "https://www.blackcoffeenw.com", "phone": "2066294022", "address": "16743 Aurora Ave N"}, "geometry": {"type": "Point", "coordinates": [-122.3460083, 47.7517662]}}, {"type": "Feature", "properties": {"id": "b07e2865-cef8-42f6-954d-bea30f6abc9b", "name": "DateCafe \u2013 Pho, Coffee & Bubble Tea", "category": "restaurant", "tags": ["restaurant", "vietnamese", "asian"], "sources": ["overture"], "website": "https://pos.chowbus.com/online-ordering/store/date-cafe/22002", "phone": "+12066294000", "address": "16743 Aurora Ave N"}, "geometry": {"type": "Point", "coordinates": [-122.3459702, 47.7518082]}}, {"type": "Feature", "properties": {"id": "87bf28b5-60b8-4faa-815c-61fe33126cd4", "name": "Hong Kong Buffet & Grill", "category": "restaurant", "tags": ["restaurant", "buffet", "sushi"], "sources": ["overture"], "phone": "2065331555", "address": "16549 Aurora Ave N"}, "geometry": {"type": "Point", "coordinates": [-122.3462601, 47.7502556]}}, {"type": "Feature", "properties": {"id": "6c13fc8c-d083-4c90-8c32-b6516e95352a", "name": "Ichi Bento Teriyaki", "category": "restaurant", "tags": ["restaurant", "japanese", "asian", "fast-food"], "sources": ["overture"], "phone": "+13606580183", "address": "1144 N 175th St"}, "geometry": {"type": "Point", "coordinates": [-122.3433838, 47.7563362]}}, {"type": "Feature", "properties": {"id": "cadfe0a0-0009-44ff-b792-e2112a38e30f", "name": "Jersey's Great Food & Spirits", "category": "bar", "tags": ["bar"], "sources": ["overture"], "website": "http://www.jerseysgreatfood.com", "phone": "(206) 501-3115", "address": "1306 N 175th St #101"}, "geometry": {"type": "Point", "coordinates": [-122.342392, 47.7562828]}}, {"type": "Feature", "properties": {"id": "349916c7-61db-4713-a555-fcb91bdf1b90", "name": "Ethiopian Cuisine", "category": "restaurant", "tags": ["restaurant", "ethiopian"], "sources": ["overture"], "phone": "+12064121451", "address": "1305 N 175th St"}, "geometry": {"type": "Point", "coordinates": [-122.341835, 47.7551231]}}, {"type": "Feature", "properties": {"id": 3728549326, "name": "Redwood Lantern", "category": "artwork", "tags": ["artwork"], "sources": ["osm"]}, "geometry": {"type": "Point", "coordinates": [-122.343558, 47.7564102]}}, {"type": "Feature", "properties": {"id": 3728562625, "name": "Fragments", "category": "artwork", "tags": ["artwork"], "sources": ["osm"]}, "geometry": {"type": "Point", "coordinates": [-122.3435269, 47.7565229]}}, {"type": "Feature", "properties": {"id": 9965398471, "name": "S. Cargo", "category": "artwork", "tags": ["artwork"], "sources": ["osm"]}, "geometry": {"type": "Point", "coordinates": [-122.34566, 47.7582448]}}, {"type": "Feature", "properties": {"id": 9965398472, "name": "Big Red", "category": "artwork", "tags": ["artwork"], "sources": ["osm"]}, "geometry": {"type": "Point", "coordinates": [-122.3455384, 47.7583334]}}, {"type": "Feature", "properties": {"id": 9965398473, "name": "Tsunami Memorial", "category": "artwork", "tags": ["artwork"], "sources": ["osm"]}, "geometry": {"type": "Point", "coordinates": [-122.345576, 47.7586647]}}, {"type": "Feature", "properties": {"id": 10019763554, "name": "Polyhelix", "category": "artwork", "tags": ["artwork"], "sources": ["osm"]}, "geometry": {"type": "Point", "coordinates": [-122.3451103, 47.7572318]}}, {"type": "Feature", "properties": {"id": "9dcdbb80-8aee-4ec1-a03c-b12bd964d93f", "name": "ION Town Center", "category": "attraction", "tags": ["attraction", "landmark", "historical", "building"], "sources": ["overture"], "website": "https://www.iontowncenter.com/", "phone": "+18557634786", "address": "18004 Midvale Ave N"}, "geometry": {"type": "Point", "coordinates": [-122.3452377, 47.7599831]}}, {"type": "Feature", "properties": {"id": "7808f0b3-664b-47ef-aadf-65be92de8380", "name": "Aurora Ave N & N 180th St", "category": "attraction", "tags": ["attraction", "landmark", "historical", "building"], "sources": ["overture"], "phone": "+12065429555", "address": "18002 Aurora Ave N"}, "geometry": {"type": "Point", "coordinates": [-122.3458099, 47.7597847]}}, {"type": "Feature", "properties": {"id": "1efb9356-9ad4-4597-812a-b94a0a49a210", "name": "Geo", "category": "attraction", "tags": ["attraction", "landmark", "historical", "building"], "sources": ["overture"], "website": "https://www.geoapts.com/", "phone": "+12069623386", "address": "17990 Midvale Ave N"}, "geometry": {"type": "Point", "coordinates": [-122.3449783, 47.7593575]}}, {"type": "Feature", "properties": {"id": "8099fb75-0edc-4e14-9290-938a27072822", "name": "Linden Highlands Apartments", "category": "attraction", "tags": ["attraction", "landmark", "historical", "building"], "sources": ["overture"], "website": "https://www.lindenhighlands.com/", "phone": "+12537853303", "address": "17520 Linden Ave N"}, "geometry": {"type": "Point", "coordinates": [-122.3477631, 47.7562904]}}, {"type": "Feature", "properties": {"id": "33dd8a6a-a48a-4869-8cb7-51f8c4067035", "name": "Modera Shoreline", "category": "attraction", "tags": ["attraction", "landmark", "historical", "building"], "sources": ["overture"], "website": "https://moderashoreline.com/?switch_cls%5Bid%5D=95046&utm_source=Facebook%2FInstagram&utm_medium=Community+Listing", "phone": "+14255523005", "address": "17888 Linden Ave N"}, "geometry": {"type": "Point", "coordinates": [-122.3482742, 47.7579956]}}, {"type": "Feature", "properties": {"id": "8bfca1a9-91af-4025-9f32-4ae61e790c51", "name": "Paceline Apartments", "category": "attraction", "tags": ["attraction", "landmark", "historical", "building"], "sources": ["overture"], "website": "https://pacelineapts.com/", "phone": "+12068017052", "address": "17202 Aurora Ave N"}, "geometry": {"type": "Point", "coordinates": [-122.3450089, 47.7543831]}}, {"type": "Feature", "properties": {"id": "a283ca75-7679-4471-8440-0f7e46a25b00", "name": "Interurban Lofts", "category": "attraction", "tags": ["attraction", "landmark", "historical", "building"], "sources": ["overture"], "website": "http://www.interurbanlofts.com/english/", "phone": "+12067248321", "address": "17020 Aurora Ave N"}, "geometry": {"type": "Point", "coordinates": [-122.3452988, 47.7531052]}}, {"type": "Feature", "properties": {"id": "1c2adadc-3c28-4c27-882b-9c8e9b52dc57", "name": "Forest Hills Apartment Homes", "category": "attraction", "tags": ["attraction", "landmark", "historical", "building"], "sources": ["overture"], "website": "http://www.foresthillsapartmenthomes.com/?rcstdid=MTE%3D-aKFOxiSL8lQ%3D", "phone": "+12069813353", "address": "1311 N 175th St"}, "geometry": {"type": "Point", "coordinates": [-122.3418503, 47.7553902]}}, {"type": "Feature", "properties": {"id": 1101682254, "name": "Richmond Highlands Park", "category": "park", "tags": ["park"], "sources": ["osm", "overture"], "website": "https://www.shorelinewa.gov/Home/Components/FacilityDirectory/FacilityDirectory/1079/135", "address": "16554 Fremont Ave N"}, "geometry": {"type": "Point", "coordinates": [-122.3493967, 47.7500266]}}, {"type": "Feature", "properties": {"id": "a8da8b50-b329-43d7-a566-4fa6da2da098", "name": "Richmond Beach Saltwater Park", "category": "park", "tags": ["park"], "sources": ["overture"]}, "geometry": {"type": "Point", "coordinates": [-122.3460541, 47.7560463]}}, {"type": "Feature", "properties": {"id": 568565182, "name": "Trader Joe's", "category": "supermarket", "tags": ["supermarket"], "sources": ["osm", "overture"], "website": "https://locations.traderjoes.com/wa/shoreline/270/", "phone": "+12065425336", "address": "1201 N 175th St", "hours": "Mo-Su 08:00-21:00"}, "geometry": {"type": "Point", "coordinates": [-122.3434191, 47.754824]}}, {"type": "Feature", "properties": {"id": 775389524, "name": "Food Mart", "category": "convenience", "tags": ["convenience"], "sources": ["osm"], "address": "17505 Aurora Avenue North"}, "geometry": {"type": "Point", "coordinates": [-122.3463013, 47.7563055]}}, {"type": "Feature", "properties": {"id": 5469795911, "name": "Mud Bay", "category": "pet", "tags": ["pet"], "sources": ["osm", "overture"], "website": "http://www.mudbay.com/pet-store/SHO-shoreline-WA", "phone": "2066296062", "address": "1201 N 175th St"}, "geometry": {"type": "Point", "coordinates": [-122.3439834, 47.7549978]}}, {"type": "Feature", "properties": {"id": "43b83e7b-6463-47f1-9e61-8188425780b1", "name": "Plaza Latina", "category": "supermarket", "tags": ["supermarket"], "sources": ["overture"], "website": "https://local.yahoo.com/info-22168062-plaza-latina-shoreline", "phone": "+12065339440", "address": "17034 Aurora Ave N"}, "geometry": {"type": "Point", "coordinates": [-122.3452911, 47.753624]}}, {"type": "Feature", "properties": {"id": "6894b8f0-90a7-4de7-96ca-89f25e0dd953", "name": "Tobacco Lane", "category": "tobacco", "tags": ["tobacco"], "sources": ["overture"], "phone": "12065338668", "address": "16737 Aurora Ave N"}, "geometry": {"type": "Point", "coordinates": [-122.3461456, 47.7515411]}}, {"type": "Feature", "properties": {"id": 9743980556, "name": "Optum", "category": "clinic", "tags": ["clinic"], "sources": ["osm"], "address": "1201 North 175th Street"}, "geometry": {"type": "Point", "coordinates": [-122.3429573, 47.7550067]}}, {"type": "Feature", "properties": {"id": 309273853, "name": "ICHS Medical and Dental Clinic", "category": "clinic", "tags": ["clinic"], "sources": ["osm"], "website": "https://www.ichs.com/ichs-locations/shoreline/", "address": "16549 Aurora Avenue North"}, "geometry": {"type": "Point", "coordinates": [-122.3460972, 47.7501746]}}, {"type": "Feature", "properties": {"id": "25ebb413-04d6-4311-bedc-53f9833cbbcb", "name": "Walgreens Pharmacy", "category": "pharmacy", "tags": ["pharmacy"], "sources": ["overture"], "website": "https://www.walgreens.com", "phone": "+12065424964", "address": "17524 Aurora Ave N"}, "geometry": {"type": "Point", "coordinates": [-122.3453369, 47.7567406]}}, {"type": "Feature", "properties": {"id": "e326ba82-d0a4-4ba5-ae5e-fad941733cb3", "name": "The Everett Clinic OB/GYN", "category": "clinic", "tags": ["clinic", "medical"], "sources": ["overture"], "website": "https://www.everettclinic.com/locations/shoreline", "phone": "2064013165", "address": "1201 N 175th St"}, "geometry": {"type": "Point", "coordinates": [-122.3433228, 47.7551842]}}, {"type": "Feature", "properties": {"id": "4bca29c2-e6c6-4b31-9e13-a04c4cd0fef9", "name": "The Everett Clinic Internal Medicine", "category": "clinic", "tags": ["clinic", "medical"], "sources": ["overture"], "website": "https://www.everettclinic.com/locations/shoreline", "phone": "2064013160", "address": "1201 N 175th St"}, "geometry": {"type": "Point", "coordinates": [-122.3433228, 47.7551842]}}, {"type": "Feature", "properties": {"id": "1cc59e5f-c145-4af4-b236-adc688bfe289", "name": "The Everett Clinic at Shoreline", "category": "clinic", "tags": ["clinic", "medical"], "sources": ["overture"], "website": "http://www.everettclinic.com/", "phone": "2064013200", "address": "1201 N 175th St"}, "geometry": {"type": "Point", "coordinates": [-122.3433838, 47.7554436]}}, {"type": "Feature", "properties": {"id": 775389526, "name": "KeyBank", "category": "bank", "tags": ["bank"], "sources": ["osm"]}, "geometry": {"type": "Point", "coordinates": [-122.3452813, 47.756212]}}]}