{"type": "FeatureCollection", "features": [{"type": "Feature", "properties": {"id": "3be16963-7c7f-49c3-b065-945e613a49c5", "name": "Riverview West Apartments", "category": "attraction", "tags": ["attraction", "landmark", "historical", "building"], "sources": ["overture"], "website": "https://www.riverviewwestapartments.com", "phone": "+12065017804", "address": "10300 Des Moines Memorial Dr S"}, "geometry": {"type": "Point", "coordinates": [-122.307106, 47.511322]}}, {"type": "Feature", "properties": {"id": 887429738, "name": "Salmon Cove Park and Shoreline Habitat", "category": "park", "tags": ["park"], "sources": ["osm"]}, "geometry": {"type": "Point", "coordinates": [-122.3031159, 47.510789]}}]}