{"type": "FeatureCollection", "features": [{"type": "Feature", "properties": {"id": 9773914620, "name": "Subway", "category": "fast_food", "tags": ["fast-food", "sandwich", "takeaway", "restaurant"], "sources": ["osm", "overture"], "website": "https://www.subway.com", "phone": "14256587381", "address": "2628 Bellevue Way NE", "hours": "Mo-Sa 09:00-19:00"}, "geometry": {"type": "Point", "coordinates": [-122.2007194, 47.6344515]}}, {"type": "Feature", "properties": {"id": 9773945583, "name": "Starbucks", "category": "cafe", "tags": ["cafe", "coffee-shop", "takeaway"], "sources": ["osm"], "website": "https://www.starbucks.com/store-locator/store/10986/qfc-bellevue-859-2636-bellevue-way-ne-bellevue-wa-980042209-us", "phone": "+1-425-822-4154", "address": "2636 Bellevue Way Northeast", "hours": "Mo-Su 05:00-19:00"}, "geometry": {"type": "Point", "coordinates": [-122.2009575, 47.6349089]}}, {"type": "Feature", "properties": {"id": 9773945585, "name": "Brief Encounter Cafe", "category": "fast_food", "tags": ["fast-food", "american"], "sources": ["osm"], "website": "https://www.briefencountercafe.com/", "phone": "+1-425-822-8830", "hours": "Mo-Su 08:00-14:00"}, "geometry": {"type": "Point", "coordinates": [-122.2007181, 47.6344942]}}, {"type": "Feature", "properties": {"id": 9773945590, "name": "Sushi in Joy", "category": "restaurant", "tags": ["restaurant", "sushi", "japanese", "asian"], "sources": ["osm", "overture"], "website": "http://sushiinjoybellevue.com/", "phone": "+14255761743", "address": "2618 Bellevue Way NE"}, "geometry": {"type": "Point", "coordinates": [-122.2007285, 47.6341578]}}, {"type": "Feature", "properties": {"id": "d39dc8cc-7c89-4113-9679-790be6097581", "name": "Starbucks Coffee Company", "category": "cafe", "tags": ["cafe", "coffee"], "sources": ["overture"], "website": "https://www.starbucks.com/store-locator/store/10986", "phone": "+14258224154", "address": "2636 Bellevue Way NE"}, "geometry": {"type": "Point", "coordinates": [-122.2009811, 47.6348267]}}, {"type": "Feature", "properties": {"id": "1db2b4cc-32c8-40b1-9be9-bfef06108ba9", "name": "Mr. Beast Burger", "category": "restaurant", "tags": ["restaurant"], "sources": ["overture"], "website": "https://www.mrbeastburger.com", "phone": "(877) 232-7898", "address": "2632 Bellevue Way NE"}, "geometry": {"type": "Point", "coordinates": [-122.2006607, 47.6345062]}}, {"type": "Feature", "properties": {"id": "2304bded-4fc0-421d-9846-e84d100ec11a", "name": "Mariah's Cookies", "category": "restaurant", "tags": ["restaurant"], "sources": ["overture"], "website": "https://mariahcareyscookies.com", "phone": "(833) 627-4242", "address": "2632 Bellevue Way NE"}, "geometry": {"type": "Point", "coordinates": [-122.2006531, 47.6345634]}}, {"type": "Feature", "properties": {"id": "0b39ee3f-ee8a-4d50-8e16-2bc3930bf048", "name": "In Pizza We Crust", "category": "restaurant", "tags": ["restaurant", "pizza"], "sources": ["overture"], "website": "http://www.inpizzawecrust.net/", "phone": "+12067143176", "address": "2620 Bellevue Way NE"}, "geometry": {"type": "Point", "coordinates": [-122.2006531, 47.6340027]}}, {"type": "Feature", "properties": {"id": "d83761b2-1642-4233-ad7f-a4bc20086da4", "name": "Tuscan Stone Pizza", "category": "fast_food", "tags": ["fast-food", "food", "truck", "pizza"], "sources": ["overture"], "website": "http://www.tuscanstonepizza.com/", "phone": "4254495022", "address": "2616 Bellevue Way NE"}, "geometry": {"type": "Point", "coordinates": [-122.2006683, 47.6339951]}}, {"type": "Feature", "properties": {"id": "d82b7cf0-6c32-47a6-8fa0-4f1ece1abf2e", "name": "The Brief Encounter Cafe", "category": "restaurant", "tags": ["restaurant", "american"], "sources": ["overture"], "website": "https://order.online/store/brief-encounter-29567", "phone": "+14258228830", "address": "2632 Bellevue Way NE"}, "geometry": {"type": "Point", "coordinates": [-122.2007446, 47.6344719]}}, {"type": "Feature", "properties": {"id": "3a9cf93e-43e4-473a-9d41-11cb269eace7", "name": "Ihn Inc", "category": "restaurant", "tags": ["restaurant"], "sources": ["overture"], "address": "2618 Bellevue Way NE"}, "geometry": {"type": "Point", "coordinates": [-122.2006302, 47.6341438]}}, {"type": "Feature", "properties": {"id": 10813302558, "name": "Amore", "category": "artwork", "tags": ["artwork"], "sources": ["osm"]}, "geometry": {"type": "Point", "coordinates": [-122.2085764, 47.6317699]}}, {"type": "Feature", "properties": {"id": 10813683308, "name": "Legends of the Deep #2", "category": "artwork", "tags": ["artwork"], "sources": ["osm"]}, "geometry": {"type": "Point", "coordinates": [-122.2085602, 47.6315073]}}, {"type": "Feature", "properties": {"id": "9fe69168-2311-4909-bdf2-641e05f440d8", "name": "The Ridge Bellevue Condominium", "category": "attraction", "tags": ["attraction", "landmark", "historical", "building"], "sources": ["overture"], "phone": "+14258275431", "address": "10400 NE 32nd Pl"}, "geometry": {"type": "Point", "coordinates": [-122.2010345, 47.6397133]}}, {"type": "Feature", "properties": {"id": 192849594, "name": "Northtowne Park", "category": "park", "tags": ["park"], "sources": ["osm", "overture"], "phone": "+14254526885", "address": "2800 Bellevue Way NE"}, "geometry": {"type": "Point", "coordinates": [-122.2009039, 47.6353225]}}, {"type": "Feature", "properties": {"id": "816e1eff-7a9e-41ae-9642-28bd37ead385", "name": "Chesterfield Beach Park", "category": "park", "tags": ["park"], "sources": ["overture"], "website": "http://www.bellevuewa.gov/chesterfield_beach_park.htm", "phone": "+14254526885", "address": "2501 100th Ave NE"}, "geometry": {"type": "Point", "coordinates": [-122.2073441, 47.6331978]}}, {"type": "Feature", "properties": {"id": 223727366, "name": "Spring Hills Park", "category": "park", "tags": ["park"], "sources": ["osm"]}, "geometry": {"type": "Point", "coordinates": [-122.2026666, 47.6370411]}}, {"type": "Feature", "properties": {"id": 394184418, "name": "Northwest Community Center Park", "category": "park", "tags": ["park"], "sources": ["osm"], "address": "9825 Northeast 24th Street"}, "geometry": {"type": "Point", "coordinates": [-122.2083595, 47.6315335]}}, {"type": "Feature", "properties": {"id": 1738808296, "name": "QFC", "category": "supermarket", "tags": ["supermarket"], "sources": ["osm", "overture"], "website": "https://www.qfc.com/stores/grocery/wa/bellevue/northtown-bellevue/705/00859?cid=loc_70500859_fb", "phone": "+14258224154", "address": "2636 Bellevue Way NE", "hours": "24/7"}, "geometry": {"type": "Point", "coordinates": [-122.200734, 47.6347691]}}, {"type": "Feature", "properties": {"id": 640084891, "name": "Food Mart", "category": "convenience", "tags": ["convenience"], "sources": ["osm"], "address": "2626 Bellevue Way Northeast"}, "geometry": {"type": "Point", "coordinates": [-122.2010711, 47.6343148]}}, {"type": "Feature", "properties": {"id": 9773945591, "name": "Silver Platters", "category": "music", "tags": ["music"], "sources": ["osm"], "website": "https://www.silverplatters.com/", "phone": "+1-425-643-3472", "address": "2616 Bellevue Way Northeast"}, "geometry": {"type": "Point", "coordinates": [-122.2007336, 47.6339925]}}, {"type": "Feature", "properties": {"id": "5a04ba9a-67e3-4fb1-8ce0-c4e58a589322", "name": "State Liquor Store", "category": "alcohol", "tags": ["alcohol"], "sources": ["overture"], "website": "http://liq.wa.gov", "phone": "(425) 649-4307", "address": "2616 Bellevue Way NE"}, "geometry": {"type": "Point", "coordinates": [-122.2007217, 47.6342354]}}, {"type": "Feature", "properties": {"id": "ec1ad976-bffd-43a3-835e-1a55d4c8148b", "name": "Quality Food Center", "category": "pharmacy", "tags": ["pharmacy"], "sources": ["overture"], "website": "https://www.qfc.com/rx/pharmacy/details/705/00859", "address": "2636 Bellevue Way NE"}, "geometry": {"type": "Point", "coordinates": [-122.2007751, 47.6347504]}}, {"type": "Feature", "properties": {"id": 9773945589, "name": "Pakmail", "category": "post_office", "tags": ["post-office"], "sources": ["osm"], "website": "https://www.pakmail.com/", "phone": "+1-425-803-0627"}, "geometry": {"type": "Point", "coordinates": [-122.2007262, 47.634231]}}]}