{"type": "FeatureCollection", "features": [{"type": "Feature", "properties": {"id": 1774098604, "name": "Chuck's Donuts", "category": "fast_food", "tags": ["fast-food", "donut"], "sources": ["osm"], "phone": "+1-425-228-6336", "address": "5335 Northeast 4th Street", "hours": "Mo-Sa 03:00-14:00"}, "geometry": {"type": "Point", "coordinates": [-122.147172, 47.4881921]}}, {"type": "Feature", "properties": {"id": 650950982, "name": "Sorrento's Coffee", "category": "cafe", "tags": ["cafe", "coffee-shop", "outdoor-seating", "drive-through", "coffee"], "sources": ["osm", "overture"], "website": "https://www.zomato.com/renton-wa/renton-restaurants", "phone": "+14252282951", "address": "5301 NE 4th St", "hours": "Su 07:30-17:00; Mo-Fr 05:30-17:30; Sa 06:30-17:30; PH off"}, "geometry": {"type": "Point", "coordinates": [-122.1481258, 47.4882393]}}, {"type": "Feature", "properties": {"id": 165901792, "name": "Maplewood Community Park", "category": "park", "tags": ["park"], "sources": ["osm"]}, "geometry": {"type": "Point", "coordinates": [-122.1428487, 47.4802601]}}, {"type": "Feature", "properties": {"id": 499397018, "name": "Maplewood Estates Neighborhood Park", "category": "park", "tags": ["park"], "sources": ["osm"]}, "geometry": {"type": "Point", "coordinates": [-122.1400893, 47.4825199]}}, {"type": "Feature", "properties": {"id": 560662501, "name": "Sienna Neighborhood Park", "category": "park", "tags": ["park"], "sources": ["osm"]}, "geometry": {"type": "Point", "coordinates": [-122.1454858, 47.4857114]}}, {"type": "Feature", "properties": {"id": 640413167, "name": "Hop In Grocery and Deli", "category": "convenience", "tags": ["convenience", "supermarket"], "sources": ["osm", "overture"], "website": "http://www.hopingrocery.com", "phone": "(425) 228-4273", "address": "5325 NE 4th St"}, "geometry": {"type": "Point", "coordinates": [-122.1478141, 47.4878837]}}, {"type": "Feature", "properties": {"id": "5fe1d162-a36f-4706-b717-2b00e5642849", "name": "Top Of The Hill Quality Produce & Meats", "category": "supermarket", "tags": ["supermarket"], "sources": ["overture"], "website": "http://www.topofthehillqualityproduce.com", "phone": "14252264316", "address": "5325 NE 4th St"}, "geometry": {"type": "Point", "coordinates": [-122.1474533, 47.4878883]}}]}