{"type": "FeatureCollection", "features": [{"type": "Feature", "properties": {"id": 4911776235, "name": "The Flock", "category": "artwork", "tags": ["artwork"], "sources": ["osm"]}, "geometry": {"type": "Point", "coordinates": [-122.2132634, 47.5783032]}}, {"type": "Feature", "properties": {"id": 4920961594, "name": "Mercer Island Sentinel", "category": "artwork", "tags": ["artwork"], "sources": ["osm"]}, "geometry": {"type": "Point", "coordinates": [-122.2100775, 47.5773152]}}, {"type": "Feature", "properties": {"id": "98b70866-ce0e-45fb-a5cc-6616540b942f", "name": "Gallagher Hill Open Space", "category": "park", "tags": ["park"], "sources": ["overture"], "address": "Gallagher Hill Rd"}, "geometry": {"type": "Point", "coordinates": [-122.2164383, 47.578804]}}]}