{"type": "FeatureCollection", "features": [{"type": "Feature", "properties": {"id": 4945901682, "name": "Subway", "category": "fast_food", "tags": ["fast-food", "sandwich", "takeaway", "restaurant"], "sources": ["osm", "overture"], "website": "https://www.subway.com", "phone": "12532778409", "address": "13308 Se 240th St  Ste D-5", "hours": "08:00-21:30"}, "geometry": {"type": "Point", "coordinates": [-122.1633456, 47.3876093]}}, {"type": "Feature", "properties": {"id": 4945901684, "name": "Papa John's", "category": "fast_food", "tags": ["fast-food", "pizza", "takeaway"], "sources": ["osm"], "website": "https://locations.papajohns.com/united-states/wa/98042/kent/13308-se-240th-st", "phone": "+1-253-630-2222", "address": "13304 Southeast 240th Street", "hours": "Mo-Tu 10:00-23:00; We 10:00-21:30; Th 11:00-23:00; Fr-Sa 10:00-24:00; Su 10:00-23:00"}, "geometry": {"type": "Point", "coordinates": [-122.1635929, 47.3876223]}}, {"type": "Feature", "properties": {"id": 4918194060, "name": "Ichi 2 Teriyaki", "category": "restaurant", "tags": ["restaurant", "japanese", "asian"], "sources": ["osm", "overture"], "website": "http://restaurantportals.com/Ichi2Teriyaki/", "phone": "+12536397700", "address": "13215 SE 240th St"}, "geometry": {"type": "Point", "coordinates": [-122.1646562, 47.3865938]}}, {"type": "Feature", "properties": {"id": 4945901685, "name": "Tacos Land", "category": "fast_food", "tags": ["fast-food", "mexican", "restaurant", "taco", "latin-american"], "sources": ["osm", "overture"], "website": "https://online.skytab.com/e009910f58ceed05db17629e3c434f11", "phone": "+12062475781", "address": "13302 SE 240th St"}, "geometry": {"type": "Point", "coordinates": [-122.1637575, 47.3876204]}}, {"type": "Feature", "properties": {"id": 444508800, "name": "Kelly's Lattes", "category": "cafe", "tags": ["cafe", "coffee-shop"], "sources": ["osm"], "address": "24220 132nd Avenue Southeast"}, "geometry": {"type": "Point", "coordinates": [-122.1650741, 47.3847725]}}, {"type": "Feature", "properties": {"id": "e9b44fd1-2f68-47c5-ade2-ea922ec6cc43", "name": "Starbucks Coffee Company", "category": "cafe", "tags": ["cafe", "coffee"], "sources": ["overture"], "website": "https://www.starbucks.com/store-locator/store/18172", "phone": "+12536303560", "address": "13304 SE 240th St"}, "geometry": {"type": "Point", "coordinates": [-122.163475, 47.3875694]}}, {"type": "Feature", "properties": {"id": "16815866-cd45-4c8c-b426-d7c7a796e9e3", "name": "Papa Johns Pizza", "category": "restaurant", "tags": ["restaurant", "pizza", "fast-food"], "sources": ["overture"], "website": "https://locations.papajohns.com/united-states/wa/98042/kent/13304-se-240th-st?utm_source=facebook-store-pages&utm_medium=referral&y_source=1_MTA2OTA5OTktNTU5LWxvY2F0aW9uLndlYnNpdGU%3D", "phone": "+12536302222", "address": "13308 SE 240th St"}, "geometry": {"type": "Point", "coordinates": [-122.1637115, 47.3875961]}}, {"type": "Feature", "properties": {"id": "f4df45c9-4363-495f-b0a8-f9e0a7f5f9d8", "name": "Leeco Meridian Valley Llc", "category": "restaurant", "tags": ["restaurant"], "sources": ["overture"], "address": "13308 SE 240th St"}, "geometry": {"type": "Point", "coordinates": [-122.1633606, 47.3876076]}}, {"type": "Feature", "properties": {"id": "27384008-db30-497c-b2a6-f72eff9b81ac", "name": "Kelly Latte's", "category": "cafe", "tags": ["cafe", "coffee"], "sources": ["overture"], "website": "http://www.agr.wa.gov", "phone": "+12536309051", "address": "24220 132nd Ave SE"}, "geometry": {"type": "Point", "coordinates": [-122.1651917, 47.3848038]}}, {"type": "Feature", "properties": {"id": "159a2369-1b97-461c-8f4e-3621148a2fb7", "name": "Meridian Garden", "category": "attraction", "tags": ["attraction", "landmark", "historical", "building"], "sources": ["overture"], "website": "https://www.meridiangarden.com/?utm_knock=sm", "phone": "+12532433112", "address": "13101 SE 240th St"}, "geometry": {"type": "Point", "coordinates": [-122.1666489, 47.3860435]}}, {"type": "Feature", "properties": {"id": 1482606584, "name": "Elan Neighborhood Park", "category": "park", "tags": ["park"], "sources": ["osm"]}, "geometry": {"type": "Point", "coordinates": [-122.1641508, 47.3880087]}}, {"type": "Feature", "properties": {"id": 638071577, "name": "7-Eleven", "category": "convenience", "tags": ["convenience", "delivery"], "sources": ["osm", "overture"], "website": "https://www.7-eleven.com/", "phone": "+12538825200", "address": "13131 SE 240th St", "hours": "24/7"}, "geometry": {"type": "Point", "coordinates": [-122.1659717, 47.3865215]}}, {"type": "Feature", "properties": {"id": 807356937, "name": "QFC", "category": "supermarket", "tags": ["supermarket"], "sources": ["osm", "overture"], "website": "https://www.qfc.com/stores/grocery/wa/kent/meridian/705/00803?cid=loc_70500803_fb", "phone": "+12536303560", "address": "13310 SE 240th St", "hours": "24/7"}, "geometry": {"type": "Point", "coordinates": [-122.1631295, 47.3874757]}}, {"type": "Feature", "properties": {"id": 3630060265, "name": "Circle K", "category": "convenience", "tags": ["convenience"], "sources": ["osm"]}, "geometry": {"type": "Point", "coordinates": [-122.1659778, 47.3873208]}}, {"type": "Feature", "properties": {"id": "dd773b32-044c-48f4-a0c9-f11ab8007614", "name": "K SMOKE", "category": "tobacco", "tags": ["tobacco"], "sources": ["overture"], "website": "http://www.ksmoke.com/", "phone": "2539814509", "address": "13215 SE 240th St Ste F"}, "geometry": {"type": "Point", "coordinates": [-122.164711, 47.3862343]}}, {"type": "Feature", "properties": {"id": "4998621b-5722-4113-b8e7-978a43baa1eb", "name": "Rocket", "category": "convenience", "tags": ["convenience"], "sources": ["overture"], "website": "https://rocketstores.com/", "phone": "+12536318512", "address": "13122 SE 240th St"}, "geometry": {"type": "Point", "coordinates": [-122.1659775, 47.3871231]}}, {"type": "Feature", "properties": {"id": "62d6eb09-b6ac-48f8-b3ed-851d03493e0b", "name": "Quality Food Center", "category": "supermarket", "tags": ["supermarket"], "sources": ["overture"], "website": "https://www.qfc.com/stores/grocery/wa/kent/meridian/705/00803", "address": "13310 SE 240th St"}, "geometry": {"type": "Point", "coordinates": [-122.1630173, 47.3874474]}}, {"type": "Feature", "properties": {"id": "c1fd3ee0-f923-48cf-a80c-c3579d0e184e", "name": "The Soggy Doggy", "category": "pet", "tags": ["pet"], "sources": ["overture"], "website": "http://thesoggydoggy.com/", "phone": "+12536396700", "address": "24030 132nd Ave SE"}, "geometry": {"type": "Point", "coordinates": [-122.1645966, 47.386055]}}, {"type": "Feature", "properties": {"id": "560003a0-e7ca-4dd3-aa53-9830f2637717", "name": "Windows Plus", "category": "doityourself", "tags": ["doityourself", "building", "supply"], "sources": ["overture"], "website": "http://windowspluswa.com", "phone": "(253) 244-9640", "address": "13220 SE 247th St"}, "geometry": {"type": "Point", "coordinates": [-122.164238, 47.3807907]}}, {"type": "Feature", "properties": {"id": "5595b076-f30f-45b3-8d2e-f2da16acc77d", "name": "Punjabi Bazaar", "category": "supermarket", "tags": ["supermarket"], "sources": ["overture"], "phone": "+12532773098", "address": "24030 132nd Ave SE A"}, "geometry": {"type": "Point", "coordinates": [-122.164856, 47.3860855]}}, {"type": "Feature", "properties": {"id": "89ed2300-29cb-4e20-8d4a-46998a628135", "name": "Mardix Pharmacy", "category": "pharmacy", "tags": ["pharmacy"], "sources": ["overture"], "phone": "+12536303833", "address": "13308 SE 240th St"}, "geometry": {"type": "Point", "coordinates": [-122.1633606, 47.3876076]}}, {"type": "Feature", "properties": {"id": 4945901694, "name": "Anytime Fitness", "category": "fitness_centre", "tags": ["fitness-centre", "gym"], "sources": ["osm", "overture"], "website": "https://www.anytimefitness.com/locations/kent-washington-3643/", "phone": "+12534871604", "address": "13210 SE 240th St", "hours": "24/7"}, "geometry": {"type": "Point", "coordinates": [-122.1650344, 47.3875336]}}, {"type": "Feature", "properties": {"id": 4945901681, "name": "My Gym", "category": "fitness_centre", "tags": ["fitness-centre"], "sources": ["osm"]}, "geometry": {"type": "Point", "coordinates": [-122.1648976, 47.386099]}}]}