{"type": "FeatureCollection", "features": [{"type": "Feature", "properties": {"id": 13952956903, "name": "Subway", "category": "restaurant", "tags": ["restaurant", "sandwich", "fast-food"], "sources": ["osm", "overture"], "website": "https://restaurants.subway.com/united-states/wa/burien/12805-1st-ave-s", "phone": "+12062443589", "address": "12805 1st Ave S Unit A", "hours": "Mo-Su 09:00-23:00"}, "geometry": {"type": "Point", "coordinates": [-122.3341256, 47.4880682]}}, {"type": "Feature", "properties": {"id": 2995309931, "name": "Krungthep Thai Cuisine", "category": "restaurant", "tags": ["restaurant", "thai", "takeaway", "vegetarian", "asian"], "sources": ["osm", "overture"], "website": "http://krungthepthai.com/", "phone": "+12068299426", "address": "13260 1st Ave S"}, "geometry": {"type": "Point", "coordinates": [-122.3334125, 47.4832317]}}, {"type": "Feature", "properties": {"id": 8684734261, "name": "Casa Caff\u00e8", "category": "cafe", "tags": ["cafe", "coffee-shop"], "sources": ["osm"]}, "geometry": {"type": "Point", "coordinates": [-122.3335495, 47.4859266]}}, {"type": "Feature", "properties": {"id": 451265218, "name": "Wah Kue Cafe", "category": "cafe", "tags": ["cafe", "asian", "chinese"], "sources": ["osm", "overture"], "website": "https://www.groupon.com/biz/burien-wa/wah-kue-cafe", "phone": "+12062425454", "address": "13434 1st Ave S"}, "geometry": {"type": "Point", "coordinates": [-122.3333876, 47.4818764]}}, {"type": "Feature", "properties": {"id": 677152273, "name": "Sisters Espresso, Inc.", "category": "cafe", "tags": ["cafe", "coffee-shop", "coffee"], "sources": ["osm", "overture"], "website": "https://sistersespresso-inc.hub.biz", "phone": "+12062445575", "address": "12805 1st Ave S", "hours": "Mo-Fr 05:00-15:00; Sa,Su 07:00-16:00"}, "geometry": {"type": "Point", "coordinates": [-122.3342892, 47.4882335]}}, {"type": "Feature", "properties": {"id": 677153318, "name": "Smokey's Char Broiled", "category": "fast_food", "tags": ["fast-food", "burger", "restaurant", "barbecue", "bar-and-grill"], "sources": ["osm", "overture"], "website": "https://www.smokeyscharbroiled.com", "phone": "+12062422550", "address": "12806 1st Ave S"}, "geometry": {"type": "Point", "coordinates": [-122.3332842, 47.4882863]}}, {"type": "Feature", "properties": {"id": "9c74d67e-2c80-426f-930b-fcf79cdb8cf5", "name": "Starbucks Coffee Company", "category": "cafe", "tags": ["cafe", "coffee"], "sources": ["overture"], "website": "https://www.starbucks.com/store-locator/store/1014980", "phone": "+12064397212", "address": "12725 1st Ave S"}, "geometry": {"type": "Point", "coordinates": [-122.3357544, 47.4892387]}}, {"type": "Feature", "properties": {"id": "df35586a-3c8a-438a-8e32-85a5e71a278f", "name": "Thai U Up", "category": "restaurant", "tags": ["restaurant", "thai", "asian"], "sources": ["overture"], "website": "http://thaiuup.com/", "phone": "+12065032914", "address": "13456 1st Ave S"}, "geometry": {"type": "Point", "coordinates": [-122.3334427, 47.4814796]}}, {"type": "Feature", "properties": {"id": "1bdf080e-082c-4b0e-9815-6465d0859ca0", "name": "Domino's Pizza", "category": "restaurant", "tags": ["restaurant", "wings", "chicken", "fast-food", "pizza"], "sources": ["overture"], "phone": "2062483030", "address": "13450 1st Ave S"}, "geometry": {"type": "Point", "coordinates": [-122.333786, 47.4815865]}}, {"type": "Feature", "properties": {"id": 166425177, "name": "Hazel Valley Park", "category": "park", "tags": ["park"], "sources": ["osm", "overture"], "website": "http://burienwa.gov/Facilities/Facility/Details/Hazel-Valley-Park-7", "phone": "+12069883700", "address": "251 SW 126th St & 2nd Ct SW"}, "geometry": {"type": "Point", "coordinates": [-122.3375436, 47.4896684]}}, {"type": "Feature", "properties": {"id": "70b8257a-319a-4a97-9827-50d39c834998", "name": "Hazel Valley Community Garden", "category": "park", "tags": ["park"], "sources": ["overture"], "website": "http://www.highlineunitedmethodistchurch.org/", "phone": "+12062415520", "address": "13015 1st Ave S"}, "geometry": {"type": "Point", "coordinates": [-122.3342514, 47.4863014]}}, {"type": "Feature", "properties": {"id": "6f9d24c4-d643-436b-894b-d1796e730938", "name": "7-Eleven", "category": "convenience", "tags": ["convenience"], "sources": ["overture"], "website": "https://www.7-eleven.com/locations/wa/burien/13456-1st-ave-south-20471", "phone": "2062463410", "address": "13456 1st Ave S"}, "geometry": {"type": "Point", "coordinates": [-122.3331833, 47.4815102]}}, {"type": "Feature", "properties": {"id": "073d376a-f285-4681-9d78-4380dc2f6242", "name": "Circle K", "category": "convenience", "tags": ["convenience"], "sources": ["overture"], "website": "http://www.circlek.com", "phone": "(206) 243-0235", "address": "2501 Ne 75Th"}, "geometry": {"type": "Point", "coordinates": [-122.3332596, 47.4888496]}}, {"type": "Feature", "properties": {"id": 676974619, "name": "Safeway", "category": "supermarket", "tags": ["supermarket"], "sources": ["osm", "overture"], "website": "https://local.safeway.com/safeway/wa/burien/12725-1st-ave-s.html", "phone": "+12064397212", "address": "12725 1st Ave S", "hours": "Mo-Su 05:00-24:00"}, "geometry": {"type": "Point", "coordinates": [-122.3357947, 47.4890662]}}, {"type": "Feature", "properties": {"id": "186317f5-d057-4e01-964e-26b8ef43f05b", "name": "Boost Mobile", "category": "mobile_phone", "tags": ["mobile-phone", "mobile"], "sources": ["overture"], "website": "https://www.boostmobile.com/locations/bd/boost-mobile-wa-burien-12805-1st-avenue-south-suite-c-98168?ll=1&utm_source=facebook&utm_medium=lastmile&utm_campaign=0015e00000jBHFmAAO", "phone": "+12065511172", "address": "12805 1st Avenue South Burien, WA 98168"}, "geometry": {"type": "Point", "coordinates": [-122.3342896, 47.4881172]}}, {"type": "Feature", "properties": {"id": 451265217, "name": "Furniture Town", "category": "furniture", "tags": ["furniture"], "sources": ["osm"], "address": "13437 1st Avenue South"}, "geometry": {"type": "Point", "coordinates": [-122.3343331, 47.4820996]}}, {"type": "Feature", "properties": {"id": 451265225, "name": "Earl's Machine Shop", "category": "hardware", "tags": ["hardware"], "sources": ["osm"]}, "geometry": {"type": "Point", "coordinates": [-122.3341965, 47.4805838]}}, {"type": "Feature", "properties": {"id": 676974311, "name": "Burien Food Mart", "category": "convenience", "tags": ["convenience"], "sources": ["osm"], "address": "12660 1st Avenue South"}, "geometry": {"type": "Point", "coordinates": [-122.3332831, 47.4888813]}}, {"type": "Feature", "properties": {"id": "9e1b516d-71ac-469e-9df6-1c407dc7676d", "name": "LJR Coins", "category": "gift", "tags": ["gift"], "sources": ["overture"], "website": "http://ljrcoins.com/", "phone": "+12068493912", "address": "13258 1st Ave S"}, "geometry": {"type": "Point", "coordinates": [-122.3335266, 47.4832764]}}, {"type": "Feature", "properties": {"id": "a969efce-dd9f-4580-9bc7-0cbc959f9823", "name": "Safeway Pharmacy", "category": "pharmacy", "tags": ["pharmacy"], "sources": ["overture"], "website": "https://local.pharmacy.safeway.com/safeway/wa/burien/12725-1st-ave-s.html", "phone": "2065667303", "address": "12725 1st Ave S"}, "geometry": {"type": "Point", "coordinates": [-122.3353195, 47.4890327]}}]}