{"type": "FeatureCollection", "features": [{"type": "Feature", "properties": {"id": "b36ea841-f408-470e-b331-45f1e9efb228", "name": "Des Moines", "category": "fast_food", "tags": ["fast-food", "fast", "food"], "sources": ["overture"], "website": "https://tacotimenw.com/find-us/des-moines/", "address": "809 Kent-Des Moines Road Des Moines, WA 98198", "stations": [{"stopCode": 67, "lines": "1", "name": "Star Lake Station", "walkingMeters": 794, "walkingSeconds": 593, "band": 10}]}, "geometry": {"type": "Point", "coordinates": [-122.3009109, 47.3952141]}}, {"type": "Feature", "properties": {"id": "a594131b-c367-434b-9107-855848c61e50", "name": "Des Moines Station", "category": "attraction", "tags": ["attraction", "landmark", "historical", "building"], "sources": ["overture"], "website": "http://www.desmoinesstation.com/", "phone": "+12068703255", "address": "2060 S Kent des Moines Rd", "stations": [{"stopCode": 67, "lines": "1", "name": "Star Lake Station", "walkingMeters": 1205, "walkingSeconds": 868, "band": 15}]}, "geometry": {"type": "Point", "coordinates": [-122.3057861, 47.393074]}}, {"type": "Feature", "properties": {"id": 180427194, "name": "City Park", "category": "park", "tags": ["park"], "sources": ["osm"], "stations": [{"stopCode": 67, "lines": "1", "name": "Star Lake Station", "walkingMeters": 1202, "walkingSeconds": 866, "band": 10}]}, "geometry": {"type": "Point", "coordinates": [-122.3036978, 47.3957295]}}, {"type": "Feature", "properties": {"id": 432720259, "name": "Kiddie Park", "category": "park", "tags": ["park"], "sources": ["osm"], "stations": [{"stopCode": 67, "lines": "1", "name": "Star Lake Station", "walkingMeters": 1359, "walkingSeconds": 978, "band": 15}]}, "geometry": {"type": "Point", "coordinates": [-122.3046825, 47.3960295]}}, {"type": "Feature", "properties": {"id": 172877012, "name": "Mount Rainier Pool", "category": "swimming_pool", "tags": ["swimming-pool", "swimming", "pool"], "sources": ["osm", "overture"], "website": "http://www.mtrainierpool.com/", "phone": "+12068244722", "address": "22722 19th Ave S"}, "geometry": {"type": "Point", "coordinates": [-122.3083583, 47.3978297]}}, {"type": "Feature", "properties": {"id": 241071657, "name": "Pool", "category": "swimming_pool", "tags": ["swimming-pool"], "sources": ["osm"], "stations": [{"stopCode": 67, "lines": "1", "name": "Star Lake Station", "walkingMeters": 1582, "walkingSeconds": 1138, "band": 15}]}, "geometry": {"type": "Point", "coordinates": [-122.3043604, 47.393507]}}]}