{"type": "FeatureCollection", "features": [{"type": "Feature", "properties": {"id": 3343188641, "name": "Pub 85", "category": "pub", "tags": ["pub"], "sources": ["osm"], "address": "12859 Northeast 85th Street"}, "geometry": {"type": "Point", "coordinates": [-122.1670778, 47.6791269]}}, {"type": "Feature", "properties": {"id": 3343188642, "name": "Couzin's Cafe", "category": "restaurant", "tags": ["restaurant", "breakfast-and-brunch", "breakfast", "brunch"], "sources": ["osm", "overture"], "website": "https://www.couzinscafekirkland.com", "address": "12861 NE 85th St"}, "geometry": {"type": "Point", "coordinates": [-122.1669694, 47.6791282]}}, {"type": "Feature", "properties": {"id": 327528042, "name": "Tres Hermanos", "category": "restaurant", "tags": ["restaurant", "mexican", "latin-american", "american"], "sources": ["osm", "overture"], "website": "http://twitter.com/#!/treshermanosk", "phone": "+14258274422", "address": "12821 NE 85th St"}, "geometry": {"type": "Point", "coordinates": [-122.168554, 47.6791126]}}, {"type": "Feature", "properties": {"id": "96814eae-0584-4c96-beee-7bf61cc542db", "name": "The Neighbor Project", "category": "cafe", "tags": ["cafe"], "sources": ["overture"], "website": "http://www.neighborproject.org/", "phone": "+18889667757", "address": "7525 132nd Ave NE"}, "geometry": {"type": "Point", "coordinates": [-122.1648483, 47.6721802]}}, {"type": "Feature", "properties": {"id": "072ee2ea-adb5-46f4-a4f8-3e85d9600ef9", "name": "Corazon Azteca", "category": "restaurant", "tags": ["restaurant", "mexican", "taco"], "sources": ["overture"], "website": "https://corazontruck.business.site", "phone": "+14254487052", "address": "12840 NE 85th St"}, "geometry": {"type": "Point", "coordinates": [-122.1675797, 47.6795502]}}, {"type": "Feature", "properties": {"id": "06dd9413-74f8-41ff-a0ca-af5b9c40860e", "name": "The Hungry Herbivore", "category": "fast_food", "tags": ["fast-food", "food", "truck"], "sources": ["overture"], "website": "https://thehungryherbivor.com", "phone": "+14254146450", "address": "12832 NE 85th St"}, "geometry": {"type": "Point", "coordinates": [-122.1680527, 47.6797028]}}, {"type": "Feature", "properties": {"id": "b6e0bde2-5711-4ce1-906b-64f78ba15471", "name": "Spirits Inc.", "category": "restaurant", "tags": ["restaurant"], "sources": ["overture"], "website": "https://www.spiritsmarion.com", "phone": "+14255768640", "address": "12859 NE 85th St"}, "geometry": {"type": "Point", "coordinates": [-122.1670074, 47.6791573]}}, {"type": "Feature", "properties": {"id": "f68e7588-b5f4-471c-86cd-4b1f6e58b8ef", "name": "Pogacha's Pub 85", "category": "pub", "tags": ["pub"], "sources": ["overture"], "website": "http://pub85.com/", "phone": "+14255768640", "address": "12859 NE 85th St"}, "geometry": {"type": "Point", "coordinates": [-122.16716, 47.6791573]}}, {"type": "Feature", "properties": {"id": "277f6f31-2e00-458f-8639-c7890ddf6977", "name": "Creo", "category": "restaurant", "tags": ["restaurant", "spanish"], "sources": ["overture"], "phone": "+14255957844", "address": "12822 NE 85th St"}, "geometry": {"type": "Point", "coordinates": [-122.1684723, 47.6797295]}}, {"type": "Feature", "properties": {"id": "61964a2b-39b3-4c91-aae2-58f5533e9cc4", "name": "Poke Me", "category": "restaurant", "tags": ["restaurant", "hawaiian", "poke"], "sources": ["overture"], "website": "http://pokeme.biz/", "phone": "+14252331474", "address": "12822 NE 85th St"}, "geometry": {"type": "Point", "coordinates": [-122.1684723, 47.6797295]}}, {"type": "Feature", "properties": {"id": "6da08ee5-d9a5-4c49-911b-7d956081ceed", "name": "Rose Crest Apartments", "category": "attraction", "tags": ["attraction", "landmark", "historical", "building"], "sources": ["overture"], "address": "8325 128th Ave NE"}, "geometry": {"type": "Point", "coordinates": [-122.1699295, 47.6781807]}}]}