{"type": "FeatureCollection", "features": [{"type": "Feature", "properties": {"id": 153522310, "name": "Burgermaster", "category": "fast_food", "tags": ["fast-food", "burger", "outdoor-seating", "takeaway", "restaurant", "american"], "sources": ["osm", "overture"], "website": "https://linktr.ee/burgermaster52", "phone": "+14258279566", "address": "10606 Northup Way", "hours": "Mo-Th,Su 07:00-23:00; Fr-Sa 07:00-24:00"}, "geometry": {"type": "Point", "coordinates": [-122.1988863, 47.6422042]}}, {"type": "Feature", "properties": {"id": "cb9fd260-cd49-47a7-bc04-075d679bc089", "name": "Wingdome Kirkland", "category": "restaurant", "tags": ["restaurant"], "sources": ["overture"], "address": "108th Ave NE"}, "geometry": {"type": "Point", "coordinates": [-122.1964035, 47.6492462]}}, {"type": "Feature", "properties": {"id": "b18a7d5f-d45a-42b8-98cd-958449fb89c4", "name": "Kirkland Crossing", "category": "attraction", "tags": ["attraction", "landmark", "historical", "building"], "sources": ["overture"], "website": "https://www.liveatkirklandcrossing.com/", "phone": "+14256713522", "address": "10715 NE 37th Ct"}, "geometry": {"type": "Point", "coordinates": [-122.1968155, 47.6436996]}}, {"type": "Feature", "properties": {"id": "85e1efcf-8d7e-4cbe-8426-e4918725e59f", "name": "Watershed Park", "category": "park", "tags": ["park"], "sources": ["overture"], "address": "108th Ave NE"}, "geometry": {"type": "Point", "coordinates": [-122.1964645, 47.6486015]}}, {"type": "Feature", "properties": {"id": "3b2124e5-23d7-46b3-9b43-013c122ff62a", "name": "Watershed Park", "category": "park", "tags": ["park"], "sources": ["overture"], "website": "http://www.kirklandwa.gov/depart/parks/Online_Parks_Guide.htm", "phone": "+14255873300", "address": "4500 110th Ave NE"}, "geometry": {"type": "Point", "coordinates": [-122.1905594, 47.6496353]}}, {"type": "Feature", "properties": {"id": "bc0b3ec0-4a61-46d4-ba99-5646fa15d0a7", "name": "La Quinta Inn and Suites", "category": "hotel", "tags": ["hotel"], "sources": ["overture"], "website": "http://www.laquintaseattlebellevuekirkland.com/?cid=local_676", "phone": "+14258286585", "address": "10530 Northup Way"}, "geometry": {"type": "Point", "coordinates": [-122.1991348, 47.6426239]}}, {"type": "Feature", "properties": {"id": "5b7a819c-bef6-4c88-8e4c-e3b3aca2c3e9", "name": "La Quinta Inn & Suites Seattle Bellevue / Kirkland", "category": "hotel", "tags": ["hotel", "resort"], "sources": ["overture"], "website": "http://www.laquintaseattlebellevuekirkland.com/?cid=local_676", "phone": "4258286585", "address": "10530 Northup Way"}, "geometry": {"type": "Point", "coordinates": [-122.1989136, 47.642704]}}, {"type": "Feature", "properties": {"id": "9f092cf0-93ee-45e4-9515-bc0d1a6aac87", "name": "Seattle Bank", "category": "bank", "tags": ["bank", "credit", "union"], "sources": ["overture"], "phone": "2064363046", "address": "11120 NE 33rd Pl"}, "geometry": {"type": "Point", "coordinates": [-122.1913834, 47.640007]}}, {"type": "Feature", "properties": {"id": "6bbd30bd-3e38-4055-8bb2-2f9f9c384a42", "name": "Luther Burbank Savings", "category": "bank", "tags": ["bank", "credit", "union"], "sources": ["overture"], "website": "http://lutherbsavings.com", "phone": "+14257390020", "address": "10940 NE 33rd Pl"}, "geometry": {"type": "Point", "coordinates": [-122.1938705, 47.6412773]}}, {"type": "Feature", "properties": {"id": "b3714b74-bdb0-496b-9ace-b5222b3cc220", "name": "X Gym", "category": "fitness_centre", "tags": ["fitness-centre", "gym"], "sources": ["overture"], "website": "http://xgym.com/", "phone": "+14258229496", "address": "10724 NE 38th Pl"}, "geometry": {"type": "Point", "coordinates": [-122.197258, 47.643219]}}]}