{"type": "FeatureCollection", "features": [{"type": "Feature", "properties": {"id": 651667321, "name": "Gourmet Latte", "category": "cafe", "tags": ["cafe", "coffee-shop", "coffee"], "sources": ["osm", "overture"], "website": "http://www.gourmetlatte.com", "phone": "+14254080352", "address": "22730 Meridian Ave S"}, "geometry": {"type": "Point", "coordinates": [-122.2333545, 47.7916038]}}, {"type": "Feature", "properties": {"id": 9165492652, "name": "Uncle Peteza's Pizzeria", "category": "fast_food", "tags": ["fast-food", "pizza", "restaurant", "italian"], "sources": ["osm", "overture"], "website": "http://www.unclepetezas.net/", "phone": "+14254879100", "address": "22624 Meridian Ave S", "hours": "Tu-Th 11:00-20:30; Fr-Sa 11:00-21:00; Su 11:00-20:30"}, "geometry": {"type": "Point", "coordinates": [-122.233717, 47.7920685]}}, {"type": "Feature", "properties": {"id": 1682300160, "name": "Sid's Handy Mart", "category": "convenience", "tags": ["convenience"], "sources": ["osm", "overture"], "phone": "+14254832738", "address": "22624 Meridian Ave S"}, "geometry": {"type": "Point", "coordinates": [-122.2334434, 47.7920174]}}, {"type": "Feature", "properties": {"id": "716f0dee-e4d0-4deb-9a46-75365a436428", "name": "Have a Heart Bothell", "category": "cannabis", "tags": ["cannabis", "clinic"], "sources": ["overture"], "website": "https://haveaheartcc.com/dispensaries/wa/bothell/", "phone": "4253752191", "address": "22624 Meridian Ave S Ste B"}, "geometry": {"type": "Point", "coordinates": [-122.2336121, 47.7918892]}}]}