{"type": "FeatureCollection", "features": [{"type": "Feature", "properties": {"id": 633502947, "name": "Cottonwood Grove Park", "category": "park", "tags": ["park"], "sources": ["osm"]}, "geometry": {"type": "Point", "coordinates": [-122.2721852, 47.3880524]}}, {"type": "Feature", "properties": {"id": "79b2a09d-89c6-4d1f-a665-62c5a9773723", "name": "Cottonwood Grove", "category": "park", "tags": ["park"], "sources": ["overture"], "phone": "+12538565000", "address": "23004 Frager Rd S"}, "geometry": {"type": "Point", "coordinates": [-122.27211, 47.3880692]}}]}