{"type": "FeatureCollection", "features": [{"type": "Feature", "properties": {"id": 12329980319, "name": "Subway", "category": "fast_food", "tags": ["fast-food", "sandwich", "takeaway", "restaurant"], "sources": ["osm", "overture"], "website": "https://restaurants.subway.com/united-states/wa/seattle/18002-15th-avenue-ne", "phone": "+12063060933", "address": "18002 15th Avenue NE Suite A", "hours": "08:00-21:00"}, "geometry": {"type": "Point", "coordinates": [-122.3131809, 47.759535]}}, {"type": "Feature", "properties": {"id": 3192428576, "name": "Peking House", "category": "restaurant", "tags": ["restaurant", "chinese", "asian"], "sources": ["osm", "overture"], "website": "http://www.pekinghouserestaurant.com/", "phone": "+12063656500", "address": "17505 15th Ave NE"}, "geometry": {"type": "Point", "coordinates": [-122.3140897, 47.7560863]}}, {"type": "Feature", "properties": {"id": 4449772699, "name": "Caf\u00e9 Dolce", "category": "cafe", "tags": ["cafe", "outdoor-seating"], "sources": ["osm", "overture"], "website": "http://thecafedolce.com", "phone": "12063057054", "address": "17547 15th Ave NE"}, "geometry": {"type": "Point", "coordinates": [-122.3137504, 47.7570887]}}, {"type": "Feature", "properties": {"id": 4449871092, "name": "Ichi Bento", "category": "restaurant", "tags": ["restaurant", "sushi", "japanese", "wheelchair-accessible", "vegetarian", "asian"], "sources": ["osm", "overture"], "website": "http://www.bentosushi.com", "phone": "+12063631663", "address": "17203 15th Ave NE", "hours": "Mo-Sa 11:00-21:30"}, "geometry": {"type": "Point", "coordinates": [-122.313656, 47.7541588]}}, {"type": "Feature", "properties": {"id": 4449871191, "name": "North City Bistro & Wine Shop", "category": "restaurant", "tags": ["restaurant"], "sources": ["osm"], "website": "https://northcitybistro.com/", "phone": "+1 206-365-4447", "address": "1520 Northeast 177th Street", "hours": "We-Sa 16:00-21:00"}, "geometry": {"type": "Point", "coordinates": [-122.3126631, 47.7577318]}}, {"type": "Feature", "properties": {"id": 4449871491, "name": "Sunshine Espresso", "category": "cafe", "tags": ["cafe", "drive-through", "coffee"], "sources": ["osm", "overture"], "website": "https://www.facebook.com/Sunshine-Espresso-113804955308047/", "phone": "+12068803540", "address": "17705 15th Ave NE", "hours": "Mo-Fr 05:00-18:00; Sa 06:00-18:00; Su 07:00-17:00"}, "geometry": {"type": "Point", "coordinates": [-122.3137447, 47.7576731]}}, {"type": "Feature", "properties": {"id": 4789100621, "name": "Sodam Chicken", "category": "restaurant", "tags": ["restaurant", "outdoor-seating", "indoor-seating"], "sources": ["osm"], "address": "17551 15th Avenue Northeast"}, "geometry": {"type": "Point", "coordinates": [-122.3137615, 47.7571383]}}, {"type": "Feature", "properties": {"id": 5021259704, "name": "Indian Kitchen", "category": "cafe", "tags": ["cafe", "indian"], "sources": ["osm"], "address": "18002 15th Avenue Northeast"}, "geometry": {"type": "Point", "coordinates": [-122.3130508, 47.7595381]}}, {"type": "Feature", "properties": {"id": 12329980342, "name": "North City Lounge", "category": "bar", "tags": ["bar", "dive"], "sources": ["osm", "overture"], "website": "https://northcitylounge.godaddysites.com/", "phone": "+12063621443", "address": "17554 15th Ave NE", "hours": "Mo-Su 09:00-02:00"}, "geometry": {"type": "Point", "coordinates": [-122.3132412, 47.7572976]}}, {"type": "Feature", "properties": {"id": 13979677253, "name": "Suni's Express Restaurant", "category": "restaurant", "tags": ["restaurant"], "sources": ["osm"]}, "geometry": {"type": "Point", "coordinates": [-122.3132184, 47.7589317]}}, {"type": "Feature", "properties": {"id": 447943299, "name": "North City Tavern", "category": "bar", "tags": ["bar", "supermarket"], "sources": ["osm", "overture"], "website": "https://northcitylounge.godaddysites.com", "address": "17554 15th Ave NE"}, "geometry": {"type": "Point", "coordinates": [-122.3132112, 47.7573176]}}, {"type": "Feature", "properties": {"id": 538382992, "name": "North City Food Mart", "category": "restaurant", "tags": ["restaurant", "convenience"], "sources": ["osm", "overture"], "website": "http://exxonmobil.com", "phone": "+12063688558", "address": "18005 15th Ave NE"}, "geometry": {"type": "Point", "coordinates": [-122.3138849, 47.7597357]}}, {"type": "Feature", "properties": {"id": "e1143b09-bbc3-43d3-b42b-876d33158bc6", "name": "Starbucks Coffee Company", "category": "cafe", "tags": ["cafe", "coffee"], "sources": ["overture"], "website": "http://www.starbucks.com/", "phone": "+12063633130", "address": "17202 15th Ave NE"}, "geometry": {"type": "Point", "coordinates": [-122.3128662, 47.75457]}}, {"type": "Feature", "properties": {"id": "558f3ad7-24c2-43ad-b382-f3390715cbf7", "name": "Domino's Pizza", "category": "restaurant", "tags": ["restaurant", "pizza"], "sources": ["overture"], "website": "http://www.dominos.com", "phone": "(206) 365-6011", "address": "17720 15th Ave NE 15th Ave. N.E."}, "geometry": {"type": "Point", "coordinates": [-122.3132172, 47.7582397]}}, {"type": "Feature", "properties": {"id": "ea7e1383-7ff2-4055-b24b-2e65a78e18b0", "name": "ZENSHI Handcrafted Sushi", "category": "restaurant", "tags": ["restaurant", "sushi", "japanese", "asian"], "sources": ["overture"], "website": "https://www.zenshisushi.com/", "phone": "+12063633130", "address": "17202 15th Ave NE"}, "geometry": {"type": "Point", "coordinates": [-122.3127899, 47.7543373]}}, {"type": "Feature", "properties": {"id": "7a3e4a57-a442-44ae-9820-66f91d15a588", "name": "Tacos El Encanto", "category": "fast_food", "tags": ["fast-food", "food", "truck"], "sources": ["overture"], "website": "https://tacoselencanto.com", "phone": "(206) 307-5278", "address": "18005 15th Ave NE"}, "geometry": {"type": "Point", "coordinates": [-122.3136444, 47.759716]}}, {"type": "Feature", "properties": {"id": "a9314829-0a2b-40ba-b422-733ed00f3d8e", "name": "North City Gourmet Llc", "category": "restaurant", "tags": ["restaurant"], "sources": ["overture"], "address": "17751 15th Ave NE"}, "geometry": {"type": "Point", "coordinates": [-122.313942, 47.7589378]}}, {"type": "Feature", "properties": {"id": "15017745-c758-4997-a1a4-5fe30a3f41d3", "name": "Suni's Pizza & Burgers", "category": "restaurant", "tags": ["restaurant", "pizza"], "sources": ["overture"], "website": "http://www.sunisshoreline.com", "phone": "2063628350", "address": "17751 15th Ave NE"}, "geometry": {"type": "Point", "coordinates": [-122.313942, 47.7589378]}}, {"type": "Feature", "properties": {"id": "9b1ed2e8-dde1-4326-8a80-a14eaf96be8c", "name": "Suni's Express - Washington", "category": "restaurant", "tags": ["restaurant", "pizza", "fast-food"], "sources": ["overture"], "website": "http://sunispizzaexpress.com/", "phone": "+12063642195", "address": "1504 NE 179th St"}, "geometry": {"type": "Point", "coordinates": [-122.3131409, 47.7589378]}}, {"type": "Feature", "properties": {"id": "60010fac-17ea-414c-9ffe-8fd83daa4b6b", "name": "Kittyhugs Baking", "category": "bakery", "tags": ["bakery"], "sources": ["overture"], "website": "http://www.kittyhugsbaking.com/", "phone": "(206) 361-5740", "address": "1508 NE 175th St"}, "geometry": {"type": "Point", "coordinates": [-122.3129349, 47.7588997]}}, {"type": "Feature", "properties": {"id": "0f99127f-ca4e-4cfe-a10f-f20ec22c4eef", "name": "D'Unik Filipino Restaurant", "category": "restaurant", "tags": ["restaurant", "filipino", "asian"], "sources": ["overture"], "website": "http://www.pinoyshirts.com/", "phone": "+12063619474", "address": "18002 15th Ave NE"}, "geometry": {"type": "Point", "coordinates": [-122.3125381, 47.7595177]}}, {"type": "Feature", "properties": {"id": "e76f0d9a-bed8-41ae-a85b-98ada069291c", "name": "North City Bistro and Wine Shop", "category": "restaurant", "tags": ["restaurant"], "sources": ["overture"], "website": "http://northcitybistro.com/", "phone": "+12063654447", "address": "1520 NE 177th St"}, "geometry": {"type": "Point", "coordinates": [-122.3128281, 47.7576637]}}, {"type": "Feature", "properties": {"id": "537845fa-9b58-4b06-b500-1a33aea1be12", "name": "Leena's Cafe", "category": "cafe", "tags": ["cafe"], "sources": ["overture"], "website": "https://www.leenascafe.com", "phone": "12063644919", "address": "17732 15th Ave NE"}, "geometry": {"type": "Point", "coordinates": [-122.3131027, 47.7584496]}}, {"type": "Feature", "properties": {"id": "b3440aa2-b33d-4e22-9c59-f25ac35ea070", "name": "Jeff Pat Chris Llc", "category": "restaurant", "tags": ["restaurant"], "sources": ["overture"], "address": "17720 15th Ave NE"}, "geometry": {"type": "Point", "coordinates": [-122.3132019, 47.7582474]}}, {"type": "Feature", "properties": {"id": "4f25d2cd-5f15-42e9-b4be-ddd48c73a57a", "name": "Sodam Chicken Shoreline", "category": "restaurant", "tags": ["restaurant", "korean", "chicken", "asian"], "sources": ["overture"], "website": "https://order.toasttab.com/online/sodamchicken?diningOption=takeout&rwg_token=AE37R_jSqCCB-aLiqAeVZ4NjtjvCAUCJ30PoTvmfQikgY6cDuq4DrfB6JLbmFFixMg1bE_7K3RIqlQhzsTIAMASEZqw5-Pq5iw%3D%3D", "phone": "+12063974119", "address": "17551 15th Ave NE"}, "geometry": {"type": "Point", "coordinates": [-122.3136673, 47.7571487]}}, {"type": "Feature", "properties": {"id": "df2ccb0b-3d9b-415f-b7f4-608aa422c33c", "name": "Hotwire Online Coffeehouse", "category": "cafe", "tags": ["cafe", "coffee"], "sources": ["overture"], "website": "http://hotwirecoffee.com/", "phone": "(206) 957-2000", "address": "17551 15th Ave NE"}, "geometry": {"type": "Point", "coordinates": [-122.3137741, 47.7570724]}}, {"type": "Feature", "properties": {"id": "8a7e72f6-87f7-4e8f-a3fd-c431e94ae180", "name": "Easy Monkey Taphouse", "category": "pub", "tags": ["pub"], "sources": ["overture"], "website": "http://www.easymonkeytaphouse.com", "phone": "12064201326", "address": "17537 15th Ave Ne  Ste B"}, "geometry": {"type": "Point", "coordinates": [-122.3138046, 47.7568169]}}, {"type": "Feature", "properties": {"id": "8b4a2de3-80b3-4bdd-a880-f402a0930778", "name": "Perfect Jive Inc", "category": "restaurant", "tags": ["restaurant"], "sources": ["overture"], "address": "17505 15th Ave NE"}, "geometry": {"type": "Point", "coordinates": [-122.3140717, 47.7560539]}}, {"type": "Feature", "properties": {"id": 5430494584, "name": "Parade Route", "category": "artwork", "tags": ["artwork"], "sources": ["osm"]}, "geometry": {"type": "Point", "coordinates": [-122.3133658, 47.7576862]}}, {"type": "Feature", "properties": {"id": "04ab0c44-2bd8-4983-a720-039cfdb9fb5e", "name": "Kelsey House Apartment", "category": "attraction", "tags": ["attraction", "landmark", "historical", "building"], "sources": ["overture"], "phone": "+12063671822", "address": "1500 NE 171st St"}, "geometry": {"type": "Point", "coordinates": [-122.3130417, 47.7532578]}}, {"type": "Feature", "properties": {"id": "a8239d62-f8cb-4c00-aa9b-17368ab611e5", "name": "Chateau Apartments and Townhomes", "category": "attraction", "tags": ["attraction", "landmark", "historical", "building"], "sources": ["overture"], "website": "http://www.chateauapartmenthomes.com/?rcstdid=MTE%3D-aKFOxiSL8lQ%3D", "phone": "+12065905005", "address": "18008 15th Ave NE"}, "geometry": {"type": "Point", "coordinates": [-122.3115463, 47.7593803]}}, {"type": "Feature", "properties": {"id": "2e438812-1bd0-4f3d-ac45-47a23af8c84c", "name": "Kuleanas Forest Hills Condominiums", "category": "attraction", "tags": ["attraction", "landmark", "historical", "building"], "sources": ["overture"], "phone": "+12063655393", "address": "1723 NE 179th St"}, "geometry": {"type": "Point", "coordinates": [-122.3103027, 47.7584152]}}, {"type": "Feature", "properties": {"id": "de0c2d0d-a495-4fa0-829b-b8770b32a578", "name": "North City, Shoreline, Washington", "category": "attraction", "tags": ["attraction", "landmark", "historical", "building"], "sources": ["overture"]}, "geometry": {"type": "Point", "coordinates": [-122.3136139, 47.7558327]}}, {"type": "Feature", "properties": {"id": "37cbc467-591d-4491-a63f-8c71f32f4106", "name": "The Postmark", "category": "attraction", "tags": ["attraction", "landmark", "historical", "building"], "sources": ["overture"], "website": "https://www.thepostmarkapts.com/", "phone": "+18778845534", "address": "17233 15th Ave NE"}, "geometry": {"type": "Point", "coordinates": [-122.3136292, 47.7553406]}}, {"type": "Feature", "properties": {"id": 541610727, "name": "7-Eleven", "category": "convenience", "tags": ["convenience", "delivery"], "sources": ["osm", "overture"], "website": "https://www.7-eleven.com/", "phone": "+12063621514", "address": "16920 15th Ave NE", "hours": "24/7"}, "geometry": {"type": "Point", "coordinates": [-122.3127327, 47.7518117]}}, {"type": "Feature", "properties": {"id": 144129648, "name": "Safeway", "category": "supermarket", "tags": ["supermarket", "wheelchair-accessible"], "sources": ["osm", "overture"], "website": "https://local.safeway.com/safeway/wa/shoreline/17202-15th-ave-ne.html", "phone": "+12063633130", "address": "17202 15th Ave NE", "hours": "Mo-Sa 05:00-01:00"}, "geometry": {"type": "Point", "coordinates": [-122.312709, 47.7543515]}}, {"type": "Feature", "properties": {"id": 3887492754, "name": "365 Recreational Cannabis", "category": "cannabis", "tags": ["cannabis"], "sources": ["osm", "overture"], "website": "http://www.365recreational.com", "phone": "(206) 557-7778", "address": "17517 15th Ave NE"}, "geometry": {"type": "Point", "coordinates": [-122.313741, 47.756297]}}, {"type": "Feature", "properties": {"id": 144130085, "name": "Safeway Convenience Store", "category": "convenience", "tags": ["convenience", "wheelchair-accessible"], "sources": ["osm"], "address": "17230 15th Avenue Northeast", "hours": "Mo-Sa 06:00-22:00"}, "geometry": {"type": "Point", "coordinates": [-122.3132049, 47.7555746]}}, {"type": "Feature", "properties": {"id": 5021259705, "name": "Indian Sweets & Spices", "category": "convenience", "tags": ["convenience", "supermarket", "indian"], "sources": ["osm", "overture"], "website": "https://froogalbuy.com/indian-grocery-shoreline/", "phone": "+12063674568", "address": "18002 15th Ave NE"}, "geometry": {"type": "Point", "coordinates": [-122.3129032, 47.7595394]}}, {"type": "Feature", "properties": {"id": 12423534888, "name": "D'unik", "category": "convenience", "tags": ["convenience"], "sources": ["osm"], "address": "18002 15th Avenue Northeast"}, "geometry": {"type": "Point", "coordinates": [-122.3125735, 47.7595398]}}, {"type": "Feature", "properties": {"id": "f62eec70-3420-46a9-9ae2-9ccbb2ca4543", "name": "Lifesafer Ignition Interlock", "category": "clothes", "tags": ["clothes"], "sources": ["overture"], "website": "https://www.lifesafer.com/locations/Washington/Shoreline/6174", "phone": "2067561373", "address": "17711 15th Ave NE"}, "geometry": {"type": "Point", "coordinates": [-122.3134689, 47.7578583]}}, {"type": "Feature", "properties": {"id": "4c5fe2c8-fb45-4edc-92fe-923069920f3e", "name": "Golden Bow Gifts And Flowers", "category": "florist", "tags": ["florist"], "sources": ["overture"], "website": "goldenbowgifts.com", "phone": "12064174889", "address": "1502 NE 179th St"}, "geometry": {"type": "Point", "coordinates": [-122.3129654, 47.7588921]}}, {"type": "Feature", "properties": {"id": "d88f21da-af1a-47f4-808f-f4e872faa0a1", "name": "Pramukh Inc", "category": "supermarket", "tags": ["supermarket"], "sources": ["overture"], "address": "18002 15th Ave Ne Ste C"}, "geometry": {"type": "Point", "coordinates": [-122.3128204, 47.759491]}}, {"type": "Feature", "properties": {"id": "e58a88db-f92b-4000-8d32-994b74dbb2f8", "name": "Pannonia Smokehouse", "category": "deli", "tags": ["deli", "delicatessen"], "sources": ["overture"], "website": "http://carpatiasausage.com/contact_us", "phone": "(206) 462-1227", "address": "1514 NE 177th St"}, "geometry": {"type": "Point", "coordinates": [-122.3128662, 47.7578011]}}, {"type": "Feature", "properties": {"id": "930a3a23-136e-4814-bfa9-c882cc4ebff3", "name": "Walgreens", "category": "pharmacy", "tags": ["pharmacy"], "sources": ["overture"], "website": "https://www.walgreens.com/locator/walgreens-17518+15th+ave+ne-shoreline-wa-98155/id=4759", "phone": "(206) 361-7474", "address": "17518 15th Ave NE"}, "geometry": {"type": "Point", "coordinates": [-122.3130722, 47.7563782]}}, {"type": "Feature", "properties": {"id": "1c961232-a166-401a-b90e-7a1b3d711e84", "name": "Safeway Pharmacy", "category": "pharmacy", "tags": ["pharmacy"], "sources": ["overture"], "website": "https://local.pharmacy.safeway.com/safeway/wa/shoreline/17202-15th-ave-ne.html", "phone": "2063644618", "address": "17202 15th Ave NE"}, "geometry": {"type": "Point", "coordinates": [-122.312767, 47.7543449]}}, {"type": "Feature", "properties": {"id": "92f0d403-3ad9-4c3d-aa41-cfa1d1228f65", "name": "U.S. Bank", "category": "bank", "tags": ["bank", "credit", "union"], "sources": ["overture"], "website": "https://www.usbank.com/locations/washington/shoreline/17202-15th-ave-ne-bank-atm/?utm_source=facebook&utm_medium=organic&utm_campaign=facebook_listing", "phone": "+12064179793", "address": "17202 15th Ave NE"}, "geometry": {"type": "Point", "coordinates": [-122.3130188, 47.7545547]}}, {"type": "Feature", "properties": {"id": "cd484ed9-7039-4a71-9b05-87cef6247fa8", "name": "North City Post Office", "category": "post_office", "tags": ["post-office", "office"], "sources": ["overture"], "website": "http://www.usps.com", "phone": "+12063640656", "address": "17233 15th Ave NE"}, "geometry": {"type": "Point", "coordinates": [-122.3143845, 47.7552681]}}, {"type": "Feature", "properties": {"id": 447943549, "name": "Uplift Climbing", "category": "fitness_centre", "tags": ["fitness-centre", "climbing", "fitness"], "sources": ["osm"], "website": "https://www.upliftclimbing.com/", "address": "17229 15th Avenue Northeast", "hours": "Su 08:00-20:00; Mo-We 14:00-22:00; Th-Fr 07:00-22:00; Sa 08:00-22:00"}, "geometry": {"type": "Point", "coordinates": [-122.3143483, 47.7547775]}}, {"type": "Feature", "properties": {"id": "b9496a4b-ac17-4597-9ab6-3d379cce953f", "name": "Siddha Yoga Meditation Center", "category": "fitness_centre", "tags": ["fitness-centre", "yoga", "studio"], "sources": ["overture"], "website": "http://www.symcseattle.org", "phone": "(206) 417-7282", "address": "17529 15th Ave NE"}, "geometry": {"type": "Point", "coordinates": [-122.3138885, 47.7564774]}}]}