{"type": "FeatureCollection", "features": [{"type": "Feature", "properties": {"id": 4708647088, "name": "Little Caesars", "category": "fast_food", "tags": ["fast-food", "pizza", "takeaway"], "sources": ["osm"], "website": "https://littlecaesars.com/en-us/store/8058/"}, "geometry": {"type": "Point", "coordinates": [-122.135681, 47.3576142]}}, {"type": "Feature", "properties": {"id": 13030587322, "name": "Woods Coffee", "category": "cafe", "tags": ["cafe", "coffee-shop", "outdoor-seating", "vegetarian", "vegan", "wifi"], "sources": ["osm"], "website": "https://woodscoffee.com", "phone": "+1-425-426-0863", "address": "15610 Southeast 272nd Street", "hours": "Mo-Fr 05:00-18:00; Sa-Su 06:00-18:00"}, "geometry": {"type": "Point", "coordinates": [-122.1324661, 47.3583699]}}, {"type": "Feature", "properties": {"id": 4719629454, "name": "Vue Prime Mexican Steakhouse", "category": "restaurant", "tags": ["restaurant", "mexican", "steakhouse", "latin-american"], "sources": ["osm", "overture"], "website": "http://vueprime.com/", "phone": "+12536302333", "address": "15423 SE 272nd St Ste 101"}, "geometry": {"type": "Point", "coordinates": [-122.1351761, 47.3576118]}}, {"type": "Feature", "properties": {"id": 13271438243, "name": "Lake Meridian Espresso", "category": "cafe", "tags": ["cafe", "coffee-shop"], "sources": ["osm"]}, "geometry": {"type": "Point", "coordinates": [-122.1387359, 47.3575902]}}, {"type": "Feature", "properties": {"id": 638064740, "name": "Java! Java! Coffee Co.", "category": "cafe", "tags": ["cafe", "coffee-shop"], "sources": ["osm"], "address": "15218 Southeast 272nd Street"}, "geometry": {"type": "Point", "coordinates": [-122.1386433, 47.3581927]}}, {"type": "Feature", "properties": {"id": "37f946c6-d3bf-4cc6-911d-c4e4d608f1cc", "name": "Little Caesars Pizza", "category": "restaurant", "tags": ["restaurant", "pizza", "fast-food"], "sources": ["overture"], "website": "https://littlecaesars.com/en-us/store/8058", "phone": "+12536303022", "address": "15423 SE 272nd St"}, "geometry": {"type": "Point", "coordinates": [-122.1357117, 47.3576469]}}, {"type": "Feature", "properties": {"id": "91745e54-2325-49b7-ade5-c3863fe745ea", "name": "Raise the Bar", "category": "bar", "tags": ["bar"], "sources": ["overture"], "website": "http://www.weraisethebar.com/events", "phone": "+19072504631", "address": "15423 SE 272nd St"}, "geometry": {"type": "Point", "coordinates": [-122.1355591, 47.357563]}}, {"type": "Feature", "properties": {"id": "1e97451e-e19a-48c0-85a6-fb0b3caeae2c", "name": "Lake Meridian Espresso + More", "category": "cafe", "tags": ["cafe", "coffee", "theme"], "sources": ["overture"], "phone": "+12536303458", "address": "15209 SE 272nd St"}, "geometry": {"type": "Point", "coordinates": [-122.138504, 47.3577347]}}, {"type": "Feature", "properties": {"id": "4fcee9a3-b96b-4d7c-8b3b-5e580b1cdb37", "name": "Dgw Pizza Inc", "category": "restaurant", "tags": ["restaurant", "pizza"], "sources": ["overture"], "phone": "2062294653", "address": "15423 SE 272nd St"}, "geometry": {"type": "Point", "coordinates": [-122.1356049, 47.357666]}}, {"type": "Feature", "properties": {"id": "92a33da4-3497-4f95-ae5d-0cd8832dc0fc", "name": "Rusty Elbow Pub & Grub", "category": "bar", "tags": ["bar", "sports"], "sources": ["overture"], "address": "15423 SE 272nd St"}, "geometry": {"type": "Point", "coordinates": [-122.1356049, 47.357666]}}, {"type": "Feature", "properties": {"id": "e79cd994-144b-40cd-8b12-ae05c5f64018", "name": "Gonzo's Bar & Grill", "category": "bar", "tags": ["bar"], "sources": ["overture"], "website": "http://www.gonzosbarandgrill.com/", "phone": "2536382337", "address": "15423 SE 272nd St"}, "geometry": {"type": "Point", "coordinates": [-122.1352005, 47.3576698]}}, {"type": "Feature", "properties": {"id": "b62f9522-e52b-4f51-a44d-3b9a7e150bd2", "name": "Java Java Drive-Thru", "category": "cafe", "tags": ["cafe", "coffee", "theme"], "sources": ["overture"], "website": "http://www.javajavacoffee.com/", "phone": "+14254322184", "address": "15220 SE 272nd St"}, "geometry": {"type": "Point", "coordinates": [-122.1383514, 47.3583603]}}, {"type": "Feature", "properties": {"id": 450912919, "name": "Neighborhood Park", "category": "park", "tags": ["park"], "sources": ["osm"]}, "geometry": {"type": "Point", "coordinates": [-122.1357445, 47.351224]}}, {"type": "Feature", "properties": {"id": 659379380, "name": "Neighborhood Park", "category": "park", "tags": ["park"], "sources": ["osm"]}, "geometry": {"type": "Point", "coordinates": [-122.1370034, 47.3523941]}}, {"type": "Feature", "properties": {"id": 4708647086, "name": "DogSpaw", "category": "pet", "tags": ["pet"], "sources": ["osm"]}, "geometry": {"type": "Point", "coordinates": [-122.135274, 47.3576123]}}, {"type": "Feature", "properties": {"id": 4718691144, "name": "Los Venicos Mexican Store", "category": "convenience", "tags": ["convenience"], "sources": ["osm"]}, "geometry": {"type": "Point", "coordinates": [-122.1353812, 47.3576128]}}, {"type": "Feature", "properties": {"id": 4719629450, "name": "Buds & Blooms", "category": "florist", "tags": ["florist"], "sources": ["osm"], "address": "15220 Southeast 272nd Street"}, "geometry": {"type": "Point", "coordinates": [-122.1387944, 47.3585226]}}, {"type": "Feature", "properties": {"id": "e70dca04-0efe-4d27-9a6c-6581aa93f900", "name": "Shell", "category": "convenience", "tags": ["convenience"], "sources": ["overture"], "website": "https://find.shell.com/us/fuel/10051076-15209-se-272nd-st", "phone": "2536303458", "address": "15209 SE 272nd St"}, "geometry": {"type": "Point", "coordinates": [-122.1385269, 47.3577423]}}, {"type": "Feature", "properties": {"id": 410970979, "name": "Lake Meridian Market & Deli", "category": "convenience", "tags": ["convenience"], "sources": ["osm"], "address": "15209 Southeast 272nd Street", "hours": "24/7"}, "geometry": {"type": "Point", "coordinates": [-122.1382186, 47.3576003]}}, {"type": "Feature", "properties": {"id": "08f85d69-ccac-47ec-bae8-517f91fc98cb", "name": "Lake Meridian Cigar and Smoke", "category": "tobacco", "tags": ["tobacco"], "sources": ["overture"], "phone": "+12537660561", "address": "27924 152nd Ave SE Unit 101"}, "geometry": {"type": "Point", "coordinates": [-122.1386948, 47.3512001]}}, {"type": "Feature", "properties": {"id": "77199128-dc50-4b49-9848-c6783bff3ee2", "name": "Los Vecinos Tienda mexicana y carnicer\u00eda.", "category": "supermarket", "tags": ["supermarket"], "sources": ["overture"], "website": "http://www.mireferido.com/det_negocio.php?dn=189", "phone": "+12536301644", "address": "15423 SE 272nd St"}, "geometry": {"type": "Point", "coordinates": [-122.1354218, 47.3574982]}}, {"type": "Feature", "properties": {"id": 9707884317, "name": "Club Ignite Fitness", "category": "fitness_centre", "tags": ["fitness-centre"], "sources": ["osm"]}, "geometry": {"type": "Point", "coordinates": [-122.1355578, 47.3576227]}}, {"type": "Feature", "properties": {"id": "f71193be-c395-4bf1-94af-0ab451151c9b", "name": "Devotion Burn", "category": "fitness_centre", "tags": ["fitness-centre", "gym"], "sources": ["overture"], "website": "http://www.clubignitefitness.com", "phone": "12067758246", "address": "15423 SE 272nd St"}, "geometry": {"type": "Point", "coordinates": [-122.1356049, 47.357666]}}, {"type": "Feature", "properties": {"id": "1749da7c-020b-4fce-ab99-2fcaabd98501", "name": "Glow Barre Studio", "category": "fitness_centre", "tags": ["fitness-centre", "gym"], "sources": ["overture"], "website": "https://glowbarrestudio.com/", "phone": "+12532999744", "address": "15423 SE 272nd St"}, "geometry": {"type": "Point", "coordinates": [-122.1355896, 47.3575287]}}, {"type": "Feature", "properties": {"id": "10c3221e-020f-4d2f-9503-0033fa72e0b6", "name": "HOTWORX - Kent, WA (Lake Meridian)", "category": "fitness_centre", "tags": ["fitness-centre", "yoga", "studio"], "sources": ["overture"], "website": "https://www.facebook.com/officialhotworx/", "phone": "+12532896958", "address": "15610 SE 272nd St Ste B103"}, "geometry": {"type": "Point", "coordinates": [-122.1336517, 47.3581085]}}]}