{"type": "FeatureCollection", "features": [{"type": "Feature", "properties": {"id": 2966871652, "name": "Jony's Breakfast & Lunch Restaurant", "category": "restaurant", "tags": ["restaurant", "american", "breakfast-and-brunch"], "sources": ["osm", "overture"], "website": "https://www.jonysbreakfastlunchrestaurant.com/", "phone": "+14252917021", "address": "656 Strander Blvd", "hours": "Tu-Su 06:00-15:00"}, "geometry": {"type": "Point", "coordinates": [-122.2451032, 47.45738]}}, {"type": "Feature", "properties": {"id": 293323935, "name": "Taco Bell", "category": "fast_food", "tags": ["fast-food", "tex-mex", "takeaway", "fast", "food", "taco", "mexican"], "sources": ["osm", "overture"], "website": "http://www.tacobell.com/", "phone": "+14252261323", "address": "16350 W Valley Hwy", "hours": "Mo-Su 07:00-22:00"}, "geometry": {"type": "Point", "coordinates": [-122.2434315, 47.4571074]}}, {"type": "Feature", "properties": {"id": 5281906926, "name": "Charleys Philly Steaks", "category": "fast_food", "tags": ["fast-food", "sandwich", "takeaway"], "sources": ["osm"]}, "geometry": {"type": "Point", "coordinates": [-122.2436549, 47.4594294]}}, {"type": "Feature", "properties": {"id": 293323942, "name": "Wendy's", "category": "fast_food", "tags": ["fast-food", "burger", "indoor-seating", "takeaway", "drive-through", "fast", "food", "american"], "sources": ["osm", "overture"], "website": "https://locations.wendys.com/united-states/wa/tukwila/16300-west-valley-hwy", "phone": "+14252049986", "address": "16300 West Valley Hwy", "hours": "09:00-22:00"}, "geometry": {"type": "Point", "coordinates": [-122.2434159, 47.4577722]}}, {"type": "Feature", "properties": {"id": "e537751c-4c92-4701-8f08-8e9b8587e5a9", "name": "Teriyaki Wok", "category": "restaurant", "tags": ["restaurant", "asian"], "sources": ["overture"], "website": "http://seattle.citysearch.com/profile/10812057/tukwila_wa/teriyaki_wok.html", "phone": "(425) 277-5115", "address": "654 Strander Blvd"}, "geometry": {"type": "Point", "coordinates": [-122.2449341, 47.4574432]}}, {"type": "Feature", "properties": {"id": 5136888695, "name": "Caribe Latin Cuisine", "category": "restaurant", "tags": ["restaurant", "mexican", "indoor-seating", "air-conditioned", "honduran", "latin-american"], "sources": ["osm", "overture"], "website": "https://LosBigotesdeVilla.com/", "phone": "+14252718017", "address": "668 Strander Blvd", "hours": "Mo-Su 11:00-21:00"}, "geometry": {"type": "Point", "coordinates": [-122.2447531, 47.4576207]}}, {"type": "Feature", "properties": {"id": "7ddddcc9-9bd5-49d8-aa8f-219fdbd11eb6", "name": "Jack in the Box", "category": "restaurant", "tags": ["restaurant", "taco", "burger", "fast-food", "mexican"], "sources": ["overture"], "website": "http://www.jackinthebox.com/locations/WA/Tukwila/98188/8443?utm_source=bing&utm_medium=local&utm_campaign=localmaps&utm_content=5554ffb062ed9b10e8e80fd0", "phone": "4252355060", "address": "16400 W Valley Hwy"}, "geometry": {"type": "Point", "coordinates": [-122.2437134, 47.4568024]}}, {"type": "Feature", "properties": {"id": 293323927, "name": "Memo's Mexican Food", "category": "fast_food", "tags": ["fast-food", "mexican", "takeaway", "drive-through"], "sources": ["osm"], "address": "16400 West Valley Highway", "hours": "24/7"}, "geometry": {"type": "Point", "coordinates": [-122.2432326, 47.4565882]}}, {"type": "Feature", "properties": {"id": "848b8510-5e6c-4d86-8482-1be16a10ae7d", "name": "Los Bigotes de Villa", "category": "restaurant", "tags": ["restaurant", "texmex", "mexican"], "sources": ["overture"], "website": "https://losbigotesdevilla.com", "phone": "+14252718017", "address": "668 Strander Blvd"}, "geometry": {"type": "Point", "coordinates": [-122.2447815, 47.4576187]}}, {"type": "Feature", "properties": {"id": "6af017c6-8fb2-468f-b0c1-aac145ecbed1", "name": "Breadboard Cafe", "category": "restaurant", "tags": ["restaurant", "diner"], "sources": ["overture"], "website": "http://breadboardbakery.com/", "phone": "(206) 575-4445", "address": "607 Industry Dr"}, "geometry": {"type": "Point", "coordinates": [-122.2480164, 47.4530182]}}, {"type": "Feature", "properties": {"id": "9689845b-55ff-4f0e-9156-ae112e248011", "name": "Seattle Bbq and Grilling School", "category": "restaurant", "tags": ["restaurant", "barbecue"], "sources": ["overture"], "website": "http://seattlebbqandgrillingschool.com/summer-pig-out/", "phone": "+12065516265", "address": "772 Industry Dr"}, "geometry": {"type": "Point", "coordinates": [-122.247963, 47.4522591]}}, {"type": "Feature", "properties": {"id": "b27eb81b-d636-4450-860e-5982f163cbd2", "name": "Synergy Stone Llc", "category": "restaurant", "tags": ["restaurant"], "sources": ["overture"], "website": "synergystone.com", "address": "596 Industry Dr"}, "geometry": {"type": "Point", "coordinates": [-122.2483215, 47.4542313]}}, {"type": "Feature", "properties": {"id": "9d288e7e-3932-4a8f-ac01-9b35c3999a08", "name": "Hale &amp Associates, Accountants, Ps", "category": "restaurant", "tags": ["restaurant"], "sources": ["overture"], "address": "16300 Christensen Rd Ste 320"}, "geometry": {"type": "Point", "coordinates": [-122.2473755, 47.4575233]}}, {"type": "Feature", "properties": {"id": "320b384a-7118-40e5-b1d9-a923fcca4913", "name": "Confetti Confections & Coffee", "category": "bakery", "tags": ["bakery"], "sources": ["overture"], "website": "http://www.confettidesserts.com", "phone": "(425) 961-0101", "address": "652 Strander Blvd"}, "geometry": {"type": "Point", "coordinates": [-122.2452011, 47.4572868]}}, {"type": "Feature", "properties": {"id": "881d7009-390b-4d54-81be-d256be6b2f04", "name": "Barnabys", "category": "restaurant", "tags": ["restaurant", "seafood"], "sources": ["overture"], "website": "http://www.barnabysseattle.com/", "phone": "(425) 251-8341", "address": "16401 W Valley Hwy"}, "geometry": {"type": "Point", "coordinates": [-122.2436523, 47.4568558]}}, {"type": "Feature", "properties": {"id": "79236953-7c20-40fa-91f0-bc82e12fa2fc", "name": "Charley's Restaurant & Lounge", "category": "restaurant", "tags": ["restaurant"], "sources": ["overture"], "website": "http://www.marriott.com/hotels/hotel-information/restaurant/seawv-courtyard-seattle-sea-tac-area/", "phone": "(425) 255-0300", "address": "16038 W Valley Hwy"}, "geometry": {"type": "Point", "coordinates": [-122.2439499, 47.459343]}}, {"type": "Feature", "properties": {"id": "bc0cec0b-eaa4-452d-91d5-cab7a0f09a9c", "name": "Museum Of Flight - Boeing Seattle", "category": "museum", "tags": ["museum", "history"], "sources": ["overture"], "website": "www.museumofflight.org"}, "geometry": {"type": "Point", "coordinates": [-122.245575, 47.4578133]}}, {"type": "Feature", "properties": {"id": "3fd9a46c-2999-49d3-b41b-01464afcd496", "name": "Lawton Park Apartments", "category": "attraction", "tags": ["attraction", "landmark", "historical", "building"], "sources": ["overture"], "website": "https://www.lawtonparkapartments.com/", "phone": "+12062037885", "address": "3721 N 27th St"}, "geometry": {"type": "Point", "coordinates": [-122.2408829, 47.4568939]}}, {"type": "Feature", "properties": {"id": 246158551, "name": "Bicentennial Park", "category": "park", "tags": ["park"], "sources": ["osm"], "website": "https://www.tukwilawa.gov/departments/parks-and-recreation/parks-and-trails/bicentennial-park/", "address": "7200 Strander Boulevard"}, "geometry": {"type": "Point", "coordinates": [-122.247445, 47.4564265]}}, {"type": "Feature", "properties": {"id": "8ed760de-85d3-4b5e-bfbc-88f13474d920", "name": "Centennial Park Tukwila", "category": "park", "tags": ["park"], "sources": ["overture"], "website": "www.tukwilawa.gov/departments/parks-and-recreation/parks-list"}, "geometry": {"type": "Point", "coordinates": [-122.2470474, 47.456398]}}, {"type": "Feature", "properties": {"id": 2966871634, "name": "Residence Inn Seattle South/Tukwila", "category": "hotel", "tags": ["hotel"], "sources": ["osm"], "website": "https://www.marriott.com/seaso", "phone": "+1-425-226-5500", "address": "16201 West Valley Highway"}, "geometry": {"type": "Point", "coordinates": [-122.244563, 47.4581827]}}, {"type": "Feature", "properties": {"id": 293324312, "name": "Courtyard Marriott - SeaTac", "category": "hotel", "tags": ["hotel"], "sources": ["osm"], "website": "https://www.marriott.com/hotels/travel/seawv-courtyard-seattle-sea-tac-area/", "phone": "+1-425-255-0300", "address": "16038 West Valley Highway"}, "geometry": {"type": "Point", "coordinates": [-122.2436809, 47.4591685]}}, {"type": "Feature", "properties": {"id": "fe0687d1-9e34-407a-894a-cf535812f17c", "name": "Residence Inn", "category": "hotel", "tags": ["hotel"], "sources": ["overture"], "website": "https://www.marriott.com/en-us/hotels/seaso-residence-inn-seattle-south-tukwila/overview/?scid=d2406702-e8ea-4b45-bb9b-69cddaaef03d", "phone": "+14252265500", "address": "16201 W Valley Hwy"}, "geometry": {"type": "Point", "coordinates": [-122.2449493, 47.458004]}}, {"type": "Feature", "properties": {"id": "7ce046bb-428f-45b4-8cc4-1c321e71b267", "name": "Element by Marriott Seattle Sea-Tac Airport", "category": "hotel", "tags": ["hotel"], "sources": ["overture"], "website": "https://www.marriott.com/en-us/hotels/seaea-element-seattle-sea-tac-airport/overview/?scid=d2406702-e8ea-4b45-bb9b-69cddaaef03d", "phone": "+12065758010", "address": "515 Industry Dr"}, "geometry": {"type": "Point", "coordinates": [-122.2497635, 47.45364]}}, {"type": "Feature", "properties": {"id": "27db3027-2de6-4a77-a4f6-f6a99d2af1b8", "name": "Audubon Park", "category": "hotel", "tags": ["hotel"], "sources": ["overture"], "website": "http://www.AudubonPark.com/", "phone": "+12069571350", "address": "16000 Christensen Rd"}, "geometry": {"type": "Point", "coordinates": [-122.2478027, 47.4589462]}}, {"type": "Feature", "properties": {"id": "02fdb07c-c4b0-4d54-bf93-87b47e0724a1", "name": "Riverview Plaza Leasing Office", "category": "hotel", "tags": ["hotel"], "sources": ["overture"], "phone": "+12067081804", "address": "16040 Christensen Rd"}, "geometry": {"type": "Point", "coordinates": [-122.2479324, 47.4590034]}}, {"type": "Feature", "properties": {"id": "8883c52b-4009-43ba-873c-04813a797333", "name": "Courtyard by Marriott Seattle Sea-Tac Area", "category": "hotel", "tags": ["hotel"], "sources": ["overture"], "website": "https://www.marriott.com/hotels/travel/seawv-courtyard-seattle-sea-tac-area/?scid=5d6c9ba8-fdb3-45cd-90d4-fc3cbfe3681c&y_source=1_Mzg4OTkyOS01NTktbG9jYXRpb24ud2Vic2l0ZQ%3D%3D", "phone": "+14252550300", "address": "16038 W Valley Hwy"}, "geometry": {"type": "Point", "coordinates": [-122.2436218, 47.4591904]}}, {"type": "Feature", "properties": {"id": "abd824cf-c4fe-4960-ad2f-70402d5c6c59", "name": "7-Eleven", "category": "convenience", "tags": ["convenience"], "sources": ["overture"], "website": "https://www.7-eleven.com/", "phone": "+14252824684", "address": "680 Strander Blvd"}, "geometry": {"type": "Point", "coordinates": [-122.2445145, 47.4578133]}}, {"type": "Feature", "properties": {"id": 293205527, "name": "Video Only", "category": "electronics", "tags": ["electronics"], "sources": ["osm"], "address": "290 Andover Park East", "hours": "Mo-Su 10:00-19:00"}, "geometry": {"type": "Point", "coordinates": [-122.2492129, 47.4562787]}}, {"type": "Feature", "properties": {"id": 10115842479, "name": "Elite Office Installation", "category": "furniture", "tags": ["furniture"], "sources": ["osm"], "phone": "+1-206-245-9474", "address": "561 Strander Boulevard", "hours": "Mo-Fr 08:00-17:00"}, "geometry": {"type": "Point", "coordinates": [-122.247796, 47.4552868]}}, {"type": "Feature", "properties": {"id": 119980136, "name": "My Goods Market", "category": "convenience", "tags": ["convenience"], "sources": ["osm"], "address": "16200 West Valley Highway"}, "geometry": {"type": "Point", "coordinates": [-122.2433697, 47.4580699]}}, {"type": "Feature", "properties": {"id": 654954846, "name": "R&B Building Supply", "category": "hardware", "tags": ["hardware"], "sources": ["osm"], "address": "510 Strander Boulevard", "hours": "Mo-Sa 07:00-18:00"}, "geometry": {"type": "Point", "coordinates": [-122.2483844, 47.4562883]}}, {"type": "Feature", "properties": {"id": 654955062, "name": "Foss Audio", "category": "electronics", "tags": ["electronics"], "sources": ["osm"], "address": "512 Strander Boulevard"}, "geometry": {"type": "Point", "coordinates": [-122.2478818, 47.4562718]}}, {"type": "Feature", "properties": {"id": 654955066, "name": "Best Kitchen", "category": "furniture", "tags": ["furniture"], "sources": ["osm"], "phone": "+12063827600", "address": "530 Strander Boulevard", "hours": "Mo-Fr 08:30-16:30; Sa 08:30-14:00"}, "geometry": {"type": "Point", "coordinates": [-122.2474579, 47.4561467]}}, {"type": "Feature", "properties": {"id": "473e1d3c-62d0-4237-9430-7a1fb169a909", "name": "Pleasure's Place", "category": "toys", "tags": ["toys"], "sources": ["overture"], "website": "http://pleasuresplace.com/", "phone": "+12067588056", "address": "229 Andover Park E"}, "geometry": {"type": "Point", "coordinates": [-122.2490616, 47.4552917]}}, {"type": "Feature", "properties": {"id": "b7537850-541b-47a0-bcbd-6e3ff9e3708c", "name": "Oppegaard Meadery", "category": "wine", "tags": ["wine", "winery"], "sources": ["overture"], "website": "http://Opmead.com/", "phone": "+12532365865", "address": "600 Industry Dr"}, "geometry": {"type": "Point", "coordinates": [-122.2477951, 47.4540062]}}, {"type": "Feature", "properties": {"id": "99ec3acf-7a8b-42aa-9e17-cdea436129e8", "name": "Home Mart Llc", "category": "variety_store", "tags": ["variety-store", "discount"], "sources": ["overture"], "website": "https://nhmartllc.com", "phone": "2062420698", "address": "512 Strander Blvd"}, "geometry": {"type": "Point", "coordinates": [-122.247879, 47.4562569]}}, {"type": "Feature", "properties": {"id": "aef876f4-4428-4922-9dfb-681fe918689f", "name": "Warren's News & Gift Inc", "category": "gift", "tags": ["gift"], "sources": ["overture"], "phone": "2065756993", "address": "631 Strander Blvd  Ste F"}, "geometry": {"type": "Point", "coordinates": [-122.2455215, 47.4548149]}}, {"type": "Feature", "properties": {"id": "db8ff4ca-f405-4701-9a24-6da207d2c90e", "name": "Washington Gold and Diamond", "category": "jewelry", "tags": ["jewelry"], "sources": ["overture"], "website": "http://www.goldsellseattlegoldsell.com/", "phone": "+12064665184", "address": "643 Strander Blvd"}, "geometry": {"type": "Point", "coordinates": [-122.2457504, 47.4550781]}}, {"type": "Feature", "properties": {"id": "cc325ce0-f21b-4d4e-99b5-3a43cbefbed5", "name": "Vent Tec", "category": "doityourself", "tags": ["doityourself", "building", "supply"], "sources": ["overture"], "website": "http://www.vent-tec.com/index.html", "phone": "(206) 575-2755", "address": "816 Industry Dr"}, "geometry": {"type": "Point", "coordinates": [-122.2479706, 47.4514008]}}, {"type": "Feature", "properties": {"id": "08d903c9-65ef-4cdc-a877-c5adb3273dee", "name": "Pacific International Associates, Inc.", "category": "doityourself", "tags": ["doityourself", "building", "supply"], "sources": ["overture"], "website": "http://piaamerica.com", "phone": "12069227528", "address": "16000 Christensen Rd  Ste 130"}, "geometry": {"type": "Point", "coordinates": [-122.2478027, 47.4589462]}}, {"type": "Feature", "properties": {"id": 4918158644, "name": "Concentra", "category": "clinic", "tags": ["clinic"], "sources": ["osm"], "hours": "Mo-Fr 08:00-17:00; Sa 08:00-12:00"}, "geometry": {"type": "Point", "coordinates": [-122.249261, 47.4571974]}}, {"type": "Feature", "properties": {"id": 5159958524, "name": "Bows-R-Bowties 1st Peek Ultrasound", "category": "clinic", "tags": ["clinic"], "sources": ["osm"], "address": "646 Strander Boulevard", "hours": "Tu-Fr 08:00-15:00; Sa 08:00-17:00; Su 08:00-12:00"}, "geometry": {"type": "Point", "coordinates": [-122.2449437, 47.457154]}}, {"type": "Feature", "properties": {"id": "951cfdf3-ffd0-403d-990a-ed36c0e151b4", "name": "Concentra Urgent Care", "category": "clinic", "tags": ["clinic", "medical"], "sources": ["overture"], "website": "https://www.concentra.com/urgent-care-centers/washington/portland/tukwila-urgent-care/?utm_source=Yext&utm_medium=Referral&utm_campaign=LocalPage", "phone": "+12065753136", "address": "200 Andover Park E #8"}, "geometry": {"type": "Point", "coordinates": [-122.2492523, 47.457283]}}, {"type": "Feature", "properties": {"id": "fa0501a1-345c-492c-811a-6c4b94a3afdd", "name": "Us Healthworks", "category": "clinic", "tags": ["clinic", "medical"], "sources": ["overture"], "website": "https://www.humana.com", "phone": "+12069880105", "address": "130 Andover Park E Ste 200"}, "geometry": {"type": "Point", "coordinates": [-122.2492828, 47.4586639]}}, {"type": "Feature", "properties": {"id": 13267775965, "name": "Mechanics Bank", "category": "bank", "tags": ["bank"], "sources": ["osm"], "hours": "Mo-Th 09:00-17:00; Fr 09:00-18:00"}, "geometry": {"type": "Point", "coordinates": [-122.2496965, 47.4590297]}}, {"type": "Feature", "properties": {"id": 293205516, "name": "Salal Credit Union", "category": "bank", "tags": ["bank"], "sources": ["osm"], "address": "690 Strander Boulevard", "hours": "Mo-Fr 09:30-17:30; Sa 10:00-14:00"}, "geometry": {"type": "Point", "coordinates": [-122.2444813, 47.4571502]}}, {"type": "Feature", "properties": {"id": "23e98225-39ef-4ab4-a4c2-ef461c5d9290", "name": "Seattle Metropolitan Credit Union", "category": "bank", "tags": ["bank", "credit", "union"], "sources": ["overture"], "website": "http://www.smcu.com", "phone": "+12063985500", "address": "120 Andover Park E"}, "geometry": {"type": "Point", "coordinates": [-122.2491913, 47.4594688]}}, {"type": "Feature", "properties": {"id": 4530928389, "name": "Sound Credit Union", "category": "bank", "tags": ["bank"], "sources": ["osm"], "hours": "Mo-Fr 09:00-17:30; Sa 09:00-13:00"}, "geometry": {"type": "Point", "coordinates": [-122.2491998, 47.4573917]}}, {"type": "Feature", "properties": {"id": "ee861ffd-f429-4688-873a-7ca92dd25373", "name": "U.S. Bank ATM", "category": "bank", "tags": ["bank", "credit", "union"], "sources": ["overture"], "website": "http://www.usbank.com/locations", "phone": "8008722657", "address": "151 Andover Park E"}, "geometry": {"type": "Point", "coordinates": [-122.2499542, 47.458622]}}, {"type": "Feature", "properties": {"id": "eec162f7-9a79-4e7b-9a8e-a482fcafaa30", "name": "ATM Homestreet Bank", "category": "bank", "tags": ["bank", "credit", "union"], "sources": ["overture"], "website": "https://www.homestreet.com/branches/southcenter-branch", "phone": "+18006273999", "address": "130 Andover Park E ste 100/101"}, "geometry": {"type": "Point", "coordinates": [-122.2494583, 47.4585495]}}, {"type": "Feature", "properties": {"id": "5c350469-6129-46b4-95f8-2d220e9248a1", "name": "SpoonFed Training", "category": "fitness_centre", "tags": ["fitness-centre", "gym"], "sources": ["overture"], "website": "http://www.SpoonFedTraining.com/", "phone": "+14255247386", "address": "708 Industry Dr"}, "geometry": {"type": "Point", "coordinates": [-122.2472, 47.4526253]}}, {"type": "Feature", "properties": {"id": "baf0e2b0-f5ac-4398-9f3d-29b7a25f6438", "name": "CycleScienceTraining", "category": "fitness_centre", "tags": ["fitness-centre", "fitness", "trainer"], "sources": ["overture"], "website": "http://www.cyclesciencetraining.com", "phone": "+12532414689", "address": "649 Strander Blvd"}, "geometry": {"type": "Point", "coordinates": [-122.2454071, 47.4547882]}}]}