{"type": "FeatureCollection", "features": [{"type": "Feature", "properties": {"id": 6509984286, "name": "Salina Specialties", "category": "restaurant", "tags": ["restaurant", "asian", "wheelchair-accessible", "halal"], "sources": ["osm"], "phone": "+1-206-906-9331", "address": "11805 Renton Avenue South", "hours": "Mo-Su 11:00-21:00"}, "geometry": {"type": "Point", "coordinates": [-122.247474, 47.4968049]}}, {"type": "Feature", "properties": {"id": "d1cd6353-8610-4376-8901-49b2bf15968d", "name": "Cjs Southern Barbecue & Catering", "category": "restaurant", "tags": ["restaurant", "barbecue"], "sources": ["overture"], "website": "http://jacksbbq.com", "phone": "(206) 250-2571", "address": "7210 S 120th St"}, "geometry": {"type": "Point", "coordinates": [-122.2427292, 47.4976501]}}, {"type": "Feature", "properties": {"id": "bdc622b6-ebd6-4b42-9394-84b43a0f4eb6", "name": "Basket Case Drive-In", "category": "restaurant", "tags": ["restaurant", "burger"], "sources": ["overture"], "website": "http://www.basketcasedrivein.com", "phone": "(206) 772-6320", "address": "11901 Renton Ave S"}, "geometry": {"type": "Point", "coordinates": [-122.2444763, 47.4966583]}}, {"type": "Feature", "properties": {"id": "abdf10c5-e589-411c-ad4c-8f1e7b2c9d7c", "name": "Ban M\u00ea Restaurant", "category": "restaurant", "tags": ["restaurant"], "sources": ["overture"], "phone": "+12067330605", "address": "11843 Renton Ave S"}, "geometry": {"type": "Point", "coordinates": [-122.2445908, 47.4958115]}}, {"type": "Feature", "properties": {"id": "7f20e945-f657-4eb0-bb33-50ff2646abb5", "name": "Nh\u00edch Restaurant Bar & Lounge", "category": "restaurant", "tags": ["restaurant", "vietnamese"], "sources": ["overture"], "phone": "+12066933326", "address": "11843 Renton Ave S"}, "geometry": {"type": "Point", "coordinates": [-122.2448273, 47.4958534]}}, {"type": "Feature", "properties": {"id": "f002e4e5-9af4-44d1-b716-45e1a6bc6c6b", "name": "Moon Village Bakery", "category": "bakery", "tags": ["bakery"], "sources": ["overture"], "website": "https://sites.google.com/view/moonvillagebakery/home", "phone": "+12064008383", "address": "7418 S 126th St"}, "geometry": {"type": "Point", "coordinates": [-122.2408295, 47.4912224]}}, {"type": "Feature", "properties": {"id": "eaca5fdc-610c-4734-b01a-0748ff156f5f", "name": "Lucky Dragonz Nightclub", "category": "bar", "tags": ["bar", "chinese"], "sources": ["overture"], "website": "http://www.dragonZclub.com/", "phone": "+12069921794", "address": "11819 Renton Ave S"}, "geometry": {"type": "Point", "coordinates": [-122.2459869, 47.4968681]}}, {"type": "Feature", "properties": {"id": "8c028dad-2013-4b23-930e-44dd2377bb98", "name": "Crazy Corn", "category": "fast_food", "tags": ["fast-food", "food", "truck", "mexican"], "sources": ["overture"], "phone": "+12064290769", "address": "11809 Renton Ave S"}, "geometry": {"type": "Point", "coordinates": [-122.2471085, 47.4968414]}}, {"type": "Feature", "properties": {"id": "a5f31469-6511-4f8d-9ef7-258430ee6404", "name": "Salima Specialties", "category": "restaurant", "tags": ["restaurant", "asian", "halal"], "sources": ["overture"], "website": "http://Salimaspecialties.com/", "phone": "+12069069331", "address": "11805 Renton Ave S"}, "geometry": {"type": "Point", "coordinates": [-122.2475891, 47.4968796]}}, {"type": "Feature", "properties": {"id": "96476878-2cff-4d8d-b915-d4443e224f69", "name": "Black Barbie CEO", "category": "restaurant", "tags": ["restaurant", "seafood", "southern", "american"], "sources": ["overture"]}, "geometry": {"type": "Point", "coordinates": [-122.2475052, 47.4968529]}}, {"type": "Feature", "properties": {"id": "0532dfaa-f077-44dc-a77e-431c5ec62aeb", "name": "Ezell Fried Chicken Inc", "category": "restaurant", "tags": ["restaurant"], "sources": ["overture"], "address": "11805 Renton Ave S"}, "geometry": {"type": "Point", "coordinates": [-122.247467, 47.4968758]}}, {"type": "Feature", "properties": {"id": "d22539c9-1a56-47a0-a983-1554ec484695", "name": "CATFISH CORNER EXPRESS", "category": "restaurant", "tags": ["restaurant", "fish-and-chips", "fish", "chips"], "sources": ["overture"], "website": "https://www.catfishcornerexpress.com/?utm_source=bing&utm_medium=websiteurl&utm_campaign=search", "phone": "2067357084", "address": "11805 Renton Ave S"}, "geometry": {"type": "Point", "coordinates": [-122.2474823, 47.496891]}}, {"type": "Feature", "properties": {"id": "6db91c59-12db-4ae4-b18d-25ca1f3503ea", "name": "Taquera La Herradura", "category": "restaurant", "tags": ["restaurant", "mexican", "taco", "texmex"], "sources": ["overture"], "phone": "+12064234929", "address": "11655 Renton Ave S"}, "geometry": {"type": "Point", "coordinates": [-122.2485809, 47.4972763]}}, {"type": "Feature", "properties": {"id": "4e51e9fe-d9e0-46b2-ab95-e9f17744b482", "name": "Greentree Apartment Homes", "category": "attraction", "tags": ["attraction", "landmark", "historical", "building"], "sources": ["overture"], "website": "https://www.theparkhillapts.com/", "phone": "+14253646861", "address": "6900 S 125th St"}, "geometry": {"type": "Point", "coordinates": [-122.247818, 47.4914703]}}, {"type": "Feature", "properties": {"id": "6b54bdff-2cd0-4d5a-8ffe-0c3693678489", "name": "Aspen Ridge Apartments", "category": "attraction", "tags": ["attraction", "landmark", "historical", "building"], "sources": ["overture"], "website": "http://aspenridgeapthomes.com/", "phone": "+12063094383", "address": "12601 68th Ave S"}, "geometry": {"type": "Point", "coordinates": [-122.2495575, 47.4901276]}}, {"type": "Feature", "properties": {"id": 87662538, "name": "Skyway Park", "category": "park", "tags": ["park"], "sources": ["osm"], "website": "http://www.kingcounty.gov/recreation/parks/inventory/skyway.aspx", "address": "7121 South 120th Place"}, "geometry": {"type": "Point", "coordinates": [-122.2435734, 47.4934719]}}, {"type": "Feature", "properties": {"id": 355786353, "name": "Black Panther Park", "category": "park", "tags": ["park"], "sources": ["osm", "overture"], "website": "http://www.stonesoupgardens.com/community_projects.html", "address": "12213 75th Ave S"}, "geometry": {"type": "Point", "coordinates": [-122.2400575, 47.4929079]}}, {"type": "Feature", "properties": {"id": 651808744, "name": "Grocery Outlet", "category": "supermarket", "tags": ["supermarket", "wheelchair-accessible"], "sources": ["osm", "overture"], "website": "https://www.groceryoutlet.com/circulars/storeid/240", "phone": "+14257281870", "address": "11656 68th Ave S", "hours": "Mo-Su 08:00-22:00"}, "geometry": {"type": "Point", "coordinates": [-122.2484333, 47.4963308]}}, {"type": "Feature", "properties": {"id": 9443689945, "name": "RCA Electron Tubes", "category": "electronics", "tags": ["electronics"], "sources": ["osm"]}, "geometry": {"type": "Point", "coordinates": [-122.2466589, 47.4973892]}}, {"type": "Feature", "properties": {"id": 651661609, "name": "24/7", "category": "convenience", "tags": ["convenience"], "sources": ["osm"], "address": "11900 Renton Avenue South", "hours": "24/7"}, "geometry": {"type": "Point", "coordinates": [-122.244907, 47.4972667]}}, {"type": "Feature", "properties": {"id": "0f565d37-fdb4-458e-a032-cf19cf91aad8", "name": "Metro PCS", "category": "mobile_phone", "tags": ["mobile-phone", "mobile"], "sources": ["overture"], "website": "http://www.metropcs.com/", "phone": "2065694351", "address": "11805 Renton Ave S"}, "geometry": {"type": "Point", "coordinates": [-122.2475586, 47.4968948]}}, {"type": "Feature", "properties": {"id": "f8325532-1800-45fa-bf80-4eb2b7161a08", "name": "Skyway Vfw Post", "category": "books", "tags": ["books"], "sources": ["overture"], "website": "https://vfw9430.org/di/vfw/v2/default.asp", "phone": "+12067729982", "address": "7421 S 126th St"}, "geometry": {"type": "Point", "coordinates": [-122.2406158, 47.4909897]}}, {"type": "Feature", "properties": {"id": "9b7d22f9-c2bb-40ab-bf2a-1882d78af254", "name": "Mcneil Family Markets, Inc", "category": "supermarket", "tags": ["supermarket"], "sources": ["overture"], "address": "11656 68th Ave S"}, "geometry": {"type": "Point", "coordinates": [-122.2484283, 47.4963303]}}, {"type": "Feature", "properties": {"id": "4e5c2a51-3be5-4336-8cc7-f8fba62259af", "name": "Williams Flower & Gift - Seattle", "category": "florist", "tags": ["florist"], "sources": ["overture"], "website": "https://www.williamsflowers.com", "phone": "+12063394252", "address": "11840 Renton Ave S Ste 2"}, "geometry": {"type": "Point", "coordinates": [-122.2458954, 47.4973831]}}]}