{"type": "FeatureCollection", "features": [{"type": "Feature", "properties": {"id": 422831963, "name": "Pine Tree Park", "category": "park", "tags": ["park"], "sources": ["osm", "overture"], "website": "https://www.kentwa.gov/departments/kent-parks/parks-places/parks-trails/pine-tree-park", "phone": "+12538565110", "address": "27700 114th Ave SE", "hours": "dawn-dusk"}, "geometry": {"type": "Point", "coordinates": [-122.1870632, 47.352015]}}, {"type": "Feature", "properties": {"id": 442654402, "name": "Green View Park", "category": "park", "tags": ["park"], "sources": ["osm", "overture"], "website": "http://greenviewpark.placeweb.site", "phone": "+12538565200", "address": "12033 SE 277th Pl", "hours": "dawn-dusk"}, "geometry": {"type": "Point", "coordinates": [-122.1808749, 47.3525753]}}]}