{"type": "FeatureCollection", "features": [{"type": "Feature", "properties": {"id": 356356295, "name": "Arbor Heights 360 Park", "category": "park", "tags": ["park"], "sources": ["osm"], "website": "https://www.kentwa.gov/departments/kent-parks/parks-places/parks-trails/arbor-heights-360", "address": "11525 Southeast 240th Street", "hours": "dawn-dusk"}, "geometry": {"type": "Point", "coordinates": [-122.1874926, 47.3860559]}}, {"type": "Feature", "properties": {"id": 635540888, "name": "Kent East Hill Nursery Display Garden", "category": "garden", "tags": ["garden"], "sources": ["osm"]}, "geometry": {"type": "Point", "coordinates": [-122.1865298, 47.3871311]}}, {"type": "Feature", "properties": {"id": 640974156, "name": "Sunrise Meadows Neighborhood Park", "category": "park", "tags": ["park"], "sources": ["osm"]}, "geometry": {"type": "Point", "coordinates": [-122.1822321, 47.380514]}}, {"type": "Feature", "properties": {"id": "c0f8be6e-5d5c-4cde-bfcf-ef5b75f5a2de", "name": "Gnome Botanical Gardens", "category": "garden", "tags": ["garden", "botanical"], "sources": ["overture"], "website": "http://www.museumsusa.org/museums/info/6569", "address": "11518 SE 240th St"}, "geometry": {"type": "Point", "coordinates": [-122.1875076, 47.3878632]}}, {"type": "Feature", "properties": {"id": 742059435, "name": "ampm", "category": "convenience", "tags": ["convenience"], "sources": ["osm"]}, "geometry": {"type": "Point", "coordinates": [-122.1859509, 47.3865114]}}]}