{"type": "FeatureCollection", "features": [{"type": "Feature", "properties": {"id": 4911795336, "name": "Between Two Worlds", "category": "artwork", "tags": ["artwork"], "sources": ["osm"]}, "geometry": {"type": "Point", "coordinates": [-122.2213952, 47.5667266]}}, {"type": "Feature", "properties": {"id": "1b57e706-805f-4a6f-ac27-83ecd55d09e0", "name": "Rotary Park", "category": "park", "tags": ["park"], "sources": ["overture"], "website": "http://www.mercergov.org/rotarypark", "phone": "(206) 275-7609"}, "geometry": {"type": "Point", "coordinates": [-122.2209549, 47.5682755]}}, {"type": "Feature", "properties": {"id": 92831921, "name": "Mercer Island Library", "category": "library", "tags": ["library"], "sources": ["osm", "overture"], "website": "https://linktr.ee/LibraryMercerIsland", "phone": "+12062363537", "address": "4400 88th Ave SE", "hours": "Mo,Th-Fr 10:00-18:00; Tu-We 12:00-20:00; Sa-Su 11:00-18:00"}, "geometry": {"type": "Point", "coordinates": [-122.221176, 47.5669489]}}]}