{"type": "FeatureCollection", "features": [{"type": "Feature", "properties": {"id": 210705893, "name": "Woodridge Water Tower Park", "category": "park", "tags": ["park"], "sources": ["osm"]}, "geometry": {"type": "Point", "coordinates": [-122.1739054, 47.5933012]}}, {"type": "Feature", "properties": {"id": "d4e3f56a-1202-4de6-bf5e-2a7e8020ba8d", "name": "Woodridge Water Tower Park", "category": "park", "tags": ["park"], "sources": ["overture"], "website": "http://www.ci.bellevue.wa.us", "phone": "(425) 452-6885", "address": "1843 125th Ave SE"}, "geometry": {"type": "Point", "coordinates": [-122.1722183, 47.5930023]}}, {"type": "Feature", "properties": {"id": 348425525, "name": "Woodridge Open Space", "category": "park", "tags": ["park"], "sources": ["osm"], "website": "http://parkstrails.myparksandrecreation.com/Details.aspx?pid=478"}, "geometry": {"type": "Point", "coordinates": [-122.1709543, 47.5977938]}}, {"type": "Feature", "properties": {"id": 393547956, "name": "Woodridge Swim Club", "category": "sports_centre", "tags": ["sports-centre"], "sources": ["osm"]}, "geometry": {"type": "Point", "coordinates": [-122.1752229, 47.5992042]}}]}