{"type": "FeatureCollection", "features": [{"type": "Feature", "properties": {"id": 7703415160, "name": "Starbucks", "category": "cafe", "tags": ["cafe", "coffee-shop", "takeaway"], "sources": ["osm", "overture"], "website": "https://www.starbucks.com/store-locator/store/8691/", "phone": "+14257781367", "address": "4028 196th St SW", "stations": [{"stopCode": 40, "lines": "1,2", "name": "Lynnwood City Center Station", "walkingMeters": 1064, "walkingSeconds": 765, "band": 15}]}, "geometry": {"type": "Point", "coordinates": [-122.2879413, 47.8205607]}}, {"type": "Feature", "properties": {"id": 5640769371, "name": "Taco Del Mar", "category": "fast_food", "tags": ["fast-food", "mexican", "takeaway", "restaurant", "taco"], "sources": ["osm", "overture"], "website": "http://www.tacodelmar.com/", "phone": "+14256734607", "address": "4201 196th St SW", "stations": [{"stopCode": 40, "lines": "1,2", "name": "Lynnwood City Center Station", "walkingMeters": 986, "walkingSeconds": 711, "band": 15}]}, "geometry": {"type": "Point", "coordinates": [-122.2895485, 47.821453]}}, {"type": "Feature", "properties": {"id": 3389835062, "name": "Chipotle", "category": "fast_food", "tags": ["fast-food", "mexican", "takeaway"], "sources": ["osm"], "website": "https://locations.chipotle.com/wa/lynnwood/4120-196th-st-sw", "phone": "+1-425-776-7549", "address": "4120 196th Street Southwest", "hours": "10:45-23:00", "stations": [{"stopCode": 40, "lines": "1,2", "name": "Lynnwood City Center Station", "walkingMeters": 931, "walkingSeconds": 670, "band": 15}]}, "geometry": {"type": "Point", "coordinates": [-122.2890104, 47.8206856]}}, {"type": "Feature", "properties": {"id": 3389835063, "name": "Panda Express", "category": "fast_food", "tags": ["fast-food", "chinese", "takeaway", "restaurant", "asian"], "sources": ["osm", "overture"], "website": "http://www.pandaexpress.com/", "phone": "+14257741678", "address": "4120 196th St Sw", "hours": "Su-Th 09:30-22:00; Fr-Sa 09:30-22:30", "stations": [{"stopCode": 40, "lines": "1,2", "name": "Lynnwood City Center Station", "walkingMeters": 982, "walkingSeconds": 706, "band": 15}]}, "geometry": {"type": "Point", "coordinates": [-122.2887056, 47.8206812]}}, {"type": "Feature", "properties": {"id": 13451098201, "name": "Wingstop", "category": "restaurant", "tags": ["restaurant", "chicken", "wings"], "sources": ["osm", "overture"], "website": "https://www.wingstop.com/location/wingstop-2919-lynnwood-wa-98036/menu?y_source=1_MTA5NjE5NjU2OS00ODMtbG9jYXRpb24ud2Vic2l0ZQ%3D%3D", "phone": "4253844222", "address": "4028 196th SW Ste 105", "hours": "Su-Th 10:00-00:00, Fr-Sa 10:00-01:00", "stations": [{"stopCode": 40, "lines": "1,2", "name": "Lynnwood City Center Station", "walkingMeters": 1061, "walkingSeconds": 763, "band": 15}]}, "geometry": {"type": "Point", "coordinates": [-122.2880303, 47.820563]}}, {"type": "Feature", "properties": {"id": 589359125, "name": "Kona Kitchen", "category": "restaurant", "tags": ["restaurant", "hawaiian", "poke", "asian"], "sources": ["osm", "overture"], "website": "http://konakitchen.com", "phone": "+14255785662", "address": "3805 196th St SW", "stations": [{"stopCode": 40, "lines": "1,2", "name": "Lynnwood City Center Station", "walkingMeters": 1358, "walkingSeconds": 982, "band": 15}]}, "geometry": {"type": "Point", "coordinates": [-122.284914, 47.8212853]}}, {"type": "Feature", "properties": {"id": 572778358, "name": "KFC", "category": "fast_food", "tags": ["fast-food", "chicken", "takeaway", "fast", "food"], "sources": ["osm", "overture"], "website": "https://locations.kfc.com/wa/lynnwood/4011-196th-st-sw", "phone": "+14257741130", "address": "4011 196th St. SW", "stations": [{"stopCode": 40, "lines": "1,2", "name": "Lynnwood City Center Station", "walkingMeters": 1119, "walkingSeconds": 807, "band": 15}]}, "geometry": {"type": "Point", "coordinates": [-122.2876245, 47.8213148]}}, {"type": "Feature", "properties": {"id": 5521104306, "name": "Ezell's Chicken", "category": "fast_food", "tags": ["fast-food", "chicken", "takeaway"], "sources": ["osm"], "website": "https://www.ezellschicken.com/", "phone": "+1-425-640-8111", "address": "3925 196th Street Southwest", "hours": "Mo-Th 10:30-21:00; Fr-Sa 10:30-22:00; Su 11:00-21:00", "stations": [{"stopCode": 40, "lines": "1,2", "name": "Lynnwood City Center Station", "walkingMeters": 1173, "walkingSeconds": 849, "band": 15}]}, "geometry": {"type": "Point", "coordinates": [-122.2866648, 47.8212967]}}, {"type": "Feature", "properties": {"id": "4d815218-27c5-415f-b0f0-5f082eac0a82", "name": "Chuck E. Cheese", "category": "restaurant", "tags": ["restaurant", "pizza"], "sources": ["overture"], "website": "https://www.chuckecheese.com/careers", "phone": "4257711195", "address": "3717 196th St Sw  Ste 100"}, "geometry": {"type": "Point", "coordinates": [-122.2840118, 47.8237495]}}, {"type": "Feature", "properties": {"id": 590887266, "name": "El Rinconsito", "category": "restaurant", "tags": ["restaurant"], "sources": ["osm"], "website": "https://elrinconsito.com/", "phone": "+1-425-778-5180", "address": "19409 36th Avenue West"}, "geometry": {"type": "Point", "coordinates": [-122.281362, 47.8228671]}}, {"type": "Feature", "properties": {"id": 5521104305, "name": "Fork Mediterranean Grill", "category": "restaurant", "tags": ["restaurant", "mediterranean", "middle-eastern"], "sources": ["osm", "overture"], "website": "https://www.forkgrill.com/", "phone": "+14252457944", "address": "3925 196th St SW Unit 102", "stations": [{"stopCode": 40, "lines": "1,2", "name": "Lynnwood City Center Station", "walkingMeters": 1184, "walkingSeconds": 857, "band": 15}]}, "geometry": {"type": "Point", "coordinates": [-122.2865223, 47.8212946]}}, {"type": "Feature", "properties": {"id": "6a019028-00dc-4d63-b8c8-25011e138ec0", "name": "Ezell's Famous Chicken", "category": "restaurant", "tags": ["restaurant", "chicken", "southern", "american"], "sources": ["overture"], "website": "https://www.ezellschicken.com/", "phone": "+14256007300", "address": "3925 196th St SW", "stations": [{"stopCode": 40, "lines": "1,2", "name": "Lynnwood City Center Station", "walkingMeters": 1174, "walkingSeconds": 850, "band": 15}]}, "geometry": {"type": "Point", "coordinates": [-122.2866516, 47.8212509]}}, {"type": "Feature", "properties": {"id": 572778361, "name": "Denny's", "category": "restaurant", "tags": ["restaurant", "american"], "sources": ["osm"], "stations": [{"stopCode": 40, "lines": "1,2", "name": "Lynnwood City Center Station", "walkingMeters": 1066, "walkingSeconds": 769, "band": 15}]}, "geometry": {"type": "Point", "coordinates": [-122.2887127, 47.8213621]}}, {"type": "Feature", "properties": {"id": 546760123, "name": "Silver Spoon", "category": "restaurant", "tags": ["restaurant", "thai", "asian"], "sources": ["osm", "overture"], "website": "http://www.thaifoodforyou.com/", "phone": "+14259673255", "address": "3828 196th St SW", "hours": "Su-Th 11:00-20:30;Fr-Sa 11:00-23:30", "stations": [{"stopCode": 40, "lines": "1,2", "name": "Lynnwood City Center Station", "walkingMeters": 1276, "walkingSeconds": 921, "band": 15}]}, "geometry": {"type": "Point", "coordinates": [-122.2852458, 47.8205269]}}, {"type": "Feature", "properties": {"id": 572778359, "name": "Breakfast and Burger Bar", "category": "restaurant", "tags": ["restaurant"], "sources": ["osm"], "stations": [{"stopCode": 40, "lines": "1,2", "name": "Lynnwood City Center Station", "walkingMeters": 1094, "walkingSeconds": 789, "band": 15}]}, "geometry": {"type": "Point", "coordinates": [-122.2880993, 47.8212395]}}, {"type": "Feature", "properties": {"id": 572778360, "name": "Gyro Delight", "category": "fast_food", "tags": ["fast-food", "greek", "takeaway", "restaurant", "mediterranean"], "sources": ["osm", "overture"], "website": "http://www.gyrodelight.com/", "phone": "+14257744255", "address": "4029 196th St SW", "hours": "Mo-Sa 11:00-20:00;Su 11:00-19:00", "stations": [{"stopCode": 40, "lines": "1,2", "name": "Lynnwood City Center Station", "walkingMeters": 1078, "walkingSeconds": 778, "band": 15}]}, "geometry": {"type": "Point", "coordinates": [-122.2884396, 47.8213579]}}, {"type": "Feature", "properties": {"id": "874c129c-de16-48ca-86df-91cbdcd28b72", "name": "The Meltdown", "category": "restaurant", "tags": ["restaurant", "sandwich"], "sources": ["overture"], "website": "https://themeltdown.com/", "phone": "+14257743834", "address": "4109 196th St SW", "stations": [{"stopCode": 40, "lines": "1,2", "name": "Lynnwood City Center Station", "walkingMeters": 1066, "walkingSeconds": 769, "band": 15}]}, "geometry": {"type": "Point", "coordinates": [-122.2887192, 47.8213501]}}, {"type": "Feature", "properties": {"id": "b9801265-2d8a-41ce-a85a-351a103bc137", "name": "Banda Burrito", "category": "restaurant", "tags": ["restaurant", "mexican"], "sources": ["overture"], "website": "https://www.bandaburrito.com/", "phone": "+14257743834", "address": "4109 196th St SW", "stations": [{"stopCode": 40, "lines": "1,2", "name": "Lynnwood City Center Station", "walkingMeters": 1017, "walkingSeconds": 733, "band": 15}]}, "geometry": {"type": "Point", "coordinates": [-122.2888412, 47.8212852]}}, {"type": "Feature", "properties": {"id": "e988543c-c979-430b-ae51-48c8ac7d9dea", "name": "Denny's Restaurant", "category": "restaurant", "tags": ["restaurant"], "sources": ["overture"], "website": "https://www.dennys.com/", "phone": "+14257743834", "address": "4109 196 St S.W.", "stations": [{"stopCode": 40, "lines": "1,2", "name": "Lynnwood City Center Station", "walkingMeters": 1017, "walkingSeconds": 733, "band": 15}]}, "geometry": {"type": "Point", "coordinates": [-122.2888412, 47.8212852]}}, {"type": "Feature", "properties": {"id": "837c5a17-c6b4-4a8f-8104-44489c09d7fd", "name": "Chipotle Mexican Grill", "category": "restaurant", "tags": ["restaurant", "mexican", "taco", "texmex"], "sources": ["overture"], "website": "https://locations.chipotle.com/wa/lynnwood/4120-196th-st-sw?utm_source=facebook&utm_medium=yext&utm_campaign=yext_listings%3Frestaurant%3D688", "phone": "+14257767549", "address": "4120 196th St SW Ste 150", "stations": [{"stopCode": 40, "lines": "1,2", "name": "Lynnwood City Center Station", "walkingMeters": 931, "walkingSeconds": 670, "band": 15}]}, "geometry": {"type": "Point", "coordinates": [-122.2890854, 47.8206863]}}, {"type": "Feature", "properties": {"id": "869c755b-2a9a-4ab2-bb32-7fac20cff23a", "name": "Tacos Guaymas", "category": "restaurant", "tags": ["restaurant", "mexican"], "sources": ["overture"], "website": "http://www.tacosguaymas.com", "phone": "(425) 771-4630", "address": "3805 196th St SW", "stations": [{"stopCode": 40, "lines": "1,2", "name": "Lynnwood City Center Station", "walkingMeters": 1349, "walkingSeconds": 972, "band": 15}]}, "geometry": {"type": "Point", "coordinates": [-122.2849045, 47.8213196]}}, {"type": "Feature", "properties": {"id": "f78b60d0-ce14-4e99-94f6-3ca147fe0477", "name": "La loncherita", "category": "restaurant", "tags": ["restaurant", "mexican"], "sources": ["overture"], "phone": "+14256266387", "address": "3815 196th St SW"}, "geometry": {"type": "Point", "coordinates": [-122.2849503, 47.8216171]}}, {"type": "Feature", "properties": {"id": "824f493c-9092-423e-b057-f6b31edc87fb", "name": "Pho Duc", "category": "restaurant", "tags": ["restaurant", "vietnamese"], "sources": ["overture"], "website": "http://gomaika.com/listing.php?id=3725", "phone": "(425) 672-2466", "address": "3815 196th St SW"}, "geometry": {"type": "Point", "coordinates": [-122.2848816, 47.8216515]}}, {"type": "Feature", "properties": {"id": "80d4dbbb-9cb0-475d-a414-45873361acc1", "name": "Cucina Presto", "category": "restaurant", "tags": ["restaurant", "italian"], "sources": ["overture"], "website": "http://www.cucinacucina.com/", "phone": "(425) 672-3366", "address": "3805 196th St SW", "stations": [{"stopCode": 40, "lines": "1,2", "name": "Lynnwood City Center Station", "walkingMeters": 1261, "walkingSeconds": 908, "band": 15}]}, "geometry": {"type": "Point", "coordinates": [-122.2849731, 47.8211746]}}, {"type": "Feature", "properties": {"id": "bbfe4a86-0504-4ac1-8a90-b0a774f17489", "name": "Bamboo Tree Pho & Sandwich", "category": "restaurant", "tags": ["restaurant", "asian", "pan"], "sources": ["overture"], "website": "https://www.bambootreephosandwich.com/?utm_source=bing&utm_medium=websiteurl&utm_campaign=search", "phone": "4259964098", "address": "3815 196th St SW Ste 102"}, "geometry": {"type": "Point", "coordinates": [-122.2848282, 47.8222923]}}, {"type": "Feature", "properties": {"id": "270466fb-5e4d-4d9c-add5-e630e1fa1ae1", "name": "Hanari Cafe Sushi.Ramen &Hibachi", "category": "restaurant", "tags": ["restaurant", "japanese", "sushi", "asian"], "sources": ["overture"], "website": "http://www.hanaricafe.com/", "phone": "+14256788190", "address": "3925 196th St SW #104", "stations": [{"stopCode": 40, "lines": "1,2", "name": "Lynnwood City Center Station", "walkingMeters": 1205, "walkingSeconds": 868, "band": 15}]}, "geometry": {"type": "Point", "coordinates": [-122.2862625, 47.8213043]}}, {"type": "Feature", "properties": {"id": "97b72076-159a-4410-a510-3eb814544f39", "name": "Stockwell Stave &amp Co", "category": "restaurant", "tags": ["restaurant"], "sources": ["overture"], "address": "19201 40th Ave W"}, "geometry": {"type": "Point", "coordinates": [-122.2864761, 47.8245926]}}, {"type": "Feature", "properties": {"id": "eb47d178-704d-4cd2-91aa-04c001e642ee", "name": "Bryan L Hendrickson Inc", "category": "restaurant", "tags": ["restaurant"], "sources": ["overture"], "website": "https://www.bhendrickson.wradvisors.com", "address": "19401 40th Ave W Ste 460"}, "geometry": {"type": "Point", "coordinates": [-122.286087, 47.8228302]}}, {"type": "Feature", "properties": {"id": "45e8c212-bbae-42e1-abf6-05a9aadaba4a", "name": "B3 Breakfast & Burger Bar", "category": "restaurant", "tags": ["restaurant", "breakfast-and-brunch", "breakfast", "brunch", "burger"], "sources": ["overture"], "website": "https://www.b3wa.com/", "phone": "4256723666", "address": "4027 196th St SW", "stations": [{"stopCode": 40, "lines": "1,2", "name": "Lynnwood City Center Station", "walkingMeters": 1100, "walkingSeconds": 794, "band": 15}]}, "geometry": {"type": "Point", "coordinates": [-122.2881088, 47.8213043]}}, {"type": "Feature", "properties": {"id": "fece0deb-1c5b-4a9d-8557-4345d6a78356", "name": "The Rock Wood Fired Pizza", "category": "bar", "tags": ["bar", "burger", "pizza"], "sources": ["overture"], "website": "https://www.therockwfp.com/", "phone": "4256976007", "address": "4010 196th St SW", "stations": [{"stopCode": 40, "lines": "1,2", "name": "Lynnwood City Center Station", "walkingMeters": 1069, "walkingSeconds": 769, "band": 15}]}, "geometry": {"type": "Point", "coordinates": [-122.2876205, 47.8205757]}}, {"type": "Feature", "properties": {"id": "27717286-d776-4fb4-90b6-a65fa266d1ad", "name": "WuJu Korean BBQ", "category": "restaurant", "tags": ["restaurant", "korean", "barbecue", "asian"], "sources": ["overture"], "website": "http://www.wujukoreanbbq.com/", "phone": "+14256722650", "address": "19400 36th Ave W"}, "geometry": {"type": "Point", "coordinates": [-122.2827301, 47.8224335]}}, {"type": "Feature", "properties": {"id": "39b3cec9-a8a4-4692-a4d9-6c19f9912406", "name": "Edo Sushi &sake", "category": "restaurant", "tags": ["restaurant", "japanese"], "sources": ["overture"], "phone": "14253611055", "address": "19400 36th Ave W  Ste 101"}, "geometry": {"type": "Point", "coordinates": [-122.2826767, 47.8225517]}}, {"type": "Feature", "properties": {"id": "9ef14dd1-722d-463c-a84e-fb68105a55b8", "name": "El Rinconsito | Lynnwood", "category": "restaurant", "tags": ["restaurant", "mexican"], "sources": ["overture"], "website": "https://www.elrinconsito.com", "phone": "14257785180", "address": "19409 36th Ave W"}, "geometry": {"type": "Point", "coordinates": [-122.281311, 47.8228683]}}, {"type": "Feature", "properties": {"id": "12619e7a-8285-45ef-bafd-0c939406a8ed", "name": "Pho 36", "category": "restaurant", "tags": ["restaurant", "vietnamese"], "sources": ["overture"], "website": "http://www.pho36.net", "phone": "(425) 672-7560", "address": "19417 36th Ave W"}, "geometry": {"type": "Point", "coordinates": [-122.2809906, 47.8226624]}}, {"type": "Feature", "properties": {"id": "e4e8bd34-a727-40ab-b4cd-235dec873054", "name": "Bantaba African Restaurant", "category": "restaurant", "tags": ["restaurant", "african"], "sources": ["overture"], "website": "http://www.bantabarestaurant.com/", "phone": "+14256780202", "address": "19417 36th Ave W"}, "geometry": {"type": "Point", "coordinates": [-122.280983, 47.8226128]}}, {"type": "Feature", "properties": {"id": "9356be2e-d0ee-4778-8d68-cfbd8c0f41fa", "name": "Seawend Limited", "category": "restaurant", "tags": ["restaurant"], "sources": ["overture"], "website": "http://cedarenterprises.com", "phone": "(425) 774-3800", "address": "19105 36th Ave W Ste 101"}, "geometry": {"type": "Point", "coordinates": [-122.2804718, 47.8253021]}}, {"type": "Feature", "properties": {"id": "700e1459-7395-4f2d-ba12-2631dacf6f4b", "name": "Alder Haus Apartments", "category": "attraction", "tags": ["attraction", "landmark", "historical", "building"], "sources": ["overture"], "website": "https://alderhausapts.com", "phone": "+14257763676", "address": "19309 40th Ave W a1"}, "geometry": {"type": "Point", "coordinates": [-122.2861099, 47.823616]}}, {"type": "Feature", "properties": {"id": "0670acb9-f607-4efa-affa-73d3f9f58bd3", "name": "Camelot West Apartments", "category": "attraction", "tags": ["attraction", "landmark", "historical", "building"], "sources": ["overture"], "phone": "+14257746298", "address": "19412 40th Ave W", "stations": [{"stopCode": 40, "lines": "1,2", "name": "Lynnwood City Center Station", "walkingMeters": 1283, "walkingSeconds": 923, "band": 15}]}, "geometry": {"type": "Point", "coordinates": [-122.2879257, 47.8224068]}}, {"type": "Feature", "properties": {"id": "d9725db9-866b-44fc-9a3f-7028489411a2", "name": "City Center at Lynnwood", "category": "attraction", "tags": ["attraction", "landmark", "historical", "building"], "sources": ["overture"], "website": "http://citycenterlynnwood.com/", "phone": "+14253814746", "address": "3720 196th St SW", "stations": [{"stopCode": 40, "lines": "1,2", "name": "Lynnwood City Center Station", "walkingMeters": 1278, "walkingSeconds": 954, "band": 15}]}, "geometry": {"type": "Point", "coordinates": [-122.2837906, 47.8204536]}}, {"type": "Feature", "properties": {"id": "42d6c392-a1fc-49c0-94bb-8dca4f8ba9ed", "name": "Alder Dale Park, Lynnwood, Washington", "category": "park", "tags": ["park"], "sources": ["overture"]}, "geometry": {"type": "Point", "coordinates": [-122.2890549, 47.829071]}}, {"type": "Feature", "properties": {"id": 242777024, "name": "Best Western Alderwood", "category": "hotel", "tags": ["hotel"], "sources": ["osm", "overture"], "website": "https://www.bestwestern.com/en_US/book/hotel-rooms.48155.html?iata=00171890&ssob=BLBWI0003G&cid=BLBWI0003G%3Ayext%3Awebsite%3A48155", "phone": "+14257757600", "address": "19332 36th Ave W"}, "geometry": {"type": "Point", "coordinates": [-122.2826262, 47.8231982]}}, {"type": "Feature", "properties": {"id": 589360531, "name": "Americas Best Value Inn Lynnwood Seattle", "category": "motel", "tags": ["motel", "hotel"], "sources": ["osm", "overture"], "website": "https://www.sonesta.com/americas-best-value-inn/wa/lynnwood/americas-best-value-inn-lynnwood-seattle", "phone": "+14257758030", "address": "4117 196th St SW", "stations": [{"stopCode": 40, "lines": "1,2", "name": "Lynnwood City Center Station", "walkingMeters": 1083, "walkingSeconds": 782, "band": 15}]}, "geometry": {"type": "Point", "coordinates": [-122.2887906, 47.8218628]}}, {"type": "Feature", "properties": {"id": "1dd7a202-2f42-447e-8a5a-5ed0ada19d71", "name": "Days Inn Seattle-lynnwood", "category": "hotel", "tags": ["hotel"], "sources": ["overture"], "website": "https://www.wyndhamhotels.com", "phone": "+18003291073", "address": "4117 196th St SW", "stations": [{"stopCode": 40, "lines": "1,2", "name": "Lynnwood City Center Station", "walkingMeters": 1085, "walkingSeconds": 810, "band": 15}]}, "geometry": {"type": "Point", "coordinates": [-122.2886963, 47.8218918]}}, {"type": "Feature", "properties": {"id": 5521104304, "name": "Metro by T-Mobile", "category": "mobile_phone", "tags": ["mobile-phone", "mobile"], "sources": ["osm", "overture"], "website": "https://www.metrobyt-mobile.com/stores/bd/metro-by-t-mobile-lynnwood-wa-10298646/?utm_source=facebook&utm_medium=lastmile&utm_campaign=36074", "phone": "+14256702777", "address": "3925 196th St SW", "stations": [{"stopCode": 40, "lines": "1,2", "name": "Lynnwood City Center Station", "walkingMeters": 1194, "walkingSeconds": 864, "band": 15}]}, "geometry": {"type": "Point", "coordinates": [-122.2863945, 47.8212953]}}, {"type": "Feature", "properties": {"id": 7703415163, "name": "K Smoke", "category": "tobacco", "tags": ["tobacco"], "sources": ["osm", "overture"], "website": "http://www.ksmoke.com", "phone": "+14259677619", "address": "4028 196th St SW", "stations": [{"stopCode": 40, "lines": "1,2", "name": "Lynnwood City Center Station", "walkingMeters": 1056, "walkingSeconds": 760, "band": 15}]}, "geometry": {"type": "Point", "coordinates": [-122.2880902, 47.8205869]}}, {"type": "Feature", "properties": {"id": 3723528028, "name": "Maya Asian Market", "category": "convenience", "tags": ["convenience"], "sources": ["osm"], "website": "https://mayaasianmarket.com", "address": "19725 40th Avenue West", "stations": [{"stopCode": 40, "lines": "1,2", "name": "Lynnwood City Center Station", "walkingMeters": 1002, "walkingSeconds": 722, "band": 15}]}, "geometry": {"type": "Point", "coordinates": [-122.286789, 47.8200155]}}, {"type": "Feature", "properties": {"id": 7703415162, "name": "Batteries Plus Bulbs", "category": "electronics", "tags": ["electronics"], "sources": ["osm"], "stations": [{"stopCode": 40, "lines": "1,2", "name": "Lynnwood City Center Station", "walkingMeters": 1051, "walkingSeconds": 756, "band": 15}]}, "geometry": {"type": "Point", "coordinates": [-122.2882942, 47.8205853]}}, {"type": "Feature", "properties": {"id": "d1359435-7049-488d-a287-e35b521f2420", "name": "Fred Meyer Jewelers", "category": "jewelry", "tags": ["jewelry"], "sources": ["overture"], "website": "http://www.fredmeyerjewelers.com", "phone": "(425) 778-8584", "address": "3000 184th St SW", "stations": [{"stopCode": 40, "lines": "1,2", "name": "Lynnwood City Center Station", "walkingMeters": 1226, "walkingSeconds": 883, "band": 15}]}, "geometry": {"type": "Point", "coordinates": [-122.2857132, 47.8204651]}}, {"type": "Feature", "properties": {"id": "12a3ad0e-4517-4582-aa17-8439796b7341", "name": "Cigar Box", "category": "tobacco", "tags": ["tobacco"], "sources": ["overture"], "website": "https://www.samscigarbox.com", "phone": "+14257784021", "address": "4028 196th St SW", "stations": [{"stopCode": 40, "lines": "1,2", "name": "Lynnwood City Center Station", "walkingMeters": 972, "walkingSeconds": 725, "band": 15}]}, "geometry": {"type": "Point", "coordinates": [-122.2880554, 47.8205681]}}, {"type": "Feature", "properties": {"id": 5492327717, "name": "Hayeks Leather Furniture", "category": "furniture", "tags": ["furniture"], "sources": ["osm", "overture"], "website": "http://www.hayeksleatherfurniture.com/", "phone": "+14257715008", "address": "19417 36th Ave W"}, "geometry": {"type": "Point", "coordinates": [-122.2815388, 47.8223427]}}, {"type": "Feature", "properties": {"id": 8686178039, "name": "SEATTLE FINDINGS Jewelry Supplies and Tools", "category": "jewelry", "tags": ["jewelry"], "sources": ["osm"]}, "geometry": {"type": "Point", "coordinates": [-122.2800143, 47.8250714]}}, {"type": "Feature", "properties": {"id": 10167960129, "name": "Silver Platters", "category": "music", "tags": ["music"], "sources": ["osm"], "website": "https://www.silverplatters.com/", "phone": "+1-206-524-3472", "address": "3715 196th Street Southwest", "hours": "Mo-Su 11:00-19:00"}, "geometry": {"type": "Point", "coordinates": [-122.283637, 47.8229838]}}, {"type": "Feature", "properties": {"id": "67a28240-2905-4b1e-acb4-5dd5036fc25f", "name": "Sherwin-Williams", "category": "doityourself", "tags": ["doityourself", "building", "supply"], "sources": ["overture"], "website": "https://www.sherwin-williams.com/store-locator/paint-store/lynnwood/wa/708086", "phone": "+14257752550", "address": "4201 196th St SW Ste 100&", "stations": [{"stopCode": 40, "lines": "1,2", "name": "Lynnwood City Center Station", "walkingMeters": 979, "walkingSeconds": 704, "band": 15}]}, "geometry": {"type": "Point", "coordinates": [-122.2896805, 47.8214874]}}, {"type": "Feature", "properties": {"id": "aa103af5-e297-478f-a2ce-e338f8b0bfae", "name": "Carniceria Market Michoacan", "category": "supermarket", "tags": ["supermarket", "mexican"], "sources": ["overture"], "website": "http://www.agr.wa.gov", "phone": "+14256405244", "address": "3815 196th St SW #112"}, "geometry": {"type": "Point", "coordinates": [-122.2848892, 47.8217506]}}, {"type": "Feature", "properties": {"id": "cfca23da-2334-4868-a527-29ca247b0f9c", "name": "Josh Underhills Family Furniture", "category": "furniture", "tags": ["furniture"], "sources": ["overture"], "website": "http://www.underhills.com/", "phone": "+14257757331", "address": "3930 196th St SW", "stations": [{"stopCode": 40, "lines": "1,2", "name": "Lynnwood City Center Station", "walkingMeters": 1162, "walkingSeconds": 837, "band": 15}]}, "geometry": {"type": "Point", "coordinates": [-122.2865143, 47.820694]}}, {"type": "Feature", "properties": {"id": "c7ec7ca3-ce68-426c-ba9f-a74cd167de52", "name": "Lowes Home Improvement Whse of Snohomish County", "category": "hardware", "tags": ["hardware"], "sources": ["overture"], "website": "www.lowes.com", "phone": "+14257448411", "address": "19320 40th Ave W"}, "geometry": {"type": "Point", "coordinates": [-122.287735, 47.8232727]}}, {"type": "Feature", "properties": {"id": "88d6244a-057a-44b2-a74e-187e8eaf6738", "name": "Stephen's Best Loot", "category": "jewelry", "tags": ["jewelry"], "sources": ["overture"], "website": "https://www.stephensbestloot.com", "address": "3715 196th St Sw Unit 2514"}, "geometry": {"type": "Point", "coordinates": [-122.283371, 47.8230438]}}, {"type": "Feature", "properties": {"id": 9802647549, "name": "Passport Health Lynnwood Travel Clinic", "category": "clinic", "tags": ["clinic"], "sources": ["osm"], "address": "19101 36th Avenue West"}, "geometry": {"type": "Point", "coordinates": [-122.281092, 47.8241437]}}, {"type": "Feature", "properties": {"id": 10893631790, "name": "Neck & Back Clinic", "category": "clinic", "tags": ["clinic"], "sources": ["osm"], "stations": [{"stopCode": 40, "lines": "1,2", "name": "Lynnwood City Center Station", "walkingMeters": 1255, "walkingSeconds": 906, "band": 15}]}, "geometry": {"type": "Point", "coordinates": [-122.2857235, 47.820324]}}, {"type": "Feature", "properties": {"id": "111baf32-6da9-491e-8e77-bb71758ee040", "name": "Innovative Men's Health", "category": "hospital", "tags": ["hospital"], "sources": ["overture"], "website": "http://innovativemen.com/", "phone": "+14253577044", "address": "19324 40th Ave W"}, "geometry": {"type": "Point", "coordinates": [-122.2880173, 47.8232765]}}, {"type": "Feature", "properties": {"id": "cf11036e-abfc-40a4-8a50-b15384356b2c", "name": "Innovative Men's Clinic - Lynnwood", "category": "clinic", "tags": ["clinic", "medical"], "sources": ["overture"], "website": "innovativemen.com", "phone": "+14254829800", "address": "19324 40th Ave W Ste B"}, "geometry": {"type": "Point", "coordinates": [-122.2879639, 47.8231735]}}, {"type": "Feature", "properties": {"id": "eb3238f6-703b-4472-ab1e-3f959e96c1fd", "name": "Serk Apothecary", "category": "pharmacy", "tags": ["pharmacy"], "sources": ["overture"], "phone": "14258350281", "address": "19410 36th Ave W  Ste 3"}, "geometry": {"type": "Point", "coordinates": [-122.283226, 47.8225899]}}, {"type": "Feature", "properties": {"id": "810d1098-90bf-4a2b-b813-f3bad6426ca3", "name": "Northwest Return To Work", "category": "clinic", "tags": ["clinic", "medical"], "sources": ["overture"], "website": "http://www.nwrtw.com", "phone": "(425) 774-9564", "address": "19221 36th Ave W Ste 101"}, "geometry": {"type": "Point", "coordinates": [-122.2810974, 47.8241653]}}, {"type": "Feature", "properties": {"id": 8686178038, "name": "CDS", "category": "bank", "tags": ["bank"], "sources": ["osm"]}, "geometry": {"type": "Point", "coordinates": [-122.2812557, 47.8252253]}}, {"type": "Feature", "properties": {"id": "56238c87-4779-41a5-977c-0261e718c322", "name": "United States Postal Service", "category": "post_office", "tags": ["post-office", "office"], "sources": ["overture"], "website": "https://tools.usps.com/find-location.htm?location=1352643", "phone": "+18002758777", "address": "3715 196th St SW #101"}, "geometry": {"type": "Point", "coordinates": [-122.2836914, 47.8232841]}}]}