{"type": "FeatureCollection", "features": [{"type": "Feature", "properties": {"id": 5816603053, "name": "Magnuson Cafe and Brewery", "category": "restaurant", "tags": ["restaurant", "outdoor-seating", "microbrew"], "sources": ["osm"], "website": "https://magnusonbrewery.com/", "address": "7801 62nd Avenue Northeast", "hours": "Mo-Fr 11:30-21:00; Sa,Su 09:00-21:00"}, "geometry": {"type": "Point", "coordinates": [-122.2649134, 47.6881653]}}, {"type": "Feature", "properties": {"id": 10672178800, "name": "Willy's Cafe", "category": "cafe", "tags": ["cafe"], "sources": ["osm"], "website": "https://tenniscentersandpoint.com/amenities/cafe/", "phone": "+1-206-527-5553", "hours": "Mo-Th 08:00-21:00; Fr,Sa 08:00-22:00; Su 09:00-14:00,16:00-21:00"}, "geometry": {"type": "Point", "coordinates": [-122.2605972, 47.6811675]}}, {"type": "Feature", "properties": {"id": "1ab4b77a-f0a5-4a2e-bec8-f744665a27b3", "name": "Magnuson Cafe & Brewery", "category": "bar", "tags": ["bar", "brewery", "american"], "sources": ["overture"], "website": "http://www.magnusonbrewery.com/", "phone": "+12065250669", "address": "7801 62nd Ave NE"}, "geometry": {"type": "Point", "coordinates": [-122.2648163, 47.6881676]}}, {"type": "Feature", "properties": {"id": "fa1c0336-a255-4407-bd4e-7bc98d0bd3a0", "name": "Where Ya At Matt", "category": "restaurant", "tags": ["restaurant", "cajun-and-creole", "cajun", "creole"], "sources": ["overture"], "website": "https://whereyaatmatt.com", "address": "8333 55th Ave NE"}, "geometry": {"type": "Point", "coordinates": [-122.2694168, 47.6889763]}}, {"type": "Feature", "properties": {"id": 3211770299, "name": "World Flight Monument", "category": "artwork", "tags": ["artwork"], "sources": ["osm"], "address": "7600 Sand Point Way Northeast"}, "geometry": {"type": "Point", "coordinates": [-122.2635353, 47.682133]}}, {"type": "Feature", "properties": {"id": "875f6377-a963-4218-98e7-23479c920494", "name": "Condominiums Sand Piper", "category": "attraction", "tags": ["attraction", "landmark", "historical", "building"], "sources": ["overture"], "website": "http://www.sandpipercondo.org", "phone": "+12067081479", "address": "5844 NE 75th St"}, "geometry": {"type": "Point", "coordinates": [-122.2641449, 47.6832428]}}, {"type": "Feature", "properties": {"id": "e911b949-5f38-4659-922b-7e68beb06526", "name": "Magnuson Park Gallery", "category": "gallery", "tags": ["gallery", "art"], "sources": ["overture"], "website": "https://linktr.ee/SPACEatMagnuson", "phone": "+12062455457", "address": "7448 63rd Ave NE Building 30"}, "geometry": {"type": "Point", "coordinates": [-122.2613297, 47.6826286]}}, {"type": "Feature", "properties": {"id": "64806628-93ae-4453-8790-4f43c715e958", "name": "Warren G. Magnuson Park", "category": "park", "tags": ["park"], "sources": ["overture"], "website": "http://www.seattle.gov/parks/Magnuson/", "phone": "+12066844946", "address": "7400 Sand Point Way NE"}, "geometry": {"type": "Point", "coordinates": [-122.2633209, 47.6824036]}}, {"type": "Feature", "properties": {"id": "6705652a-7f8a-4e76-96d6-0bf25ae2ff44", "name": "Magnuson Park Hangar 30", "category": "park", "tags": ["park"], "sources": ["overture"], "website": "http://www.seattle.gov/parks/find/parks/magnuson-park", "phone": "+12062337892", "address": "6310 NE 74th St"}, "geometry": {"type": "Point", "coordinates": [-122.260704, 47.6825523]}}, {"type": "Feature", "properties": {"id": 221081342, "name": "7-Eleven", "category": "convenience", "tags": ["convenience"], "sources": ["osm", "overture"], "website": "https://www.7-eleven.com/", "phone": "+12065254260", "address": "7215 Sand Point Way NE"}, "geometry": {"type": "Point", "coordinates": [-122.2641261, 47.6812841]}}, {"type": "Feature", "properties": {"id": 11423597823, "name": "Boyer Children's Clinic", "category": "clinic", "tags": ["clinic"], "sources": ["osm"], "website": "https://www.boyercc.org/", "phone": "+1-206-325-8477", "address": "7821 62nd Avenue Northeast", "hours": "\"by appointment\""}, "geometry": {"type": "Point", "coordinates": [-122.2648742, 47.6883645]}}, {"type": "Feature", "properties": {"id": "f817e46a-8758-431e-804c-2a56adfeb434", "name": "NOAA Seattle Regional Library", "category": "library", "tags": ["library"], "sources": ["overture"], "website": "http://www.nwr.noaa.gov", "phone": "+12065266241", "address": "7600 Sand Point Way NE"}, "geometry": {"type": "Point", "coordinates": [-122.2636642, 47.6835289]}}, {"type": "Feature", "properties": {"id": 2678319312, "name": "Magnuson Athletic Club", "category": "fitness_centre", "tags": ["fitness-centre", "gym"], "sources": ["osm", "overture"], "website": "http://www.macseattle.com/", "phone": "+12064521500", "address": "7751 63rd Ave NE"}, "geometry": {"type": "Point", "coordinates": [-122.2631314, 47.6872039]}}, {"type": "Feature", "properties": {"id": 2678319313, "name": "Arena Sports", "category": "sports_centre", "tags": ["sports-centre", "soccer"], "sources": ["osm"], "website": "https://www.arenasports.net/magnuson/", "phone": "+1-206-985-8990", "address": "7751 63rd Avenue Northeast"}, "geometry": {"type": "Point", "coordinates": [-122.2631286, 47.6870288]}}, {"type": "Feature", "properties": {"id": 5831573779, "name": "Mountaineers Climbing Wall", "category": "sports_centre", "tags": ["sports-centre", "climbing"], "sources": ["osm"]}, "geometry": {"type": "Point", "coordinates": [-122.263788, 47.6849484]}}, {"type": "Feature", "properties": {"id": "e7258ba6-2338-4eaa-b130-c3a1583aefad", "name": "Sand Point Paddling Club", "category": "sports_centre", "tags": ["sports-centre", "sports", "club", "league"], "sources": ["overture"], "website": "https://www.sandpointpaddlingclub.com", "address": "7751 63rd Ave NE"}, "geometry": {"type": "Point", "coordinates": [-122.2632751, 47.6869125]}}]}