{"type": "FeatureCollection", "features": [{"type": "Feature", "properties": {"id": "1c89807a-e053-4f93-973d-11c4fa2a50c8", "name": "IHOP", "category": "restaurant", "tags": ["restaurant", "breakfast-and-brunch", "american"], "sources": ["overture"], "website": "http://www.ihop.com/"}, "geometry": {"type": "Point", "coordinates": [-122.2925415, 47.545433]}}, {"type": "Feature", "properties": {"id": 471188213, "name": "Triangle Park", "category": "park", "tags": ["park"], "sources": ["osm"]}, "geometry": {"type": "Point", "coordinates": [-122.2933648, 47.5416363]}}, {"type": "Feature", "properties": {"id": 193501402, "name": "Shaffer Park", "category": "park", "tags": ["park"], "sources": ["osm"]}, "geometry": {"type": "Point", "coordinates": [-122.2942111, 47.5429156]}}, {"type": "Feature", "properties": {"id": 2372198613, "name": "Grab N Snack on Graham", "category": "convenience", "tags": ["convenience", "supermarket"], "sources": ["osm", "overture"], "website": "https://www.grabnsnacksongraham.com/", "address": "2801 S Graham St"}, "geometry": {"type": "Point", "coordinates": [-122.2966641, 47.5461503]}}, {"type": "Feature", "properties": {"id": "128a6507-c061-4b12-a9b9-1ae6d8bde1dd", "name": "2801 Market Place", "category": "supermarket", "tags": ["supermarket"], "sources": ["overture"], "website": "http://2801marketplace.com/", "phone": "+12063973908", "address": "2801 S Graham St"}, "geometry": {"type": "Point", "coordinates": [-122.2966919, 47.546196]}}, {"type": "Feature", "properties": {"id": "f405b04a-1c92-43e2-aac7-eb00192b7917", "name": "Graham Street Grocery", "category": "convenience", "tags": ["convenience"], "sources": ["overture"], "website": "www.superpages.com/bp/seattle-wa/graham-street-grocery-L2165558380.htm", "phone": "+12063973908", "address": "2801 S Graham St"}, "geometry": {"type": "Point", "coordinates": [-122.296669, 47.5461617]}}]}