{"type": "FeatureCollection", "features": [{"type": "Feature", "properties": {"id": "6216934a-cda9-4106-b03f-e868e62cf7f7", "name": "Sky River Meadery", "category": "bar", "tags": ["bar", "brewery"], "sources": ["overture"], "website": "http://www.SkyRiverBrewing.com", "phone": "(425) 242-3815", "address": "14270 Woodinville Redmond Rd NE"}, "geometry": {"type": "Point", "coordinates": [-122.1373672, 47.7297783]}}, {"type": "Feature", "properties": {"id": "2f16a0a4-c9af-4a0b-85ec-62c6819cdc56", "name": "Delille Cellars", "category": "wine", "tags": ["wine", "winery"], "sources": ["overture"], "website": "http://www.delillecellars.com", "phone": "+14254890544", "address": "14208 Woodinville Redmond Rd NE"}, "geometry": {"type": "Point", "coordinates": [-122.1365814, 47.7277412]}}, {"type": "Feature", "properties": {"id": "e139bf3c-5a89-494f-a74f-ce5693337216", "name": "Woodinville Wine Country", "category": "wine", "tags": ["wine", "winery"], "sources": ["overture"], "phone": "+14256989920", "address": "14208 Woodinville Redmond Rd NE"}, "geometry": {"type": "Point", "coordinates": [-122.1365509, 47.7277832]}}, {"type": "Feature", "properties": {"id": "7772ccbf-dd1f-4469-aed6-367f5cacba0d", "name": "Icon Cellars", "category": "wine", "tags": ["wine", "winery"], "sources": ["overture"], "website": "http://www.iconcellars.com/new-page", "phone": "(425) 223-7300", "address": "Woodinville-Redmond Rd"}, "geometry": {"type": "Point", "coordinates": [-122.1373672, 47.7297783]}}]}