{"type": "FeatureCollection", "features": [{"type": "Feature", "properties": {"id": 7057410336, "name": "Caffe Ladro", "category": "cafe", "tags": ["cafe", "coffee-shop", "takeaway", "drive-through", "wifi"], "sources": ["osm"], "website": "https://www.caffeladro.com/locations/edmonds-caffe-ladro/", "phone": "+1-425-670-1790", "address": "8403 Main Street", "hours": "Mo-Su 06:00-18:00"}, "geometry": {"type": "Point", "coordinates": [-122.3475204, 47.8079939]}}, {"type": "Feature", "properties": {"id": 7132243429, "name": "Casa Oaxaca", "category": "restaurant", "tags": ["restaurant", "mexican", "has-bar", "latin-american", "taco"], "sources": ["osm", "overture"], "website": "http://www.casaoaxacaedmonds.com", "phone": "+14256788307", "address": "8402 Bowdoin Way", "hours": "Tu-Sa 11:00-21:00"}, "geometry": {"type": "Point", "coordinates": [-122.3467506, 47.8062534]}}, {"type": "Feature", "properties": {"id": 7132243437, "name": "Noodle Hut", "category": "restaurant", "tags": ["restaurant", "thai", "takeaway", "asian", "noodles"], "sources": ["osm", "overture"], "website": "https://drive.google.com/file/d/1rRfY_OYUlfOBvABS4gIutpDAozlPQsPb/view?pli=1", "phone": "+14256788527", "address": "8418 Bowdoin Way"}, "geometry": {"type": "Point", "coordinates": [-122.3472661, 47.8062648]}}, {"type": "Feature", "properties": {"id": 7132243439, "name": "Flyin Taco", "category": "restaurant", "tags": ["restaurant", "takeaway", "taco", "mexican", "barbecue"], "sources": ["osm", "overture"], "website": "http://www.FlyinTaco.com/", "phone": "+14254197535", "address": "8420 Bowdoin Way", "hours": "Tu-Sa 11:00-20:00"}, "geometry": {"type": "Point", "coordinates": [-122.3473793, 47.8062616]}}, {"type": "Feature", "properties": {"id": 12292507845, "name": "5 Corners Teriyaki", "category": "restaurant", "tags": ["restaurant", "japanese", "asian"], "sources": ["osm", "overture"], "website": "http://www.5cornersteriyaki.com", "phone": "+14257745775", "address": "8410 Main St"}, "geometry": {"type": "Point", "coordinates": [-122.3472921, 47.8071377]}}, {"type": "Feature", "properties": {"id": 13172429548, "name": "Bar Dojo", "category": "restaurant", "tags": ["restaurant", "asian", "has-bar", "fusion"], "sources": ["osm", "overture"], "website": "http://www.bardojo.com/", "phone": "+14259770523", "address": "8404 Bowdoin Way", "hours": "Mo-Th 16:00-22:00; Sa 10:00-14:00,15:00-22:00; Su 10:00-14:00,15:00-21:00"}, "geometry": {"type": "Point", "coordinates": [-122.3468785, 47.8062552]}}, {"type": "Feature", "properties": {"id": "e7618e2d-4a24-4b2d-9a60-ca70bcf918b8", "name": "Caffe Ladro Edmonds", "category": "cafe", "tags": ["cafe", "coffee"], "sources": ["overture"], "website": "http://CaffeLadro.com/", "phone": "+14256701790", "address": "8403 Main St"}, "geometry": {"type": "Point", "coordinates": [-122.3477097, 47.8079338]}}, {"type": "Feature", "properties": {"id": "50a6549d-f743-4757-8b41-f8a1f4fb8ed5", "name": "A Brewed Awakening", "category": "cafe", "tags": ["cafe", "coffee", "breakfast-and-brunch"], "sources": ["overture"], "website": "http://diningoption.com/ABrewedAwakening", "address": "8400 Bowdoin Way"}, "geometry": {"type": "Point", "coordinates": [-122.3468552, 47.8065262]}}, {"type": "Feature", "properties": {"id": "f307f685-c9bd-4ed5-89f4-ecc6a514f7d8", "name": "Freimark Properties", "category": "attraction", "tags": ["attraction", "landmark", "historical", "building"], "sources": ["overture"], "website": "http://Freimarkproperties.com/", "phone": "+14257714580", "address": "21323 80th Ave W"}, "geometry": {"type": "Point", "coordinates": [-122.3403931, 47.8049736]}}, {"type": "Feature", "properties": {"id": "56be198f-f241-406c-aadf-91a32304bde0", "name": "Anderson Park, Edmonds, Washington", "category": "park", "tags": ["park"], "sources": ["overture"]}, "geometry": {"type": "Point", "coordinates": [-122.3489075, 47.802887]}}, {"type": "Feature", "properties": {"id": "d5ed7931-6678-42e0-b494-0a029cde502e", "name": "Just Food For Dogs", "category": "pet", "tags": ["pet"], "sources": ["overture"], "phone": "+14252985958", "address": "8401 Main St"}, "geometry": {"type": "Point", "coordinates": [-122.3472366, 47.8078499]}}, {"type": "Feature", "properties": {"id": 13176582624, "name": "TNT Music", "category": "music", "tags": ["music"], "sources": ["osm"], "website": "https://tntmusic.shop/", "address": "8416 Bowdoin Way", "hours": "We-Sa 11:00-19:00; Su 12:00-17:00"}, "geometry": {"type": "Point", "coordinates": [-122.3471249, 47.8062607]}}, {"type": "Feature", "properties": {"id": "cc381bde-c650-4313-b72b-9bdace23383e", "name": "Vision Quest Sport and Fitness", "category": "fitness_centre", "tags": ["fitness-centre", "gym"], "sources": ["overture"], "website": "http://www.visionquestsportandfitness.com/", "phone": "4257120363", "address": "8401 Main St"}, "geometry": {"type": "Point", "coordinates": [-122.3472519, 47.8078575]}}]}