{"type": "FeatureCollection", "features": [{"type": "Feature", "properties": {"id": 9170162759, "name": "Greenline Organic Health", "category": "fast_food", "tags": ["fast-food", "juice", "vegetarian"], "sources": ["osm"], "website": "https://www.greenlineorganic.com/", "phone": "+1-425-785-2125", "address": "1386 158th Place Northeast", "hours": "Mo-Fr 10:00-16:00"}, "geometry": {"type": "Point", "coordinates": [-122.1291299, 47.6216346]}}, {"type": "Feature", "properties": {"id": 9344719410, "name": "Dick's Drive-In - Crossroads", "category": "fast_food", "tags": ["fast-food", "burger"], "sources": ["osm"], "website": "https://www.ddir.com", "hours": "Mo-Sa 10:30-02:00"}, "geometry": {"type": "Point", "coordinates": [-122.129784, 47.6205135]}}, {"type": "Feature", "properties": {"id": 457863517, "name": "Nan Hotpot", "category": "restaurant", "tags": ["restaurant", "chinese", "asian"], "sources": ["osm", "overture"], "website": "http://nanhotpot.com/", "phone": "+12062091999", "address": "15600 NE 8th St"}, "geometry": {"type": "Point", "coordinates": [-122.1297638, 47.6208039]}}, {"type": "Feature", "properties": {"id": 457863552, "name": "Bunsik", "category": "cafe", "tags": ["cafe", "korean"], "sources": ["osm"]}, "geometry": {"type": "Point", "coordinates": [-122.1299185, 47.6208042]}}, {"type": "Feature", "properties": {"id": "c1f13e81-f7e1-41bd-ae62-42d8cb96c3a1", "name": "Depot Point", "category": "restaurant", "tags": ["restaurant"], "sources": ["overture"], "website": "depotpoint.com", "phone": "14256141500", "address": "2018 156th Ave NE"}, "geometry": {"type": "Point", "coordinates": [-122.129631, 47.6292305]}}, {"type": "Feature", "properties": {"id": "7d812cec-1f9c-4272-9ea0-5b823893852d", "name": "Urban Timber Coffee", "category": "cafe", "tags": ["cafe", "coffee"], "sources": ["overture"], "website": "http://www.urbantimbercoffee.com", "phone": "(425) 644-6431", "address": "15751 NE 15th St"}, "geometry": {"type": "Point", "coordinates": [-122.1299667, 47.6230087]}}, {"type": "Feature", "properties": {"id": "8a8648ed-e9c8-43e0-b36b-38cbfe5b934d", "name": "Pizzeria Guido & Wine Bar", "category": "restaurant", "tags": ["restaurant", "pizza"], "sources": ["overture"], "website": "http://pizzeriaguido.com/", "phone": "(425) 614-0007", "address": "15600 NE 8th St"}, "geometry": {"type": "Point", "coordinates": [-122.1297836, 47.6209145]}}, {"type": "Feature", "properties": {"id": "f7b7e712-c4b5-4177-a61f-adfa384cbdae", "name": "Mod Super Fast Pizza California , Llc", "category": "restaurant", "tags": ["restaurant"], "sources": ["overture"], "address": "2035 158th Ct Ne # 0.0"}, "geometry": {"type": "Point", "coordinates": [-122.1287003, 47.6290932]}}, {"type": "Feature", "properties": {"id": "d81cdb31-8d33-48d3-a86a-4c50778c5d73", "name": "Woodside East Apartments", "category": "attraction", "tags": ["attraction", "landmark", "historical", "building"], "sources": ["overture"], "website": "https://www.livewoodsideeast.com/", "phone": "+14252766576", "address": "16240 NE 14th Pl"}, "geometry": {"type": "Point", "coordinates": [-122.1233215, 47.6231384]}}, {"type": "Feature", "properties": {"id": "e3b88598-d297-4f7b-939e-7809e01a2f61", "name": "Landmark Apartments", "category": "attraction", "tags": ["attraction", "landmark", "historical", "building"], "sources": ["overture"], "website": "https://www.livelandmarkapts.com/", "phone": "+14252766205", "address": "16330 NE 11th St"}, "geometry": {"type": "Point", "coordinates": [-122.1230087, 47.6201973]}}, {"type": "Feature", "properties": {"id": "449d4933-04e7-4144-8725-455bef53a84f", "name": "Bellepark East Apartments", "category": "attraction", "tags": ["attraction", "landmark", "historical", "building"], "sources": ["overture"], "website": "https://www.livebelleparkeast.com/", "phone": "+14259708351", "address": "16241 NE 13th Pl"}, "geometry": {"type": "Point", "coordinates": [-122.1225739, 47.6220779]}}, {"type": "Feature", "properties": {"id": 30369287, "name": "Crossroads Park", "category": "park", "tags": ["park"], "sources": ["osm"], "website": "https://bellevuewa.gov/city-government/departments/parks/parks-and-trails/parks/crossroads-park", "address": "16000 Northeast 10th Street", "hours": "dawn-dusk"}, "geometry": {"type": "Point", "coordinates": [-122.1250514, 47.6201362]}}, {"type": "Feature", "properties": {"id": "6c9a51a2-cbc1-439d-acf7-a668819caf20", "name": "Passport Health Bellevue Travel Clinic", "category": "clinic", "tags": ["clinic", "medical"], "sources": ["overture"], "website": "https://www.passporthealthusa.com/locations/wa/bellevue/496/?utm_source=bp&utm_medium=organic&utm_campaign=Bing_Insights&utm_content=bellevue", "phone": "2064142709", "address": "13401 NE Bel-Red Rd Ste A-10"}, "geometry": {"type": "Point", "coordinates": [-122.1297836, 47.6284142]}}, {"type": "Feature", "properties": {"id": 457863522, "name": "Planet Fitness", "category": "fitness_centre", "tags": ["fitness-centre", "wheelchair-accessible", "gym"], "sources": ["osm", "overture"], "website": "https://www.planetfitness.com/gyms/bellevue-crossroads-wa?utm_medium=organic&utm_source=extnet", "phone": "+14255027826", "address": "15600 NE 8th St", "hours": "Mo-Th 05:00-23:00; Fr 05:00-21:00; Sa,Su 07:00-19:00"}, "geometry": {"type": "Point", "coordinates": [-122.1286726, 47.6201504]}}, {"type": "Feature", "properties": {"id": "86fc2280-dffb-4936-a8c6-d777cffd4eb3", "name": "Good Time Fitness", "category": "fitness_centre", "tags": ["fitness-centre", "gym"], "sources": ["overture"], "website": "http://www.goodtimefit.com/", "phone": "+14252133911", "address": "1443 158th Pl NE"}, "geometry": {"type": "Point", "coordinates": [-122.129837, 47.6222496]}}, {"type": "Feature", "properties": {"id": "cf566c2e-b800-431f-8bfe-f13a34628709", "name": "Crunch Fitness", "category": "fitness_centre", "tags": ["fitness-centre", "gym"], "sources": ["overture"], "website": "https://www.crunch.com/locations/bellevue", "phone": "4256411000", "address": "15600 NE 8th St"}, "geometry": {"type": "Point", "coordinates": [-122.12854, 47.6200485]}}]}