{"type": "FeatureCollection", "features": [{"type": "Feature", "properties": {"id": 32869952, "name": "Penguin Park", "category": "park", "tags": ["park"], "sources": ["osm", "overture"], "address": "3804 NE 94th St"}, "geometry": {"type": "Point", "coordinates": [-122.2878665, 47.696957]}}, {"type": "Feature", "properties": {"id": 55174405, "name": "Inverness Ravine", "category": "park", "tags": ["park"], "sources": ["osm"], "website": "https://www.seattle.gov/parks/allparks/inverness-ravine-park"}, "geometry": {"type": "Point", "coordinates": [-122.2807021, 47.6911018]}}, {"type": "Feature", "properties": {"id": "cf4fa1a8-b055-4afd-bc60-109b5c23713a", "name": "Maple Springs Natural Area", "category": "park", "tags": ["park"], "sources": ["overture"], "address": "NE 91st & 40th Av NE"}, "geometry": {"type": "Point", "coordinates": [-122.2859497, 47.694313]}}, {"type": "Feature", "properties": {"id": "fa94686b-fe4d-4c98-aec2-63a96e15de98", "name": "Mock Creek Ravine", "category": "park", "tags": ["park"], "sources": ["overture"], "address": "9612 35th Ave NE"}, "geometry": {"type": "Point", "coordinates": [-122.2896194, 47.6990356]}}]}