{"type": "FeatureCollection", "features": [{"type": "Feature", "properties": {"id": 5289002812, "name": "Starbucks", "category": "cafe", "tags": ["cafe", "coffee-shop", "outdoor-seating", "takeaway"], "sources": ["osm", "overture"], "website": "https://www.starbucks.com/store-locator/store/1007782/", "phone": "+14252361508", "address": "19122 Beardslee Blvd 208"}, "geometry": {"type": "Point", "coordinates": [-122.1912833, 47.7670485]}}, {"type": "Feature", "properties": {"id": 5289002811, "name": "Potbelly", "category": "fast_food", "tags": ["fast-food", "sandwich", "takeaway", "restaurant"], "sources": ["osm", "overture"], "website": "https://www.potbelly.com/", "phone": "+14254195576", "address": "19122 Beardslee Blvd"}, "geometry": {"type": "Point", "coordinates": [-122.1913589, 47.7669578]}}, {"type": "Feature", "properties": {"id": 6377019961, "name": "Menchie's", "category": "ice_cream", "tags": ["ice-cream", "frozen-yogurt"], "sources": ["osm"]}, "geometry": {"type": "Point", "coordinates": [-122.1912091, 47.7667421]}}, {"type": "Feature", "properties": {"id": 4420785294, "name": "Beardslee Public House", "category": "restaurant", "tags": ["restaurant", "local", "pub"], "sources": ["osm", "overture"], "website": "http://www.beardsleeph.com/", "phone": "+14252861001", "address": "19116 Beardslee Blvd Ste 102", "hours": "Mo-Th 11:30-23:00; Fr-Sa 11:30-00:00; Su 11:30-22:00"}, "geometry": {"type": "Point", "coordinates": [-122.1916729, 47.7663963]}}, {"type": "Feature", "properties": {"id": 6377019958, "name": "Modoo Hansang", "category": "restaurant", "tags": ["restaurant", "korean", "asian"], "sources": ["osm", "overture"], "website": "https://modoohansang.com", "phone": "+14254020200", "address": "19122 Beardslee Blvd Ste 201"}, "geometry": {"type": "Point", "coordinates": [-122.1914378, 47.7665958]}}, {"type": "Feature", "properties": {"id": 12840920739, "name": "Urban Kitchen + Market bar", "category": "restaurant", "tags": ["restaurant", "burger", "flatbread", "sandwich", "vegan"], "sources": ["osm"], "website": "https://bothelldining.campusdish.com/LocationsAndMenus/TerraceDiningPavilion/UrbanKitchenMarketBar", "hours": "Mo-Fr 08:00-19:00,Mo-Su 10:00-19:00"}, "geometry": {"type": "Point", "coordinates": [-122.1941087, 47.7626808]}}, {"type": "Feature", "properties": {"id": 12840920740, "name": "Food Lab", "category": "restaurant", "tags": ["restaurant"], "sources": ["osm"], "website": "https://bothelldining.campusdish.com/LocationsAndMenus/TerraceDiningPavilion/FoodLab", "hours": "Mo-Fr 11:00-14:00,16:45-19:00"}, "geometry": {"type": "Point", "coordinates": [-122.1940488, 47.7626049]}}, {"type": "Feature", "properties": {"id": 12840920741, "name": "The Drop", "category": "restaurant", "tags": ["restaurant"], "sources": ["osm"], "website": "https://bothelldining.campusdish.com/LocationsAndMenus/TerraceDiningPavilion/TheDrop", "hours": "Mo-Th 19:00-21:00"}, "geometry": {"type": "Point", "coordinates": [-122.1939786, 47.7625236]}}, {"type": "Feature", "properties": {"id": "acdcd80e-035e-4f4e-9ac5-3109dd47b680", "name": "Nguyen & O'young Inc", "category": "restaurant", "tags": ["restaurant"], "sources": ["overture"], "address": "19122 Beardslee Blvd"}, "geometry": {"type": "Point", "coordinates": [-122.1914368, 47.7669373]}}, {"type": "Feature", "properties": {"id": "7fedb955-1989-40d0-b89f-f3849864fb87", "name": "Sushi Chinoise", "category": "restaurant", "tags": ["restaurant", "asian"], "sources": ["overture"], "website": "https://sushichinoise.com", "phone": "14254020200", "address": "19122 Beardslee Blvd  Ste 201"}, "geometry": {"type": "Point", "coordinates": [-122.1914368, 47.7669373]}}, {"type": "Feature", "properties": {"id": "8bec8c13-d664-4233-9d81-6c3054411172", "name": "Ali Enterprises Inc", "category": "restaurant", "tags": ["restaurant"], "sources": ["overture"], "address": "19122 Beardslee Blvd Ste 103"}, "geometry": {"type": "Point", "coordinates": [-122.1914368, 47.7669373]}}, {"type": "Feature", "properties": {"id": 12714671028, "name": "The Blast", "category": "artwork", "tags": ["artwork"], "sources": ["osm"]}, "geometry": {"type": "Point", "coordinates": [-122.1970289, 47.7621432]}}, {"type": "Feature", "properties": {"id": "505c5385-522b-49b1-ac3e-d550563ccf0c", "name": "The Villas at Beardslee", "category": "attraction", "tags": ["attraction", "landmark", "historical", "building"], "sources": ["overture"], "website": "https://www.hollandresidential.com/wa/bothell/the-villas-at-beardslee", "phone": "+18443738211", "address": "19128 112th Ave NE"}, "geometry": {"type": "Point", "coordinates": [-122.1915436, 47.7673912]}}, {"type": "Feature", "properties": {"id": "270e7212-5331-4b11-a91b-db9486de3348", "name": "The  Village at Beardslee Crossing", "category": "attraction", "tags": ["attraction", "landmark", "historical", "building"], "sources": ["overture"], "website": "http://beardsleecrossing.com/", "phone": "+14258928150", "address": "19128 112th Ave NE"}, "geometry": {"type": "Point", "coordinates": [-122.191803, 47.7659454]}}, {"type": "Feature", "properties": {"id": "f634e635-18f1-4341-972c-aa45f8724feb", "name": "The Barshows: Play With Lights", "category": "attraction", "tags": ["attraction", "landmark", "historical", "building"], "sources": ["overture"], "website": "https://playwithlights.com/", "address": "10822 NE 193rd St"}, "geometry": {"type": "Point", "coordinates": [-122.1953659, 47.7669678]}}, {"type": "Feature", "properties": {"id": "96842d32-708c-4f2d-9a6f-f25e96263230", "name": "Ross Road Townhomes by CamWest", "category": "attraction", "tags": ["attraction", "landmark", "historical", "building"], "sources": ["overture"], "website": "http://www.camwest.com/WF/community/community.asp?commid=1059", "address": "10621 Ross Rd"}, "geometry": {"type": "Point", "coordinates": [-122.1972198, 47.7631111]}}, {"type": "Feature", "properties": {"id": 1284732923, "name": "Campus Farm", "category": "garden", "tags": ["garden"], "sources": ["osm"]}, "geometry": {"type": "Point", "coordinates": [-122.1906535, 47.761406]}}, {"type": "Feature", "properties": {"id": 1324219328, "name": "Food Forest (Cascadia's Cornucopia)", "category": "garden", "tags": ["garden"], "sources": ["osm"], "website": "https://www.swansonsnursery.com/blog/a-food-forest-on-campus"}, "geometry": {"type": "Point", "coordinates": [-122.1916545, 47.7604254]}}, {"type": "Feature", "properties": {"id": 6377019960, "name": "Marlowe Boutique", "category": "clothes", "tags": ["clothes"], "sources": ["osm"]}, "geometry": {"type": "Point", "coordinates": [-122.1912487, 47.7666128]}}, {"type": "Feature", "properties": {"id": 12840902951, "name": "Quad Market", "category": "convenience", "tags": ["convenience"], "sources": ["osm"], "hours": "Mo-Fr 08:00-22:00,Sa-Su 10:00-20:00"}, "geometry": {"type": "Point", "coordinates": [-122.19471, 47.7626597]}}, {"type": "Feature", "properties": {"id": 6377019955, "name": "Harborstone Credit Union", "category": "bank", "tags": ["bank"], "sources": ["osm"]}, "geometry": {"type": "Point", "coordinates": [-122.1913598, 47.7668574]}}, {"type": "Feature", "properties": {"id": 41656214, "name": "Library 2", "category": "library", "tags": ["library"], "sources": ["osm"]}, "geometry": {"type": "Point", "coordinates": [-122.1910462, 47.7602222]}}, {"type": "Feature", "properties": {"id": 169278620, "name": "Bothell Post Office", "category": "post_office", "tags": ["post-office", "office"], "sources": ["osm", "overture"], "website": "https://tools.usps.com/find-location.htm?y_source=1_MzM5NjgyNS00NDAtbG9jYXRpb24ud2Vic2l0ZQ==&searchRadius=10&address=98011&locationType=po", "phone": "+14254829755", "address": "10500 Beardslee Blvd"}, "geometry": {"type": "Point", "coordinates": [-122.1998208, 47.7612435]}}, {"type": "Feature", "properties": {"id": "8ba56787-0ec2-4797-9427-ff71004e433f", "name": "United States Postal Service", "category": "post_office", "tags": ["post-office", "office"], "sources": ["overture"], "website": "https://tools.usps.com/locations/details/1355482?utm_source=website-url&utm_medium=search&utm_campaign=yext", "phone": "8002758777", "address": "10500 Beardslee Blvd"}, "geometry": {"type": "Point", "coordinates": [-122.1998215, 47.7612228]}}, {"type": "Feature", "properties": {"id": 6377019959, "name": "The Daily Method", "category": "fitness_centre", "tags": ["fitness-centre"], "sources": ["osm"]}, "geometry": {"type": "Point", "coordinates": [-122.1912839, 47.7665522]}}, {"type": "Feature", "properties": {"id": 220512770, "name": "Maywood Gym", "category": "sports_centre", "tags": ["sports-centre"], "sources": ["osm"]}, "geometry": {"type": "Point", "coordinates": [-122.1978083, 47.7694822]}}, {"type": "Feature", "properties": {"id": "894446a1-9d19-49bf-9d55-e2a7c8e4e7df", "name": "Cut + Flow Studio", "category": "fitness_centre", "tags": ["fitness-centre", "yoga", "studio"], "sources": ["overture"], "website": "http://cutandflowstudio.com/", "phone": "+14259087297", "address": "19122 Beardslee Blvd #101"}, "geometry": {"type": "Point", "coordinates": [-122.1911316, 47.7665482]}}]}