{"type": "FeatureCollection", "features": [{"type": "Feature", "properties": {"id": "ac5b05d0-c0bf-4f64-87b3-fb8b10c54cf4", "name": "Flying Squirrel Pizza", "category": "restaurant", "tags": ["restaurant", "pizza"], "sources": ["overture"], "website": "https://flyingsquirrelpizza.com", "phone": "+12063973540", "address": "5701 Airport Way S Ste A"}, "geometry": {"type": "Point", "coordinates": [-122.319191, 47.5511246]}}, {"type": "Feature", "properties": {"id": 2396891214, "name": "Georgetown Ballroom", "category": "bar", "tags": ["bar"], "sources": ["osm"], "address": "5623 Airport Way South"}, "geometry": {"type": "Point", "coordinates": [-122.3193885, 47.5515531]}}, {"type": "Feature", "properties": {"id": 2396891217, "name": "Brother Joe", "category": "cafe", "tags": ["cafe", "vegetarian", "coffee"], "sources": ["osm", "overture"], "website": "http://www.brotherjoegt.com/", "phone": "+12065882859", "address": "5629 Airport Wy S", "hours": "Mo-Fr 07:30-15:00; Sa 09:00-15:00; Su off"}, "geometry": {"type": "Point", "coordinates": [-122.3192206, 47.5513964]}}, {"type": "Feature", "properties": {"id": 2396891219, "name": "Bop Box", "category": "restaurant", "tags": ["restaurant", "korean", "asian", "fusion"], "sources": ["osm", "overture"], "website": "http://eatbopbox.com/", "phone": "+12062574787", "address": "5633 Airport Way S", "hours": "Mo-Su 11:30-15:00,16:00-20:00"}, "geometry": {"type": "Point", "coordinates": [-122.3191286, 47.551301]}}, {"type": "Feature", "properties": {"id": 2396891223, "name": "Post Pike", "category": "restaurant", "tags": ["restaurant", "pizza", "vegetarian"], "sources": ["osm"], "address": "5701 Airport Way South"}, "geometry": {"type": "Point", "coordinates": [-122.3190232, 47.5511915]}}, {"type": "Feature", "properties": {"id": 2517710078, "name": "Machine House Brewery", "category": "pub", "tags": ["pub", "wheelchair-accessible", "bar", "brewery"], "sources": ["osm", "overture"], "website": "http://machinehousebrewery.com", "phone": "(206) 402-6025", "address": "5840 Airport Way S Ste 121", "hours": "We,Th 14:00-20:00; Fr 14:00-21:00; Sa 12:00-21:00; Su 12:00-18:00; Mo,Tu off"}, "geometry": {"type": "Point", "coordinates": [-122.3171301, 47.5502618]}}, {"type": "Feature", "properties": {"id": 4458597189, "name": "Star Brass Works Lounge", "category": "bar", "tags": ["bar"], "sources": ["osm"], "website": "https://starbrassworkslounge.com/", "address": "5813 Airport Way South", "hours": "Fr-Sa 11:00-02:00; Su-Th 11:00-00:00"}, "geometry": {"type": "Point", "coordinates": [-122.3183959, 47.5504917]}}, {"type": "Feature", "properties": {"id": 4646640783, "name": "Seattle Tavern & Pool Room", "category": "pub", "tags": ["pub", "bar"], "sources": ["osm", "overture"], "website": "http://seattletavern.com/", "phone": "+12067671101", "address": "5811 Airport Wy S", "hours": "Mo-Th 14:00-02:00, Fr-Su 12:00-02:00"}, "geometry": {"type": "Point", "coordinates": [-122.3182768, 47.5504046]}}, {"type": "Feature", "properties": {"id": 9719437817, "name": "Flora Bakehouse", "category": "cafe", "tags": ["cafe", "outdoor-seating"], "sources": ["osm"]}, "geometry": {"type": "Point", "coordinates": [-122.312794, 47.5533843]}}, {"type": "Feature", "properties": {"id": "f1d3bde7-305b-4e91-b192-583e5fc1c144", "name": "Hallava Falafel", "category": "fast_food", "tags": ["fast-food", "food", "truck", "middle-eastern", "mediterranean"], "sources": ["overture"], "website": "http://www.hallavastreetfood.com/", "phone": "+12063074769", "address": "5825 Airport Way S"}, "geometry": {"type": "Point", "coordinates": [-122.3181076, 47.5501404]}}, {"type": "Feature", "properties": {"id": "9e1fdffb-3bb0-46be-9f4c-b42e8cbc39b3", "name": "El Sirenito", "category": "restaurant", "tags": ["restaurant", "mexican", "latin-american"], "sources": ["overture"], "website": "http://www.sirenitoseattle.com/", "phone": "+12067635657", "address": "5901 Airport Wy S"}, "geometry": {"type": "Point", "coordinates": [-122.3179321, 47.5500259]}}, {"type": "Feature", "properties": {"id": "91f6ee60-e055-4657-bd21-9a23b2e03a74", "name": "Original Rainier Brewery", "category": "bar", "tags": ["bar", "brewery"], "sources": ["overture"], "website": "https://www.thefactoryluxe.com/contact", "phone": "+12064535894", "address": "5840 Airport Way S"}, "geometry": {"type": "Point", "coordinates": [-122.317955, 47.550766]}}, {"type": "Feature", "properties": {"id": "746e5998-e818-4eb7-8621-cf265822aac1", "name": "The Conservatory", "category": "cafe", "tags": ["cafe"], "sources": ["overture"], "website": "http://www.theconservatoryseattle.com", "phone": "(206) 420-3037", "address": "5813 Airport Way S"}, "geometry": {"type": "Point", "coordinates": [-122.3184204, 47.5504265]}}, {"type": "Feature", "properties": {"id": "bca7c19e-1471-4a67-abbc-9d3545921984", "name": "Bacon Strip", "category": "bar", "tags": ["bar", "gay"], "sources": ["overture"], "website": "http://www.stayformore.com/bacon-strip-tickets.html", "address": "5813 Airport Way S"}, "geometry": {"type": "Point", "coordinates": [-122.3183517, 47.5503998]}}, {"type": "Feature", "properties": {"id": "8a98365e-2764-4a16-ac1d-6b7960327577", "name": "Mirage", "category": "bar", "tags": ["bar", "brewery"], "sources": ["overture"], "address": "927 S Homer St"}, "geometry": {"type": "Point", "coordinates": [-122.3189087, 47.5502472]}}, {"type": "Feature", "properties": {"id": "c837a7a2-234e-4fcf-b197-368e80269dc3", "name": "Deep Sea Sugar & Salt", "category": "bakery", "tags": ["bakery"], "sources": ["overture"], "website": "http://www.deepseasugarandsalt.com", "phone": "+12063305110", "address": "5805 Airport Way S"}, "geometry": {"type": "Point", "coordinates": [-122.3184891, 47.5504494]}}, {"type": "Feature", "properties": {"id": "ce0b2b38-4905-46d0-b917-fb17fd5a64cb", "name": "Paper Press Punch", "category": "restaurant", "tags": ["restaurant"], "sources": ["overture"], "website": "https://www.paperpresspunch.com", "address": "5628 Airport Way S  Ste 175"}, "geometry": {"type": "Point", "coordinates": [-122.3187027, 47.5515213]}}, {"type": "Feature", "properties": {"id": "23275e33-84b6-4008-bf77-664a7f990b97", "name": "Post Pike Georgetown", "category": "restaurant", "tags": ["restaurant", "pizza", "italian"], "sources": ["overture"], "website": "http://www.postpikebar.com/", "phone": "+12064135116", "address": "5701 Airport Wy S"}, "geometry": {"type": "Point", "coordinates": [-122.3191223, 47.5511665]}}, {"type": "Feature", "properties": {"id": "7f47a2d0-502a-4b3b-a393-688cdc98b680", "name": "American Pie", "category": "bakery", "tags": ["bakery"], "sources": ["overture"], "website": "http://www.americanpiebc.com", "phone": "(206) 708-7813", "address": "5633 Airport Way S"}, "geometry": {"type": "Point", "coordinates": [-122.3193665, 47.5513763]}}, {"type": "Feature", "properties": {"id": "c654da10-a072-4da9-bc3e-173de42f3403", "name": "Two Tartes Cafe & Catering", "category": "restaurant", "tags": ["restaurant"], "sources": ["overture"], "website": "https://www.twotartes.com", "phone": "(206) 767-8012", "address": "3825 22nd Ave SW"}, "geometry": {"type": "Point", "coordinates": [-122.3191605, 47.5515099]}}, {"type": "Feature", "properties": {"id": "eb91687a-eb8c-493b-afa1-9fd5a907dfcf", "name": "The Flora Bakehouse", "category": "bakery", "tags": ["bakery"], "sources": ["overture"], "website": "http://florabakehouse.com/", "phone": "+12067620418", "address": "1511 S Lucile St"}, "geometry": {"type": "Point", "coordinates": [-122.3128052, 47.5533791]}}, {"type": "Feature", "properties": {"id": "7982fd43-1787-452f-a207-99a3d3c57886", "name": "CauldronSeattle", "category": "cafe", "tags": ["cafe"], "sources": ["overture"], "website": "http://www.cauldronseattle.com", "phone": "(206) 940-0257", "address": "5331 16th Ave S"}, "geometry": {"type": "Point", "coordinates": [-122.3125916, 47.5538177]}}, {"type": "Feature", "properties": {"id": 11555403820, "name": "Spartan Royal Mansion Gallery", "category": "gallery", "tags": ["gallery"], "sources": ["osm"]}, "geometry": {"type": "Point", "coordinates": [-122.3189918, 47.5505444]}}, {"type": "Feature", "properties": {"id": "88567263-15e0-4d8a-9461-4f158c3c76b7", "name": "Georgetown Arts & Cultural Center", "category": "gallery", "tags": ["gallery", "art"], "sources": ["overture"], "website": "http://georgetownartcenter.org/", "phone": "+12068511538", "address": "5809 Airport Wy S"}, "geometry": {"type": "Point", "coordinates": [-122.3183517, 47.550518]}}, {"type": "Feature", "properties": {"id": "4f130360-b038-4cd6-bbb2-f49b061c60f4", "name": "Museum of Curious Things", "category": "museum", "tags": ["museum"], "sources": ["overture"], "website": "http://www.museumofcuriousthings.com/", "phone": "+12069093506", "address": "5805 Airport Way S"}, "geometry": {"type": "Point", "coordinates": [-122.3184204, 47.5504265]}}, {"type": "Feature", "properties": {"id": "569dbea5-aade-4f3f-942d-4d18a17f157e", "name": "Royal Mansion Gallery", "category": "gallery", "tags": ["gallery", "art"], "sources": ["overture"], "website": "http://www.georgetowntrailerparkmall.com/", "address": "5805 Airport Way S"}, "geometry": {"type": "Point", "coordinates": [-122.3188095, 47.5504456]}}, {"type": "Feature", "properties": {"id": "55279f04-d887-49d1-abf3-68613dcf76b8", "name": "Vecta Photo", "category": "gallery", "tags": ["gallery", "art"], "sources": ["overture"], "website": "http://www.vectaphoto.com", "phone": "(206) 762-2930", "address": "5790 Airport Way S #280"}, "geometry": {"type": "Point", "coordinates": [-122.3184662, 47.551075]}}, {"type": "Feature", "properties": {"id": "6fc094aa-29c6-4cb7-8daa-b4f6bb6ba2fd", "name": "Krab Jab Studio", "category": "gallery", "tags": ["gallery", "art"], "sources": ["overture"], "website": "http://www.krabjabstudio.com/", "phone": "+12064564035", "address": "5628 Airport Way S"}, "geometry": {"type": "Point", "coordinates": [-122.318573, 47.5514412]}}, {"type": "Feature", "properties": {"id": "e8dade32-be3c-4ebc-9bac-2316017055de", "name": "Georgetown Atelier", "category": "gallery", "tags": ["gallery", "art"], "sources": ["overture"], "website": "http://georgetownatelier.com", "phone": "(206) 330-1750", "address": "5628 Airport Way S Ste 330"}, "geometry": {"type": "Point", "coordinates": [-122.318573, 47.5514412]}}, {"type": "Feature", "properties": {"id": "f3d9dc06-acd1-489e-a8ec-8ba4ca363a8a", "name": "Array Art Conservation LLC", "category": "museum", "tags": ["museum"], "sources": ["overture"], "website": "http://www.arrayartconservation.com/", "phone": "2069205697", "address": "1536 S Shelton St"}, "geometry": {"type": "Point", "coordinates": [-122.3117905, 47.5581551]}}, {"type": "Feature", "properties": {"id": "a4c129e4-b37a-467d-8fe6-2225a81c6d6b", "name": "Maple Wood Playfield", "category": "park", "tags": ["park"], "sources": ["overture"], "website": "http://seattle.gov/parks/park_detail.asp?ID=418", "phone": "+12066844075", "address": "4801 Corson Ave S"}, "geometry": {"type": "Point", "coordinates": [-122.3194199, 47.5594368]}}, {"type": "Feature", "properties": {"id": "b1dec849-f4a7-49a0-b601-5acc9385ef5c", "name": "Cleveland Playfield", "category": "park", "tags": ["park"], "sources": ["overture"], "website": "http://seattle.gov/parks/park_detail.asp?ID=404", "phone": "+12066844075", "address": "5512 13th Ave S"}, "geometry": {"type": "Point", "coordinates": [-122.315567, 47.5520134]}}, {"type": "Feature", "properties": {"id": "fceb1149-ead9-404d-aafa-7d5a54c1db14", "name": "Seattle Wholesale Growers Market", "category": "florist", "tags": ["florist"], "sources": ["overture"], "website": "http://seattlewholesalegrowersmarket.com", "phone": "(206) 838-1523", "address": "5840 Airport Way S Ste 201"}, "geometry": {"type": "Point", "coordinates": [-122.317955, 47.5505905]}}]}