{"type": "FeatureCollection", "features": [{"type": "Feature", "properties": {"id": 1449730785, "name": "North Lake Boat Launch", "category": "park", "tags": ["park"], "sources": ["osm"], "website": "https://wdfw.wa.gov/places-to-go/water-access-sites/north-lake-516", "address": "32820 Weyerhaeuser Way South"}, "geometry": {"type": "Point", "coordinates": [-122.289611, 47.3088597]}}, {"type": "Feature", "properties": {"id": "f1e4e946-f508-459a-8a7c-0effdd8b9ddd", "name": "Mission Ruth", "category": "books", "tags": ["books"], "sources": ["overture"], "website": "http://www.missionruth.org/", "phone": "+12533512375", "address": "32461 Military Rd S"}, "geometry": {"type": "Point", "coordinates": [-122.2824097, 47.3097229]}}]}