{"type": "FeatureCollection", "features": [{"type": "Feature", "properties": {"id": 733454525, "name": "Taco Time", "category": "fast_food", "tags": ["fast-food", "mexican", "takeaway", "drive-through", "fast", "food", "taco"], "sources": ["osm", "overture"], "website": "https://order.tacotimenw.com/menu/kirkland-totem-lake", "phone": "+14258239001", "address": "12430 116th Ave NE"}, "geometry": {"type": "Point", "coordinates": [-122.1857181, 47.712073]}}, {"type": "Feature", "properties": {"id": 3326287928, "name": "Subway", "category": "fast_food", "tags": ["fast-food", "sandwich", "takeaway", "fast", "food"], "sources": ["osm", "overture"], "website": "https://restaurants.subway.com/united-states/wa/kirkland/11322-ne-124th-st?utm_source=yxt-bing&utm_medium=local&utm_term=acq&utm_content=4374&utm_campaign=evergreen-2020&y_source=1_MTQ5MDAyMzgtNDgzLWxvY2F0aW9uLndlYnNpdGU%3D", "phone": "4252859693", "address": "11322 NE 124th St", "hours": "Mo-Fr 08:00-22:00; Sa 09:00-21:00; Su 09:00-18:00"}, "geometry": {"type": "Point", "coordinates": [-122.1895967, 47.7115778]}}, {"type": "Feature", "properties": {"id": 161814410, "name": "Starbucks", "category": "cafe", "tags": ["cafe", "coffee-shop", "takeaway", "wifi", "coffee"], "sources": ["osm", "overture"], "website": "https://www.starbucks.com/store-locator/store/1030218", "phone": "+14258201334", "address": "12425 116th Ave NE"}, "geometry": {"type": "Point", "coordinates": [-122.1870522, 47.7119072]}}, {"type": "Feature", "properties": {"id": 453130306, "name": "McDonald's", "category": "fast_food", "tags": ["fast-food", "burger", "takeaway", "drive-through", "wifi", "fast", "food"], "sources": ["osm", "overture"], "website": "https://www.mcdonalds.com/us/en-us/location/wa/kirkland/12514-116th-ave-ne/3317.html?cid=RF%3AYXT%3ARoN%3A%3AClicks%3Fcid%3DRF%3AYXT%3AFB%3A%3AClicks", "phone": "+14258234404", "address": "12514 116th Ave Ne", "hours": "Mo-We 06:00-22:00; Th-Sa 06:00-23:00; Su 06:00-22:00"}, "geometry": {"type": "Point", "coordinates": [-122.1860047, 47.7126066]}}, {"type": "Feature", "properties": {"id": 6357133360, "name": "Mercurys Coffee Co.", "category": "cafe", "tags": ["cafe", "coffee-shop", "takeaway"], "sources": ["osm"], "website": "https://mercurys.com/", "address": "12545 Totem Lake Boulevard", "hours": "05:00-20:00"}, "geometry": {"type": "Point", "coordinates": [-122.182201, 47.7112884]}}, {"type": "Feature", "properties": {"id": 832288493, "name": "Mediterranean Kitchen", "category": "restaurant", "tags": ["restaurant", "mediterranean", "lebanese", "cat", "shawarma", "kebab", "gyros", "moussaka", "hummus", "takeaway", "delivery", "vegetarian", "halal", "european"], "sources": ["osm", "overture"], "website": "http://mediterraneankitchens.net/", "phone": "+14258238101", "address": "11412 NE 124th St", "hours": "Mo-Th 11:00-20:00; Fr-Sa 11:00-21:00; Su 12:00-19:00"}, "geometry": {"type": "Point", "coordinates": [-122.1884922, 47.711563]}}, {"type": "Feature", "properties": {"id": 832288525, "name": "Bake and Blend", "category": "cafe", "tags": ["cafe", "acai"], "sources": ["osm"], "address": "11400 Northeast 124th Street"}, "geometry": {"type": "Point", "coordinates": [-122.189039, 47.7115604]}}, {"type": "Feature", "properties": {"id": "a5e71be4-1adf-40e1-8094-73887b4e2773", "name": "Taco Del Mar", "category": "restaurant", "tags": ["restaurant", "mexican"], "sources": ["overture"], "website": "http://www.tacodelmar.com", "phone": "(425) 820-5763", "address": "12551 116th Ave NE"}, "geometry": {"type": "Point", "coordinates": [-122.1874771, 47.7126198]}}, {"type": "Feature", "properties": {"id": 1365269620, "name": "Chipotle", "category": "fast_food", "tags": ["fast-food", "mexican", "takeaway"], "sources": ["osm"], "website": "https://locations.chipotle.com/wa/kirkland/12530-totem-lake-blvd-ne", "phone": "+1-425-814-9849", "address": "12530 Totem Lake Boulevard Northeast", "hours": "10:45-22:00"}, "geometry": {"type": "Point", "coordinates": [-122.1816711, 47.7119203]}}, {"type": "Feature", "properties": {"id": 3326289025, "name": "DIY Tea Lab", "category": "cafe", "tags": ["cafe", "bubble-tea"], "sources": ["osm"], "website": "https://diytealab.com", "phone": "+1-425-496-8634", "address": "12561 116th Avenue Northeast", "hours": "Mo-Su 11:00-20:00"}, "geometry": {"type": "Point", "coordinates": [-122.186982, 47.7127705]}}, {"type": "Feature", "properties": {"id": 1365269623, "name": "Panda Express", "category": "fast_food", "tags": ["fast-food", "chinese", "takeaway", "restaurant", "asian"], "sources": ["osm", "overture"], "website": "http://www.pandaexpress.com/", "phone": "+14259682068", "address": "12632 Totem Lake Blvd. Ne Ste. 140 Ste. 140", "hours": "09:30-22:00"}, "geometry": {"type": "Point", "coordinates": [-122.1823056, 47.7135297]}}, {"type": "Feature", "properties": {"id": 1365269621, "name": "MOD Pizza", "category": "fast_food", "tags": ["fast-food", "pizza", "takeaway", "vegetarian", "vegan", "restaurant"], "sources": ["osm", "overture"], "website": "https://locations.modpizza.com/usa/wa/kirkland/12530-totem-lake-blvd?utm_source=facebook&utm_medium=yext", "phone": "+14252434840", "address": "12530 Totem Lake Blvd Ste 124", "hours": "Su-Th 10:30-22:00; Fr-Sa 10:30-23:00"}, "geometry": {"type": "Point", "coordinates": [-122.1819838, 47.7117868]}}, {"type": "Feature", "properties": {"id": 1365269538, "name": "Du\u00e9 Cucina", "category": "restaurant", "tags": ["restaurant", "italian"], "sources": ["osm", "overture"], "website": "https://duecucina.com/", "phone": "+14257777725", "address": "12670 120th Ave NE Suite 170", "hours": "11:30-21:00"}, "geometry": {"type": "Point", "coordinates": [-122.1802838, 47.7134164]}}, {"type": "Feature", "properties": {"id": 1365269639, "name": "Don't Yell At Me", "category": "cafe", "tags": ["cafe", "bubble-tea", "dessert", "taiwanese"], "sources": ["osm"], "website": "https://it14321.wixsite.com/don-t-yell-at-me", "phone": "+1-206-800-0898", "address": "12655 120th Ave NE", "hours": "12:00-22:00"}, "geometry": {"type": "Point", "coordinates": [-122.1806883, 47.7131125]}}, {"type": "Feature", "properties": {"id": 3052166565, "name": "Little Grandma's Kitchen", "category": "restaurant", "tags": ["restaurant", "american", "breakfast", "diner", "sandwich", "brunch", "takeaway", "breakfast-and-brunch"], "sources": ["osm", "overture"], "website": "https://www.lgskitchen.com", "phone": "14257864236", "address": "12551 116th Ave NE", "hours": "We-Mo 07:00-13:00"}, "geometry": {"type": "Point", "coordinates": [-122.187417, 47.7125374]}}, {"type": "Feature", "properties": {"id": 3326289024, "name": "Ezell's Chicken", "category": "fast_food", "tags": ["fast-food", "chicken", "takeaway", "child-friendly"], "sources": ["osm"], "website": "https://ezellschicken.com", "phone": "+1-425-600-5002", "address": "12559 116th Avenue Northeast", "hours": "Su-Th 10:30-21:00; Fr-Sa 10:30-22:00"}, "geometry": {"type": "Point", "coordinates": [-122.1869872, 47.7126474]}}, {"type": "Feature", "properties": {"id": 3326287944, "name": "Romio's Pizza & Pasta", "category": "restaurant", "tags": ["restaurant", "pasta", "pizza", "takeaway", "delivery", "italian"], "sources": ["osm", "overture"], "website": "http://romiostotemlake.com", "phone": "+14258203300", "address": "11422 NE 124th St", "hours": "Tu-Th 11:00-21:00; Fr 11:00-22:00; Sa 12:00-22:00; Su 12:00-21:00"}, "geometry": {"type": "Point", "coordinates": [-122.1880922, 47.7115621]}}, {"type": "Feature", "properties": {"id": 3326289016, "name": "Izumi Japanese Restaurant", "category": "restaurant", "tags": ["restaurant", "japanese"], "sources": ["osm"], "website": "https://www.izumikirkland.com/", "address": "12539 116th Avenue Northeast"}, "geometry": {"type": "Point", "coordinates": [-122.1879051, 47.71244]}}, {"type": "Feature", "properties": {"id": 3326289017, "name": "Sitar Indian Cuisine", "category": "restaurant", "tags": ["restaurant", "indian", "asian"], "sources": ["osm", "overture"], "website": "https://www.sitarindiankirkland.com/", "phone": "+14253054560", "address": "12541 116th Ave NE", "hours": "Mo off; Tu-Fr 11:00-14:30,17:00-21:30; Sa 11:00-14:30,17:00-22:00; Su 11:00-14:30,17:00-21:00"}, "geometry": {"type": "Point", "coordinates": [-122.187793, 47.7124407]}}, {"type": "Feature", "properties": {"id": 3326289020, "name": "Thumra Thai Restaurant", "category": "restaurant", "tags": ["restaurant", "thai", "asian"], "sources": ["osm", "overture"], "website": "http://www.thumrathai.com/", "phone": "+14258210577", "address": "12549 116th Ave NE", "hours": "Mo-Fr 11:30-21:00; Sa 13:00-21:00; Su 17:00-21:00"}, "geometry": {"type": "Point", "coordinates": [-122.1875183, 47.7125034]}}, {"type": "Feature", "properties": {"id": 3326289023, "name": "Pho Mignon", "category": "restaurant", "tags": ["restaurant", "vietnamese", "asian", "noodles"], "sources": ["osm", "overture"], "website": "http://phomignon.com/", "phone": "+14258259399", "address": "12557 116th Ave NE", "hours": "Mo-Fr 10:30-21:00; Sa-Su 11:00-20:00"}, "geometry": {"type": "Point", "coordinates": [-122.1871237, 47.712636]}}, {"type": "Feature", "properties": {"id": 521119850, "name": "Wendy's", "category": "fast_food", "tags": ["fast-food", "burger", "outdoor-seating", "takeaway", "drive-through", "fast", "food", "american"], "sources": ["osm", "overture"], "website": "https://locations.wendys.com/united-states/wa/kirkland/11525-ne-124th-street", "phone": "+14258218703", "address": "11525 Ne 124th Street", "hours": "09:00-22:00"}, "geometry": {"type": "Point", "coordinates": [-122.1870287, 47.710944]}}, {"type": "Feature", "properties": {"id": 5093344044, "name": "El Burrito Mojado", "category": "fast_food", "tags": ["fast-food", "mexican"], "sources": ["osm"], "website": "https://elburritomojado.com"}, "geometry": {"type": "Point", "coordinates": [-122.1860745, 47.7120015]}}, {"type": "Feature", "properties": {"id": 5397095320, "name": "Super Gyros", "category": "fast_food", "tags": ["fast-food", "gyros", "mediterranean", "restaurant", "greek"], "sources": ["osm", "overture"], "website": "http://www.mysupergyros.com/", "phone": "+14252867064", "address": "12412 116th Ave NE"}, "geometry": {"type": "Point", "coordinates": [-122.1858765, 47.7117068]}}, {"type": "Feature", "properties": {"id": "8f4285a9-58ae-4e84-affe-0093b380e73f", "name": "Super Gyros", "category": "fast_food", "tags": ["fast-food", "food", "truck"], "sources": ["overture"], "website": "http://mysupergyros.com", "phone": "(425) 286-7064", "address": "12412 116th Ave NE"}, "geometry": {"type": "Point", "coordinates": [-122.1866302, 47.7159195]}}, {"type": "Feature", "properties": {"id": "75e743ed-a5c7-496a-8bad-366b4bb772c9", "name": "Azteca Mexican Restaurants", "category": "restaurant", "tags": ["restaurant", "mexican", "latin-american", "taco"], "sources": ["overture"], "website": "http://aztecamex.com/locations/totem-lake-azteca/", "phone": "+14258207997", "address": "11431 NE 124th St"}, "geometry": {"type": "Point", "coordinates": [-122.1878204, 47.7108498]}}, {"type": "Feature", "properties": {"id": "92067a9c-1cf2-44cf-9bc3-fbd0414a338b", "name": "Ezell's Famous Chicken", "category": "restaurant", "tags": ["restaurant", "chicken", "american"], "sources": ["overture"], "website": "https://ezellschicken.com/locations/", "phone": "+14256005002", "address": "12559 116th Ave NE"}, "geometry": {"type": "Point", "coordinates": [-122.1870728, 47.7126541]}}, {"type": "Feature", "properties": {"id": 1365269631, "name": "Sweetgreen", "category": "fast_food", "tags": ["fast-food", "salad", "takeaway", "wifi", "restaurant", "health-food", "health", "food"], "sources": ["osm", "overture"], "website": "https://www.sweetgreen.com/", "phone": "4254032998", "address": "11900 NE Village Plaza, Ste 164", "hours": "10:30-22:00"}, "geometry": {"type": "Point", "coordinates": [-122.1813827, 47.7126005]}}, {"type": "Feature", "properties": {"id": 161778000, "name": "Azteca", "category": "restaurant", "tags": ["restaurant", "mexican"], "sources": ["osm"], "address": "11431 Northeast 124th Street"}, "geometry": {"type": "Point", "coordinates": [-122.1876825, 47.7109097]}}, {"type": "Feature", "properties": {"id": 11712534273, "name": "Evergreen Blendz", "category": "cafe", "tags": ["cafe", "organic"], "sources": ["osm"], "website": "https://evergreenblendz.com", "phone": "+1-425-821-4977", "address": "11811 Northeast 128th Street", "hours": "Mo-Fr 07:00-17:00; Sa-Su 07:30-17:00"}, "geometry": {"type": "Point", "coordinates": [-122.1824835, 47.7147113]}}, {"type": "Feature", "properties": {"id": 11967439409, "name": "Barnes & Noble Caf\u00e9", "category": "cafe", "tags": ["cafe", "coffee-shop", "wifi"], "sources": ["osm"]}, "geometry": {"type": "Point", "coordinates": [-122.1803545, 47.7116171]}}, {"type": "Feature", "properties": {"id": 13145084897, "name": "Lilly's Lattes", "category": "cafe", "tags": ["cafe", "coffee-shop"], "sources": ["osm"]}, "geometry": {"type": "Point", "coordinates": [-122.1833908, 47.7161315]}}, {"type": "Feature", "properties": {"id": 161778002, "name": "Olive Garden", "category": "restaurant", "tags": ["restaurant", "italian"], "sources": ["osm"], "address": "11325 Northeast 124th Street"}, "geometry": {"type": "Point", "coordinates": [-122.1894809, 47.7108922]}}, {"type": "Feature", "properties": {"id": "d29177db-6a3a-4850-8e15-ee621b8bd22e", "name": "Krispy Krunchy Chicken", "category": "restaurant", "tags": ["restaurant", "chicken", "fast-food"], "sources": ["overture"], "website": "https://locations.krispykrunchy.com/wa/kirkland/12412-116th-ave-ne", "phone": "4258238006", "address": "12412 116Th Ave Ne"}, "geometry": {"type": "Point", "coordinates": [-122.1860199, 47.711853]}}, {"type": "Feature", "properties": {"id": 847026690, "name": "Joe's Burgers", "category": "fast_food", "tags": ["fast-food", "burger", "vegetarian", "restaurant", "american"], "sources": ["osm", "overture"], "website": "https://www.joesburgers.com", "phone": "+14255760003", "address": "11910 NE Village Plaza", "hours": "11:00-20:00"}, "geometry": {"type": "Point", "coordinates": [-122.1807034, 47.712582]}}, {"type": "Feature", "properties": {"id": 1365269536, "name": "Umigawa Sushi", "category": "restaurant", "tags": ["restaurant", "sushi"], "sources": ["osm"], "website": "https://umigawasushi.com", "phone": "+1-425-242-1223", "address": "174 120th Avenue Northeast", "hours": "Mo-Sa 11:30-14:00,17:00-20:00; Su 17:00-20:00"}, "geometry": {"type": "Point", "coordinates": [-122.1803581, 47.7134893]}}, {"type": "Feature", "properties": {"id": 1365269575, "name": "203\u00b0 Fahrenheit", "category": "cafe", "tags": ["cafe", "coffee-shop", "tea", "wifi"], "sources": ["osm"], "website": "https://203degreesfahrenheit.coffee", "phone": "+1-425-285-9382", "address": "11901 Northeast Village Plaza", "hours": "Su-Th 07:00-19:00; Fr-Sa 07:00-20:00"}, "geometry": {"type": "Point", "coordinates": [-122.1800535, 47.7125683]}}, {"type": "Feature", "properties": {"id": 1365269637, "name": "Lady Yum", "category": "cafe", "tags": ["cafe"], "sources": ["osm"], "website": "https://ladyyum.com", "phone": "+1-866-523-9986", "address": "11900 Northeast Village Plaza", "hours": "Mo-Su 10:00-22:00"}, "geometry": {"type": "Point", "coordinates": [-122.1806376, 47.7129535]}}, {"type": "Feature", "properties": {"id": "b370b7dd-3cfb-4b87-84d6-89c77fc1d1c8", "name": "Pizza Takeout & Delivery", "category": "fast_food", "tags": ["fast-food", "fast", "food"], "sources": ["overture"], "website": "https://locations.papamurphys.com/wa/kirkland/11312-ne-124th-street"}, "geometry": {"type": "Point", "coordinates": [-122.1899719, 47.7116356]}}, {"type": "Feature", "properties": {"id": "d49f602a-cf83-47b2-85e4-5ecbedad1b45", "name": "Chipotle Mexican Grill", "category": "restaurant", "tags": ["restaurant", "mexican", "texmex", "fast-food"], "sources": ["overture"], "website": "https://locations.chipotle.com/wa/kirkland/12530-totem-lake-blvd-ne?utm_source=facebook&utm_medium=yext&utm_campaign=yext_listings%3Frestaurant%3D2958", "phone": "+14258149849", "address": "12530 Totem Lake Blvd NE Ste 136"}, "geometry": {"type": "Point", "coordinates": [-122.1816177, 47.711834]}}, {"type": "Feature", "properties": {"id": "a93d4e4b-f8b7-4d83-8dab-23208814a1a3", "name": "Matt's Gourmet Hot Dogs", "category": "restaurant", "tags": ["restaurant", "hot-dog", "hot", "dog"], "sources": ["overture"], "website": "http://www.mattsfamouschilidogs.com", "phone": "(425) 814-3760", "address": "12561 116th Ave NE"}, "geometry": {"type": "Point", "coordinates": [-122.1870193, 47.712719]}}, {"type": "Feature", "properties": {"id": "e01b84b0-ad73-4c15-b353-c441debbbd18", "name": "Olive Garden Italian Restaurant", "category": "restaurant", "tags": ["restaurant", "italian", "mediterranean"], "sources": ["overture"], "website": "https://www.olivegarden.com/locations/wa/kirkland/kirkland-totem-lake/1318?cmpid=br%3Aog_ag%3Aie_ch%3Asoc_ca%3AOGFB_sn%3Afacebook_gt%3Akirkland-wa-1318_pl%3Alocurl_rd%3A1241", "phone": "+14258207740", "address": "11325 NE 124th St"}, "geometry": {"type": "Point", "coordinates": [-122.1897049, 47.7108803]}}, {"type": "Feature", "properties": {"id": "4e8dea88-df43-46b8-9e7e-0683880676d1", "name": "Cucina Presto", "category": "restaurant", "tags": ["restaurant", "pizza"], "sources": ["overture"], "website": "http://www.cucinacucina.com", "phone": "(425) 820-3300", "address": "11422 NE 124th St"}, "geometry": {"type": "Point", "coordinates": [-122.188446, 47.711628]}}, {"type": "Feature", "properties": {"id": "37c25d84-ea4a-460b-8c16-7850b6e12c72", "name": "Biryani Express", "category": "restaurant", "tags": ["restaurant", "indian"], "sources": ["overture"], "website": "https://www.biryaniexpresskirkland.com/", "phone": "+14253054560", "address": "12541 116th Ave NE"}, "geometry": {"type": "Point", "coordinates": [-122.1876984, 47.7124252]}}, {"type": "Feature", "properties": {"id": "1ebf6b99-ad1e-462a-87dc-7684510fcf8c", "name": "Izumi", "category": "restaurant", "tags": ["restaurant", "japanese", "sushi", "asian"], "sources": ["overture"], "website": "http://www.izumikirkland.com/", "phone": "+14258211959", "address": "12539 116th Ave NE"}, "geometry": {"type": "Point", "coordinates": [-122.187912, 47.7124367]}}, {"type": "Feature", "properties": {"id": "11c0ef9a-6498-4457-b9d0-c0c8f805f1b4", "name": "Pars Group, Llc", "category": "restaurant", "tags": ["restaurant"], "sources": ["overture"], "address": "11411 Ne 124th St Ste 170"}, "geometry": {"type": "Point", "coordinates": [-122.1883698, 47.7105904]}}, {"type": "Feature", "properties": {"id": "7ca176de-4d08-4468-a10b-cd2ca56e4ca1", "name": "Northwest Food Management Group, Inc", "category": "restaurant", "tags": ["restaurant"], "sources": ["overture"], "address": "11411 NE 124th St"}, "geometry": {"type": "Point", "coordinates": [-122.1883698, 47.7105904]}}, {"type": "Feature", "properties": {"id": "afcb4416-a061-41bf-9b1b-5dcd10b22c80", "name": "Sardinia Llc", "category": "restaurant", "tags": ["restaurant"], "sources": ["overture"], "website": "http://www.sardiniasrq.com", "address": "12445 116th Ave NE"}, "geometry": {"type": "Point", "coordinates": [-122.1884003, 47.7117195]}}, {"type": "Feature", "properties": {"id": "b27d22d8-9439-4597-a6c5-a8681b377669", "name": "Tacos Bandits", "category": "fast_food", "tags": ["fast-food", "food", "truck"], "sources": ["overture"], "phone": "(425) 289-9377", "address": "12412 116th Ave NE"}, "geometry": {"type": "Point", "coordinates": [-122.1860962, 47.7120018]}}, {"type": "Feature", "properties": {"id": "7d7b701b-ed04-44bf-8d94-aac3101d3e8b", "name": "Mmm...Javalicious", "category": "restaurant", "tags": ["restaurant"], "sources": ["overture"], "website": "http://www.thedencoffeehouse.com", "phone": "(206) 240-0321", "address": "12412 116th Ave NE"}, "geometry": {"type": "Point", "coordinates": [-122.185997, 47.7118759]}}, {"type": "Feature", "properties": {"id": "0b66dbc8-8d12-4b6b-9fa3-e236ab94a106", "name": "BlissFull Cup Co.", "category": "cafe", "tags": ["cafe", "coffee"], "sources": ["overture"], "website": "https://blissfullcup.co", "phone": "+13059980345", "address": "12412 116th Ave NE"}, "geometry": {"type": "Point", "coordinates": [-122.185997, 47.7115364]}}, {"type": "Feature", "properties": {"id": "df4c55fb-f311-45ca-afd5-43a7ddd24544", "name": "Kirkland \u2013 Totem Lake", "category": "fast_food", "tags": ["fast-food", "fast", "food"], "sources": ["overture"], "website": "https://tacotimenw.com/find-us/kirkland-totem-lake/", "address": "12430 116th NE Kirkland, WA 98034"}, "geometry": {"type": "Point", "coordinates": [-122.1868896, 47.7119865]}}, {"type": "Feature", "properties": {"id": "27686e11-3590-47e5-bef5-220e66b34d9e", "name": "Picnic's Hot Dogs", "category": "restaurant", "tags": ["restaurant", "hot-dog", "hot", "dog"], "sources": ["overture"], "phone": "4252508311", "address": "12561 116th Ave NE"}, "geometry": {"type": "Point", "coordinates": [-122.1870728, 47.7127533]}}, {"type": "Feature", "properties": {"id": "0d5f2f5f-66a6-4203-b945-aef8f7a9aeeb", "name": "Totem Lake Starbucks", "category": "cafe", "tags": ["cafe", "coffee"], "sources": ["overture"], "website": "http://www.starbucks.com/", "address": "11400 NE 124th St"}, "geometry": {"type": "Point", "coordinates": [-122.182724, 47.7159882]}}, {"type": "Feature", "properties": {"id": "3f24ff05-80d1-4012-a021-cac005a5c374", "name": "Libby's Lattes", "category": "cafe", "tags": ["cafe", "coffee"], "sources": ["overture"], "website": "http://www.libbyslattes.com/", "phone": "+14258201724", "address": "12911 120th Ave NE"}, "geometry": {"type": "Point", "coordinates": [-122.1833801, 47.7161331]}}, {"type": "Feature", "properties": {"id": "37b6478e-b2da-49b3-9908-6bbd739ad113", "name": "Evergreen Blendz Coffee", "category": "cafe", "tags": ["cafe", "coffee"], "sources": ["overture"], "website": "https://evergreenblendz.com/", "phone": "+14258214977", "address": "11811 NE 128th St D"}, "geometry": {"type": "Point", "coordinates": [-122.1824951, 47.7146797]}}, {"type": "Feature", "properties": {"id": "7287a5f9-0f99-41ea-acc9-1d9a7b408584", "name": "Mercury Coffee Co", "category": "cafe", "tags": ["cafe", "coffee"], "sources": ["overture"], "website": "http://mercurys.com", "address": "Totem Lake Blvd NE"}, "geometry": {"type": "Point", "coordinates": [-122.182251, 47.7113075]}}, {"type": "Feature", "properties": {"id": "ac7d1cf8-3768-41d1-a8a0-021531813788", "name": "203\u00b0 Fahrenheit Coffee Co.", "category": "cafe", "tags": ["cafe", "coffee"], "sources": ["overture"], "website": "http://www.203degreesfahrenheit.coffee/", "phone": "+14252859382", "address": "11901 NE Village Plaza"}, "geometry": {"type": "Point", "coordinates": [-122.1800613, 47.7125511]}}, {"type": "Feature", "properties": {"id": 4787311978, "name": "Circulations", "category": "artwork", "tags": ["artwork"], "sources": ["osm"]}, "geometry": {"type": "Point", "coordinates": [-122.1862034, 47.7150003]}}, {"type": "Feature", "properties": {"id": "fbe6dda4-62a4-4392-b510-8c255885800b", "name": "The Bower Apartments", "category": "attraction", "tags": ["attraction", "landmark", "historical", "building"], "sources": ["overture"], "website": "https://www.thebowerkirkland.com/", "phone": "+18554612326", "address": "11811 NE 128th St"}, "geometry": {"type": "Point", "coordinates": [-122.183075, 47.7145004]}}, {"type": "Feature", "properties": {"id": "e1edf781-e5cc-41a1-9c4c-3634aa87299e", "name": "Vue Kirkland Apartments", "category": "attraction", "tags": ["attraction", "landmark", "historical", "building"], "sources": ["overture"], "website": "https://www.vuekirkland.com/", "phone": "+14256003702", "address": "11733 NE 131st Pl"}, "geometry": {"type": "Point", "coordinates": [-122.1839218, 47.717514]}}, {"type": "Feature", "properties": {"id": "c5dc631d-c888-431b-a558-c4608e3052be", "name": "Bell Totem Lake Apartments", "category": "attraction", "tags": ["attraction", "landmark", "historical", "building"], "sources": ["overture"], "website": "https://www.belltotemlake.com/", "phone": "+14259902872", "address": "12655 120th Ave NE"}, "geometry": {"type": "Point", "coordinates": [-122.1807098, 47.7133179]}}, {"type": "Feature", "properties": {"id": "d22145d8-d432-44f8-8587-8d35518142a4", "name": "North at Totem Lake", "category": "attraction", "tags": ["attraction", "landmark", "historical", "building"], "sources": ["overture"], "website": "https://www.northattotemlakeapartments.com/?utm_source=socialmedia", "phone": "+18778363013", "address": "12670 120th Ave NE Suite 186, #186"}, "geometry": {"type": "Point", "coordinates": [-122.1805191, 47.7134438]}}, {"type": "Feature", "properties": {"id": 471640242, "name": "Braeburn Community Park", "category": "park", "tags": ["park"], "sources": ["osm"]}, "geometry": {"type": "Point", "coordinates": [-122.1805276, 47.7187731]}}, {"type": "Feature", "properties": {"id": "8b3b530e-4914-42b4-ada4-9fb9a708c29c", "name": "All The Best Pet Care", "category": "pet", "tags": ["pet"], "sources": ["overture"], "website": "https://www.allthebestpetcare.com/", "phone": "+13608636737", "address": "11900 NE Village Plz"}, "geometry": {"type": "Point", "coordinates": [-122.1815567, 47.7126999]}}, {"type": "Feature", "properties": {"id": 1365269616, "name": "Trader Joe's", "category": "supermarket", "tags": ["supermarket"], "sources": ["osm", "overture"], "website": "https://locations.traderjoes.com/wa/kirkland/132/", "phone": "+14258149181", "address": "12520 Totem Lake Blvd NE Suite 116", "hours": "Mo-Su 08:00-21:00"}, "geometry": {"type": "Point", "coordinates": [-122.1805066, 47.7119731]}}, {"type": "Feature", "properties": {"id": 1365269617, "name": "Barnes & Noble", "category": "books", "tags": ["books", "wifi"], "sources": ["osm", "overture"], "website": "http://www.bn.com/", "phone": "+14255874930", "address": "12520 Totem Lake Blvd NE Ste 112", "hours": "Mo-Sa 09:00-21:00; Su 10:00-20:00"}, "geometry": {"type": "Point", "coordinates": [-122.1803975, 47.7117796]}}, {"type": "Feature", "properties": {"id": 1365269615, "name": "Nordstrom Rack", "category": "clothes", "tags": ["clothes"], "sources": ["osm"], "website": "https://stores.nordstromrack.com/us/wa/kirkland/12520-totem-lake-blvd-ne", "phone": "+1-425-202-0205", "address": "12520 Totem Lake Boulevard Northeast", "hours": "Mo-Sa 10:00-21:00; Su 11:00-19:00"}, "geometry": {"type": "Point", "coordinates": [-122.1807945, 47.7120512]}}, {"type": "Feature", "properties": {"id": 1365269622, "name": "T-Mobile", "category": "mobile_phone", "tags": ["mobile-phone"], "sources": ["osm"], "website": "https://www.t-mobile.com/stores/bd/t-mobile-kirkland-wa-98033-976e", "phone": "+1-425-296-9931", "address": "12530 Totem Lake Boulevard Northeast", "hours": "Mo-Sa 10:00-21:00; Su 11:00-19:00"}, "geometry": {"type": "Point", "coordinates": [-122.1818172, 47.7118641]}}, {"type": "Feature", "properties": {"id": 1365269638, "name": "Lululemon", "category": "clothes", "tags": ["clothes", "womens"], "sources": ["osm", "overture"], "website": "https://shop.lululemon.com/stores/us/kirkland/village-at-totem-lake?utm_source=organic&utm_medium=local_listings&utm_campaign=Facebook", "phone": "+14255785396", "address": "11900 NE Village Plz", "hours": "Mo-Sa 10:00-21:00; Su 11:00-19:00"}, "geometry": {"type": "Point", "coordinates": [-122.1805207, 47.7130155]}}, {"type": "Feature", "properties": {"id": "7cec8990-3718-4aad-a266-93c8502b47ca", "name": "ampm", "category": "convenience", "tags": ["convenience"], "sources": ["overture"], "website": "https://www.ampm.com/", "phone": "+14252421026", "address": "11450 NE 124th St"}, "geometry": {"type": "Point", "coordinates": [-122.1870804, 47.7116776]}}, {"type": "Feature", "properties": {"id": "b9a4813e-5bcb-4329-8beb-56e2a2ad6ebb", "name": "Pendleton", "category": "clothes", "tags": ["clothes", "mens"], "sources": ["overture"], "website": "https://www.pendleton-usa.com/", "phone": "+14252420661", "address": "11900 NE Village Plaza Ste 166"}, "geometry": {"type": "Point", "coordinates": [-122.1813583, 47.7125816]}}, {"type": "Feature", "properties": {"id": 1365269619, "name": "Verizon", "category": "mobile_phone", "tags": ["mobile-phone", "mobile"], "sources": ["osm", "overture"], "website": "https://www.verizon.com/stores/details/washington/kirkland/totem-lake-1221622?CMP=soc_m_p_bld_fbk_ot_23_11_dtr", "phone": "+14252020784", "address": "12502 Totem Lake Blvd NE Ste 104", "hours": "Mo-Sa 10:00-20:00; Su 11:00-18:00"}, "geometry": {"type": "Point", "coordinates": [-122.1801917, 47.7107326]}}, {"type": "Feature", "properties": {"id": 1365269581, "name": "Athleta", "category": "clothes", "tags": ["clothes"], "sources": ["osm", "overture"], "website": "https://athleta.gap.com/stores/wa/kirkland/athleta-9496.html", "phone": "+14252427153", "address": "11901 NE Village Plaza Ste 149", "hours": "Mo-Sa 10:00-20:00; Su 11:00-19:00"}, "geometry": {"type": "Point", "coordinates": [-122.1806545, 47.7122155]}}, {"type": "Feature", "properties": {"id": 1365269580, "name": "Evereve", "category": "clothes", "tags": ["clothes", "womens"], "sources": ["osm", "overture"], "website": "https://evereve.com/?utm_source=fb&utm_medium=listings&utm_campaign=yext", "phone": "+14252960002", "address": "11901 NE Village Plaza Ste 153", "hours": "Mo-Sa 10:00-20:00; Su 11:00-18:00"}, "geometry": {"type": "Point", "coordinates": [-122.1805538, 47.7122811]}}, {"type": "Feature", "properties": {"id": 1365269625, "name": "Ulta Beauty", "category": "cosmetics", "tags": ["cosmetics"], "sources": ["osm"], "website": "https://ulta.com/stores/kirkland-wa-1384", "phone": "+1-425-285-7131", "address": "12632 Totem Lake Boulevard Northeast", "hours": "Mo-We 10:00-20:00; Th-Sa 10:00-21:00; Su 11:00-18:00"}, "geometry": {"type": "Point", "coordinates": [-122.1819862, 47.7133968]}}, {"type": "Feature", "properties": {"id": 1365269626, "name": "Ross", "category": "department_store", "tags": ["department-store"], "sources": ["osm"], "website": "https://rossstores.com/", "phone": "+1-425-814-9798", "address": "12632 Totem Lake Boulevard Northeast", "hours": "Mo-Th 09:00-23:30; Fr-Sa 08:30-23:30; Su 09:00-23:00"}, "geometry": {"type": "Point", "coordinates": [-122.1816628, 47.7131645]}}, {"type": "Feature", "properties": {"id": 1365269583, "name": "Bluemercury", "category": "cosmetics", "tags": ["cosmetics"], "sources": ["osm"], "website": "https://bluemercury.com", "phone": "+1-425-256-2800", "address": "11901 Northeast Village Plaza", "hours": "Mo-Sa 10:00-19:00; Su 12:00-18:00"}, "geometry": {"type": "Point", "coordinates": [-122.1809039, 47.7121745]}}, {"type": "Feature", "properties": {"id": 3326288357, "name": "Smoke N Cigar", "category": "tobacco", "tags": ["tobacco"], "sources": ["osm"], "address": "12443 116th Avenue Northeast"}, "geometry": {"type": "Point", "coordinates": [-122.1884413, 47.7117249]}}, {"type": "Feature", "properties": {"id": 3326288967, "name": "Saagar International Food and Grocery", "category": "convenience", "tags": ["convenience", "indian"], "sources": ["osm"], "address": "12445 116th Avenue Northeast"}, "geometry": {"type": "Point", "coordinates": [-122.1882982, 47.711725]}}, {"type": "Feature", "properties": {"id": 3343055261, "name": "Clinicwear", "category": "clothes", "tags": ["clothes"], "sources": ["osm"], "website": "https://clinicwear.com/", "address": "13131 120th Avenue Northeast"}, "geometry": {"type": "Point", "coordinates": [-122.1813038, 47.7181173]}}, {"type": "Feature", "properties": {"id": 161814385, "name": "Evergreen Market", "category": "cannabis", "tags": ["cannabis"], "sources": ["osm"], "website": "https://www.theevergreenmarket.com/kirkland-recreational/", "address": "11438 Northeast 124th Street"}, "geometry": {"type": "Point", "coordinates": [-122.187567, 47.7115237]}}, {"type": "Feature", "properties": {"id": 161814397, "name": "Small Threads", "category": "clothes", "tags": ["clothes", "second-hand"], "sources": ["osm"], "address": "12507 116th Avenue Northeast"}, "geometry": {"type": "Point", "coordinates": [-122.187094, 47.7122172]}}, {"type": "Feature", "properties": {"id": 1365269582, "name": "RION Jewelry", "category": "jewelry", "tags": ["jewelry"], "sources": ["osm", "overture"], "website": "http://rionjewelry.com/", "phone": "4253059344", "address": "11901 NE Village Plaza Ste 147", "hours": "Mo-Sa 10:00-20:00; Su 11:00-18:00"}, "geometry": {"type": "Point", "coordinates": [-122.1807672, 47.7122083]}}, {"type": "Feature", "properties": {"id": 1365269614, "name": "Urban Tread", "category": "shoes", "tags": ["shoes", "shoe"], "sources": ["osm", "overture"], "website": "https://urbantreadcomfortshoes.com/", "phone": "+14253898677", "address": "NE Village Plaza Ste 137", "hours": "Mo-Sa 10:00-20:00; Su 11:00-19:00"}, "geometry": {"type": "Point", "coordinates": [-122.1808602, 47.7120968]}}, {"type": "Feature", "properties": {"id": 1365269628, "name": "All The Best Pet Care - Kirkland", "category": "pet", "tags": ["pet"], "sources": ["osm"], "website": "https://allthebestpetcare.com/", "phone": "+1-360-863-6737", "address": "11900 Northeast Village Plaza", "hours": "Mo-Fr 09:30-19:30; Sa 09:30-19:30; Su 10:00-19:00"}, "geometry": {"type": "Point", "coordinates": [-122.1815811, 47.7128853]}}, {"type": "Feature", "properties": {"id": 1365269634, "name": "Purpose Men and Sincere by Purpose", "category": "clothes", "tags": ["clothes"], "sources": ["osm"], "address": "11900 Northeast Village Plaza"}, "geometry": {"type": "Point", "coordinates": [-122.1811601, 47.7128872]}}, {"type": "Feature", "properties": {"id": "dc248dc1-cff1-4701-9b28-8bd28adb20f8", "name": "Ross Dress for Less", "category": "department_store", "tags": ["department-store", "department"], "sources": ["overture"], "website": "https://www.rossstores.com/", "phone": "+14258149798", "address": "12632 Totem Lake Blvd NE"}, "geometry": {"type": "Point", "coordinates": [-122.1815567, 47.7129822]}}, {"type": "Feature", "properties": {"id": "516e17cb-917e-4c67-a17a-7c5e2bdddf32", "name": "Romax Shoes", "category": "shoes", "tags": ["shoes", "shoe"], "sources": ["overture"], "website": "https://urbantreadcomfortshoes.com/", "phone": "+14258968965", "address": "11901 NE Village Plz"}, "geometry": {"type": "Point", "coordinates": [-122.1818008, 47.7127228]}}, {"type": "Feature", "properties": {"id": "c5fd9f6d-a2b6-4bdd-92eb-1bc53e69161f", "name": "Sprint Store", "category": "mobile_phone", "tags": ["mobile-phone", "mobile"], "sources": ["overture"], "website": "https://www.sprint.com/storefronts/bd/sprint-kirkland-wa-98034-d-106793/", "phone": "(425) 260-0516", "address": "12545 Totem Lake Blvd NE"}, "geometry": {"type": "Point", "coordinates": [-122.1822662, 47.7112617]}}, {"type": "Feature", "properties": {"id": "f2f63ce2-5687-42ba-b22b-275d6b6bca00", "name": "Faherty Seattle", "category": "clothes", "tags": ["clothes"], "sources": ["overture"], "website": "https://stores.fahertybrand.com/wa/seattle/35821191237/", "phone": "2064025229", "address": "2625 NE Village Lane"}, "geometry": {"type": "Point", "coordinates": [-122.1814117, 47.7122688]}}, {"type": "Feature", "properties": {"id": "084db828-6129-4cc8-93a7-81669eab691f", "name": "Bella Brasil Market Plus", "category": "supermarket", "tags": ["supermarket"], "sources": ["overture"], "phone": "14259682011", "address": "12545 116th Ave NE"}, "geometry": {"type": "Point", "coordinates": [-122.1876907, 47.7124405]}}, {"type": "Feature", "properties": {"id": "bb5b1027-2963-41c1-99ce-be1be0b1c01a", "name": "Smoke & Cigar Inc", "category": "tobacco", "tags": ["tobacco"], "sources": ["overture"], "phone": "14258148149", "address": "12443 116th Ave NE"}, "geometry": {"type": "Point", "coordinates": [-122.1883163, 47.7117271]}}, {"type": "Feature", "properties": {"id": "67b83c4a-62ff-4243-a6a1-986d701b0ed0", "name": "An Artful Touch", "category": "art", "tags": ["art", "supply"], "sources": ["overture"], "phone": "14258232336", "address": "12437 116th Ave NE"}, "geometry": {"type": "Point", "coordinates": [-122.1881638, 47.7117195]}}, {"type": "Feature", "properties": {"id": "0ea4d0a7-75aa-43f4-970a-e0f1dd65737a", "name": "Evergreen Market Cannabis Dispensary - Kirkland", "category": "cannabis", "tags": ["cannabis", "clinic"], "sources": ["overture"], "website": "http://theevergreenmarket.com", "phone": "+14252427802", "address": "11438 NE 124th St"}, "geometry": {"type": "Point", "coordinates": [-122.1875839, 47.7114296]}}, {"type": "Feature", "properties": {"id": "6f2c5d8f-95d8-4452-81cc-055e08f2891b", "name": "Warren Jewelers - Kirkland", "category": "jewelry", "tags": ["jewelry"], "sources": ["overture"], "website": "http://www.warrenjewelers.net/", "phone": "4258211444", "address": "12559 116th Ave NE"}, "geometry": {"type": "Point", "coordinates": [-122.1870346, 47.7126617]}}, {"type": "Feature", "properties": {"id": "e03749eb-511b-4e76-a828-747efc181507", "name": "Amazon 4-star", "category": "department_store", "tags": ["department-store", "department"], "sources": ["overture"], "website": "https://www.amazon.com/b/node=23439650011", "phone": "4257394400", "address": "11900 NE Village Plaza, Ste 172"}, "geometry": {"type": "Point", "coordinates": [-122.1814117, 47.7122688]}}, {"type": "Feature", "properties": {"id": 11050161041, "name": "ZoomCare", "category": "clinic", "tags": ["clinic"], "sources": ["osm"]}, "geometry": {"type": "Point", "coordinates": [-122.1831022, 47.7146889]}}, {"type": "Feature", "properties": {"id": 1365269642, "name": "One Medical", "category": "clinic", "tags": ["clinic", "air-conditioned"], "sources": ["osm"], "website": "https://onemedical.com/locations/sea/totem-lake", "phone": "+1-888-663-6331", "address": "12675 120th Avenue Northeast", "hours": "Mo,Th 08:00-18:00; Tu 08:00-16:00; We,Fr 08:00-17:00; Sa-Su off; PH off"}, "geometry": {"type": "Point", "coordinates": [-122.1810181, 47.7133161]}}, {"type": "Feature", "properties": {"id": 3343054746, "name": "Virginia Mason Kirkland Medical Center", "category": "clinic", "tags": ["clinic"], "sources": ["osm"], "website": "https://www.virginiamason.org/kirkland", "address": "11800 Northeast 128th Street"}, "geometry": {"type": "Point", "coordinates": [-122.1839437, 47.7153664]}}, {"type": "Feature", "properties": {"id": 3343055004, "name": "Center for Women's Health at Evergreen", "category": "clinic", "tags": ["clinic"], "sources": ["osm"], "website": "https://www.womenshealthcare.org/", "phone": "+1-425-899-4455", "address": "12910 Totem Lake Boulevard"}, "geometry": {"type": "Point", "coordinates": [-122.1842731, 47.7160009]}}, {"type": "Feature", "properties": {"id": 3343055005, "name": "Pacific Medical Centers - Totem Lake", "category": "clinic", "tags": ["clinic"], "sources": ["osm"], "website": "https://pacificmedicalcenters.org/index.php/where-we-are/totem-lake/", "address": "12910 Totem Lake Boulevard"}, "geometry": {"type": "Point", "coordinates": [-122.1843578, 47.7160776]}}, {"type": "Feature", "properties": {"id": 3343055007, "name": "Totem Lake Physical Therapy", "category": "clinic", "tags": ["clinic"], "sources": ["osm"], "website": "https://www.retptgroup.com/locations/totem-lake-kirkland", "address": "12910 Totem Lake Boulevard"}, "geometry": {"type": "Point", "coordinates": [-122.1844888, 47.7161483]}}, {"type": "Feature", "properties": {"id": 3343055008, "name": "Washington Hand Therapy - Kirkland", "category": "clinic", "tags": ["clinic"], "sources": ["osm"], "website": "http://watherapy.com/locations/washington-hand-therapy-kirkland/", "address": "12910 Totem Lake Boulevard"}, "geometry": {"type": "Point", "coordinates": [-122.184745, 47.7162618]}}, {"type": "Feature", "properties": {"id": 5362759114, "name": "Totem Lake Family Medicine", "category": "clinic", "tags": ["clinic"], "sources": ["osm"], "website": "https://www.everettclinic.com/locations/totem-lake-family-medicine", "address": "11800 Northeast 128th Street", "hours": "Mo-Fr 07:00-18:00; Sa 08:00-12:00"}, "geometry": {"type": "Point", "coordinates": [-122.1839625, 47.7150738]}}, {"type": "Feature", "properties": {"id": 5362759115, "name": "PACLAB at EvergreenHealth Plaza", "category": "clinic", "tags": ["clinic"], "sources": ["osm"], "website": "https://www.paclab.com/", "address": "11800 Northeast 128th Street", "hours": "Mo-Fr 08:00-17:00"}, "geometry": {"type": "Point", "coordinates": [-122.1841676, 47.7151439]}}, {"type": "Feature", "properties": {"id": 11050161037, "name": "EvergreenHealth Urgent Care", "category": "clinic", "tags": ["clinic"], "sources": ["osm"], "hours": "Mo-Fr 09:00-20:00; Sa-Su 09:00-17:00"}, "geometry": {"type": "Point", "coordinates": [-122.183056, 47.7139268]}}, {"type": "Feature", "properties": {"id": 7161482213, "name": "Kirkland Dermatology Associates", "category": "clinic", "tags": ["clinic"], "sources": ["osm"], "website": "http://www.kirklanddermatology.com/", "address": "11800 Northeast 128th Street"}, "geometry": {"type": "Point", "coordinates": [-122.1839459, 47.7151891]}}, {"type": "Feature", "properties": {"id": 11712534274, "name": "EvergreenHealth Home Care Services", "category": "clinic", "tags": ["clinic"], "sources": ["osm"], "website": "https://www.evergreenhealth.com/health-services/home-care/", "address": "11800 Northeast 128th Street"}, "geometry": {"type": "Point", "coordinates": [-122.1842953, 47.7152486]}}, {"type": "Feature", "properties": {"id": 12650767514, "name": "Strother Dermatology Kirkland", "category": "clinic", "tags": ["clinic"], "sources": ["osm"], "address": "Suite G-100 120th Avenue Northeast"}, "geometry": {"type": "Point", "coordinates": [-122.1825804, 47.7160171]}}, {"type": "Feature", "properties": {"id": 138051621, "name": "EvergreenHealth Primary Care, Lakeshore", "category": "clinic", "tags": ["clinic"], "sources": ["osm"], "website": "https://www.lakeshoreclinic.com/", "phone": "+1-425-821-4040", "address": "12710 Totem Lake Boulevard Northeast", "hours": "Mo-Th 08:00-19:00; Fr 08:00-17:00"}, "geometry": {"type": "Point", "coordinates": [-122.183137, 47.7139117]}}, {"type": "Feature", "properties": {"id": "390b405f-bffa-473a-970a-5b4f57be047a", "name": "Health Street", "category": "clinic", "tags": ["clinic", "medical"], "sources": ["overture"], "website": "https://www.cvshealth.com", "phone": "+18883782499", "address": "12911 120th Ave Ne Ste D60"}, "geometry": {"type": "Point", "coordinates": [-122.1820221, 47.7162247]}}, {"type": "Feature", "properties": {"id": "080e77e7-c583-4559-9800-f92fd59ad9d4", "name": "Overlake Hospital Medical Center", "category": "hospital", "tags": ["hospital"], "sources": ["overture"], "website": "http://overlakehospital.org", "phone": "+14258994664", "address": "11821 NE 128th St"}, "geometry": {"type": "Point", "coordinates": [-122.1828537, 47.7146187]}}, {"type": "Feature", "properties": {"id": "7432cdbf-ca66-47c0-bd32-2b6144205524", "name": "Cityscript Pharmacy", "category": "pharmacy", "tags": ["pharmacy"], "sources": ["overture"], "website": "https://www.cityscriptpharmacy.com", "phone": "14256893735", "address": "11402 NE 124th St"}, "geometry": {"type": "Point", "coordinates": [-122.1889877, 47.7115517]}}, {"type": "Feature", "properties": {"id": "6a68a1e0-61e6-41b7-9e7d-e0a8747e75ad", "name": "Evergreenhealth Totem Lake Medical Plaza", "category": "clinic", "tags": ["clinic", "medical"], "sources": ["overture"], "website": "https://www.evergreenhealth.com", "phone": "14258991000", "address": "11521 NE 128th St"}, "geometry": {"type": "Point", "coordinates": [-122.1874161, 47.7143364]}}, {"type": "Feature", "properties": {"id": "7ae65365-793f-4201-87d5-ac23f01aca22", "name": "Evergreen medical", "category": "clinic", "tags": ["clinic", "medical"], "sources": ["overture"], "website": "https://www.evergreenhealth.com/", "phone": "+14258993900", "address": "11800 NE 128th St"}, "geometry": {"type": "Point", "coordinates": [-122.184166, 47.7151756]}}, {"type": "Feature", "properties": {"id": "53f21a31-2964-497d-a966-6874877cf749", "name": "EvergreenHealth Plaza", "category": "clinic", "tags": ["clinic", "medical"], "sources": ["overture"], "website": "http://www.myproortho.com/", "phone": "+14258991000", "address": "12911 120th Ave NE"}, "geometry": {"type": "Point", "coordinates": [-122.1835938, 47.7158623]}}, {"type": "Feature", "properties": {"id": "fa169dea-e2e5-4973-b6fb-567141f8c836", "name": "Revive Low T Clinic", "category": "clinic", "tags": ["clinic", "medical"], "sources": ["overture"], "website": "https://revivelowtclinic.pharmacy/", "phone": "+12069604770", "address": "11911 NE 132nd St Ste 103"}, "geometry": {"type": "Point", "coordinates": [-122.1817856, 47.7180367]}}, {"type": "Feature", "properties": {"id": "8f33a964-35f8-4068-a214-62812202ce65", "name": "Kirkland Compounding Pharmacy", "category": "pharmacy", "tags": ["pharmacy"], "sources": ["overture"], "website": "https://www.kirklandcompounding.com", "phone": "14259475151", "address": "12911 120th Ave Ne  Ste F260"}, "geometry": {"type": "Point", "coordinates": [-122.1820221, 47.7162247]}}, {"type": "Feature", "properties": {"id": 847026697, "name": "KeyBank", "category": "bank", "tags": ["bank", "drive-through", "wifi", "credit", "union"], "sources": ["osm", "overture"], "website": "https://www.key.com/locations/WA/Kirkland/BRCH47310092/12604-Totem-Lake-Blvd-Ne?ppc=cmpyxt", "phone": "+14258232774", "address": "12604 Totem Lake Blvd NE", "hours": "Mo-Th 09:00-17:00; Fr 09:00-18:00; Sa 10:00-13:30; Su off"}, "geometry": {"type": "Point", "coordinates": [-122.1822226, 47.7122609]}}, {"type": "Feature", "properties": {"id": 3326287933, "name": "The UPS Store", "category": "post_office", "tags": ["post-office"], "sources": ["osm"], "website": "https://kirkland-wa-0158.theupsstorelocal.com/", "address": "11410 Northeast 124th Street"}, "geometry": {"type": "Point", "coordinates": [-122.1886963, 47.7115616]}}, {"type": "Feature", "properties": {"id": 558164749, "name": "Wells Fargo", "category": "bank", "tags": ["bank", "drive-through", "credit", "union"], "sources": ["osm", "overture"], "website": "https://www.wellsfargo.com/locator/bank/12516__TOTEM__LAKE__BLVD__NE__BLDG__L_KIRKLAND_WA_98034/?group=Community_Bank&loc=WF01714", "phone": "+14259474000", "address": "12516 Totem Lake Blvd Ne Bldg L", "hours": "Mo-Fr 09:00-17:00; Sa-Su off"}, "geometry": {"type": "Point", "coordinates": [-122.1807861, 47.711366]}}, {"type": "Feature", "properties": {"id": 3326287940, "name": "BECU", "category": "bank", "tags": ["bank"], "sources": ["osm"], "address": "11416 Northeast 124th Street", "hours": "Mo-Fr 09:00-18:00; Sa 09:00-13:00"}, "geometry": {"type": "Point", "coordinates": [-122.1884083, 47.7115618]}}, {"type": "Feature", "properties": {"id": 6833712161, "name": "HSBC", "category": "bank", "tags": ["bank"], "sources": ["osm"]}, "geometry": {"type": "Point", "coordinates": [-122.1809957, 47.7121594]}}, {"type": "Feature", "properties": {"id": 1365269644, "name": "Pure Barre", "category": "fitness_centre", "tags": ["fitness-centre", "barre", "pilates", "studio"], "sources": ["osm", "overture"], "website": "https://www.purebarre.com/location/kirkland-wa", "phone": "+14255224890", "address": "12675 120th Ave NE Ste 197"}, "geometry": {"type": "Point", "coordinates": [-122.1810693, 47.7135235]}}, {"type": "Feature", "properties": {"id": "b6ecccbb-ad99-4570-ac54-09eb97c9967b", "name": "StretchLab", "category": "fitness_centre", "tags": ["fitness-centre", "fitness", "trainer"], "sources": ["overture"], "website": "https://www.stretchlab.com/location/kirkland", "phone": "+14258006205", "address": "11316 NE 124th St"}, "geometry": {"type": "Point", "coordinates": [-122.1898346, 47.7115669]}}, {"type": "Feature", "properties": {"id": "01772ad9-24f0-44d7-afe3-8ed43cd31f75", "name": "Mayweather Boxing + Fitness", "category": "fitness_centre", "tags": ["fitness-centre", "gym"], "sources": ["overture"], "website": "https://www.mayweather.fit/chicago-river-north", "phone": "14255313896", "address": "12655 120th Ave Ne  # 199"}, "geometry": {"type": "Point", "coordinates": [-122.1810837, 47.7130623]}}, {"type": "Feature", "properties": {"id": 1365269537, "name": "Solidcore", "category": "fitness_centre", "tags": ["fitness-centre", "pilates", "studio"], "sources": ["osm", "overture"], "website": "https://www.solidcore.co/wa/seattle/totem-lake/", "phone": "+12065906562", "address": "12670 120th Ave NE Suite 182", "hours": "05:30-19:00"}, "geometry": {"type": "Point", "coordinates": [-122.1804416, 47.713572]}}, {"type": "Feature", "properties": {"id": "cf733cd3-e96a-408e-97b4-425a8164a6d3", "name": "Balance Within Pilates", "category": "fitness_centre", "tags": ["fitness-centre", "pilates", "studio"], "sources": ["overture"], "website": "http://www.balancewithinpilates.com", "phone": "(425) 821-9500", "address": "11821 NE 128th St"}, "geometry": {"type": "Point", "coordinates": [-122.1829071, 47.7145157]}}]}