{"type": "FeatureCollection", "features": [{"type": "Feature", "properties": {"id": 2086197765, "name": "Subway", "category": "fast_food", "tags": ["fast-food", "sandwich", "takeaway", "restaurant"], "sources": ["osm", "overture"], "website": "https://www.subway.com", "phone": "12069858404", "address": "7347 35th Ave NE", "hours": "08:00-21:00"}, "geometry": {"type": "Point", "coordinates": [-122.290871, 47.6829019]}}, {"type": "Feature", "properties": {"id": 1734782304, "name": "Starbucks", "category": "cafe", "tags": ["cafe", "coffee-shop", "takeaway", "wheelchair-accessible", "vegetarian", "air-conditioned", "coffee"], "sources": ["osm", "overture"], "website": "https://www.starbucks.com/store-locator/store/9552/", "phone": "+12065172877", "address": "7303 35th Ave Ne", "hours": "Fr 04:30-20:00; Sa,Su 05:00-19:30; Mo-Th 04:30-21:00"}, "geometry": {"type": "Point", "coordinates": [-122.290647, 47.6814027]}}, {"type": "Feature", "properties": {"id": 1564254574, "name": "Van Gogh Coffeehouse", "category": "cafe", "tags": ["cafe", "coffee-shop", "outdoor-seating", "indoor-seating", "coffee"], "sources": ["osm", "overture"], "website": "http://www.vangoghcoffeehouse.com", "phone": "+12065231466", "address": "8210 35th Ave NE", "hours": "Mo-Fr 06:00-17:00; Sa,Su 07:00-17:00"}, "geometry": {"type": "Point", "coordinates": [-122.2901952, 47.6889264]}}, {"type": "Feature", "properties": {"id": 1564280658, "name": "Wedgwood Broiler", "category": "restaurant", "tags": ["restaurant", "steak-house", "outdoor-seating", "indoor-seating", "steakhouse", "american"], "sources": ["osm", "overture"], "website": "http://wedgwoodbroiler.com/", "phone": "+12065231115", "address": "8230 35th Ave NE"}, "geometry": {"type": "Point", "coordinates": [-122.2901818, 47.6893232]}}, {"type": "Feature", "properties": {"id": 13272385901, "name": "AnNamPho", "category": "restaurant", "tags": ["restaurant", "vietnamese"], "sources": ["osm"], "phone": "+1-206-644-7855", "address": "7520 35th Avenue Northeast", "hours": "Tu-Su 11:00-21:00"}, "geometry": {"type": "Point", "coordinates": [-122.2902072, 47.6837434]}}, {"type": "Feature", "properties": {"id": 2463987718, "name": "Sophie's Tacos", "category": "fast_food", "tags": ["fast-food", "mexican", "indoor-seating", "takeaway", "delivery", "restaurant", "taco"], "sources": ["osm", "overture"], "website": "http://www.sophiestacos.com", "phone": "(206) 420-2579", "address": "7500 35th Ave NE", "hours": "Mo-Sa 11:00-20:30"}, "geometry": {"type": "Point", "coordinates": [-122.290253, 47.6831682]}}, {"type": "Feature", "properties": {"id": 3247340061, "name": "Not Just Fish & Chips", "category": "fast_food", "tags": ["fast-food", "fish-and-chips"], "sources": ["osm"], "address": "7347 35th Avenue Northeast"}, "geometry": {"type": "Point", "coordinates": [-122.290868, 47.6828358]}}, {"type": "Feature", "properties": {"id": 3247340062, "name": "Akebono Japanese Cuisine", "category": "restaurant", "tags": ["restaurant", "japanese", "vegetarian", "asian"], "sources": ["osm", "overture"], "website": "instagram.com/akebono_seattle", "phone": "+12064135494", "address": "7347 35th Ave NE Ste A"}, "geometry": {"type": "Point", "coordinates": [-122.290682, 47.6826859]}}, {"type": "Feature", "properties": {"id": 220820935, "name": "Veraci Pizza - Wedgwood", "category": "restaurant", "tags": ["restaurant", "pizza", "pasta", "italian"], "sources": ["osm", "overture"], "website": "http://www.veracipizza.com/seattle/seattle-locations", "phone": "+12064525013", "address": "7320 35th Ave NE", "hours": "Mo-Su 11:00-21:00"}, "geometry": {"type": "Point", "coordinates": [-122.2901485, 47.6819067]}}, {"type": "Feature", "properties": {"id": "7e9e26cf-8896-444c-a6a5-46569148f742", "name": "Grand Central Bakery", "category": "bakery", "tags": ["bakery"], "sources": ["overture"], "website": "https://www.grandcentralbakery.com/wedgwood", "phone": "+12065822311", "address": "7501 35th Ave NE"}, "geometry": {"type": "Point", "coordinates": [-122.2906494, 47.6832237]}}, {"type": "Feature", "properties": {"id": "b42b1be2-1516-4e3d-b2a7-c6efb4c03ce8", "name": "Chopsticks Cuisine", "category": "restaurant", "tags": ["restaurant", "asian", "pan", "soup"], "sources": ["overture"], "website": "https://www.chopstickscuisineseattlewa.com/?utm_source=bing&utm_medium=websiteurl&utm_campaign=search", "phone": "2068298933", "address": "7347 35th Ave NE"}, "geometry": {"type": "Point", "coordinates": [-122.2909088, 47.6827431]}}, {"type": "Feature", "properties": {"id": "ec85e27e-696f-43b1-bc5c-7675e715bb75", "name": "Not Just Fish and Chips", "category": "restaurant", "tags": ["restaurant", "seafood", "fish-and-chips"], "sources": ["overture"], "website": "http://notjustfishandchips.com/", "phone": "+12067295264", "address": "7347 35th Ave NE"}, "geometry": {"type": "Point", "coordinates": [-122.290863, 47.6827888]}}, {"type": "Feature", "properties": {"id": "4a3c18e7-bd9b-40c1-9def-2587f70c4bff", "name": "Black Pearl", "category": "restaurant", "tags": ["restaurant", "chinese"], "sources": ["overture"], "website": "http://www.blackpearlchinesecuisine.com", "phone": "(206) 526-5115", "address": "7347 35th Ave NE"}, "geometry": {"type": "Point", "coordinates": [-122.2908325, 47.6827087]}}, {"type": "Feature", "properties": {"id": "3b8b800d-f1b8-4c01-bb1f-a2295fea1eba", "name": "Blue Plate Express", "category": "restaurant", "tags": ["restaurant"], "sources": ["overture"], "website": "http://blueplateinnovations.com/", "phone": "(206) 525-2511", "address": "7347 35th Ave NE"}, "geometry": {"type": "Point", "coordinates": [-122.2908325, 47.6827087]}}, {"type": "Feature", "properties": {"id": "9a72af1c-a63c-4444-9352-4ed059228121", "name": "Thai of Wedgwood", "category": "restaurant", "tags": ["restaurant", "thai"], "sources": ["overture"], "website": "http://thaiofwedgwood.com/", "phone": "2065286165", "address": "7520 35th Ave NE Ste 3"}, "geometry": {"type": "Point", "coordinates": [-122.290184, 47.6837425]}}, {"type": "Feature", "properties": {"id": "9a380be6-5a97-4a93-b496-0022d7e9e7fb", "name": "Jobain Inc", "category": "restaurant", "tags": ["restaurant"], "sources": ["overture"], "website": "https://wedgwoodbroiler.com", "address": "8230 35th Ave NE"}, "geometry": {"type": "Point", "coordinates": [-122.290184, 47.6893082]}}, {"type": "Feature", "properties": {"id": "385d3310-9e81-48bc-bf9f-9ce8f4602594", "name": "Wedgwood Rock", "category": "attraction", "tags": ["attraction", "landmark", "historical", "building"], "sources": ["overture"], "website": "http://www.scn.org/wcc", "address": "7200 28th Ave NE"}, "geometry": {"type": "Point", "coordinates": [-122.2974777, 47.6807365]}}, {"type": "Feature", "properties": {"id": 51809162, "name": "Waldo J. Dahl Park", "category": "park", "tags": ["park"], "sources": ["osm"], "website": "https://www.seattle.gov/parks/allparks/dahl-playfield", "hours": "Mo-Su 04:00-23:30"}, "geometry": {"type": "Point", "coordinates": [-122.2993151, 47.685279]}}, {"type": "Feature", "properties": {"id": 419546359, "name": "Wedgwood Square", "category": "park", "tags": ["park"], "sources": ["osm"], "website": "https://www.seattle.gov/parks/allparks/wedgwood-square", "address": "8126 31st Avenue Northeast"}, "geometry": {"type": "Point", "coordinates": [-122.2947582, 47.6882136]}}, {"type": "Feature", "properties": {"id": 914279548, "name": "Wedgwood Demonstration Garden", "category": "garden", "tags": ["garden"], "sources": ["osm"]}, "geometry": {"type": "Point", "coordinates": [-122.2999291, 47.6883106]}}, {"type": "Feature", "properties": {"id": "ce889934-a9ce-425c-ad68-6b4ef0e9b060", "name": "Dahl Playfield", "category": "park", "tags": ["park"], "sources": ["overture"], "website": "http://www.seattle.gov/parks/park_detail.asp?id=499", "phone": "+12066844075", "address": "7700 25th Ave NE"}, "geometry": {"type": "Point", "coordinates": [-122.2996674, 47.6852112]}}, {"type": "Feature", "properties": {"id": "f68f97fd-0246-4902-8d42-0c57bddc0f14", "name": "QFC", "category": "supermarket", "tags": ["supermarket"], "sources": ["overture"], "website": "https://www.qfc.com", "phone": "(206) 523-5847", "address": "8400 35th Ave NE"}, "geometry": {"type": "Point", "coordinates": [-122.2904053, 47.6898994]}}, {"type": "Feature", "properties": {"id": 220821049, "name": "Food Mart", "category": "convenience", "tags": ["convenience"], "sources": ["osm"]}, "geometry": {"type": "Point", "coordinates": [-122.2900935, 47.6817177]}}, {"type": "Feature", "properties": {"id": 3247339462, "name": "JDM Smoke Shop", "category": "tobacco", "tags": ["tobacco"], "sources": ["osm"], "address": "7347 35th Avenue Northeast"}, "geometry": {"type": "Point", "coordinates": [-122.2908639, 47.6827837]}}, {"type": "Feature", "properties": {"id": 5129214036, "name": "(mend)bicycles", "category": "bicycle", "tags": ["bicycle"], "sources": ["osm"], "website": "https://www.mendbicycles.com/", "phone": "+1-206-787-0670", "address": "7500 1/2 35th Avenue Northeast", "hours": "Mo, We-Sa 10:00-18:00; Su 12:00-17:00"}, "geometry": {"type": "Point", "coordinates": [-122.2902007, 47.6832071]}}, {"type": "Feature", "properties": {"id": 8258789526, "name": "The Nature Shop", "category": "books", "tags": ["books"], "sources": ["osm"], "website": "https://seattleaudubon.org/thenatureshop", "address": "8050 35th Avenue Northeast"}, "geometry": {"type": "Point", "coordinates": [-122.2903752, 47.6882342]}}, {"type": "Feature", "properties": {"id": 221145066, "name": "Discount TopLot", "category": "variety_store", "tags": ["variety-store", "discount"], "sources": ["osm", "overture"], "website": "https://discounttoplot.com/home.html", "phone": "+16198000140", "address": "8400 35th Ave NE", "hours": "Mo-Su 06:00-23:00"}, "geometry": {"type": "Point", "coordinates": [-122.2900859, 47.6897545]}}, {"type": "Feature", "properties": {"id": "6f279930-67a2-47fa-8012-54518371bc23", "name": "Seattle Audubon And Nature Shop", "category": "books", "tags": ["books"], "sources": ["overture"], "website": "https://www.birdsconnectsea.org", "phone": "+12065234483", "address": "8050 35th Ave NE"}, "geometry": {"type": "Point", "coordinates": [-122.2902832, 47.6882248]}}, {"type": "Feature", "properties": {"id": "1cfb93ef-52ba-43c1-9412-072d33bf074a", "name": "Soleya Scrubs", "category": "clothes", "tags": ["clothes"], "sources": ["overture"], "website": "http://SoleyaScrubs.com/", "phone": "+12066595940", "address": "7724 35th Ave NE"}, "geometry": {"type": "Point", "coordinates": [-122.2901001, 47.685482]}}, {"type": "Feature", "properties": {"id": 221145069, "name": "Bank of America", "category": "bank", "tags": ["bank"], "sources": ["osm"], "website": "https://locators.bankofamerica.com/wa/seattle/financial-centers-seattle-11241.html", "address": "8405 35th Avenue Northeast", "hours": "Mo-Fr 10:00-16:00"}, "geometry": {"type": "Point", "coordinates": [-122.2911156, 47.6897867]}}, {"type": "Feature", "properties": {"id": 2462327428, "name": "KeyBank", "category": "bank", "tags": ["bank"], "sources": ["osm"], "address": "7307 35th Avenue Northeast"}, "geometry": {"type": "Point", "coordinates": [-122.290649, 47.6815622]}}, {"type": "Feature", "properties": {"id": 221140250, "name": "Chase", "category": "bank", "tags": ["bank"], "sources": ["osm"], "website": "https://locator.chase.com/wa/seattle/7512-35th-ave-ne", "phone": "+1-206-461-4676", "address": "7512 35th Avenue Northeast", "hours": "Mo-Fr 09:00-17:00; Sa-Su closed"}, "geometry": {"type": "Point", "coordinates": [-122.2901574, 47.6834571]}}, {"type": "Feature", "properties": {"id": 1564279475, "name": "HomeStreet Bank", "category": "bank", "tags": ["bank", "credit", "union"], "sources": ["osm", "overture"], "website": "https://www.homestreet.com/branches/wedgwood-branch", "phone": "+12065252840", "address": "8200 35th Ave NE", "hours": "Mo-Th 09:00-17:00; Fr 09:00-18:00"}, "geometry": {"type": "Point", "coordinates": [-122.2901924, 47.6887167]}}, {"type": "Feature", "properties": {"id": 158788697, "name": "United States Post Office", "category": "post_office", "tags": ["post-office"], "sources": ["osm"], "address": "7724 35th Avenue Northeast"}, "geometry": {"type": "Point", "coordinates": [-122.290115, 47.6854807]}}, {"type": "Feature", "properties": {"id": "27a70af3-f7ac-4a39-ab6a-4152a0f1f5b9", "name": "United States Postal Service", "category": "post_office", "tags": ["post-office", "office"], "sources": ["overture"], "website": "https://tools.usps.com/find-location.htm?location=1386803", "phone": "+18002758777", "address": "7724 35th Ave NE"}, "geometry": {"type": "Point", "coordinates": [-122.2902756, 47.6855354]}}, {"type": "Feature", "properties": {"id": "fe2c4b57-247a-48f7-a751-bb1337311fbd", "name": "Bank of America ATM", "category": "bank", "tags": ["bank", "credit", "union"], "sources": ["overture"], "website": "https://locators.bankofamerica.com/wa/seattle/financial-centers-seattle-11241.html", "phone": "8444018500", "address": "8405 35th Ave NE"}, "geometry": {"type": "Point", "coordinates": [-122.2907333, 47.689827]}}, {"type": "Feature", "properties": {"id": "38bcac09-0fbf-4d7d-b29e-99e0ec1da2b1", "name": "Chase Bank", "category": "bank", "tags": ["bank", "credit", "union"], "sources": ["overture"], "website": "https://www.chase.com/locator/banking/us/wa/seattle/7512-35th-ave-ne", "phone": "+12064614676", "address": "7512 35th Ave NE"}, "geometry": {"type": "Point", "coordinates": [-122.2902374, 47.6835213]}}, {"type": "Feature", "properties": {"id": 2462327455, "name": "Orangetheory Fitness", "category": "fitness_centre", "tags": ["fitness-centre", "gym"], "sources": ["osm", "overture"], "website": "https://www.orangetheory.com/en-us/locations/seattle-washington-0584?utm_medium=seo&utm_source=fb&utm_term=corporate&utm_campaign=soci", "phone": "+12063300502", "address": "7317 35th Ave NE"}, "geometry": {"type": "Point", "coordinates": [-122.290649, 47.681778]}}, {"type": "Feature", "properties": {"id": 221139927, "name": "Wedgwood Swim Club", "category": "sports_centre", "tags": ["sports-centre", "swimming", "swimming-pool"], "sources": ["osm"], "website": "http://www.wwpool.org/", "address": "7727 28th Avenue Northeast"}, "geometry": {"type": "Point", "coordinates": [-122.2977756, 47.6855172]}}, {"type": "Feature", "properties": {"id": "a1371f52-dbbe-435c-a489-402f3cce63aa", "name": "8 Limbs Yoga Centers - Wedgwood", "category": "fitness_centre", "tags": ["fitness-centre", "yoga", "studio"], "sources": ["overture"], "address": "7345 35th Ave NE"}, "geometry": {"type": "Point", "coordinates": [-122.2907104, 47.6825333]}}]}