{"type": "FeatureCollection", "features": [{"type": "Feature", "properties": {"id": "28c6bba8-9824-4fc9-aff4-627bfdb074f7", "name": "Moklava", "category": "bakery", "tags": ["bakery"], "sources": ["overture"], "website": "http://moklava.com/", "phone": "+12064303801", "address": "13216 97th Ave NE"}, "geometry": {"type": "Point", "coordinates": [-122.2111359, 47.7191772]}}, {"type": "Feature", "properties": {"id": "5df0e7aa-c380-4f51-a32d-0dfb921074cd", "name": "Bridlewood Apartments", "category": "attraction", "tags": ["attraction", "landmark", "historical", "building"], "sources": ["overture"], "website": "https://www.bridlewoodapartmenthomes.com/", "phone": "+18445267925", "address": "13210 97th Ave NE"}, "geometry": {"type": "Point", "coordinates": [-122.2113876, 47.7192192]}}, {"type": "Feature", "properties": {"id": "17417f00-785b-4067-add9-0b88ab87f842", "name": "Edible Arrangements", "category": "gift", "tags": ["gift"], "sources": ["overture"], "website": "https://www.ediblearrangements.com/stores/9745-ne-119th-way-kirkland-wa-98034", "address": "9745 NE 119th Way"}, "geometry": {"type": "Point", "coordinates": [-122.21064, 47.7151871]}}, {"type": "Feature", "properties": {"id": "3147a5a5-633f-4762-acec-8717a7580176", "name": "Rite Aid", "category": "convenience", "tags": ["convenience"], "sources": ["overture"], "phone": "4258234466", "address": "9820 NE 132nd St"}, "geometry": {"type": "Point", "coordinates": [-122.2100449, 47.7184868]}}]}