{"type": "FeatureCollection", "features": [{"type": "Feature", "properties": {"id": "708799c7-bc9c-4c35-ad02-1c69620f9968", "name": "Allstars Demolition", "category": "doityourself", "tags": ["doityourself", "building", "supply"], "sources": ["overture"], "website": "http://www.allstarsdemolitionllc.com", "phone": "(206) 261-7504", "address": "11813 Beacon Ave S"}, "geometry": {"type": "Point", "coordinates": [-122.2619247, 47.4970207]}}, {"type": "Feature", "properties": {"id": "5528373e-86a2-4256-87d6-26c6f8db507f", "name": "Isabel Health Care Services", "category": "hospital", "tags": ["hospital"], "sources": ["overture"], "phone": "+12067227876", "address": "11723 Luther Ave S"}, "geometry": {"type": "Point", "coordinates": [-122.2621613, 47.4981689]}}]}