{"type": "FeatureCollection", "features": [{"type": "Feature", "properties": {"id": 116217636, "name": "Jay Berry's Cafe", "category": "cafe", "tags": ["cafe", "american"], "sources": ["osm", "overture"], "website": "http://www.jayberryscafe.com/", "phone": "+14252711817", "address": "16341 SE Renton-Issaquah Rd"}, "geometry": {"type": "Point", "coordinates": [-122.1223731, 47.500361]}}, {"type": "Feature", "properties": {"id": 779119776, "name": "Pink Devil Espresso", "category": "cafe", "tags": ["cafe", "coffee-shop", "drive-through"], "sources": ["osm"], "address": "16300 Southeast Renton Issaquah Road", "hours": "Mo-Fr 04:00-20:00; Sa 05:00-19:00; Su 06:00-18:00; PH off"}, "geometry": {"type": "Point", "coordinates": [-122.1226976, 47.5008001]}}, {"type": "Feature", "properties": {"id": "1d2d1fdc-cba1-477f-972e-85dab145d956", "name": "Krispy Krunchy Chicken", "category": "restaurant", "tags": ["restaurant", "chicken"], "sources": ["overture"], "website": "https://locations.krispykrunchy.com/wa/renton/16300-se-renton-issaquah-rd", "phone": "4252283518", "address": "16300 SE Renton Issaquah Rd"}, "geometry": {"type": "Point", "coordinates": [-122.1231613, 47.5009766]}}, {"type": "Feature", "properties": {"id": "ac3318b9-5095-47cf-8681-9354d8e6bb1d", "name": "Cedar River Espresso", "category": "cafe", "tags": ["cafe", "coffee"], "sources": ["overture"], "website": "http://www.cedarriverespresso.com", "address": "16400 SE Renton Issaquah Rd"}, "geometry": {"type": "Point", "coordinates": [-122.1231155, 47.500927]}}, {"type": "Feature", "properties": {"id": "11422bc2-5390-44e4-91c5-05c7e0e6090b", "name": "Brew La La Espresso", "category": "restaurant", "tags": ["restaurant"], "sources": ["overture"], "address": "16300 SE Renton Issaquah Rd"}, "geometry": {"type": "Point", "coordinates": [-122.1231995, 47.5008888]}}, {"type": "Feature", "properties": {"id": "b96b8d22-fd5b-425f-8b54-617018d91a78", "name": "Tacos Don Riky", "category": "restaurant", "tags": ["restaurant", "mexican", "salvadoran", "latin-american"], "sources": ["overture"], "website": "https://tacos-don-riky.negocio.site", "phone": "+14257610747", "address": "16300 Renton Issaquah Rd SE"}, "geometry": {"type": "Point", "coordinates": [-122.1231995, 47.5009422]}}, {"type": "Feature", "properties": {"id": 654106241, "name": "Food Mart", "category": "convenience", "tags": ["convenience"], "sources": ["osm"], "address": "16300 Southeast Renton Issaquah Road"}, "geometry": {"type": "Point", "coordinates": [-122.1231612, 47.5009681]}}]}