{"type": "FeatureCollection", "features": [{"type": "Feature", "properties": {"id": 638962426, "name": "Taco Time", "category": "fast_food", "tags": ["fast-food", "mexican", "takeaway", "vegetarian", "fast", "food", "taco"], "sources": ["osm", "overture"], "website": "https://order.tacotimenw.com/menu/kent-east-hill", "phone": "+12538508898", "address": "25649 104th Ave SE"}, "geometry": {"type": "Point", "coordinates": [-122.202703, 47.3711324]}}, {"type": "Feature", "properties": {"id": 3620483096, "name": "Subway", "category": "fast_food", "tags": ["fast-food", "sandwich", "takeaway", "restaurant"], "sources": ["osm", "overture"], "website": "https://www.subway.com", "phone": "12538544588", "address": "25625 104th Ave SE", "hours": "08:00-21:00"}, "geometry": {"type": "Point", "coordinates": [-122.2031537, 47.3714628]}}, {"type": "Feature", "properties": {"id": 3618235834, "name": "Starbucks", "category": "cafe", "tags": ["cafe", "coffee-shop", "outdoor-seating", "takeaway", "wifi", "coffee"], "sources": ["osm", "overture"], "website": "https://www.starbucks.com/store-locator/store/8529/", "phone": "+12538543202", "address": "10234 SE 256th St"}, "geometry": {"type": "Point", "coordinates": [-122.2044623, 47.3727263]}}, {"type": "Feature", "properties": {"id": 396483074, "name": "McDonald's", "category": "fast_food", "tags": ["fast-food", "burger", "takeaway", "drive-through", "wifi", "fast", "food", "american"], "sources": ["osm", "overture"], "website": "https://www.mcdonalds.com/us/en-us/location/wa/kent/10125-se-256th-st/2609.html?cid=RF%3AYXT%3ARoN%3A%3AClicks%3Fcid%3DRF%3AYXT%3AFB%3A%3AClicks", "phone": "+12538525810", "address": "10125 Se 256th St"}, "geometry": {"type": "Point", "coordinates": [-122.2051373, 47.3720055]}}, {"type": "Feature", "properties": {"id": 3620551197, "name": "Himitsu Teriyaki", "category": "restaurant", "tags": ["restaurant", "asian", "japanese"], "sources": ["osm", "overture"], "website": "https://gfteriyaki.com/info", "phone": "+12535206601", "address": "10216 SE 256 St #110"}, "geometry": {"type": "Point", "coordinates": [-122.2037516, 47.3731248]}}, {"type": "Feature", "properties": {"id": "b0703e02-8ae8-4004-8439-4a60e87a5c56", "name": "Manna Teriyaki", "category": "restaurant", "tags": ["restaurant"], "sources": ["overture"], "website": "https://www.order.online", "phone": "2535200712", "address": "10225 SE 256th St"}, "geometry": {"type": "Point", "coordinates": [-122.2041321, 47.3722343]}}, {"type": "Feature", "properties": {"id": 638962441, "name": "Papa Murphy's", "category": "fast_food", "tags": ["fast-food", "pizza", "takeaway"], "sources": ["osm"], "address": "10429 Southeast Kent Kangley Road"}, "geometry": {"type": "Point", "coordinates": [-122.2003806, 47.3717951]}}, {"type": "Feature", "properties": {"id": 4816919423, "name": "Baskin-Robbins", "category": "ice_cream", "tags": ["ice-cream"], "sources": ["osm"], "website": "https://locations.baskinrobbins.com/wa/kent/25620-102nd-place-se-340049-br", "phone": "+1-253-246-8958", "address": "25620 102nd Place Southeast", "hours": "Mo-Fr 11:00-21:00; Sa-Su 12:00-21:00"}, "geometry": {"type": "Point", "coordinates": [-122.2042273, 47.371934]}}, {"type": "Feature", "properties": {"id": 638961946, "name": "Burger King", "category": "fast_food", "tags": ["fast-food", "burger", "takeaway", "drive-through", "wifi", "restaurant", "american"], "sources": ["osm", "overture"], "website": "https://burgerking.com/store-locator/store/3949", "phone": "+12538543949", "address": "25240 104 Avenue, S. E.", "hours": "08:00-21:00"}, "geometry": {"type": "Point", "coordinates": [-122.2019516, 47.3750089]}}, {"type": "Feature", "properties": {"id": 396483301, "name": "Red Robin", "category": "restaurant", "tags": ["restaurant", "burger", "outdoor-seating", "indoor-seating", "wheelchair-accessible", "vegetarian", "air-conditioned"], "sources": ["osm"], "address": "25207 104th Avenue Southeast", "hours": "Su-Th 11:00-22:00; Fr,Sa 11:00-23:00"}, "geometry": {"type": "Point", "coordinates": [-122.2028143, 47.3759676]}}, {"type": "Feature", "properties": {"id": 4760075925, "name": "Happy Lemon", "category": "cafe", "tags": ["cafe", "bubble-tea", "takeaway"], "sources": ["osm"]}, "geometry": {"type": "Point", "coordinates": [-122.204032, 47.3731226]}}, {"type": "Feature", "properties": {"id": 4802609121, "name": "Ezell's Chicken", "category": "fast_food", "tags": ["fast-food", "chicken", "takeaway"], "sources": ["osm"], "phone": "+1-253-854-4535", "address": "25616 102nd Place Southeast", "hours": "Su-Th 10:30-21:00; Fr-Sa 10:30-23:00"}, "geometry": {"type": "Point", "coordinates": [-122.204212, 47.3720165]}}, {"type": "Feature", "properties": {"id": 3620469189, "name": "Chuck E. Cheese", "category": "restaurant", "tags": ["restaurant", "pizza"], "sources": ["osm"]}, "geometry": {"type": "Point", "coordinates": [-122.20332, 47.370663]}}, {"type": "Feature", "properties": {"id": 3620469192, "name": "Kings Teriyaki", "category": "restaurant", "tags": ["restaurant", "asian", "fusion"], "sources": ["osm", "overture"], "website": "https://www.kingsteriyaki.com/?utm_source=bing&utm_medium=websiteurl&utm_campaign=search", "phone": "2538503112", "address": "25803 104th Ave SE"}, "geometry": {"type": "Point", "coordinates": [-122.2033608, 47.3710977]}}, {"type": "Feature", "properties": {"id": 3620551201, "name": "Herfy's", "category": "fast_food", "tags": ["fast-food", "burger"], "sources": ["osm"], "address": "25866;25666 104th Avenue Southeast", "hours": "Mo-Sa 10:30-20:30"}, "geometry": {"type": "Point", "coordinates": [-122.2018211, 47.3708992]}}, {"type": "Feature", "properties": {"id": 3620551208, "name": "California Monster Sushi & Rolls", "category": "restaurant", "tags": ["restaurant", "sushi", "asian"], "sources": ["osm"], "address": "25620 104th Avenue Southeast"}, "geometry": {"type": "Point", "coordinates": [-122.2008029, 47.3717361]}}, {"type": "Feature", "properties": {"id": "6ec3ed01-b0d4-4e2e-927b-c5fc36fe0f63", "name": "Herfy's Burgers", "category": "restaurant", "tags": ["restaurant", "burger", "fast-food"], "sources": ["overture"], "website": "https://www.groupon.com/biz/kent-wa/herfys-burger", "phone": "+12538593292", "address": "25666 104th Ave SE"}, "geometry": {"type": "Point", "coordinates": [-122.2017593, 47.3708611]}}, {"type": "Feature", "properties": {"id": 396483089, "name": "Ivar's Seafood Bar", "category": "restaurant", "tags": ["restaurant", "seafood", "outdoor-seating", "indoor-seating", "wheelchair-accessible", "american"], "sources": ["osm", "overture"], "website": "https://www.ivars.com/kent-seafood-bar", "phone": "+12538544334", "address": "25405 104th Ave SE", "hours": "Su-Th 11:00-21:00; Fr,Sa 11:00-22:00"}, "geometry": {"type": "Point", "coordinates": [-122.2028848, 47.374499]}}, {"type": "Feature", "properties": {"id": "63dc04e4-75c0-4fce-8087-026864374670", "name": "Teriyaki Time", "category": "restaurant", "tags": ["restaurant", "sushi"], "sources": ["overture"], "website": "http://www.sushirestaurantkentwa.com", "phone": "(253) 850-2825", "address": "25620 104th Ave SE Apt J203"}, "geometry": {"type": "Point", "coordinates": [-122.2007828, 47.3718376]}}, {"type": "Feature", "properties": {"id": 4590214745, "name": "India House", "category": "restaurant", "tags": ["restaurant", "indian"], "sources": ["osm"], "phone": "+1-253-859-2100"}, "geometry": {"type": "Point", "coordinates": [-122.201017, 47.3737814]}}, {"type": "Feature", "properties": {"id": 4632359293, "name": "Eurasia Deli House", "category": "restaurant", "tags": ["restaurant", "pub"], "sources": ["osm", "overture"], "website": "https://eurasiadelihouse.netwaiter.com/kent/about", "phone": "(253) 520-0870", "address": "25650 102nd Pl SE"}, "geometry": {"type": "Point", "coordinates": [-122.2039331, 47.3711633]}}, {"type": "Feature", "properties": {"id": 4632359295, "name": "Carriage Square Sports Bar", "category": "bar", "tags": ["bar"], "sources": ["osm"]}, "geometry": {"type": "Point", "coordinates": [-122.2040374, 47.3718741]}}, {"type": "Feature", "properties": {"id": 4632361489, "name": "Jot Indian Sweets & Restaurant", "category": "restaurant", "tags": ["restaurant", "indian"], "sources": ["osm", "overture"], "website": "https://jot-indian-sweets-restaurant.business.site", "phone": "+12062275145", "address": "25445 104th Ave SE"}, "geometry": {"type": "Point", "coordinates": [-122.2028774, 47.3735633]}}, {"type": "Feature", "properties": {"id": 4764305523, "name": "Kamal Da Dhaba Cuisine of India", "category": "fast_food", "tags": ["fast-food", "indian"], "sources": ["osm"]}, "geometry": {"type": "Point", "coordinates": [-122.2038699, 47.3721986]}}, {"type": "Feature", "properties": {"id": 4764313921, "name": "Skipper's", "category": "fast_food", "tags": ["fast-food", "fish-and-chips"], "sources": ["osm"]}, "geometry": {"type": "Point", "coordinates": [-122.2041337, 47.3722194]}}, {"type": "Feature", "properties": {"id": 5130938422, "name": "Nana's Southern Kitchen", "category": "fast_food", "tags": ["fast-food", "american", "restaurant", "southern", "comfort-food"], "sources": ["osm", "overture"], "website": "http://www.nanassouthernway.com/", "phone": "+12532436711", "address": "10234 SE 256th St"}, "geometry": {"type": "Point", "coordinates": [-122.2044684, 47.3728006]}}, {"type": "Feature", "properties": {"id": "a46306ff-5e95-4da0-9fde-b51c33c2112e", "name": "Azteca Mexican Restaurants", "category": "restaurant", "tags": ["restaurant", "mexican", "latin-american", "taco"], "sources": ["overture"], "website": "http://www.aztecamex.com/kent-azteca/", "phone": "+12538520210", "address": "25633 102nd Pl SE"}, "geometry": {"type": "Point", "coordinates": [-122.2052155, 47.371563]}}, {"type": "Feature", "properties": {"id": "e6a83b0b-1ef7-41c9-b627-b3c7770986b8", "name": "Ezell's Famous Chicken", "category": "restaurant", "tags": ["restaurant", "chicken", "fast-food", "southern"], "sources": ["overture"], "website": "https://www.ezellschicken.com/", "phone": "2538544535", "address": "25616 102nd Pl SE"}, "geometry": {"type": "Point", "coordinates": [-122.2041931, 47.3720284]}}, {"type": "Feature", "properties": {"id": 6021389144, "name": "Afghan Cuisine", "category": "restaurant", "tags": ["restaurant", "afghan"], "sources": ["osm"], "address": "25684 104th Avenue Southeast"}, "geometry": {"type": "Point", "coordinates": [-122.2011431, 47.3709213]}}, {"type": "Feature", "properties": {"id": "a7293011-7bdd-4619-a052-f015980a803f", "name": "Baja Burrito", "category": "restaurant", "tags": ["restaurant", "mexican"], "sources": ["overture"], "website": "http://www.thebajaburrito.com", "phone": "(253) 277-2047", "address": "10234 SE 256th St"}, "geometry": {"type": "Point", "coordinates": [-122.2045212, 47.3727455]}}, {"type": "Feature", "properties": {"id": 638961974, "name": "DQ Grill & Chill", "category": "fast_food", "tags": ["fast-food", "ice-cream", "burger", "chicken", "takeaway"], "sources": ["osm"], "website": "https://www.dairyqueen.com/locations/wa/kent/25206-104th-ave-se/2277", "phone": "+1-253-854-7626", "address": "25206 104th Avenue Southeast"}, "geometry": {"type": "Point", "coordinates": [-122.2018631, 47.3760267]}}, {"type": "Feature", "properties": {"id": 638961916, "name": "Applebee's", "category": "restaurant", "tags": ["restaurant", "american", "bar-and-grill"], "sources": ["osm", "overture"], "website": "https://restaurants.applebees.com/en-us/wa/kent/25442-104th-ave-se-76085", "phone": "+12535203888", "address": "25442 104Th Ave Se"}, "geometry": {"type": "Point", "coordinates": [-122.2018653, 47.3737421]}}, {"type": "Feature", "properties": {"id": 396482669, "name": "Azteca Mexican Restaurant", "category": "restaurant", "tags": ["restaurant", "mexican"], "sources": ["osm"], "address": "25633 102nd Place Southeast"}, "geometry": {"type": "Point", "coordinates": [-122.2053423, 47.371579]}}, {"type": "Feature", "properties": {"id": 396483085, "name": "Taqueria El Asadero", "category": "restaurant", "tags": ["restaurant", "mexican"], "sources": ["osm", "overture"], "website": "http://taqueriaelasadero.com", "phone": "(253) 852-0620", "address": "25415 104th Ave SE"}, "geometry": {"type": "Point", "coordinates": [-122.202838, 47.3739737]}}, {"type": "Feature", "properties": {"id": 638961878, "name": "El Pollo Loco", "category": "fast_food", "tags": ["fast-food", "mexican", "takeaway", "restaurant", "chicken"], "sources": ["osm", "overture"], "website": "https://restaurants.elpolloloco.com/wa/kent/10120-se-256th-st?utm_source=fb&utm_medium=yext", "phone": "+12537400326", "address": "10120 SE 256th St", "hours": "Mo-Su 10:00-22:00"}, "geometry": {"type": "Point", "coordinates": [-122.2049886, 47.3728519]}}, {"type": "Feature", "properties": {"id": "b3fab5d5-0547-4981-bbab-5d3a09ec5817", "name": "Pizza Takeout & Delivery", "category": "fast_food", "tags": ["fast-food", "fast", "food"], "sources": ["overture"], "website": "https://locations.papamurphys.com/wa/kent/10429-se-kent-kangley-road"}, "geometry": {"type": "Point", "coordinates": [-122.2004089, 47.3717728]}}, {"type": "Feature", "properties": {"id": "33b6934b-efa9-4d25-8130-16ac3d701614", "name": "Red Robin Gourmet Burgers", "category": "restaurant", "tags": ["restaurant", "burger", "american"], "sources": ["overture"], "website": "https://www.redrobin.com/locations/wa/kent/kent-166", "phone": "+12538508101", "address": "25207 104th Ave SE"}, "geometry": {"type": "Point", "coordinates": [-122.2027664, 47.3760605]}}, {"type": "Feature", "properties": {"id": "129e811b-4f1d-42de-b7e1-9f80e725ba28", "name": "Papa Murphy's | Take 'N' Bake Pizza", "category": "restaurant", "tags": ["restaurant", "pizza"], "sources": ["overture"], "website": "https://locations.papamurphys.com/wa/kent/10429-se-kent-kangley-road?utm_source=organic&utm_medium=bing&utm_campaign=yext&y_source=1_MTU0Mjk3ODItNDgzLWxvY2F0aW9uLndlYnNpdGU%3D", "phone": "2538543509", "address": "10429 SE Kent Kangley Road"}, "geometry": {"type": "Point", "coordinates": [-122.2004089, 47.3717728]}}, {"type": "Feature", "properties": {"id": "1435823b-7b12-4147-a5aa-c72b872e3071", "name": "Midwest Bros Bristo", "category": "restaurant", "tags": ["restaurant", "italian"], "sources": ["overture"], "website": "http://midwest-bro-bistro.site/", "address": "10830 SE Suite 101B"}, "geometry": {"type": "Point", "coordinates": [-122.2081909, 47.3722115]}}, {"type": "Feature", "properties": {"id": "62823a72-3659-4244-a09b-fc22bd3fb7c5", "name": "Catfish Corner", "category": "restaurant", "tags": ["restaurant", "southern"], "sources": ["overture"], "website": "http://www.catfishcorner.com", "phone": "(253) 859-4333", "address": "25445 104th Ave SE"}, "geometry": {"type": "Point", "coordinates": [-122.2028885, 47.3735085]}}, {"type": "Feature", "properties": {"id": "8039153f-863c-4e6a-849e-8a1ba2092246", "name": "Old Country Buffet", "category": "restaurant", "tags": ["restaurant", "american"], "sources": ["overture"], "website": "http://locations.buffet.com/WA/KENT/0814/", "phone": "(253) 859-3224", "address": "25630 104th Ave SE"}, "geometry": {"type": "Point", "coordinates": [-122.2005234, 47.3714523]}}, {"type": "Feature", "properties": {"id": "9e3c4b0e-5c78-4dfb-96a4-b1dbf3bc0342", "name": "Lucky City Chinese Restaurant", "category": "restaurant", "tags": ["restaurant", "chinese"], "sources": ["overture"], "phone": "(253) 854-9660", "address": "25650 101st Ave SE"}, "geometry": {"type": "Point", "coordinates": [-122.2059097, 47.3711815]}}, {"type": "Feature", "properties": {"id": "22cfb8d1-bfe7-45fd-9788-506fef8f12f9", "name": "Skippers Fish and Chips", "category": "restaurant", "tags": ["restaurant", "fish-and-chips", "fish", "chips", "seafood", "british"], "sources": ["overture"], "website": "http://fusionfood.us/", "phone": "+12535200712", "address": "10225 SE 256th St"}, "geometry": {"type": "Point", "coordinates": [-122.2039566, 47.3723907]}}, {"type": "Feature", "properties": {"id": "11d0157d-6754-402c-b155-84a723424308", "name": "Kings Of Wings Kent", "category": "restaurant", "tags": ["restaurant", "chicken", "fast-food"], "sources": ["overture"], "website": "http://fusionfood.us/", "phone": "+12535200712", "address": "10225 SE 256th St"}, "geometry": {"type": "Point", "coordinates": [-122.2040939, 47.3723717]}}, {"type": "Feature", "properties": {"id": "e5c6af0c-bc74-4a3a-85f0-b27c5b211427", "name": "Haley's Corner Bakery", "category": "bakery", "tags": ["bakery"], "sources": ["overture"], "phone": "2538524486", "address": "10216 Se 256th St  Ste 111"}, "geometry": {"type": "Point", "coordinates": [-122.2040253, 47.3731689]}}, {"type": "Feature", "properties": {"id": "3316dfa3-22da-4c85-9929-9d3fa3614de4", "name": "Tasty Doux Bakery", "category": "bakery", "tags": ["bakery"], "sources": ["overture"], "website": "http://www.tastydoux.com", "phone": "12532467468", "address": "10216 Se 256th St  Ste 111"}, "geometry": {"type": "Point", "coordinates": [-122.2040253, 47.3731689]}}, {"type": "Feature", "properties": {"id": "4d3dc211-acf8-4907-8853-28efeae8fb73", "name": "Kgc Inc", "category": "restaurant", "tags": ["restaurant"], "sources": ["overture"], "address": "10216 Se 256th St Ste 110"}, "geometry": {"type": "Point", "coordinates": [-122.2040253, 47.3731689]}}, {"type": "Feature", "properties": {"id": "67c4b2f3-ff60-44e6-ad66-8e4a5bca409e", "name": "Seva Indian Kitchen", "category": "restaurant", "tags": ["restaurant", "indian", "fast-food", "halal"], "sources": ["overture"], "website": "http://Sevacateringwa.com/", "address": "25684 104th Ave SE"}, "geometry": {"type": "Point", "coordinates": [-122.2041626, 47.3722229]}}, {"type": "Feature", "properties": {"id": "00d3093d-bc77-4470-89ae-37c2938d9ad5", "name": "Action Sports Bar & Grill", "category": "bar", "tags": ["bar", "sports", "bar-and-grill", "american"], "sources": ["overture"], "website": "http://www.actionsportsbar.com/", "phone": "+12538503749", "address": "25626 102nd Pl SE"}, "geometry": {"type": "Point", "coordinates": [-122.2041092, 47.3718262]}}, {"type": "Feature", "properties": {"id": "d1fe4dba-0e11-4779-ab27-71f7b59673a2", "name": "Carriage Square Bar", "category": "restaurant", "tags": ["restaurant", "bar-and-grill"], "sources": ["overture"], "website": "http://www.buzzfile.com/business/Carriage-Square-Sports-Pub-253-850-3749", "phone": "+12538503749", "address": "25626 102nd Pl SE"}, "geometry": {"type": "Point", "coordinates": [-122.2039871, 47.3719406]}}, {"type": "Feature", "properties": {"id": "574c448b-4f81-4daf-92fb-39f8f2d90f8f", "name": "Sdk Worldwide Inc", "category": "restaurant", "tags": ["restaurant"], "sources": ["overture"], "address": "25807 104th Ave SE"}, "geometry": {"type": "Point", "coordinates": [-122.2034225, 47.3710175]}}, {"type": "Feature", "properties": {"id": "6e5c1d0d-a365-4059-8ecf-10e29cbfca21", "name": "Red Rose Bakery & Halal Food", "category": "bakery", "tags": ["bakery"], "sources": ["overture"], "phone": "12534807040", "address": "25805 104th Ave SE"}, "geometry": {"type": "Point", "coordinates": [-122.2034378, 47.3710632]}}, {"type": "Feature", "properties": {"id": "614cb2dc-5a6a-4e1b-8616-d64bddc5b2db", "name": "Kim & Ahn Llc", "category": "restaurant", "tags": ["restaurant"], "sources": ["overture"], "address": "25803 104th Ave SE"}, "geometry": {"type": "Point", "coordinates": [-122.2034225, 47.3711166]}}, {"type": "Feature", "properties": {"id": "9719c0ec-7b35-418f-9065-896ba40f1608", "name": "Kings Teriyaki & Sushi", "category": "restaurant", "tags": ["restaurant", "japanese", "sushi", "asian"], "sources": ["overture"], "website": "http://www.kingsteriyaki.com/", "phone": "+12538503112", "address": "25803 104th Ave SE"}, "geometry": {"type": "Point", "coordinates": [-122.2033157, 47.3710785]}}, {"type": "Feature", "properties": {"id": "85d3cf75-82e0-48c1-a695-a2fb54562f3f", "name": "Taqueria Mi Tierra", "category": "restaurant", "tags": ["restaurant", "mexican"], "sources": ["overture"], "website": "http://ordertaqueriamitierra.com", "phone": "12538520620", "address": "25415 104th Ave SE"}, "geometry": {"type": "Point", "coordinates": [-122.2029495, 47.3740273]}}, {"type": "Feature", "properties": {"id": "311f946e-575e-4d4d-bfdc-bdf96bfd56f2", "name": "Longhorn Barbecue", "category": "restaurant", "tags": ["restaurant", "barbecue"], "sources": ["overture"], "website": "http://longhornbarbecue.com/", "phone": "(253) 520-9600", "address": "25415 104th Ave SE"}, "geometry": {"type": "Point", "coordinates": [-122.2028427, 47.3739548]}}, {"type": "Feature", "properties": {"id": "d5245831-8e3a-46e4-8a3e-1ada0a923dae", "name": "Taqueria El Jacalito", "category": "restaurant", "tags": ["restaurant", "mexican"], "sources": ["overture"], "website": "http://taqueriaeljacalitokent.com/", "phone": "+12532462912", "address": "25415 104th Ave SE"}, "geometry": {"type": "Point", "coordinates": [-122.2028732, 47.3739853]}}, {"type": "Feature", "properties": {"id": "6a132267-8583-45f5-a75e-65980a7aa9ec", "name": "Taqueria El Huarache Loco", "category": "fast_food", "tags": ["fast-food", "fast", "food"], "sources": ["overture"], "website": "http://www.elhuaracheloco.com/", "phone": "+12538506144", "address": "10248 SE 256th St"}, "geometry": {"type": "Point", "coordinates": [-122.2028427, 47.37286]}}, {"type": "Feature", "properties": {"id": "c46a4cf3-067a-4cb5-8807-270e12113a1d", "name": "Schlotzsky's", "category": "restaurant", "tags": ["restaurant", "sandwich"], "sources": ["overture"], "phone": "2538544357", "address": "10120 SE 256th St"}, "geometry": {"type": "Point", "coordinates": [-122.2026672, 47.3725586]}}, {"type": "Feature", "properties": {"id": "f35303a5-8812-484a-9429-5d20857941f2", "name": "Kent \u2013 East Hill", "category": "fast_food", "tags": ["fast-food", "fast", "food"], "sources": ["overture"], "website": "https://tacotimenw.com/find-us/kent-east-hill/", "address": "25649 104th Avenue SE Kent, WA 98030"}, "geometry": {"type": "Point", "coordinates": [-122.2026901, 47.3711243]}}, {"type": "Feature", "properties": {"id": "7bdd6d29-81a9-4a98-a6fa-8888c899da20", "name": "Riverhead Foods Inc", "category": "restaurant", "tags": ["restaurant"], "sources": ["overture"], "phone": "2538543949", "address": "25240 104th Ave SE"}, "geometry": {"type": "Point", "coordinates": [-122.2019577, 47.3750153]}}, {"type": "Feature", "properties": {"id": "c8258380-3c56-4e73-853d-786c60fadee9", "name": "Inn Between Pub", "category": "pub", "tags": ["pub"], "sources": ["overture"], "website": "https://inn-between-pub.hub.biz/", "phone": "+12538544453", "address": "25412 104th Ave SE"}, "geometry": {"type": "Point", "coordinates": [-122.2010117, 47.3739395]}}, {"type": "Feature", "properties": {"id": "99c61972-b89e-4f62-8c7d-fff54e2e4204", "name": "Chashni Sweets and Kitchen", "category": "restaurant", "tags": ["restaurant", "indian"], "sources": ["overture"], "website": "https://www.chashnisweetskitchen.com/", "phone": "+12538592100", "address": "25410 104th Ave SE"}, "geometry": {"type": "Point", "coordinates": [-122.2009048, 47.3740883]}}, {"type": "Feature", "properties": {"id": "992853eb-6ea8-426f-9285-bce4f15dda5d", "name": "California Monster Sushi & Korean Food \u201cNew ownership since 2025\u201d", "category": "restaurant", "tags": ["restaurant", "sushi", "japanese", "asian"], "sources": ["overture"], "website": "http://www.sushirestaurantkentwa.com", "phone": "+16263608529", "address": "25620 104th Ave SE"}, "geometry": {"type": "Point", "coordinates": [-122.2008514, 47.3717194]}}, {"type": "Feature", "properties": {"id": "5760d6d6-098e-47a9-b0f3-03e3bb6168b1", "name": "Turkish Coffee House", "category": "restaurant", "tags": ["restaurant", "turkish"], "sources": ["overture"], "website": "http://tcoffeehouse.com/", "phone": "+12534789011", "address": "25618 104th Ave SE"}, "geometry": {"type": "Point", "coordinates": [-122.2008286, 47.3717918]}}, {"type": "Feature", "properties": {"id": "53082539-79d1-4b4b-85fb-2719e6e97ca4", "name": "Afghan Cuisine (kent)", "category": "restaurant", "tags": ["restaurant", "afghan"], "sources": ["overture"], "website": "https://www.clover.com", "phone": "12532364452", "address": "25684 104th Ave SE"}, "geometry": {"type": "Point", "coordinates": [-122.2012024, 47.3709488]}}, {"type": "Feature", "properties": {"id": "baf599bb-4335-4131-a83b-f919d8fe7c38", "name": "Curry Pizza House", "category": "restaurant", "tags": ["restaurant", "pizza", "asian"], "sources": ["overture"], "website": "https://currypizzahouse.com/", "phone": "+12063334712", "address": "25666 104th Ave SE"}, "geometry": {"type": "Point", "coordinates": [-122.201561, 47.3709946]}}, {"type": "Feature", "properties": {"id": "08cf1044-c19d-430c-8360-4f7eb8f71245", "name": "Keg Steakhouse and Bar", "category": "restaurant", "tags": ["restaurant", "steakhouse"], "sources": ["overture"], "website": "http://www.kegsteakhouse.com/", "phone": "(253) 850-2014", "address": "25812 104th Ave SE"}, "geometry": {"type": "Point", "coordinates": [-122.2018585, 47.3701859]}}, {"type": "Feature", "properties": {"id": "a8b2c659-3290-49c0-8c0e-aa751bcb25c0", "name": "Bimbo Bakeries USA", "category": "bakery", "tags": ["bakery"], "sources": ["overture"], "website": "http://bimbobakeriesusa.com/", "phone": "(253) 852-6909", "address": "25838 104th Ave SE"}, "geometry": {"type": "Point", "coordinates": [-122.2005005, 47.3700981]}}, {"type": "Feature", "properties": {"id": "72b049f1-3875-4fef-81fe-794fce5841d1", "name": "Cocinita Pnw", "category": "fast_food", "tags": ["fast-food", "food", "truck"], "sources": ["overture"], "website": "https://cocinita-pnw.business.site", "phone": "+12066516419", "address": "10460 SE 256th St"}, "geometry": {"type": "Point", "coordinates": [-122.2001724, 47.3729401]}}, {"type": "Feature", "properties": {"id": "52b9e9b8-9bcb-4115-a556-d8d7ded83cb5", "name": "Al Rayahin", "category": "bakery", "tags": ["bakery"], "sources": ["overture"], "phone": "12532462129", "address": "10420 SE Kent Kangley Rd"}, "geometry": {"type": "Point", "coordinates": [-122.2001419, 47.3723221]}}, {"type": "Feature", "properties": {"id": "7aed4b95-4643-4964-b9c2-f76705833359", "name": "Kent Dine Quick, Inc", "category": "restaurant", "tags": ["restaurant"], "sources": ["overture"], "address": "25206 104th Ave SE"}, "geometry": {"type": "Point", "coordinates": [-122.2019424, 47.3759956]}}, {"type": "Feature", "properties": {"id": "3a637dc3-f874-432f-911e-f552f5469f28", "name": "Royal Punjab Management Group 4 Inc", "category": "restaurant", "tags": ["restaurant"], "sources": ["overture"], "address": "24915 104th Ave SE"}, "geometry": {"type": "Point", "coordinates": [-122.2026901, 47.3783264]}}, {"type": "Feature", "properties": {"id": "ed2f1f31-acd8-46b0-b165-157a3524282d", "name": "Timber Ridge Condominiums", "category": "attraction", "tags": ["attraction", "landmark", "historical", "building"], "sources": ["overture"], "phone": "+12538544526", "address": "25131 98th Pl S"}, "geometry": {"type": "Point", "coordinates": [-122.2090073, 47.3769722]}}, {"type": "Feature", "properties": {"id": "95564f39-0132-42a0-b0e2-50c9c1dc8fa1", "name": "Kentbrook Apartments", "category": "attraction", "tags": ["attraction", "landmark", "historical", "building"], "sources": ["overture"], "website": "http://kentbrookapartments.com/", "phone": "+12538546121", "address": "9803 S 248th St"}, "geometry": {"type": "Point", "coordinates": [-122.2094727, 47.379303]}}, {"type": "Feature", "properties": {"id": "b691f026-ff00-4f77-bb8f-0b8310fea3c2", "name": "Haven Apartment Homes", "category": "attraction", "tags": ["attraction", "landmark", "historical", "building"], "sources": ["overture"], "website": "https://www.livehavenapartments.com/?utm_source=facebook&utm_medium=social", "phone": "+12532403881", "address": "25426 98th Ave S"}, "geometry": {"type": "Point", "coordinates": [-122.2084961, 47.3721619]}}, {"type": "Feature", "properties": {"id": "8fa828cd-df6e-4303-954a-dff798f2f6f2", "name": "The Wilson", "category": "attraction", "tags": ["attraction", "landmark", "historical", "building"], "sources": ["overture"], "website": "http://thewilsonapts.com/", "phone": "+12538568088", "address": "24910 103rd Ave SE"}, "geometry": {"type": "Point", "coordinates": [-122.2041626, 47.3787231]}}, {"type": "Feature", "properties": {"id": "712ef436-3fc0-4c1c-989b-2b7caafd5d0d", "name": "Ridgegate", "category": "attraction", "tags": ["attraction", "landmark", "historical", "building"], "sources": ["overture"], "website": "http://www.liveridgegateapts.com", "phone": "+12538507217", "address": "24808 100th Pl SE"}, "geometry": {"type": "Point", "coordinates": [-122.2061768, 47.378788]}}, {"type": "Feature", "properties": {"id": 430001205, "name": "Campus Park", "category": "park", "tags": ["park"], "sources": ["osm"], "website": "https://www.kentwa.gov/departments/kent-parks/parks-places/parks-trails/campus-park", "address": "9890 South 252nd Street", "hours": "dawn-dusk"}, "geometry": {"type": "Point", "coordinates": [-122.2096819, 47.3760653]}}, {"type": "Feature", "properties": {"id": 549173282, "name": "Kentbrook Playground", "category": "playground", "tags": ["playground"], "sources": ["osm"]}, "geometry": {"type": "Point", "coordinates": [-122.2091935, 47.3779972]}}, {"type": "Feature", "properties": {"id": 396483294, "name": "TJ Maxx", "category": "department_store", "tags": ["department-store"], "sources": ["osm"], "address": "25406 104th Avenue Southeast"}, "geometry": {"type": "Point", "coordinates": [-122.2008027, 47.3743906]}}, {"type": "Feature", "properties": {"id": "82b2ceac-bd73-446c-9ed3-2e3899daf0f4", "name": "TJ Maxx", "category": "variety_store", "tags": ["variety-store", "discount"], "sources": ["overture"], "website": "https://tjmaxx.tjx.com/store/index.jsp", "phone": "+12538528100", "address": "25406 104th Ave SE"}, "geometry": {"type": "Point", "coordinates": [-122.20121, 47.3727493]}}, {"type": "Feature", "properties": {"id": 3620469180, "name": "Sprint", "category": "mobile_phone", "tags": ["mobile-phone"], "sources": ["osm"]}, "geometry": {"type": "Point", "coordinates": [-122.2027448, 47.3700607]}}, {"type": "Feature", "properties": {"id": "1fa4f383-d14e-4e2d-aac6-27bf7f6dc83b", "name": "Metro by T-Mobile", "category": "mobile_phone", "tags": ["mobile-phone", "mobile"], "sources": ["overture"], "website": "https://www.metrobyt-mobile.com/stores/bd/metro-by-t-mobile-kent-wa-10233667/?utm_source=facebook&utm_medium=lastmile&utm_campaign=39685", "phone": "+12532364108", "address": "25441 104th Ave SE"}, "geometry": {"type": "Point", "coordinates": [-122.2028809, 47.3736801]}}, {"type": "Feature", "properties": {"id": 638961885, "name": "ampm", "category": "convenience", "tags": ["convenience"], "sources": ["osm", "overture"], "website": "https://www.ampm.com/", "phone": "+12538594893", "address": "10402 SE 256th St"}, "geometry": {"type": "Point", "coordinates": [-122.2017178, 47.3730432]}}, {"type": "Feature", "properties": {"id": "c348ac06-83e9-45a9-ae7a-3350947efd4b", "name": "Verizon", "category": "mobile_phone", "tags": ["mobile-phone", "mobile"], "sources": ["overture"], "website": "cellularsales.com", "phone": "12065842060", "address": "10120 SE 256th St"}, "geometry": {"type": "Point", "coordinates": [-122.2050552, 47.3727837]}}, {"type": "Feature", "properties": {"id": 4215736438, "name": "Cigar Land", "category": "tobacco", "tags": ["tobacco"], "sources": ["osm", "overture"], "phone": "+12538563199", "address": "25451 104th Ave Se Ste 106"}, "geometry": {"type": "Point", "coordinates": [-122.2028566, 47.3731724]}}, {"type": "Feature", "properties": {"id": 3620469182, "name": "Rent-A-Center", "category": "furniture", "tags": ["furniture"], "sources": ["osm"]}, "geometry": {"type": "Point", "coordinates": [-122.2031747, 47.3700629]}}, {"type": "Feature", "properties": {"id": 3620469183, "name": "Liquor Store", "category": "alcohol", "tags": ["alcohol"], "sources": ["osm"]}, "geometry": {"type": "Point", "coordinates": [-122.2033201, 47.3700762]}}, {"type": "Feature", "properties": {"id": 3620469186, "name": "Cigar King", "category": "tobacco", "tags": ["tobacco"], "sources": ["osm"]}, "geometry": {"type": "Point", "coordinates": [-122.2033469, 47.3703323]}}, {"type": "Feature", "properties": {"id": 4632361490, "name": "Boost Mobile", "category": "mobile_phone", "tags": ["mobile-phone", "mobile"], "sources": ["osm", "overture"], "website": "https://www.boostmobile.com/locations/bd/boost-mobile-wa-kent-25451-104th-ave-se-102-98030?ll=1&utm_source=facebook&utm_medium=lastmile&utm_campaign=0015e00000jB86UAAS", "phone": "+12064973997", "address": "25451 104th Ave SE Kent, WA 98030"}, "geometry": {"type": "Point", "coordinates": [-122.202868, 47.373455]}}, {"type": "Feature", "properties": {"id": 4214299290, "name": "Linda's Apparel", "category": "clothes", "tags": ["clothes"], "sources": ["osm"], "address": "25822 104th Avenue Southeast", "hours": "Mo-Fr 11:00-17:00; Sa 11:00-16:00"}, "geometry": {"type": "Point", "coordinates": [-122.2007286, 47.3702127]}}, {"type": "Feature", "properties": {"id": 4776243428, "name": "Hilaac Halal Market", "category": "supermarket", "tags": ["supermarket"], "sources": ["osm", "overture"], "phone": "12538597176", "address": "25656 102nd Pl SE"}, "geometry": {"type": "Point", "coordinates": [-122.2039127, 47.3710847]}}, {"type": "Feature", "properties": {"id": 4802609122, "name": "Sabel's Floral Design", "category": "florist", "tags": ["florist"], "sources": ["osm"], "address": "10248 Southeast 256th Street"}, "geometry": {"type": "Point", "coordinates": [-122.2028904, 47.3727988]}}, {"type": "Feature", "properties": {"id": 4860989021, "name": "Apna Frooticana", "category": "supermarket", "tags": ["supermarket"], "sources": ["osm", "overture"], "website": "http://apnafrooticana.com/", "phone": "+12532771497", "address": "25414 104th Ave SE", "hours": "09:00-20:00"}, "geometry": {"type": "Point", "coordinates": [-122.201021, 47.3735349]}}, {"type": "Feature", "properties": {"id": 5366862721, "name": "MV Selections", "category": "clothes", "tags": ["clothes"], "sources": ["osm"]}, "geometry": {"type": "Point", "coordinates": [-122.2033526, 47.3703676]}}, {"type": "Feature", "properties": {"id": 6021389082, "name": "Tienda Mi Sherlyn", "category": "convenience", "tags": ["convenience"], "sources": ["osm"], "phone": "+1-253-854-0780", "address": "10426 Southeast Kent Kangley Road"}, "geometry": {"type": "Point", "coordinates": [-122.2000445, 47.372269]}}, {"type": "Feature", "properties": {"id": 6021389436, "name": "A. C. Jewelers Inc.", "category": "jewelry", "tags": ["jewelry"], "sources": ["osm"], "address": "25414 104th Avenue Southeast"}, "geometry": {"type": "Point", "coordinates": [-122.2010156, 47.3736725]}}, {"type": "Feature", "properties": {"id": 6021402456, "name": "Willy's Discount Workwear", "category": "clothes", "tags": ["clothes"], "sources": ["osm", "overture"], "website": "https://www.willysdiscountworkwear.com", "phone": "+12532773450", "address": "25609 104th Ave SE"}, "geometry": {"type": "Point", "coordinates": [-122.2032141, 47.3719951]}}, {"type": "Feature", "properties": {"id": 11047486105, "name": "Byblos Mediterranean Market", "category": "convenience", "tags": ["convenience", "supermarket"], "sources": ["osm", "overture"], "phone": "+12532772300", "address": "10460 SE 256th St"}, "geometry": {"type": "Point", "coordinates": [-122.2003113, 47.3728773]}}, {"type": "Feature", "properties": {"id": 396482666, "name": "Small Stop", "category": "convenience", "tags": ["convenience"], "sources": ["osm"], "address": "10225 Southeast 256th Street"}, "geometry": {"type": "Point", "coordinates": [-122.2039845, 47.3722168]}}, {"type": "Feature", "properties": {"id": 638962429, "name": "Asia Pacific Market", "category": "supermarket", "tags": ["supermarket"], "sources": ["osm"], "phone": "+1-253-854-4123"}, "geometry": {"type": "Point", "coordinates": [-122.2016625, 47.3712135]}}, {"type": "Feature", "properties": {"id": "32d03af8-c6d2-45f1-bd4f-777efe878ab8", "name": "Rite Aid", "category": "convenience", "tags": ["convenience"], "sources": ["overture"], "phone": "2538545343", "address": "10407 SE 256th St"}, "geometry": {"type": "Point", "coordinates": [-122.2016983, 47.3725166]}}, {"type": "Feature", "properties": {"id": "c9b5fc02-cddf-4e38-bb22-b78465e09fa8", "name": "At&t Store", "category": "mobile_phone", "tags": ["mobile-phone", "mobile"], "sources": ["overture"], "website": "https://www.att.com", "phone": "12532949994", "address": "25853 104th Ave SE"}, "geometry": {"type": "Point", "coordinates": [-122.2027969, 47.3700829]}}, {"type": "Feature", "properties": {"id": "80e3c0d4-44b0-482c-8a2d-4903a22d4054", "name": "Work World", "category": "shoes", "tags": ["shoes", "shoe"], "sources": ["overture"], "website": "https://www.willysdiscountworkwear.com/", "phone": "+12532773450", "address": "25609 104th Ave SE"}, "geometry": {"type": "Point", "coordinates": [-122.2033768, 47.3719597]}}, {"type": "Feature", "properties": {"id": "f4b349ab-35a7-4b28-a822-218e12487931", "name": "Garage Door Repair Kent", "category": "hardware", "tags": ["hardware"], "sources": ["overture"], "website": "http://www.garagedoorrepairkent.info", "phone": "(253) 414-9273", "address": "10216 SE 256th St"}, "geometry": {"type": "Point", "coordinates": [-122.2039108, 47.3731499]}}, {"type": "Feature", "properties": {"id": "a3dec263-c2a6-4208-a885-476318414244", "name": "Kent Liquor Store", "category": "alcohol", "tags": ["alcohol"], "sources": ["overture"], "website": "https://kent-east-liquor-store.business.site", "phone": "+12532364208", "address": "25835 104th Ave SE"}, "geometry": {"type": "Point", "coordinates": [-122.2032471, 47.3700829]}}, {"type": "Feature", "properties": {"id": "31107a3b-48ce-4f9c-aae4-3662aa69b4f8", "name": "Taj Gold & Diamond Jewelers", "category": "jewelry", "tags": ["jewelry"], "sources": ["overture"], "website": "http://TajGoldandDiamond.com/", "phone": "+12532362757", "address": "25619 104th Ave SE"}, "geometry": {"type": "Point", "coordinates": [-122.2031708, 47.3715935]}}, {"type": "Feature", "properties": {"id": "7bcc92f7-2a4c-4d5b-9a10-a62d4db714de", "name": "Asian Pacific Market", "category": "supermarket", "tags": ["supermarket"], "sources": ["overture"], "phone": "+12538544123", "address": "25644 104th Ave SE"}, "geometry": {"type": "Point", "coordinates": [-122.201683, 47.3712044]}}, {"type": "Feature", "properties": {"id": "ddd6a365-2699-4bad-b144-71e5989c89f8", "name": "Plugged In Wireless", "category": "mobile_phone", "tags": ["mobile-phone", "mobile"], "sources": ["overture"], "website": "http://Pluggedinwireless.com/", "phone": "+12532771734", "address": "25414 104th Ave SE UNIT 4"}, "geometry": {"type": "Point", "coordinates": [-122.2010803, 47.3736916]}}, {"type": "Feature", "properties": {"id": "254aac56-12a7-4aa0-bb63-6500e2f1f7b7", "name": "Sunny Supermarket", "category": "supermarket", "tags": ["supermarket"], "sources": ["overture"], "website": "http://www.sunnymarket.net/", "phone": "+12538540727", "address": "25414 104th Ave SE"}, "geometry": {"type": "Point", "coordinates": [-122.2008438, 47.3736725]}}, {"type": "Feature", "properties": {"id": "fc1e91c8-7a9e-45a4-bf99-526344b83049", "name": "Powar Supermarket Inc", "category": "supermarket", "tags": ["supermarket"], "sources": ["overture"], "website": "http://www.sunnysupermarketonline.com", "address": "25414 104th Ave SE"}, "geometry": {"type": "Point", "coordinates": [-122.2008362, 47.3736687]}}, {"type": "Feature", "properties": {"id": "8cee598c-c269-49e4-867b-366c5513c499", "name": "A. C. Jewellers Inc", "category": "jewelry", "tags": ["jewelry"], "sources": ["overture"], "website": "http://acjeweller.com", "phone": "12536562666", "address": "25416 104th Ave SE"}, "geometry": {"type": "Point", "coordinates": [-122.2008591, 47.3735466]}}, {"type": "Feature", "properties": {"id": "233c2ce3-5240-4f2b-af91-e534a1ee3b81", "name": "Dealz4less", "category": "variety_store", "tags": ["variety-store", "discount"], "sources": ["overture"], "phone": "+12064629546", "address": "25662 104th Ave SE Ste B"}, "geometry": {"type": "Point", "coordinates": [-122.2006531, 47.3711205]}}, {"type": "Feature", "properties": {"id": "de7f5135-3707-4a6a-b97b-6c4882c2ffd4", "name": "Royal dress and carpets", "category": "clothes", "tags": ["clothes"], "sources": ["overture"], "phone": "+12533978515", "address": "25822 104th Ave SE"}, "geometry": {"type": "Point", "coordinates": [-122.200592, 47.3702202]}}, {"type": "Feature", "properties": {"id": "24dd3a39-dfcc-4af9-abbd-322e80e6273f", "name": "Walgreens", "category": "pharmacy", "tags": ["pharmacy"], "sources": ["overture"], "website": "https://www.walgreens.com/locator/walgreens-25605+104th+ave+se-kent-wa-98030/id=3518", "phone": "(253) 813-6968", "address": "25605 104th Ave SE"}, "geometry": {"type": "Point", "coordinates": [-122.2033615, 47.372097]}}, {"type": "Feature", "properties": {"id": 5136568723, "name": "Global Pharmacy", "category": "pharmacy", "tags": ["pharmacy"], "sources": ["osm"], "address": "25680 104th Avenue Southeast", "hours": "Mo-Fr 10:00-18:00"}, "geometry": {"type": "Point", "coordinates": [-122.2012847, 47.3709145]}}, {"type": "Feature", "properties": {"id": 638962444, "name": "Bank of America", "category": "bank", "tags": ["bank", "drive-through", "credit", "union"], "sources": ["osm", "overture"], "website": "https://locators.bankofamerica.com/wa/kent/financial-centers-kent-8135.html", "phone": "+12063582690", "address": "25638 104th Ave SE"}, "geometry": {"type": "Point", "coordinates": [-122.2018873, 47.3717487]}}, {"type": "Feature", "properties": {"id": 396483077, "name": "KeyBank", "category": "bank", "tags": ["bank", "drive-through"], "sources": ["osm"], "address": "10304 Southeast 256th Street"}, "geometry": {"type": "Point", "coordinates": [-122.2034594, 47.3728295]}}, {"type": "Feature", "properties": {"id": 638961883, "name": "WaFd Bank", "category": "bank", "tags": ["bank"], "sources": ["osm"], "address": "25812 104th Avenue Southeast"}, "geometry": {"type": "Point", "coordinates": [-122.201853, 47.370198]}}, {"type": "Feature", "properties": {"id": 3620548592, "name": "East Hill Mail Box", "category": "post_office", "tags": ["post-office"], "sources": ["osm"]}, "geometry": {"type": "Point", "coordinates": [-122.2042447, 47.3731212]}}, {"type": "Feature", "properties": {"id": "a8f7ef31-ba68-465b-9f74-d7eec9cdb4f2", "name": "Ukrainan Self Reliant Michigan Federal Credit Union", "category": "bank", "tags": ["bank", "credit", "union"], "sources": ["overture"], "phone": "+12535209333", "address": "25827 104th Ave SE"}, "geometry": {"type": "Point", "coordinates": [-122.2026138, 47.3710022]}}]}