{"type": "FeatureCollection", "features": [{"type": "Feature", "properties": {"id": 922988438, "name": "Morningside Park", "category": "park", "tags": ["park"], "sources": ["osm", "overture"], "website": "https://yarrowpointwa.gov", "phone": "14254546994", "address": "4030 95th Ave NE"}, "geometry": {"type": "Point", "coordinates": [-122.2130558, 47.6470629]}}, {"type": "Feature", "properties": {"id": 925741916, "name": "Sally's Alley", "category": "park", "tags": ["park"], "sources": ["osm"], "website": "https://yarrowpointwa.gov/public-spaces/"}, "geometry": {"type": "Point", "coordinates": [-122.2144216, 47.6446068]}}, {"type": "Feature", "properties": {"id": "484c9f38-bd06-469a-96d6-4c5e907510ba", "name": "Clyde hill Yarrow point Freeway Station", "category": "park", "tags": ["park"], "sources": ["overture"]}, "geometry": {"type": "Point", "coordinates": [-122.2180328, 47.6403084]}}]}