{"type": "FeatureCollection", "features": [{"type": "Feature", "properties": {"id": "bcc73601-3782-4c96-8e06-17ba10f78caf", "name": "Meks Grill", "category": "restaurant", "tags": ["restaurant", "mexican"], "sources": ["overture"], "phone": "+12063721846", "address": "Lynnwood, WA 98036 United States"}, "geometry": {"type": "Point", "coordinates": [-122.2479248, 47.810936]}}, {"type": "Feature", "properties": {"id": "cc166fb5-5656-47d0-aa4b-193be92c27f1", "name": "Vee's Victorians Doll Clothes", "category": "toys", "tags": ["toys"], "sources": ["overture"], "website": "http://www.veesvictorians.com/", "phone": "4256727491", "address": "924 198th Pl SW"}, "geometry": {"type": "Point", "coordinates": [-122.2461929, 47.8184814]}}, {"type": "Feature", "properties": {"id": 765285239, "name": "Elementary Gymnasium", "category": "fitness_centre", "tags": ["fitness-centre", "all"], "sources": ["osm"], "phone": "+1-425-431-7604", "address": "20425 Damson Road", "hours": "Mo-Fr 08:00-17:00"}, "geometry": {"type": "Point", "coordinates": [-122.2429677, 47.8128227]}}]}