{"type": "FeatureCollection", "features": [{"type": "Feature", "properties": {"id": "0b38ed51-91ca-48ca-9fd8-bd5ceb6846df", "name": "Sol's Dog Park - Members Only", "category": "park", "tags": ["park", "dog"], "sources": ["overture"], "website": "http://www.solsdogpark.com/", "address": "8902 222nd St SE"}, "geometry": {"type": "Point", "coordinates": [-122.1137161, 47.7921944]}}, {"type": "Feature", "properties": {"id": 950107483, "name": "Central Welding Supply", "category": "hardware", "tags": ["hardware"], "sources": ["osm"]}, "geometry": {"type": "Point", "coordinates": [-122.1170533, 47.7951496]}}, {"type": "Feature", "properties": {"id": "644be960-5eec-48f0-9bbd-32038eb42bb4", "name": "Quick & Easy Concrete", "category": "doityourself", "tags": ["doityourself", "building", "supply"], "sources": ["overture"], "website": "https://www.qeconcrete.com", "phone": "+14257716443", "address": "8425 219th St Se Ste 100"}, "geometry": {"type": "Point", "coordinates": [-122.1198654, 47.7986717]}}, {"type": "Feature", "properties": {"id": "3f211129-9377-45b4-bf9d-d9b8dbe1fc49", "name": "The Stone Brothers Countertops", "category": "doityourself", "tags": ["doityourself", "building", "supply"], "sources": ["overture"], "website": "https://www.thestonebrothers.net", "phone": "(425) 415-8388", "address": "7533 W Bostian Rd Ste B"}, "geometry": {"type": "Point", "coordinates": [-122.1148148, 47.7963181]}}, {"type": "Feature", "properties": {"id": "b5647880-2255-4960-860a-5af77200ca0d", "name": "Choice Vendors", "category": "supermarket", "tags": ["supermarket"], "sources": ["overture"], "website": "www.choicevendor.com", "address": "22021 W Bostian Rd"}, "geometry": {"type": "Point", "coordinates": [-122.1149902, 47.7962837]}}, {"type": "Feature", "properties": {"id": "deebb79a-f697-4df5-be89-eaf1fcf6da7a", "name": "KLIM Roofing & Construction", "category": "doityourself", "tags": ["doityourself", "building", "supply"], "sources": ["overture"], "website": "https://www.klimroofing.com", "phone": "(425) 485-5546", "address": "21828 87th Ave SE Ste D"}, "geometry": {"type": "Point", "coordinates": [-122.1183548, 47.7988739]}}]}