{"type": "FeatureCollection", "features": [{"type": "Feature", "properties": {"id": 1730893498, "name": "Starbucks", "category": "cafe", "tags": ["cafe", "coffee-shop", "takeaway"], "sources": ["osm", "overture"], "website": "https://www.starbucks.com/store-locator/store/15849/", "phone": "+12067204803", "address": "121 Lakeside Ave", "hours": "Mo-Su 05:00-19:00"}, "geometry": {"type": "Point", "coordinates": [-122.285358, 47.6020673]}}, {"type": "Feature", "properties": {"id": 1728576386, "name": "BluWater Bistro", "category": "restaurant", "tags": ["restaurant", "american", "seafood"], "sources": ["osm", "overture"], "website": "http://www.bluwaterbistro.com/", "phone": "+12063282233", "address": "102 Lakeside Ave"}, "geometry": {"type": "Point", "coordinates": [-122.2849774, 47.6017581]}}, {"type": "Feature", "properties": {"id": 1728576387, "name": "Daniel's Broiler", "category": "restaurant", "tags": ["restaurant", "steakhouse", "seafood", "american"], "sources": ["osm", "overture"], "website": "https://danielsbroiler.com/pages/locations-daniels-leschi", "phone": "+12063294191", "address": "200 Lake Washington Blvd"}, "geometry": {"type": "Point", "coordinates": [-122.2842541, 47.6029635]}}, {"type": "Feature", "properties": {"id": "788e1519-ab29-4b70-92a0-6b7252234534", "name": "Pablo Y Pablo", "category": "restaurant", "tags": ["restaurant", "mexican"], "sources": ["overture"], "website": "https://pabloypablo.com", "phone": "12067079730", "address": "120 Lakeside Ave"}, "geometry": {"type": "Point", "coordinates": [-122.2848892, 47.6022339]}}, {"type": "Feature", "properties": {"id": "f9828234-4989-4937-a0fa-2f9de787ccf8", "name": "Heavy Restaurant Group", "category": "restaurant", "tags": ["restaurant"], "sources": ["overture"], "website": "http://www.heavyrestaurantgroup.com", "phone": "+14257856002", "address": "120 Lakeside Ave Ste 300"}, "geometry": {"type": "Point", "coordinates": [-122.2848892, 47.6022339]}}, {"type": "Feature", "properties": {"id": "7404b316-8203-47cf-8f19-3a78e7a8374a", "name": "Meet the Moon", "category": "cafe", "tags": ["cafe"], "sources": ["overture"], "website": "http://meetthemooncafe.com", "phone": "(206) 707-9730", "address": "120 Lakeside Ave"}, "geometry": {"type": "Point", "coordinates": [-122.2849808, 47.6022415]}}, {"type": "Feature", "properties": {"id": "add699c6-4990-466a-b31e-3352d51d1d68", "name": "Zachary Fleet - Fc Leschi Llc", "category": "restaurant", "tags": ["restaurant"], "sources": ["overture"], "address": "102 Lakeside Ave"}, "geometry": {"type": "Point", "coordinates": [-122.284111, 47.6025887]}}, {"type": "Feature", "properties": {"id": "f1414be1-5c73-49d9-b9d8-d61c473d29ea", "name": "Lake Washington Cars and Coffee", "category": "cafe", "tags": ["cafe"], "sources": ["overture"], "website": "https://bayviewcarclub.com/collections/lake-washington-collection-1", "address": "5900 Lake Washington Blvd"}, "geometry": {"type": "Point", "coordinates": [-122.2831192, 47.607254]}}, {"type": "Feature", "properties": {"id": 56629230, "name": "Leschi-Lake Dell Natural Area", "category": "park", "tags": ["park"], "sources": ["osm"], "website": "https://www.seattle.gov/parks/allparks/leschi-lake-dell-natural-area"}, "geometry": {"type": "Point", "coordinates": [-122.2873342, 47.6048377]}}, {"type": "Feature", "properties": {"id": 294469891, "name": "South Main Street End", "category": "park", "tags": ["park"], "sources": ["osm"]}, "geometry": {"type": "Point", "coordinates": [-122.2855246, 47.6001277]}}, {"type": "Feature", "properties": {"id": "20ad3561-a655-4d3e-b072-dce8321c128c", "name": "Leschi Park", "category": "park", "tags": ["park"], "sources": ["overture"], "website": "http://www.seattle.gov/parks/park_detail.asp?id=367", "phone": "+12066844075", "address": "201 Lakeside Ave S"}, "geometry": {"type": "Point", "coordinates": [-122.2880707, 47.600769]}}, {"type": "Feature", "properties": {"id": "d2ab59ee-9bdd-4d3f-ba8d-a5dd34a0ec62", "name": "Denny Blaine Park", "category": "park", "tags": ["park"], "sources": ["overture"], "website": "https://www.seattle.gov", "phone": "12066844075", "address": "200 Lake Washington Blvd"}, "geometry": {"type": "Point", "coordinates": [-122.2843323, 47.6029625]}}, {"type": "Feature", "properties": {"id": "8ae6592a-2cde-4225-b71f-e752c80ce00d", "name": "Madrona Park -Beach", "category": "playground", "tags": ["playground"], "sources": ["overture"], "address": "853 Lake Washington Blvd S"}, "geometry": {"type": "Point", "coordinates": [-122.2828903, 47.6086349]}}, {"type": "Feature", "properties": {"id": 5762448967, "name": "The Polka Dot Jersey", "category": "bicycle", "tags": ["bicycle"], "sources": ["osm"], "website": "https://www.thepolkadotjersey.com/", "phone": "+1-206-328-5400", "address": "120 Lakeside Avenue", "hours": "Tu-Fr 12:00-19:00; Sa 08:00-16:00"}, "geometry": {"type": "Point", "coordinates": [-122.284814, 47.602368]}}, {"type": "Feature", "properties": {"id": 184540212, "name": "Leschi Market", "category": "supermarket", "tags": ["supermarket", "organic"], "sources": ["osm", "overture"], "website": "http://www.leschimarket.com", "phone": "+12063220700", "address": "103 Lakeside Ave", "hours": "Mo-Sa 08:00-20:00; Su 08:00-19:00"}, "geometry": {"type": "Point", "coordinates": [-122.2856774, 47.6018932]}}, {"type": "Feature", "properties": {"id": "9da5080d-5076-4279-9fb6-caed055f410d", "name": "SOL Yoga", "category": "fitness_centre", "tags": ["fitness-centre", "yoga", "studio"], "sources": ["overture"], "website": "http://www.solyogaseattle.com/", "phone": "+16125992211", "address": "200 Lake Washington Blvd"}, "geometry": {"type": "Point", "coordinates": [-122.2840805, 47.6028862]}}]}