{"type": "FeatureCollection", "features": [{"type": "Feature", "properties": {"id": "3b60c854-b381-495a-b3b2-9ab6d4eb9733", "name": "Seattle's Best Coffee", "category": "cafe", "tags": ["cafe", "coffee"], "sources": ["overture"], "website": "http://www.seattlesbest.com", "phone": "(425) 885-9639", "address": "10630 NE 145th Pl"}, "geometry": {"type": "Point", "coordinates": [-122.1989746, 47.7336617]}}, {"type": "Feature", "properties": {"id": 538617235, "name": "Windsor Vista Park", "category": "park", "tags": ["park"], "sources": ["osm", "overture"], "website": "http://www.kirklandwa.gov/", "phone": "+14255873300", "address": "14251 111th Ave NE"}, "geometry": {"type": "Point", "coordinates": [-122.1937958, 47.7305293]}}, {"type": "Feature", "properties": {"id": 509895202, "name": "7-Eleven", "category": "convenience", "tags": ["convenience"], "sources": ["osm"], "website": "https://www.7-eleven.com/locations/wa/bothell/14501-juanita-woodinville-23930", "phone": "+1-425-823-5488", "address": "14501 Juanita-Woodinville Way Northeast", "hours": "24/7"}, "geometry": {"type": "Point", "coordinates": [-122.1955814, 47.7334156]}}]}