{"type": "FeatureCollection", "features": [{"type": "Feature", "properties": {"id": 1695049650, "name": "Cantinetta", "category": "restaurant", "tags": ["restaurant", "italian", "european"], "sources": ["osm", "overture"], "website": "http://www.Cantinetta.com/", "phone": "+12066321000", "address": "3650 Wallingford Ave N", "hours": "Tu-Su 17:00-21:00"}, "geometry": {"type": "Point", "coordinates": [-122.3361496, 47.6518718]}}, {"type": "Feature", "properties": {"id": 216320992, "name": "Irwin's Bakery And Coffee House", "category": "cafe", "tags": ["cafe", "breakfast", "sandwich"], "sources": ["osm"], "website": "https://irwinsbakeryseattle.com/", "phone": "+1-206-675-1484", "address": "2123 North 40th Street", "hours": "Mo-Su 07:00-18:00"}, "geometry": {"type": "Point", "coordinates": [-122.3328118, 47.6554359]}}, {"type": "Feature", "properties": {"id": 216687775, "name": "Union Saloon", "category": "pub", "tags": ["pub", "regional", "outdoor-seating", "takeaway", "wheelchair-accessible", "restaurant", "bar-and-grill", "bar", "grill", "american"], "sources": ["osm", "overture"], "website": "http://www.unionsaloonseattle.com/", "phone": "+12065472280", "address": "3645 Wallingford Ave N", "hours": "We-Th 16:30-21:00; Fr-Sa 16:30-22:00; Su 09:30-14:00"}, "geometry": {"type": "Point", "coordinates": [-122.3365365, 47.6518389]}}, {"type": "Feature", "properties": {"id": "75c42ebf-263b-40bb-8890-d740838e7e63", "name": "Costa Cafe", "category": "cafe", "tags": ["cafe", "seafood"], "sources": ["overture"], "phone": "+16306705351", "address": "4250 Dewy Carrefour"}, "geometry": {"type": "Point", "coordinates": [-122.3393021, 47.6512108]}}, {"type": "Feature", "properties": {"id": "a313dfa2-de5f-4e84-b1e1-6c163853f891", "name": "G & M Restaurants Llc", "category": "restaurant", "tags": ["restaurant"], "sources": ["overture"], "address": "3650 Wallingford Ave N"}, "geometry": {"type": "Point", "coordinates": [-122.3361435, 47.6518288]}}, {"type": "Feature", "properties": {"id": "fc9b083d-1896-4f93-9501-68264c4de985", "name": "Irwin's Neighborhood Bakery and Cafe", "category": "bakery", "tags": ["bakery"], "sources": ["overture"], "website": "http://www.irwinsbakeryseattle.com", "phone": "+12066751484", "address": "2123 N 40th St"}, "geometry": {"type": "Point", "coordinates": [-122.3328323, 47.6555138]}}, {"type": "Feature", "properties": {"id": "55c182ea-bb6b-4363-a2f8-d83cda06461d", "name": "Wallingford Garden Apartments", "category": "attraction", "tags": ["attraction", "landmark", "historical", "building"], "sources": ["overture"], "phone": "+12063510283", "address": "3940 Wallingford Ave N"}, "geometry": {"type": "Point", "coordinates": [-122.3359375, 47.6554527]}}, {"type": "Feature", "properties": {"id": "1af8728a-3dd4-4316-a707-e67fff872637", "name": "Harry and the Hendersons House", "category": "attraction", "tags": ["attraction", "landmark", "historical", "building"], "sources": ["overture"], "address": "4214 Burke Ave N"}, "geometry": {"type": "Point", "coordinates": [-122.3349152, 47.6585541]}}, {"type": "Feature", "properties": {"id": 158265918, "name": "Wallingford Playfield", "category": "park", "tags": ["park"], "sources": ["osm", "overture"], "website": "http://www.seattle.gov/parks/parkspaces/wallingf.htm", "phone": "+12066844075", "address": "4219 Wallingford Ave N", "hours": "04:00-23:30"}, "geometry": {"type": "Point", "coordinates": [-122.3374174, 47.6585824]}}, {"type": "Feature", "properties": {"id": "302128ae-568e-4658-ac40-0e7100de88f2", "name": "Big Four Ice Caves, Mt. Baker National Forest", "category": "park", "tags": ["park"], "sources": ["overture"], "website": "www.wta.org/go-hiking/hikes/big-four-ice-caves"}, "geometry": {"type": "Point", "coordinates": [-122.3364792, 47.6551285]}}, {"type": "Feature", "properties": {"id": 620167157, "name": "Durn Good Grocery", "category": "convenience", "tags": ["convenience"], "sources": ["osm", "overture"], "website": "http://www.agr.wa.gov/", "phone": "+12066330500", "address": "4002 Wallingford Ave N"}, "geometry": {"type": "Point", "coordinates": [-122.3360908, 47.6557553]}}, {"type": "Feature", "properties": {"id": 2135542069, "name": "Jet City Device Repair", "category": "electronics", "tags": ["electronics"], "sources": ["osm"], "website": "https://www.jcdrepair.com/seattle/WA/wallingford", "phone": "+1-206-569-5068", "address": "3642 Wallingford Avenue North", "hours": "Mo-Fr 10:00-19:00; Sa-Su 10:00-17:00"}, "geometry": {"type": "Point", "coordinates": [-122.3361575, 47.6517466]}}, {"type": "Feature", "properties": {"id": 5080238723, "name": "The Lab", "category": "fitness_centre", "tags": ["fitness-centre"], "sources": ["osm"]}, "geometry": {"type": "Point", "coordinates": [-122.3320275, 47.6502069]}}, {"type": "Feature", "properties": {"id": "3add59d4-d7b7-4354-9b5e-d37eccb024f6", "name": "Buddhi Yoga", "category": "fitness_centre", "tags": ["fitness-centre", "yoga", "studio"], "sources": ["overture"], "website": "https://get.mndbdy.ly/bGTb1t5WeVb", "phone": "+12064120627", "address": "3704 Bagley Ave N"}, "geometry": {"type": "Point", "coordinates": [-122.3325195, 47.6522484]}}, {"type": "Feature", "properties": {"id": "5e404b2f-2c28-4fb3-92b3-0dfd4aaef271", "name": "Integrative Healing - Segura Studios", "category": "fitness_centre", "tags": ["fitness-centre", "yoga", "studio"], "sources": ["overture"], "website": "http://www.yoganidraseattle.com/", "phone": "2068007074", "address": "1909 N 39th St"}, "geometry": {"type": "Point", "coordinates": [-122.3345566, 47.6543121]}}]}