{"type": "FeatureCollection", "features": [{"type": "Feature", "properties": {"id": 40136306, "name": "Des Moines Snack Shack", "category": "restaurant", "tags": ["restaurant"], "sources": ["osm"], "address": "25205 Saltwater Park Road"}, "geometry": {"type": "Point", "coordinates": [-122.3239212, 47.3723347]}}, {"type": "Feature", "properties": {"id": "ad22408c-7871-49a2-b358-12a0f807eebf", "name": "Des Moines Snack Shack", "category": "restaurant", "tags": ["restaurant", "diner"], "sources": ["overture"], "phone": "+12532406067", "address": "25205 8th Pl S"}, "geometry": {"type": "Point", "coordinates": [-122.3229904, 47.3753738]}}, {"type": "Feature", "properties": {"id": "59fa4564-ad1c-408c-bbf0-f0c8108e9002", "name": "Saltwater Cafe", "category": "cafe", "tags": ["cafe"], "sources": ["overture"], "website": "http://www.saltwaterparkcafe.com", "phone": "(206) 400-7266", "address": "25205 8th Pl S"}, "geometry": {"type": "Point", "coordinates": [-122.323761, 47.3755226]}}, {"type": "Feature", "properties": {"id": "b1f5b052-1891-49a1-bd6c-e3fef53cffc8", "name": "Jones'n For A Dog", "category": "restaurant", "tags": ["restaurant", "hot-dog", "hot", "dog", "american"], "sources": ["overture"], "address": "25205 8th Pl S"}, "geometry": {"type": "Point", "coordinates": [-122.3237228, 47.3755035]}}, {"type": "Feature", "properties": {"id": 10035064917, "name": "Kayak Rentals", "category": "attraction", "tags": ["attraction"], "sources": ["osm"]}, "geometry": {"type": "Point", "coordinates": [-122.3238883, 47.3722692]}}, {"type": "Feature", "properties": {"id": "7aec3d34-1528-48bd-819e-e896b312ebb8", "name": "Huntington Park West Homes", "category": "attraction", "tags": ["attraction", "landmark", "historical", "building"], "sources": ["overture"], "website": "http://huntingtonparkwest.org/", "phone": "+12068782744", "address": "1000 S 248th St"}, "geometry": {"type": "Point", "coordinates": [-122.3215256, 47.3799896]}}, {"type": "Feature", "properties": {"id": "193361b8-a798-4d7d-b07f-6114ac330f27", "name": "Cara Jewelry", "category": "jewelry", "tags": ["jewelry"], "sources": ["overture"], "website": "http://www.carajewelry.biz/", "phone": "+18772533505", "address": "24801 11th Ave S"}, "geometry": {"type": "Point", "coordinates": [-122.320076, 47.3793793]}}]}