{"type": "FeatureCollection", "features": [{"type": "Feature", "properties": {"id": "bee95c6f-b76f-4d0b-9ee9-37f52ad8e2d7", "name": "Cedar Ridge Condominium", "category": "attraction", "tags": ["attraction", "landmark", "historical", "building"], "sources": ["overture"], "website": "http://www.estherdruxman.com/", "phone": "+14257020988", "address": "8002 145th Ave NE"}, "geometry": {"type": "Point", "coordinates": [-122.1464157, 47.6762848]}}, {"type": "Feature", "properties": {"id": "fb34b967-3520-4af4-a1a6-4ef9ba3443b9", "name": "Htc America", "category": "mobile_phone", "tags": ["mobile-phone", "mobile"], "sources": ["overture"], "website": "http://www.htc.com", "phone": "+14258619174", "address": "7311 148th Ave Ne Fl 4"}, "geometry": {"type": "Point", "coordinates": [-122.1457214, 47.6701469]}}]}