{"type": "FeatureCollection", "features": [{"type": "Feature", "properties": {"id": 2400860767, "name": "Domino's", "category": "fast_food", "tags": ["fast-food", "pizza", "takeaway", "restaurant"], "sources": ["osm", "overture"], "website": "https://www.dominos.com/en/?utm_source=google&utm_medium=loclist&utm_campaign=localmaps", "phone": "+12062857000", "address": "714 Taylor Ave N", "hours": "Mo-Th 10:00-01:00; Fr-Sa 10:00-02:00; Su 10:00-24:00"}, "geometry": {"type": "Point", "coordinates": [-122.345787, 47.6259005]}}, {"type": "Feature", "properties": {"id": "81e568f6-5f06-46b1-96b3-16efb3c8f035", "name": "Starbucks", "category": "cafe", "tags": ["cafe", "coffee"], "sources": ["overture"], "phone": "2062160306", "address": "1200 Westlake Ave N (1200 Westlake Ave, Dt - Seattle)"}, "geometry": {"type": "Point", "coordinates": [-122.3410416, 47.6299934]}}, {"type": "Feature", "properties": {"id": "56a0fcfa-72a0-4a17-af19-b3d15a413b6a", "name": "Starbucks", "category": "cafe", "tags": ["cafe", "coffee"], "sources": ["overture"], "website": "https://www.starbucks.com/store-locator/store/17981", "phone": "+12063524020", "address": "500 Mercer St"}, "geometry": {"type": "Point", "coordinates": [-122.3470154, 47.6248512]}}, {"type": "Feature", "properties": {"id": "12833fed-1f4b-4cfc-bab2-bbac606df8ff", "name": "McDonald's", "category": "fast_food", "tags": ["fast-food", "fast", "food", "burger", "american"], "sources": ["overture"], "website": "https://www.mcdonalds.com/us/en-us/location/wa/seattle/222-5th-ave-n/5573.html?cid=RF%3AYXT%3ARoN%3A%3AClicks%3Fcid%3DRF%3AYXT%3AFB%3A%3AClicks", "phone": "+12064439275", "address": "222 5th Ave N"}, "geometry": {"type": "Point", "coordinates": [-122.3472595, 47.6205292]}}, {"type": "Feature", "properties": {"id": 2400860882, "name": "Pagliacci Pizza", "category": "restaurant", "tags": ["restaurant", "pizza", "italian"], "sources": ["osm", "overture"], "website": "http://www.pagliacci.com/", "phone": "+12067261717", "address": "719 Aurora Ave N", "hours": "Su-Th 16:00-23:00; Fr-Sa 16:00-24:00"}, "geometry": {"type": "Point", "coordinates": [-122.3439502, 47.62607]}}, {"type": "Feature", "properties": {"id": 2180678284, "name": "Big Mario's Pizza", "category": "fast_food", "tags": ["fast-food", "pizza", "restaurant", "italian"], "sources": ["osm", "overture"], "website": "http://bigmariosnewyorkstylepizza.com/menu/", "phone": "+12064535841", "address": "815 5th Ave N", "hours": "Mo-Fr 11:00-02:00; Sa-Su 12:00-02:00"}, "geometry": {"type": "Point", "coordinates": [-122.3477244, 47.6268102]}}, {"type": "Feature", "properties": {"id": 1695204259, "name": "Caffe Vita", "category": "cafe", "tags": ["cafe", "coffee-shop", "wifi"], "sources": ["osm"], "address": "813 5th Avenue North", "hours": "Mo-Su 07:00-17:00"}, "geometry": {"type": "Point", "coordinates": [-122.347723, 47.6267583]}}, {"type": "Feature", "properties": {"id": 1695204287, "name": "Lazy Susan", "category": "restaurant", "tags": ["restaurant", "korean", "mexican"], "sources": ["osm", "overture"], "website": "https://www.lazysusanseattle.com", "phone": "(206) 588-2224", "address": "823 5th Ave N"}, "geometry": {"type": "Point", "coordinates": [-122.3477368, 47.6270447]}}, {"type": "Feature", "properties": {"id": 1695204292, "name": "Genki Sushi", "category": "restaurant", "tags": ["restaurant", "sushi"], "sources": ["osm"], "address": "500 Mercer Street"}, "geometry": {"type": "Point", "coordinates": [-122.347276, 47.6248892]}}, {"type": "Feature", "properties": {"id": 2180678288, "name": "Bad Bar", "category": "bar", "tags": ["bar"], "sources": ["osm", "overture"], "website": "http://goodtimesbadbar.com", "phone": "12064026787", "address": "819 5th Ave N"}, "geometry": {"type": "Point", "coordinates": [-122.347734, 47.6269337]}}, {"type": "Feature", "properties": {"id": 2268991258, "name": "Psychedelic Lens", "category": "cafe", "tags": ["cafe", "coffee-shop", "art"], "sources": ["osm"], "address": "230 6th Avenue North"}, "geometry": {"type": "Point", "coordinates": [-122.3447846, 47.6207073]}}, {"type": "Feature", "properties": {"id": 2326560208, "name": "Stone Korean", "category": "restaurant", "tags": ["restaurant", "korean", "takeaway", "vegetarian"], "sources": ["osm"], "website": "http://stonekorean.com", "phone": "+1-206-717-2864", "address": "900 Dexter Avenue North", "hours": "Mo-Fr 11:00-21:00; Sa 11:00-21:30; Su off"}, "geometry": {"type": "Point", "coordinates": [-122.342096, 47.6272954]}}, {"type": "Feature", "properties": {"id": 2326560209, "name": "TOASTED. Bagels & Coffee", "category": "cafe", "tags": ["cafe", "bagel"], "sources": ["osm"], "website": "https://toastedseattle.com", "address": "901 Dexter Avenue North", "hours": "Mo-Su 07:00-16:00"}, "geometry": {"type": "Point", "coordinates": [-122.342541, 47.6272667]}}, {"type": "Feature", "properties": {"id": "a291d0b5-76c0-4b62-a772-45068e12a431", "name": "Pho Viet Anh", "category": "restaurant", "tags": ["restaurant", "vietnamese", "soup", "asian"], "sources": ["overture"], "website": "http://www.phovietanh.com/", "phone": "+12063521881", "address": "372 Roy St"}, "geometry": {"type": "Point", "coordinates": [-122.3492966, 47.6256142]}}, {"type": "Feature", "properties": {"id": 5736976723, "name": "Caff\u00e8 Umbria", "category": "cafe", "tags": ["cafe", "coffee-shop", "outdoor-seating", "coffee"], "sources": ["osm", "overture"], "website": "http://caffeumbria.com", "phone": "+12067086141", "address": "1201 Westlake Ave N", "hours": "07:00-17:00"}, "geometry": {"type": "Point", "coordinates": [-122.3412, 47.6299284]}}, {"type": "Feature", "properties": {"id": 2400860008, "name": "Maroun Mediterranean Grill", "category": "restaurant", "tags": ["restaurant", "mediterranean", "takeaway"], "sources": ["osm", "overture"], "website": "https://www.marounmedgrill.com", "phone": "12062820173", "address": "366 Roy St", "hours": "Su 16:00-21:00; Mo-Tu 17:00-21:30; We-Th 11:30-14:00,17:00-21:30; Fr 11:30-14:00,16:30-22:00; Sa 16:30-22:00"}, "geometry": {"type": "Point", "coordinates": [-122.349233, 47.6255426]}}, {"type": "Feature", "properties": {"id": 2400860286, "name": "Laredo's", "category": "restaurant", "tags": ["restaurant", "mexican", "outdoor-seating", "wheelchair-accessible"], "sources": ["osm"], "address": "555 Aloha Street", "hours": "Mo 16:00-02:00; Tu-Sa 11:00-02:00; Su 11:30-02:00"}, "geometry": {"type": "Point", "coordinates": [-122.3460417, 47.6270173]}}, {"type": "Feature", "properties": {"id": 2400860870, "name": "Teriyaki Bowl", "category": "fast_food", "tags": ["fast-food", "teriyaki", "restaurant", "japanese"], "sources": ["osm", "overture"], "website": "http://teriyakibowl-qa.com", "phone": "(206) 285-8344", "address": "718 Taylor Ave N"}, "geometry": {"type": "Point", "coordinates": [-122.3457831, 47.6260321]}}, {"type": "Feature", "properties": {"id": 2400948854, "name": "Seattle Grind", "category": "cafe", "tags": ["cafe", "coffee-shop", "wifi"], "sources": ["osm"], "address": "516 Harrison Street", "hours": "Mo-Fr 06:00-05:00, Sa 08:00-05:00, Su 10:00-05:00"}, "geometry": {"type": "Point", "coordinates": [-122.3470197, 47.622335]}}, {"type": "Feature", "properties": {"id": 2437708520, "name": "Caf\u00e9 815 Mercer", "category": "cafe", "tags": ["cafe"], "sources": ["osm"], "website": "https://www.hfs.washington.edu/dining/Default.aspx?id=330"}, "geometry": {"type": "Point", "coordinates": [-122.3400822, 47.6236224]}}, {"type": "Feature", "properties": {"id": 2447821835, "name": "Culture Kitchen Seattle", "category": "cafe", "tags": ["cafe"], "sources": ["osm"], "website": "https://wolfgangpuck.com/dining/Culture-Kitchen-Seattle", "address": "325 5th Avenue North", "hours": "Mo-Su 10:00-17:00"}, "geometry": {"type": "Point", "coordinates": [-122.347827, 47.6218793]}}, {"type": "Feature", "properties": {"id": "6b21820e-12c2-4f72-86f7-7d83aca1b431", "name": "Herkimer Coffee", "category": "cafe", "tags": ["cafe", "coffee"], "sources": ["overture"], "website": "https://herkimercoffee.com", "phone": "(206) 274-8242", "address": "901 Dexter Ave N"}, "geometry": {"type": "Point", "coordinates": [-122.3423996, 47.6272926]}}, {"type": "Feature", "properties": {"id": 4610164780, "name": "Tacos Chukis", "category": "restaurant", "tags": ["restaurant", "mexican", "outdoor-seating", "takeaway", "vegetarian", "vegan", "taco", "texmex"], "sources": ["osm", "overture"], "website": "https://www.seattlechukis.com/s/order?location=T95W0QX8SG0D4", "phone": "+12065189025", "address": "832 Dexter Ave N"}, "geometry": {"type": "Point", "coordinates": [-122.3420901, 47.6270294]}}, {"type": "Feature", "properties": {"id": 3297934974, "name": "Gyro & More", "category": "restaurant", "tags": ["restaurant", "mediterranean", "middle-eastern"], "sources": ["osm", "overture"], "website": "http://gyroandmore.com", "phone": "+12069223821", "address": "1205 Dexter Ave N", "hours": "Mo-Sa 11:00-21:00"}, "geometry": {"type": "Point", "coordinates": [-122.342511, 47.6299626]}}, {"type": "Feature", "properties": {"id": 3359850618, "name": "The Loupe Lounge", "category": "bar", "tags": ["bar"], "sources": ["osm"], "website": "https://www.spaceneedle.com/lounge", "address": "400 Broad Street"}, "geometry": {"type": "Point", "coordinates": [-122.3493623, 47.6205152]}}, {"type": "Feature", "properties": {"id": "6e07be83-90fa-4b7d-9f89-c9590bc51699", "name": "Fresh Flours", "category": "bakery", "tags": ["bakery"], "sources": ["overture"], "website": "http://www.freshfloursseattle.com", "phone": "+12067063338", "address": "432 8th Ave N"}, "geometry": {"type": "Point", "coordinates": [-122.34095, 47.6230202]}}, {"type": "Feature", "properties": {"id": 3716237383, "name": "Papa poy-yo", "category": "restaurant", "tags": ["restaurant"], "sources": ["osm"], "hours": "Mo-Fr 11:00-14:00", "stations": [{"stopCode": 50, "lines": "1,2", "name": "Westlake Station", "walkingMeters": 1221, "walkingSeconds": 880, "band": 15}]}, "geometry": {"type": "Point", "coordinates": [-122.3400352, 47.6211919]}}, {"type": "Feature", "properties": {"id": 3831523658, "name": "Tanoor", "category": "restaurant", "tags": ["restaurant", "lebanese", "vegetarian", "gluten-free", "halal", "middle-eastern", "mediterranean"], "sources": ["osm", "overture"], "website": "http://www.tanoor.com/", "phone": "+12064575272", "address": "803 Dexter Ave N"}, "geometry": {"type": "Point", "coordinates": [-122.3425442, 47.6269357]}}, {"type": "Feature", "properties": {"id": 4617645966, "name": "Toast To Toast", "category": "cafe", "tags": ["cafe", "american"], "sources": ["osm"], "address": "211 Dexter Avenue North", "stations": [{"stopCode": 50, "lines": "1,2", "name": "Westlake Station", "walkingMeters": 1177, "walkingSeconds": 849, "band": 15}]}, "geometry": {"type": "Point", "coordinates": [-122.3426505, 47.6201384]}}, {"type": "Feature", "properties": {"id": 5559491422, "name": "Konvene Coffee & Cafe", "category": "cafe", "tags": ["cafe"], "sources": ["osm"]}, "geometry": {"type": "Point", "coordinates": [-122.3471762, 47.6247794]}}, {"type": "Feature", "properties": {"id": 6908409785, "name": "The Halal Guys", "category": "fast_food", "tags": ["fast-food", "chicken", "falafel", "gyros", "takeaway", "vegetarian", "halal", "restaurant", "middle-eastern"], "sources": ["osm", "overture"], "website": "http://thehalalguys.com/", "phone": "+12062575471", "address": "333 8th Ave N", "hours": "Mo-Sa 11:00-21:00; Su 11:00-20:00", "stations": [{"stopCode": 50, "lines": "1,2", "name": "Westlake Station", "walkingMeters": 1269, "walkingSeconds": 916, "band": 15}]}, "geometry": {"type": "Point", "coordinates": [-122.341296, 47.6210388]}}, {"type": "Feature", "properties": {"id": "76f8b8f6-cd35-4335-8d6b-4d3da91e84f6", "name": "Caf\u00e9 Hagen", "category": "cafe", "tags": ["cafe", "coffee"], "sources": ["overture"], "website": "https://www.cafehagen.com", "address": "700 Dexter Ave N"}, "geometry": {"type": "Point", "coordinates": [-122.34198, 47.6256714]}}, {"type": "Feature", "properties": {"id": "01e7d7a7-46f4-475f-8188-588b0ab44a4f", "name": "Cafe Hagen", "category": "cafe", "tags": ["cafe", "breakfast-and-brunch"], "sources": ["overture"], "website": "http://www.hagencoffeeroasters.com", "phone": "+12064329463", "address": "800 5th Ave N"}, "geometry": {"type": "Point", "coordinates": [-122.3470688, 47.6264381]}}, {"type": "Feature", "properties": {"id": 8017361519, "name": "Panino", "category": "cafe", "tags": ["cafe", "sandwich", "italian"], "sources": ["osm"], "website": "https://www.mypanino.com/", "phone": "+1-206-657-7241", "address": "403 Dexter Avenue North", "hours": "Mo-Th 11:00-21:00; Fr-Sa 11:00-22:00; Su 11:00-18:00"}, "geometry": {"type": "Point", "coordinates": [-122.3426571, 47.6225848]}}, {"type": "Feature", "properties": {"id": 11029532422, "name": "Hagen", "category": "cafe", "tags": ["cafe", "outdoor-seating"], "sources": ["osm"], "address": "800 5th Avenue North", "hours": "07:00-16:00"}, "geometry": {"type": "Point", "coordinates": [-122.3473932, 47.6263851]}}, {"type": "Feature", "properties": {"id": 11062473209, "name": "Cairde Public House", "category": "pub", "tags": ["pub", "outdoor-seating", "bar", "sports"], "sources": ["osm", "overture"], "website": "http://www.cphbarseattle.com/", "phone": "+12062574217", "address": "701 5th Ave N #100"}, "geometry": {"type": "Point", "coordinates": [-122.3478265, 47.6256049]}}, {"type": "Feature", "properties": {"id": 12030029959, "name": "Hawaiian Shave Ice", "category": "ice_cream", "tags": ["ice-cream"], "sources": ["osm"]}, "geometry": {"type": "Point", "coordinates": [-122.3491432, 47.6216719]}}, {"type": "Feature", "properties": {"id": "35949685-852f-4940-8aae-417a92f1f6d1", "name": "Stone Korean Restaurant", "category": "restaurant", "tags": ["restaurant", "korean", "asian", "barbecue"], "sources": ["overture"], "website": "http://stonekorean.com", "phone": "+12067172864", "address": "900 Dexter Ave N"}, "geometry": {"type": "Point", "coordinates": [-122.3422318, 47.6272469]}}, {"type": "Feature", "properties": {"id": "d8db4a07-3e48-4727-83b6-54fff38d5abe", "name": "Marinepolis Sushi Land", "category": "restaurant", "tags": ["restaurant", "sushi"], "sources": ["overture"], "phone": "2062677621", "address": "803 5th Ave N"}, "geometry": {"type": "Point", "coordinates": [-122.3478012, 47.6264038]}}, {"type": "Feature", "properties": {"id": 223782713, "name": "Koibito Sushi & Teriyaki", "category": "restaurant", "tags": ["restaurant", "japanese", "sushi", "asian"], "sources": ["osm", "overture"], "website": "https://koibitosushiteriyaki.netwaiter.com/seattle/", "phone": "+12062822113", "address": "1201 Dexter Ave N", "hours": "Mo-Fr 10:30-21:00"}, "geometry": {"type": "Point", "coordinates": [-122.3426028, 47.6298453]}}, {"type": "Feature", "properties": {"id": 231753352, "name": "Basilic", "category": "restaurant", "tags": ["restaurant", "thai"], "sources": ["osm"], "website": "https://www.basilicqueenanne.com/", "phone": "+1-206-457-4675", "address": "352 Roy Street"}, "geometry": {"type": "Point", "coordinates": [-122.3499259, 47.6255872]}}, {"type": "Feature", "properties": {"id": 231753398, "name": "Bahn Thai", "category": "restaurant", "tags": ["restaurant", "thai"], "sources": ["osm"], "website": "https://www.bahnthaimenu.com/", "phone": "+1-206-283-0444", "address": "409 Roy Street"}, "geometry": {"type": "Point", "coordinates": [-122.3483709, 47.6252475]}}, {"type": "Feature", "properties": {"id": 331767017, "name": "Citizen Cafe", "category": "cafe", "tags": ["cafe", "crepe", "coffee-shop", "outdoor-seating", "takeaway", "wheelchair-accessible", "wifi"], "sources": ["osm"], "website": "https://www.citizencoffee.com/", "address": "706 Taylor Avenue North", "hours": "Mo-Th 07:00-21:00; Fr-Sa 07:00-22:00; Su 07:00-15:30"}, "geometry": {"type": "Point", "coordinates": [-122.3459519, 47.6256982]}}, {"type": "Feature", "properties": {"id": "09e1e3aa-6150-4637-8bb5-2d642bb4dc7f", "name": "SkyCity Restaurant", "category": "restaurant", "tags": ["restaurant", "american"], "sources": ["overture"], "website": "http://www.spaceneedle.com/restaurant/", "phone": "(800) 937-9582", "address": "400 Broad St"}, "geometry": {"type": "Point", "coordinates": [-122.3494339, 47.6204414]}}, {"type": "Feature", "properties": {"id": "790537be-ae2e-4324-ba52-cbc63ada117e", "name": "Basilic Essentially Thai", "category": "restaurant", "tags": ["restaurant", "thai", "asian"], "sources": ["overture"], "website": "http://www.basilicqueenanne.com", "phone": "+12064574675", "address": "352 Roy St"}, "geometry": {"type": "Point", "coordinates": [-122.3499222, 47.6255188]}}, {"type": "Feature", "properties": {"id": "be291b1e-5642-484b-9b4b-ba11280de66a", "name": "Thai Heaven", "category": "restaurant", "tags": ["restaurant", "thai", "asian"], "sources": ["overture"], "website": "https://grubhub.com/restaurant/Thai-Heaven-Restaurant-352-Roy-St-Seattle/78262", "phone": "+12062851596", "address": "352 Roy St"}, "geometry": {"type": "Point", "coordinates": [-122.3499985, 47.625576]}}, {"type": "Feature", "properties": {"id": "b40bc07b-7624-457e-898f-4dfe4c4f07b9", "name": "Henry's Taiwan Bistro", "category": "restaurant", "tags": ["restaurant", "taiwanese"], "sources": ["overture"], "website": "http://henrystaiwanbistro.com", "phone": "(206) 283-9503", "address": "352 Roy St"}, "geometry": {"type": "Point", "coordinates": [-122.3499222, 47.6256142]}}, {"type": "Feature", "properties": {"id": "c7afba6b-c2a4-4312-9579-fd0e5f93e1fb", "name": "Bamboo Garden", "category": "restaurant", "tags": ["restaurant", "vegan"], "sources": ["overture"], "website": "http://bamboo-garden.co", "phone": "(206) 282-6616", "address": "364 Roy St"}, "geometry": {"type": "Point", "coordinates": [-122.3494949, 47.6256104]}}, {"type": "Feature", "properties": {"id": "25ddca73-64d0-4fbe-a9c4-0ecf8fd4c172", "name": "Szn Seattle Bar & Grill", "category": "restaurant", "tags": ["restaurant"], "sources": ["overture"], "website": "https://www.sznseattle.com", "address": "823 5th Ave N"}, "geometry": {"type": "Point", "coordinates": [-122.3478394, 47.6270103]}}, {"type": "Feature", "properties": {"id": "da3fa900-e279-4a3f-b2f5-048642cb4c02", "name": "Kouyou Sushi", "category": "restaurant", "tags": ["restaurant", "sushi", "japanese", "asian"], "sources": ["overture"], "website": "http://www.kouyousushi.com/", "phone": "+12062747243", "address": "823 5th Ave N"}, "geometry": {"type": "Point", "coordinates": [-122.3478851, 47.6270103]}}, {"type": "Feature", "properties": {"id": "53c70a63-0467-4545-b7b2-ce1a574a5c16", "name": "Crow Restaurant And Bar", "category": "restaurant", "tags": ["restaurant", "american"], "sources": ["overture"], "website": "http://eatatcrow.com", "phone": "(206) 283-8800", "address": "823 5th Ave N"}, "geometry": {"type": "Point", "coordinates": [-122.3476181, 47.6269951]}}, {"type": "Feature", "properties": {"id": "df5f67d0-f73a-44ad-843a-cdbd4ad0ad47", "name": "Laredo's Grill", "category": "restaurant", "tags": ["restaurant", "texmex", "mexican", "latin-american"], "sources": ["overture"], "website": "http://Laredostexmex.com/?y_source=1_MTU4Mzg1OTgtNTU5LWxvY2F0aW9uLndlYnNpdGU%3D", "phone": "+12062181040", "address": "555 Aloha St"}, "geometry": {"type": "Point", "coordinates": [-122.3460846, 47.6270866]}}, {"type": "Feature", "properties": {"id": "a3028f07-bda8-481b-96a1-97ee01e1c2ed", "name": "Bistro", "category": "restaurant", "tags": ["restaurant", "american"], "sources": ["overture"], "website": "https://www.marriott.com/hotels/hotel-information/restaurant/seacd-courtyard-seattle-downtown-lake-union/", "address": "925 Westlake Ave N"}, "geometry": {"type": "Point", "coordinates": [-122.3404007, 47.6274376]}}, {"type": "Feature", "properties": {"id": "3bd30ca8-e136-4bea-a5fe-5effa2927025", "name": "Potbelly Sandwich Shop", "category": "restaurant", "tags": ["restaurant", "sandwich"], "sources": ["overture"], "website": "http://www.potbelly.com/Dexter", "phone": "(206) 573-5044", "address": "1101 Dexter Avenue N, Ste 101"}, "geometry": {"type": "Point", "coordinates": [-122.3429108, 47.6288528]}}, {"type": "Feature", "properties": {"id": "3b0bcf00-cf5b-4ec9-a3f9-d8c8797c2330", "name": "Space Noodle", "category": "restaurant", "tags": ["restaurant"], "sources": ["overture"], "phone": "+12063108351", "address": "1101 Dexter Ave N"}, "geometry": {"type": "Point", "coordinates": [-122.3425827, 47.6290436]}}, {"type": "Feature", "properties": {"id": "44da824e-9791-4b47-a518-f074f40b793a", "name": "Helo Technologies, Inc", "category": "restaurant", "tags": ["restaurant"], "sources": ["overture"], "address": "1100 Dexter Ave N Ste 200"}, "geometry": {"type": "Point", "coordinates": [-122.3419037, 47.6291351]}}, {"type": "Feature", "properties": {"id": "b04d5469-e15d-4a47-a2ed-38f44eeedaed", "name": "The Yarrow Group, Llc.", "category": "restaurant", "tags": ["restaurant"], "sources": ["overture"], "phone": "+16503803336", "address": "1200 Westlake Ave N Ste 210"}, "geometry": {"type": "Point", "coordinates": [-122.3400269, 47.6299667]}}, {"type": "Feature", "properties": {"id": "22d62396-401d-4419-b3d4-ac595d891a11", "name": "TruLe Yours Cafe", "category": "cafe", "tags": ["cafe"], "sources": ["overture"], "phone": "+12538436509", "address": "601 Aurora Ave N"}, "geometry": {"type": "Point", "coordinates": [-122.3440475, 47.6252632]}}, {"type": "Feature", "properties": {"id": "76275857-bedd-4dc1-a0a6-1cce27f30ebf", "name": "SLU BRU", "category": "bar", "tags": ["bar", "beer", "garden"], "sources": ["overture"], "website": "http://slubru.com", "phone": "(206) 518-9684", "address": "700 Dexter Ave N Ste 230"}, "geometry": {"type": "Point", "coordinates": [-122.3429108, 47.6256142]}}, {"type": "Feature", "properties": {"id": "928397a2-4b5c-4297-91bb-cc72fd35b385", "name": "Dexter Brewhouse", "category": "bar", "tags": ["bar", "brewery"], "sources": ["overture"], "website": "https://www.dexterbrewhouse.com", "phone": "(206) 403-1228", "address": "803 Dexter Ave N"}, "geometry": {"type": "Point", "coordinates": [-122.3423615, 47.6268806]}}, {"type": "Feature", "properties": {"id": "236000ed-6d05-4423-a603-e8e6ee5d7897", "name": "Mollusk Restaurant & Brewery", "category": "bar", "tags": ["bar", "brewery"], "sources": ["overture"], "website": "http://www.molluskseattle.com/", "phone": "2064031228", "address": "803 Dexter Ave N"}, "geometry": {"type": "Point", "coordinates": [-122.3423309, 47.6268311]}}, {"type": "Feature", "properties": {"id": "6ea30e9d-3e61-4b85-ab64-ea5049ab8f58", "name": "Culinary Couriers", "category": "restaurant", "tags": ["restaurant"], "sources": ["overture"], "website": "http://www.restaurantstogo.com", "phone": "+12064438646", "address": "711 6th Ave N"}, "geometry": {"type": "Point", "coordinates": [-122.345192, 47.6259651]}}, {"type": "Feature", "properties": {"id": "a9f17fd3-48a2-4979-bcbe-43bfca527665", "name": "Teriking", "category": "restaurant", "tags": ["restaurant"], "sources": ["overture"], "website": "https://www.clover.com", "phone": "12065882689", "address": "718 Taylor Ave N"}, "geometry": {"type": "Point", "coordinates": [-122.3458633, 47.6259499]}}, {"type": "Feature", "properties": {"id": "917522f6-05c9-4d26-84bd-f569eb61bbbb", "name": "The Nabob", "category": "pub", "tags": ["pub"], "sources": ["overture"], "website": "http://www.thenabobbar.com/", "phone": "(206) 281-9850", "address": "819 5th Ave N"}, "geometry": {"type": "Point", "coordinates": [-122.3476028, 47.6268349]}}, {"type": "Feature", "properties": {"id": "1471b3f7-9562-42b8-a20e-4c333b599f65", "name": "Panos Kleftiko", "category": "restaurant", "tags": ["restaurant", "greek"], "sources": ["overture"], "website": "http://www.panoskleftiko.com", "phone": "(206) 301-0393", "address": "815 5th Ave N"}, "geometry": {"type": "Point", "coordinates": [-122.3475266, 47.6268196]}}, {"type": "Feature", "properties": {"id": "9183dfd3-335a-4845-995b-85a093b998da", "name": "Kamino Sushi And More", "category": "restaurant", "tags": ["restaurant", "burmese"], "sources": ["overture"], "website": "https://www.kaminosushiandmore.com", "phone": "2069196818", "address": "372 Roy St"}, "geometry": {"type": "Point", "coordinates": [-122.3492737, 47.6255951]}}, {"type": "Feature", "properties": {"id": "c5d158dc-ad13-4a2f-b8d8-7d196ea97bb2", "name": "Asian Breeze", "category": "restaurant", "tags": ["restaurant", "asian"], "sources": ["overture"], "website": "http://asianbreezedelivery.com", "phone": "(206) 285-6713", "address": "366 Roy St"}, "geometry": {"type": "Point", "coordinates": [-122.3491821, 47.6254883]}}, {"type": "Feature", "properties": {"id": "9061bb99-4b17-476c-810e-9662e9b523e3", "name": "Bahn Thai Restaurant", "category": "restaurant", "tags": ["restaurant", "thai"], "sources": ["overture"], "website": "http://www.bahnthaimenu.com/", "phone": "(206) 283-0444", "address": "409 Roy St"}, "geometry": {"type": "Point", "coordinates": [-122.3484039, 47.6253014]}}, {"type": "Feature", "properties": {"id": "93a81313-9f43-4e59-b347-218436ae6e17", "name": "NYP Bar and Grill Seattle", "category": "bar", "tags": ["bar", "burger"], "sources": ["overture"], "phone": "2069132565", "address": "500 Mercer St"}, "geometry": {"type": "Point", "coordinates": [-122.3470917, 47.6248398]}}, {"type": "Feature", "properties": {"id": "ad6fe4b8-ac7e-432c-8805-f66301c7bcee", "name": "Citizen Collective", "category": "cafe", "tags": ["cafe"], "sources": ["overture"], "website": "https://www.citizen-collective.com/", "phone": "+12062841015", "address": "706 Taylor Ave N"}, "geometry": {"type": "Point", "coordinates": [-122.3461075, 47.6256752]}}, {"type": "Feature", "properties": {"id": "c69bfe10-0569-424e-81a4-5835c52f9f91", "name": "Fireside Cafe", "category": "restaurant", "tags": ["restaurant"], "sources": ["overture"], "website": "https://www.fourpointsdowntownseattlecenter.com", "phone": "12062822600", "address": "601 Roy St"}, "geometry": {"type": "Point", "coordinates": [-122.3444824, 47.6251144]}}, {"type": "Feature", "properties": {"id": "04f4cb12-93ac-47d2-9d30-76f16d3181e1", "name": "Konvene Coffee", "category": "cafe", "tags": ["cafe", "coffee"], "sources": ["overture"], "website": "http://www.konvene.coffee/", "phone": "+12068669134", "address": "500 Mercer St Fl 2"}, "geometry": {"type": "Point", "coordinates": [-122.3474655, 47.6247025]}}, {"type": "Feature", "properties": {"id": "4dd838e7-56e2-4b1e-a941-34e7096dd891", "name": "Hurry Curry of Tokyo - Seattle", "category": "restaurant", "tags": ["restaurant", "asian", "fusion", "comfort-food"], "sources": ["overture"], "website": "http://www.hurrycurryoftokyo-seattle.com/", "phone": "2066819443", "address": "825 Harrison St", "stations": [{"stopCode": 50, "lines": "1,2", "name": "Westlake Station", "walkingMeters": 1313, "walkingSeconds": 947, "band": 15}]}, "geometry": {"type": "Point", "coordinates": [-122.3408737, 47.6219482]}}, {"type": "Feature", "properties": {"id": "ffdf213b-b2d3-4f2a-8244-a1448672cc9f", "name": "Cafe An'Clair - 9th & Thomas", "category": "cafe", "tags": ["cafe", "coffee"], "sources": ["overture"], "phone": "+12062092222", "address": "826 Thomas St", "stations": [{"stopCode": 50, "lines": "1,2", "name": "Westlake Station", "walkingMeters": 1416, "walkingSeconds": 1057, "band": 15}]}, "geometry": {"type": "Point", "coordinates": [-122.340004, 47.6211166]}}, {"type": "Feature", "properties": {"id": "26e197ad-8568-48c1-b1f4-88ee2bec309c", "name": "Art/society Inc", "category": "restaurant", "tags": ["restaurant"], "sources": ["overture"], "website": "http://www.artsocietyglobal.com", "address": "777 Thomas St", "stations": [{"stopCode": 50, "lines": "1,2", "name": "Westlake Station", "walkingMeters": 1399, "walkingSeconds": 1044, "band": 15}]}, "geometry": {"type": "Point", "coordinates": [-122.3414688, 47.6207047]}}, {"type": "Feature", "properties": {"id": "24e2de50-708f-490c-8341-30508e40b0a1", "name": "Crest Coffee Bar", "category": "cafe", "tags": ["cafe", "coffee"], "sources": ["overture"], "website": "https://www.collectiveseattle.com/fullscreen-page/comp-jkejr5yg/0b1fb2ee-349a-45e1-918a-a1a802e8a8a5/1/?i=1&p=tze0o&s=style-jkejr5ub", "phone": "+12062477190", "address": "400 Dexter Ave N"}, "geometry": {"type": "Point", "coordinates": [-122.3419647, 47.6225624]}}, {"type": "Feature", "properties": {"id": "23f08584-cec1-481e-b0bd-60fd80b22f7b", "name": "The Seattle Grind", "category": "cafe", "tags": ["cafe", "coffee"], "sources": ["overture"], "website": "http://www.theseattlegrind.com", "phone": "+12064229525", "address": "516 Harrison St"}, "geometry": {"type": "Point", "coordinates": [-122.3470535, 47.6222229]}}, {"type": "Feature", "properties": {"id": "60b9f03e-815a-4865-8fad-39c1ac17623d", "name": "Pop Kitchen + Bar", "category": "cafe", "tags": ["cafe"], "sources": ["overture"], "website": "http://www.popkitchenseattle.com", "phone": "(206) 359-1168", "address": "325 5th Ave N"}, "geometry": {"type": "Point", "coordinates": [-122.3478775, 47.6217537]}}, {"type": "Feature", "properties": {"id": "ecb87be7-49b6-4b46-bd52-cb7e80ee2048", "name": "Culture Kitchen", "category": "restaurant", "tags": ["restaurant"], "sources": ["overture"], "website": "https://www.mopop.org", "phone": "12062623030", "address": "325 5th Ave N"}, "geometry": {"type": "Point", "coordinates": [-122.348175, 47.6214409]}}, {"type": "Feature", "properties": {"id": "5249d146-1559-48e7-bfaf-7d2a721f8ca0", "name": "Dog In the Park - Seattle Center Location", "category": "restaurant", "tags": ["restaurant", "hot-dog", "hot", "dog", "fast-food"], "sources": ["overture"], "website": "https://doginthepark.wordpress.com/", "phone": "+12062264997", "address": "400 Broad St"}, "geometry": {"type": "Point", "coordinates": [-122.3490753, 47.620945]}}, {"type": "Feature", "properties": {"id": "43b03986-2f93-4092-aa79-0bf6a5c213a4", "name": "H Bar", "category": "bar", "tags": ["bar"], "sources": ["overture"], "website": "http://www.hyatthouseseattledowntown.com/", "phone": "+12067275123", "address": "201 5th Ave N"}, "geometry": {"type": "Point", "coordinates": [-122.3477859, 47.6202888]}}, {"type": "Feature", "properties": {"id": "d3e05507-5f18-45e8-b417-501c8825c967", "name": "Atmos Caf\u00e9", "category": "cafe", "tags": ["cafe"], "sources": ["overture"], "website": "https://www.spaceneedle.com", "phone": "12069052100", "address": "400 Broad St"}, "geometry": {"type": "Point", "coordinates": [-122.3492966, 47.6203842]}}, {"type": "Feature", "properties": {"id": "e5780915-6cc5-4f8e-87d5-cc1f6131cc9b", "name": "Amoli Cafe", "category": "cafe", "tags": ["cafe"], "sources": ["overture"], "phone": "+17652386166", "address": "426 Broad St"}, "geometry": {"type": "Point", "coordinates": [-122.3484497, 47.6202507]}}, {"type": "Feature", "properties": {"id": "32280610-425b-4c2c-af60-6eda294b5862", "name": "Toast To Toast - Breakfast, Bites & Bar", "category": "restaurant", "tags": ["restaurant", "breakfast-and-brunch", "breakfast", "brunch"], "sources": ["overture"], "website": "https://www.ihg.com", "phone": "12066940070", "address": "211 Dexter Ave N", "stations": [{"stopCode": 50, "lines": "1,2", "name": "Westlake Station", "walkingMeters": 1394, "walkingSeconds": 1040, "band": 15}]}, "geometry": {"type": "Point", "coordinates": [-122.3428116, 47.6203003]}}, {"type": "Feature", "properties": {"id": "8ff6624a-29ea-45b7-8181-471eb567da79", "name": "Oro Kitchen", "category": "restaurant", "tags": ["restaurant"], "sources": ["overture"], "address": "227 9th Ave N", "stations": [{"stopCode": 50, "lines": "1,2", "name": "Westlake Station", "walkingMeters": 1339, "walkingSeconds": 999, "band": 15}]}, "geometry": {"type": "Point", "coordinates": [-122.3401642, 47.6205368]}}, {"type": "Feature", "properties": {"id": 2400948772, "name": "Gates Foundation Visitor Center", "category": "museum", "tags": ["museum", "wheelchair-accessible"], "sources": ["osm"], "website": "https://www.discovergates.org/", "phone": "+1-206-709-3100x7100", "address": "440 5th Avenue North", "hours": "We-Sa 10:00-17:00"}, "geometry": {"type": "Point", "coordinates": [-122.3472514, 47.6227967]}}, {"type": "Feature", "properties": {"id": 3211770189, "name": "Moon Gates", "category": "artwork", "tags": ["artwork"], "sources": ["osm"]}, "geometry": {"type": "Point", "coordinates": [-122.3489005, 47.6200414]}}, {"type": "Feature", "properties": {"id": 3211770191, "name": "Black Lightning", "category": "artwork", "tags": ["artwork"], "sources": ["osm"]}, "geometry": {"type": "Point", "coordinates": [-122.3483563, 47.620429]}}, {"type": "Feature", "properties": {"id": 3211770193, "name": "Moses", "category": "artwork", "tags": ["artwork"], "sources": ["osm"]}, "geometry": {"type": "Point", "coordinates": [-122.3488772, 47.6207713]}}, {"type": "Feature", "properties": {"id": 5067615021, "name": "Feminine One", "category": "artwork", "tags": ["artwork"], "sources": ["osm"]}, "geometry": {"type": "Point", "coordinates": [-122.3496643, 47.6208804]}}, {"type": "Feature", "properties": {"id": 6140930665, "name": "Chris Cornell in Performance", "category": "artwork", "tags": ["artwork"], "sources": ["osm"]}, "geometry": {"type": "Point", "coordinates": [-122.3478238, 47.6211902]}}, {"type": "Feature", "properties": {"id": 6256733665, "name": "Re-Stack", "category": "artwork", "tags": ["artwork"], "sources": ["osm"], "stations": [{"stopCode": 50, "lines": "1,2", "name": "Westlake Station", "walkingMeters": 1206, "walkingSeconds": 870, "band": 15}]}, "geometry": {"type": "Point", "coordinates": [-122.3400579, 47.6209831]}}, {"type": "Feature", "properties": {"id": 8533332630, "name": "Typewriter Eraser, Scale X", "category": "artwork", "tags": ["artwork"], "sources": ["osm"]}, "geometry": {"type": "Point", "coordinates": [-122.3484952, 47.6219867]}}, {"type": "Feature", "properties": {"id": 13199924633, "name": "Impatient Optimist", "category": "artwork", "tags": ["artwork"], "sources": ["osm"]}, "geometry": {"type": "Point", "coordinates": [-122.3461629, 47.6234308]}}, {"type": "Feature", "properties": {"id": "907412ff-bef2-4a13-bbd2-15dae8020300", "name": "Totem pole", "category": "attraction", "tags": ["attraction", "landmark", "historical", "building"], "sources": ["overture"], "website": "https://williamsfamilycarvers.com/honor-totem", "phone": "+12067628983", "address": "Broad St"}, "geometry": {"type": "Point", "coordinates": [-122.3481445, 47.6206551]}}, {"type": "Feature", "properties": {"id": 12903132, "name": "Space Needle", "category": "attraction", "tags": ["attraction", "wheelchair-accessible", "wifi", "landmark", "historical", "building"], "sources": ["osm", "overture"], "website": "http://www.spaceneedle.com/", "phone": "+12069052100", "address": "400 Broad St", "hours": "Mo-Th 09:00-22:00; Fr-Su 08:00-00:00"}, "geometry": {"type": "Point", "coordinates": [-122.3493037, 47.6205062]}}, {"type": "Feature", "properties": {"id": 161587742, "name": "MoPOP: Museum of Pop Culture", "category": "museum", "tags": ["museum", "wheelchair-accessible", "wifi"], "sources": ["osm"], "website": "https://www.mopop.org/", "phone": "+1-877-367-7361", "address": "5th Avenue North", "hours": "10:00-17:00"}, "geometry": {"type": "Point", "coordinates": [-122.3482383, 47.6214966]}}, {"type": "Feature", "properties": {"id": 1362384591, "name": "Grass Blades", "category": "artwork", "tags": ["artwork"], "sources": ["osm"], "website": "https://www.seattlecenter.com/explore/arts/public-art#John"}, "geometry": {"type": "Point", "coordinates": [-122.3484912, 47.6221671]}}, {"type": "Feature", "properties": {"id": "4435efc2-e5c6-472b-80c1-408189b1c957", "name": "Nob Hill Apartments", "category": "attraction", "tags": ["attraction", "landmark", "historical", "building"], "sources": ["overture"], "website": "https://lolaapartmentseatt.wixsite.com/lolaapartments", "phone": "+12066596155", "address": "900 Nob Hill Ave N"}, "geometry": {"type": "Point", "coordinates": [-122.349884, 47.6273422]}}, {"type": "Feature", "properties": {"id": "1fed549a-1ab5-49f5-a9d4-fbb530807cad", "name": "Taylor Avenue Apartments", "category": "attraction", "tags": ["attraction", "landmark", "historical", "building"], "sources": ["overture"], "website": "http://tayloravenue.wix.com/tayloravenue", "phone": "+12062322595", "address": "1001 Taylor Ave N"}, "geometry": {"type": "Point", "coordinates": [-122.3464737, 47.6281052]}}, {"type": "Feature", "properties": {"id": "0f70883b-a7aa-4167-aa06-082358b22f21", "name": "Union SLU Apartments", "category": "attraction", "tags": ["attraction", "landmark", "historical", "building"], "sources": ["overture"], "website": "http://www.unionslu.com/", "phone": "+12062451682", "address": "Union SLU, 905 Dexter Ave N"}, "geometry": {"type": "Point", "coordinates": [-122.342514, 47.627758]}}, {"type": "Feature", "properties": {"id": "b8670527-8755-49dc-b077-333fe958e7cf", "name": "Neptune SLU Apartments Seattle", "category": "attraction", "tags": ["attraction", "landmark", "historical", "building"], "sources": ["overture"], "website": "https://www.simpsonpropertygroup.com/apartments/seattle-washington/neptune-downtown-seattle", "phone": "+12066860026", "address": "912 Dexter Ave N"}, "geometry": {"type": "Point", "coordinates": [-122.3420715, 47.6275139]}}, {"type": "Feature", "properties": {"id": "fa02c2d2-26b7-488f-a664-4f3bd5a68064", "name": "Marina SLU", "category": "attraction", "tags": ["attraction", "landmark", "historical", "building"], "sources": ["overture"], "website": "https://www.hollandresidential.com/marina-slu/", "phone": "+12062022927", "address": "1207 Westlake Ave N"}, "geometry": {"type": "Point", "coordinates": [-122.341301, 47.6299095]}}, {"type": "Feature", "properties": {"id": "57c588e7-2ea0-44ee-910c-ddc7e1658607", "name": "Highland View", "category": "attraction", "tags": ["attraction", "landmark", "historical", "building"], "sources": ["overture"], "phone": "+12062820655", "address": "501 Highland Dr"}, "geometry": {"type": "Point", "coordinates": [-122.3472672, 47.6296692]}}, {"type": "Feature", "properties": {"id": "c6c71f13-fc5d-41ec-a66f-ae469b4dcaf9", "name": "JUXT", "category": "attraction", "tags": ["attraction", "landmark", "historical", "building"], "sources": ["overture"], "website": "https://www.hollandresidential.com/wa/seattle/juxt/", "phone": "+18446646475", "address": "810 Dexter Ave N"}, "geometry": {"type": "Point", "coordinates": [-122.342041, 47.6266937]}}, {"type": "Feature", "properties": {"id": "7bc438cf-2223-4732-a719-642cacb0a78b", "name": "True North", "category": "attraction", "tags": ["attraction", "landmark", "historical", "building"], "sources": ["overture"], "website": "https://www.hollandresidential.com/wa/seattle/true-north/", "phone": "+18779198168", "address": "801 Dexter Ave N"}, "geometry": {"type": "Point", "coordinates": [-122.3426285, 47.6267204]}}, {"type": "Feature", "properties": {"id": "9f8e0562-6cb4-448f-814d-d0c5aae5bc6b", "name": "The LeeAnn", "category": "attraction", "tags": ["attraction", "landmark", "historical", "building"], "sources": ["overture"], "website": "https://www.leeannapts.com/", "phone": "+12062857015", "address": "701 5th Ave N"}, "geometry": {"type": "Point", "coordinates": [-122.3477707, 47.625946]}}, {"type": "Feature", "properties": {"id": "f0c6241d-3b23-4713-adb3-4a7b72984fcc", "name": "Space Needle-Seattle Center", "category": "museum", "tags": ["museum"], "sources": ["overture"], "website": "http://www.spaceneedle.com/", "address": "5th Ave N"}, "geometry": {"type": "Point", "coordinates": [-122.3473969, 47.6258621]}}, {"type": "Feature", "properties": {"id": "a9061617-4da7-45a1-b5f6-b7bff0df2590", "name": "Lumen Condominiums", "category": "attraction", "tags": ["attraction", "landmark", "historical", "building"], "sources": ["overture"], "website": "http://lumenlife.com", "phone": "+12062820707", "address": "501 Roy St"}, "geometry": {"type": "Point", "coordinates": [-122.3470917, 47.625]}}, {"type": "Feature", "properties": {"id": "2b5d71c7-7340-40e0-9770-e1ff0cdfa796", "name": "708 Uptown Apartments", "category": "attraction", "tags": ["attraction", "landmark", "historical", "building"], "sources": ["overture"], "website": "https://www.708uptown.com/", "phone": "+12064535585", "address": "708 6th Ave N"}, "geometry": {"type": "Point", "coordinates": [-122.3445511, 47.6258087]}}, {"type": "Feature", "properties": {"id": "1cacd021-36bf-4861-b3c2-c87ed10732e5", "name": "Kobe Bell Meditation Garden", "category": "attraction", "tags": ["attraction", "landmark", "historical", "building"], "sources": ["overture"], "website": "https://www.seattlecenter.com", "address": "301 Mercer St"}, "geometry": {"type": "Point", "coordinates": [-122.3493881, 47.6238518]}}, {"type": "Feature", "properties": {"id": "c22d5515-e82e-4ed7-9730-f1298e46fb65", "name": "Gates Foundation Discovery Center", "category": "museum", "tags": ["museum"], "sources": ["overture"], "website": "http://www.discovergates.org/", "phone": "+12067093100", "address": "440 5th Ave N"}, "geometry": {"type": "Point", "coordinates": [-122.3472672, 47.6230583]}}, {"type": "Feature", "properties": {"id": "1e916215-1807-4469-859e-2aec69038949", "name": "Modera South Lake Union", "category": "attraction", "tags": ["attraction", "landmark", "historical", "building"], "sources": ["overture"], "website": "https://www.moderasouthlakeunion.com/?switch_cls%5Bid%5D=95046&utm_source=Facebook%2FInstagram&utm_medium=Community+Listing", "phone": "+12063178270", "address": "435 Dexter Ave N"}, "geometry": {"type": "Point", "coordinates": [-122.3428192, 47.6229553]}}, {"type": "Feature", "properties": {"id": "8a05015c-b648-436c-ac8b-c843ddb79c68", "name": "Wall Space Gallery", "category": "gallery", "tags": ["gallery", "art"], "sources": ["overture"], "website": "https://wall-spacegallery.com", "phone": "+12063309137", "address": "509 Dexter Ave N"}, "geometry": {"type": "Point", "coordinates": [-122.3427887, 47.6235619]}}, {"type": "Feature", "properties": {"id": "1bd7b431-779d-476b-9bd5-6e27251aa153", "name": "Tellus on Dexter", "category": "attraction", "tags": ["attraction", "landmark", "historical", "building"], "sources": ["overture"], "website": "https://www.tellusondexter.com/", "phone": "+18553378633", "address": "403 Dexter Ave N"}, "geometry": {"type": "Point", "coordinates": [-122.3427582, 47.6224556]}}, {"type": "Feature", "properties": {"id": "0377ee27-24e1-487d-b5a5-ed1a75171268", "name": "Center On Contemporary Arts", "category": "museum", "tags": ["museum"], "sources": ["overture"], "website": "http://www.cocaseattle.org/", "phone": "(206) 728-1980", "address": "410 Dexter Ave N"}, "geometry": {"type": "Point", "coordinates": [-122.3419647, 47.6225967]}}, {"type": "Feature", "properties": {"id": "f62820b0-d168-49e0-9e98-946e306e6b9a", "name": "Clark Apartments", "category": "attraction", "tags": ["attraction", "landmark", "historical", "building"], "sources": ["overture"], "website": "https://clarkslu.com/?utm_source=businessprofile&utm_medium=search&utm_campaign=general", "phone": "+18669686695", "address": "408 7th Ave N"}, "geometry": {"type": "Point", "coordinates": [-122.3433228, 47.622303]}}, {"type": "Feature", "properties": {"id": "57cffcfc-c61d-41e3-aa31-5a7d17dbf36d", "name": "Infinite Worlds of Science Fiction", "category": "museum", "tags": ["museum", "science"], "sources": ["overture"], "website": "https://www.mopop.org/exhibits/", "phone": "+12067702700", "address": "325 5th Ave N"}, "geometry": {"type": "Point", "coordinates": [-122.3482971, 47.6215782]}}, {"type": "Feature", "properties": {"id": "84fcce6b-9c2e-4d9d-96fc-ee511c2c592b", "name": "Jimi Hendrix: An Evolution of Sound", "category": "gallery", "tags": ["gallery", "art"], "sources": ["overture"], "website": "http://www.empmuseum.org/index.asp", "address": "325 5th Ave N"}, "geometry": {"type": "Point", "coordinates": [-122.3481903, 47.6215439]}}, {"type": "Feature", "properties": {"id": "62dbace4-d96d-4b79-b9af-aba5a9d1958f", "name": "Museum of Pop Culture", "category": "museum", "tags": ["museum"], "sources": ["overture"], "website": "https://www.mopop.org/programs/supper-fan-club", "phone": "+12067702700", "address": "325 5th Ave N"}, "geometry": {"type": "Point", "coordinates": [-122.3481216, 47.6214714]}}, {"type": "Feature", "properties": {"id": "793b8f37-4c88-4935-ba3d-d98dab195ca9", "name": "Science Fiction Museum of Seattle", "category": "museum", "tags": ["museum", "history"], "sources": ["overture"], "website": "http://www.mopop.org/at-the-museum/museum-features/science-fiction-and-fantasy-hall-of-fame.aspx", "phone": "+12067702700", "address": "325 5th Ave N"}, "geometry": {"type": "Point", "coordinates": [-122.3484879, 47.6214676]}}, {"type": "Feature", "properties": {"id": "1c914882-21c3-4a6d-804a-20da73844d6b", "name": "Chihuly Garden & Glass", "category": "attraction", "tags": ["attraction", "landmark", "historical", "building"], "sources": ["overture"], "address": "223 Taylor Ave N"}, "geometry": {"type": "Point", "coordinates": [-122.3479156, 47.620079]}}, {"type": "Feature", "properties": {"id": "90f21bf4-5f3b-4c39-8e6a-86a4ea307bad", "name": "Mark on 8th Apartments", "category": "attraction", "tags": ["attraction", "landmark", "historical", "building"], "sources": ["overture"], "website": "https://www.equityapartments.com/seattle/south-lake-union/mark-on-8th-apartments", "phone": "+12066820858", "address": "285 8th Ave N", "stations": [{"stopCode": 50, "lines": "1,2", "name": "Westlake Station", "walkingMeters": 1212, "walkingSeconds": 874, "band": 15}]}, "geometry": {"type": "Point", "coordinates": [-122.3413239, 47.6205254]}}, {"type": "Feature", "properties": {"id": "85108eea-e919-4923-8681-ce3a697965e2", "name": "The Waverly", "category": "attraction", "tags": ["attraction", "landmark", "historical", "building"], "sources": ["overture"], "website": "https://www.greystar.com/terms-of-use", "phone": "+12062032551", "address": "210 8th Ave N", "stations": [{"stopCode": 50, "lines": "1,2", "name": "Westlake Station", "walkingMeters": 1154, "walkingSeconds": 832, "band": 15}]}, "geometry": {"type": "Point", "coordinates": [-122.3408585, 47.6201515]}}, {"type": "Feature", "properties": {"id": 8534953369, "name": "Artists at Play Playground", "category": "playground", "tags": ["playground", "wheelchair-accessible"], "sources": ["osm", "overture"], "website": "http://www.seattlecenter.com", "phone": "+12066847200", "address": "305 Harrison St", "hours": "Mo-Su 06:00-22:00"}, "geometry": {"type": "Point", "coordinates": [-122.3492232, 47.6218308]}}, {"type": "Feature", "properties": {"id": "dd208a45-5aaf-4e94-ae26-0dd645909463", "name": "Kobe Terrace Park", "category": "park", "tags": ["park"], "sources": ["overture"], "website": "http://seattle.gov/parks/park_detail.asp?ID=3915", "address": "221 6th Ave. S"}, "geometry": {"type": "Point", "coordinates": [-122.3453979, 47.6202736]}}, {"type": "Feature", "properties": {"id": 53371551, "name": "Ward Springs Park", "category": "park", "tags": ["park"], "sources": ["osm", "overture"], "website": "http://www.seattle.gov/parks/reserve/event-space-rentals/ward-springs-pump-house", "phone": "+12066844075", "address": "925 4th Ave N"}, "geometry": {"type": "Point", "coordinates": [-122.3492366, 47.6277657]}}, {"type": "Feature", "properties": {"id": "c1ccf96c-6338-467f-8a10-f886c2cc6ec7", "name": "Peace Garden, Seattle Center", "category": "park", "tags": ["park"], "sources": ["overture"], "website": "http://www.seattlecenter.com/locations/detail.aspx?id=69"}, "geometry": {"type": "Point", "coordinates": [-122.3495941, 47.6201706]}}, {"type": "Feature", "properties": {"id": "8b746cb4-e72c-48c8-bb9b-d8eba810e374", "name": "Seattle Center Playway", "category": "park", "tags": ["park"], "sources": ["overture"], "website": "http://www.seattlecenter.com/locations/detail.aspx?id=170"}, "geometry": {"type": "Point", "coordinates": [-122.3496246, 47.6215935]}}, {"type": "Feature", "properties": {"id": "4a54b0a2-0593-428c-96b2-cc963851b834", "name": "South Lake Union Park", "category": "park", "tags": ["park"], "sources": ["overture"], "website": "http://www.seattle.gov", "phone": "+12066844075", "address": "1000 Westlake Ave N"}, "geometry": {"type": "Point", "coordinates": [-122.3401718, 47.6233902]}}, {"type": "Feature", "properties": {"id": "728db788-5683-4524-b35e-9564cd71a408", "name": "Battery Portal Park", "category": "park", "tags": ["park"], "sources": ["overture"], "website": "http://rechargethebattery.org", "address": "2300 Western Ave", "stations": [{"stopCode": 50, "lines": "1,2", "name": "Westlake Station", "walkingMeters": 1268, "walkingSeconds": 915, "band": 15}]}, "geometry": {"type": "Point", "coordinates": [-122.3440399, 47.6204147]}}, {"type": "Feature", "properties": {"id": "dbd19d43-c8fb-40f7-b8fd-e599a3e7273d", "name": "Hampton Inn & Suites", "category": "hotel", "tags": ["hotel"], "sources": ["overture"], "website": "http://hamptoninn3.hilton.com/en/hotels/washington/hampton-inn-and-suites-seattle-downtown-SEADTHX/index.html", "phone": "+12062827700", "address": "700 5th Ave N"}, "geometry": {"type": "Point", "coordinates": [-122.3470459, 47.6257172]}}, {"type": "Feature", "properties": {"id": 157314499, "name": "Hampton Inn & Suites Seattle Downtown", "category": "hotel", "tags": ["hotel"], "sources": ["osm"], "website": "https://www.hilton.com/en/hotels/seadthx-hampton-suites-seattle-downtown/", "phone": "+1-206-282-7700", "address": "700 5th Avenue North"}, "geometry": {"type": "Point", "coordinates": [-122.3468851, 47.6258387]}}, {"type": "Feature", "properties": {"id": 202353907, "name": "Courtyard Marriott Seattle Downtown/Lake Union", "category": "hotel", "tags": ["hotel"], "sources": ["osm"], "website": "https://www.marriott.com/hotels/travel/seacd-courtyard-seattle-downtown-lake-union/", "phone": "+1-206-213-0100", "address": "925 Westlake Avenue North"}, "geometry": {"type": "Point", "coordinates": [-122.3404357, 47.6276634]}}, {"type": "Feature", "properties": {"id": 217604426, "name": "Travelodge Seattle by the Space Needle", "category": "hotel", "tags": ["hotel", "wifi"], "sources": ["osm"], "website": "https://www.travelodgeseattlecenter.com/", "phone": "+1-206-962-8678", "address": "200 6th Avenue North", "stations": [{"stopCode": 50, "lines": "1,2", "name": "Westlake Station", "walkingMeters": 1277, "walkingSeconds": 920, "band": 15}]}, "geometry": {"type": "Point", "coordinates": [-122.3446223, 47.6201427]}}, {"type": "Feature", "properties": {"id": 217604429, "name": "Holiday Inn Express & Suites Seattle Downtown - Lake Union", "category": "hotel", "tags": ["hotel"], "sources": ["osm"], "website": "https://www.ihg.com/holidayinnexpress/hotels/us/en/seattle/seasc/hoteldetail", "phone": "+1-800-860-7715", "address": "211 Dexter Avenue North", "stations": [{"stopCode": 50, "lines": "1,2", "name": "Westlake Station", "walkingMeters": 1200, "walkingSeconds": 866, "band": 15}]}, "geometry": {"type": "Point", "coordinates": [-122.3428047, 47.6203134]}}, {"type": "Feature", "properties": {"id": 217604432, "name": "Fairfield Inn & Suites by Marriott Norman", "category": "hotel", "tags": ["hotel", "wifi"], "sources": ["osm"], "website": "https://www.marriott.com/seafc", "phone": "+1-206-443-2012", "address": "226 7th Avenue North", "stations": [{"stopCode": 50, "lines": "1,2", "name": "Westlake Station", "walkingMeters": 1229, "walkingSeconds": 886, "band": 15}]}, "geometry": {"type": "Point", "coordinates": [-122.343277, 47.6202225]}}, {"type": "Feature", "properties": {"id": 231663364, "name": "Civic Hotel", "category": "hotel", "tags": ["hotel"], "sources": ["osm", "overture"], "website": "http://www.CivicSeattle.com/", "phone": "+12064662890", "address": "325 7th Ave N"}, "geometry": {"type": "Point", "coordinates": [-122.3440907, 47.6217032]}}, {"type": "Feature", "properties": {"id": 231753675, "name": "Four Points by Sheraton Downtown Seattle Center", "category": "hotel", "tags": ["hotel"], "sources": ["osm"], "website": "http://www.fourpointsdowntownseattlecenter.com/", "phone": "+1-206-282-2600", "address": "601 Roy Street"}, "geometry": {"type": "Point", "coordinates": [-122.3445811, 47.6250058]}}, {"type": "Feature", "properties": {"id": 359861671, "name": "Hyatt House", "category": "hotel", "tags": ["hotel"], "sources": ["osm"], "website": "https://seattledowntown.house.hyatt.com/", "phone": "+1-206-727-1234", "address": "201 5th Avenue North"}, "geometry": {"type": "Point", "coordinates": [-122.3480142, 47.6201301]}}, {"type": "Feature", "properties": {"id": 1238178680, "name": "Element by Westin", "category": "hotel", "tags": ["hotel"], "sources": ["osm"]}, "geometry": {"type": "Point", "coordinates": [-122.344094, 47.6249923]}}, {"type": "Feature", "properties": {"id": "b79d9d6d-94b9-40c6-ac35-529753647008", "name": "Courtyard by Marriott Seattle Downtown/Lake Union", "category": "hotel", "tags": ["hotel"], "sources": ["overture"], "website": "https://www.marriott.com/hotels/travel/seacd-courtyard-seattle-downtown-lake-union/?scid=5d6c9ba8-fdb3-45cd-90d4-fc3cbfe3681c&y_source=1_NjUwMDEwLTU1OS1sb2NhdGlvbi53ZWJzaXRl", "phone": "+12062130100", "address": "925 Westlake Ave N"}, "geometry": {"type": "Point", "coordinates": [-122.3405838, 47.62743]}}, {"type": "Feature", "properties": {"id": "07655182-efc2-4644-9c60-d525954a6284", "name": "Element by Marriott Seattle Downtown", "category": "hotel", "tags": ["hotel"], "sources": ["overture"], "website": "http://www.marriott.com/seaen", "phone": "+12064531688", "address": "601 Aurora Ave N"}, "geometry": {"type": "Point", "coordinates": [-122.3440704, 47.6253891]}}, {"type": "Feature", "properties": {"id": "8be728a6-eac7-4fbe-ad4c-54e16b1d3601", "name": "Four Points By Sheraton", "category": "hotel", "tags": ["hotel"], "sources": ["overture"], "website": "https://www.marriott.com/en-us/hotels/seafp-four-points-downtown-seattle-center/overview/?scid=d2406702-e8ea-4b45-bb9b-69cddaaef03d", "phone": "+12062822600", "address": "601 Roy St"}, "geometry": {"type": "Point", "coordinates": [-122.3446579, 47.6250648]}}, {"type": "Feature", "properties": {"id": "135b8678-c12e-4832-8413-d48bf4ff45be", "name": "Seattle Pacific Hotel", "category": "hotel", "tags": ["hotel", "resort"], "sources": ["overture"], "phone": "2064410400", "address": "325 Aurora Ave N"}, "geometry": {"type": "Point", "coordinates": [-122.3437576, 47.6220589]}}, {"type": "Feature", "properties": {"id": "b41d0d75-36b3-4046-a0c0-63f4359b0638", "name": "Travelodge", "category": "hotel", "tags": ["hotel"], "sources": ["overture"], "website": "http://www.travelodgeseattlecenter.com/amenities.aspx", "phone": "+12069628678", "address": "200 6th Ave N"}, "geometry": {"type": "Point", "coordinates": [-122.3446655, 47.6203995]}}, {"type": "Feature", "properties": {"id": "1a5455c7-0fb7-4d79-b771-c8054610ed27", "name": "Executive Inn By The Space Needle", "category": "hotel", "tags": ["hotel", "resort"], "sources": ["overture"], "website": "https://stayexecutiveinn.com/", "phone": "2064489444", "address": "200 Taylor Ave N"}, "geometry": {"type": "Point", "coordinates": [-122.3459015, 47.620369]}}, {"type": "Feature", "properties": {"id": "86ac2154-0fd5-4eca-9946-8955d762c49b", "name": "Best Western Executive Inn", "category": "hotel", "tags": ["hotel"], "sources": ["overture"], "website": "https://www.bestwestern.com/en_US/book/hotel-rooms.48068.html?iata=00171890&ssob=BLBWI0003G", "phone": "(206) 448-9444", "address": "200 Taylor Ave N"}, "geometry": {"type": "Point", "coordinates": [-122.3459473, 47.6204185]}}, {"type": "Feature", "properties": {"id": "635cc0cc-86c3-4ec3-a633-60ac6a819400", "name": "Hyatt House Seattle/Downtown", "category": "hotel", "tags": ["hotel"], "sources": ["overture"], "website": "http://www.hyatthouseseattledowntown.com/", "phone": "+12067271234", "address": "201 5th Ave N"}, "geometry": {"type": "Point", "coordinates": [-122.3479004, 47.6201172]}}, {"type": "Feature", "properties": {"id": "7f679526-b877-4eeb-b2e3-88e6026fc202", "name": "Fairfield", "category": "hotel", "tags": ["hotel"], "sources": ["overture"], "website": "https://www.marriott.com/hotels/travel/seafc-fairfield-inn-and-suites-seattle-downtown-seattle-center/", "phone": "+12064432012", "address": "226 7th Avenue North", "stations": [{"stopCode": 50, "lines": "1,2", "name": "Westlake Station", "walkingMeters": 1231, "walkingSeconds": 888, "band": 15}]}, "geometry": {"type": "Point", "coordinates": [-122.3433304, 47.6201134]}}, {"type": "Feature", "properties": {"id": "de1c82d5-4cea-4daf-bc46-0359e02b0833", "name": "Holiday Inn Express & Suites Seattle-City Center", "category": "hotel", "tags": ["hotel"], "sources": ["overture"], "website": "https://www.ihg.com/holidayinnexpress/hotels/us/en/seattle/seawa/hoteldetail?cm_mmc=BingMaps-_-EX-_-US-_-SEAWA", "phone": "2064417222", "address": "226 7th Ave N", "stations": [{"stopCode": 50, "lines": "1,2", "name": "Westlake Station", "walkingMeters": 1206, "walkingSeconds": 872, "band": 15}]}, "geometry": {"type": "Point", "coordinates": [-122.343605, 47.6200714]}}, {"type": "Feature", "properties": {"id": "8aabc7d1-ca50-4ebf-9a77-faf5c8bf73a2", "name": "Holiday Inn", "category": "hotel", "tags": ["hotel"], "sources": ["overture"], "website": "https://www.ihg.com/holidayinn/hotels/us/en/seattle/seasc/hoteldetail?cm_mmc=FacebookMaps-_-HI-_-US-_-SEASC", "phone": "+12067288123", "address": "211 Dexter Ave N", "stations": [{"stopCode": 50, "lines": "1,2", "name": "Westlake Station", "walkingMeters": 1198, "walkingSeconds": 864, "band": 15}]}, "geometry": {"type": "Point", "coordinates": [-122.3426208, 47.620327]}}, {"type": "Feature", "properties": {"id": "76d085b4-2f68-4dc1-86a7-c2aba5645c81", "name": "Metropolitan Deli & Cafe", "category": "convenience", "tags": ["convenience"], "sources": ["overture"], "website": "https://metropolitanondexter.com", "phone": "(206) 682-7579", "address": "403B Dexter Ave N"}, "geometry": {"type": "Point", "coordinates": [-122.3426819, 47.6224403]}}, {"type": "Feature", "properties": {"id": 1695204257, "name": "QFC", "category": "supermarket", "tags": ["supermarket"], "sources": ["osm", "overture"], "website": "https://www.qfc.com/stores/grocery/wa/seattle/uptown/705/00881?cid=loc_70500881_fb", "phone": "+12063524020", "address": "500 Mercer St", "hours": "24/7"}, "geometry": {"type": "Point", "coordinates": [-122.3472754, 47.6246921]}}, {"type": "Feature", "properties": {"id": 2400860920, "name": "Plaid Pantry", "category": "convenience", "tags": ["convenience"], "sources": ["osm", "overture"], "website": "https://www.plaidpantry.com/store/queen-anne/?utm_source=local&utm_medium=organic&utm_campaign=store-309&utm_content=facebook", "phone": "+12062849550", "address": "720 Taylor Ave N"}, "geometry": {"type": "Point", "coordinates": [-122.3457869, 47.6261239]}}, {"type": "Feature", "properties": {"id": 2400861223, "name": "Luna Sandals", "category": "shoes", "tags": ["shoes", "shoe"], "sources": ["osm", "overture"], "website": "https://www.lunasandals.com", "phone": "+18555862726", "address": "817 5th Ave N", "hours": "Mo 13:00-16:00; Tu-Sa 10:00-18:00"}, "geometry": {"type": "Point", "coordinates": [-122.3477344, 47.6268721]}}, {"type": "Feature", "properties": {"id": 231658866, "name": "Athletic Awards", "category": "sports", "tags": ["sports"], "sources": ["osm"], "website": "https://www.athleticawards.com/", "phone": "+1-206-624-3995", "address": "817 Republican Street", "hours": "Mo-Fr 08:30-17:30; Sa 09:00-13:00"}, "geometry": {"type": "Point", "coordinates": [-122.340148, 47.6230491]}}, {"type": "Feature", "properties": {"id": 231764922, "name": "Essentially Seattle", "category": "gift", "tags": ["gift"], "sources": ["osm"], "phone": "+1-206-905-2298", "address": "305 Harrison Street"}, "geometry": {"type": "Point", "coordinates": [-122.3495413, 47.6210723]}}, {"type": "Feature", "properties": {"id": 373712573, "name": "Expressly Northwest", "category": "gift", "tags": ["gift"], "sources": ["osm"], "address": "305 Thomas Street"}, "geometry": {"type": "Point", "coordinates": [-122.3492175, 47.6210919]}}, {"type": "Feature", "properties": {"id": "3d15a07c-65a9-4248-8ac4-24cea8a91914", "name": "Quality Food Center", "category": "supermarket", "tags": ["supermarket"], "sources": ["overture"], "website": "https://www.qfc.com/rx/pharmacy/details/705/00881", "address": "500 Mercer St"}, "geometry": {"type": "Point", "coordinates": [-122.3468781, 47.625]}}, {"type": "Feature", "properties": {"id": "b5ef99e3-800b-48e2-9696-fbcc9c9c9bec", "name": "Chihuly Garden and Glass Gift Store", "category": "gift", "tags": ["gift"], "sources": ["overture"], "website": "https://www.chihulygardenandglass.com/visit/bookstore", "phone": "(206) 753-4931", "address": "305 Harrison St"}, "geometry": {"type": "Point", "coordinates": [-122.3497543, 47.6205635]}}, {"type": "Feature", "properties": {"id": "34fc76f3-1793-4bd6-87ed-db455c108ff8", "name": "Lotus Fixture, LLC", "category": "doityourself", "tags": ["doityourself", "building", "supply"], "sources": ["overture"], "website": "http://lotusfixture.com/", "phone": "2063901204", "address": "921 Aurora Ave N"}, "geometry": {"type": "Point", "coordinates": [-122.3436279, 47.6278572]}}, {"type": "Feature", "properties": {"id": "ffbf3f5b-44e8-47bc-84e8-378886939ff5", "name": "Metropolitan Deli and Cafe", "category": "convenience", "tags": ["convenience"], "sources": ["overture"], "website": "http://metropolitandeliandcafe.com/locations/metropolitan-deli-cafe-dexter-avenue", "phone": "(206) 659-4281", "address": "903 Dexter Ave N"}, "geometry": {"type": "Point", "coordinates": [-122.3425522, 47.6274376]}}, {"type": "Feature", "properties": {"id": "2f1c5f56-ff86-4b71-a15e-e126090ad4e4", "name": "Ncsi Americas, Inc.", "category": "supermarket", "tags": ["supermarket"], "sources": ["overture"], "address": "1100 Dexter Ave N"}, "geometry": {"type": "Point", "coordinates": [-122.3419037, 47.6291351]}}, {"type": "Feature", "properties": {"id": "df68e4c4-3f58-4ffc-bd2b-5227e31794e3", "name": "Crossroads Cannabiz", "category": "cannabis", "tags": ["cannabis"], "sources": ["overture"], "website": "https://www.crossroads-fl.com", "phone": "+12064852847", "address": "1200 Westlake Ave N Ste 802"}, "geometry": {"type": "Point", "coordinates": [-122.3400269, 47.6299667]}}, {"type": "Feature", "properties": {"id": "676271bc-8033-43c1-861f-d37b0cc8585e", "name": "7-Eleven - CLOSED - Closed", "category": "convenience", "tags": ["convenience"], "sources": ["overture"], "website": "http://www.7-eleven.com/", "phone": "2062843245", "address": "800 5th Ave N"}, "geometry": {"type": "Point", "coordinates": [-122.3475723, 47.6264801]}}, {"type": "Feature", "properties": {"id": "2a506c06-5163-48fb-81a6-947edd498dc1", "name": "International Gem & Jewelry Show", "category": "jewelry", "tags": ["jewelry"], "sources": ["overture"], "phone": "+13012941640", "address": "301 Mercer St"}, "geometry": {"type": "Point", "coordinates": [-122.3493881, 47.6238518]}}, {"type": "Feature", "properties": {"id": "7df208c1-8398-4ba7-92ec-ca1f4aca3ddb", "name": "Bite Society", "category": "gift", "tags": ["gift"], "sources": ["overture"], "website": "https://hellobitesociety.com/", "phone": "2064876249", "address": "509 Dexter Ave N"}, "geometry": {"type": "Point", "coordinates": [-122.3423615, 47.623558]}}, {"type": "Feature", "properties": {"id": "b5c71252-c30c-441c-a6d8-fd00ef5814e8", "name": "The City Catering Company, Inc", "category": "supermarket", "tags": ["supermarket"], "sources": ["overture"], "address": "509 Dexter Ave N"}, "geometry": {"type": "Point", "coordinates": [-122.3427887, 47.6235619]}}, {"type": "Feature", "properties": {"id": "aec5cef4-ca2f-4df0-98aa-432768609ef9", "name": "Verizon Express", "category": "mobile_phone", "tags": ["mobile-phone", "mobile"], "sources": ["overture"], "website": "https://www.verizon.com", "phone": "+12067511402", "address": "300 8th Ave N Ste 108", "stations": [{"stopCode": 50, "lines": "1,2", "name": "Westlake Station", "walkingMeters": 1310, "walkingSeconds": 945, "band": 15}]}, "geometry": {"type": "Point", "coordinates": [-122.3407059, 47.62146]}}, {"type": "Feature", "properties": {"id": "b68e6a03-766f-4fae-b1fa-babe174d8d62", "name": "seattle center gift shop", "category": "gift", "tags": ["gift"], "sources": ["overture"], "website": "http://www.catclinicofseattle.com", "phone": "(206) 453-4890", "address": "seattle center"}, "geometry": {"type": "Point", "coordinates": [-122.3493042, 47.6207848]}}, {"type": "Feature", "properties": {"id": 6258690609, "name": "Karalis Johnson Retina Center", "category": "clinic", "tags": ["clinic", "wheelchair-accessible"], "sources": ["osm"], "hours": "Mo-Fr 08:00-17:00"}, "geometry": {"type": "Point", "coordinates": [-122.342059, 47.6234815]}}, {"type": "Feature", "properties": {"id": "29463bf3-40b9-4e11-beb7-5a10ebafc097", "name": "UW Medicine Research Campus", "category": "hospital", "tags": ["hospital"], "sources": ["overture"], "website": "http://depts.washington.edu/somslu/about/", "address": "820 Republican St"}, "geometry": {"type": "Point", "coordinates": [-122.3401108, 47.6235237]}}, {"type": "Feature", "properties": {"id": "d7265b86-5b0e-4511-bcf5-1ae24f01402d", "name": "Uw Medicine Outpatient Pharmacy At South Lake Union (slu)", "category": "pharmacy", "tags": ["pharmacy"], "sources": ["overture"], "website": "https://www.uwmedicine.org", "phone": "12065208380", "address": "750 Republican St  Bldg F Fl 1"}, "geometry": {"type": "Point", "coordinates": [-122.341423, 47.6236534]}}, {"type": "Feature", "properties": {"id": "639afc49-e356-44b9-9d85-33815dacf29f", "name": "Harborview Medical Center - 8th Avenue Entrance", "category": "hospital", "tags": ["hospital"], "sources": ["overture"], "website": "https://www.uwmedicine.org", "phone": "12067443000", "address": "333 8th Ave N  # 301", "stations": [{"stopCode": 50, "lines": "1,2", "name": "Westlake Station", "walkingMeters": 1523, "walkingSeconds": 1137, "band": 15}]}, "geometry": {"type": "Point", "coordinates": [-122.341507, 47.6216011]}}, {"type": "Feature", "properties": {"id": 2995350991, "name": "U.S. Bank", "category": "bank", "tags": ["bank"], "sources": ["osm"], "website": "https://www.usbank.com/", "phone": "+1-206-344-2383", "address": "1019 8th Avenue North"}, "geometry": {"type": "Point", "coordinates": [-122.3412526, 47.6285011]}}, {"type": "Feature", "properties": {"id": "44fd37b6-56e4-472f-b768-4992ad9d0de0", "name": "Bank of America Atm", "category": "bank", "tags": ["bank", "credit", "union"], "sources": ["overture"], "phone": "2064610800", "address": "500 Mercer St"}, "geometry": {"type": "Point", "coordinates": [-122.3470383, 47.6245499]}}, {"type": "Feature", "properties": {"id": 217604433, "name": "Industrious", "category": "fitness_centre", "tags": ["fitness-centre"], "sources": ["osm"], "website": "https://workhardlivefit.com/south-lake-union/", "phone": "+1-206-420-4793", "address": "231 Dexter Avenue North", "stations": [{"stopCode": 50, "lines": "1,2", "name": "Westlake Station", "walkingMeters": 1269, "walkingSeconds": 915, "band": 15}]}, "geometry": {"type": "Point", "coordinates": [-122.3428149, 47.6207239]}}, {"type": "Feature", "properties": {"id": 4351979289, "name": "Orangetheory Fitness", "category": "fitness_centre", "tags": ["fitness-centre", "gym"], "sources": ["osm", "overture"], "website": "https://seattle.orangetheoryfitness.com/?utm_source=local_seo&utm_medium=organic&utm_content=reputationdotcom", "phone": "2062820557", "address": "500 Mercer St"}, "geometry": {"type": "Point", "coordinates": [-122.3472714, 47.6250009]}}, {"type": "Feature", "properties": {"id": 2326560217, "name": "Pro Fit Training Gym", "category": "fitness_centre", "tags": ["fitness-centre", "gym"], "sources": ["osm", "overture"], "website": "http://www.pftraininggym.com/", "phone": "+12062845555", "address": "915 8th Ave N"}, "geometry": {"type": "Point", "coordinates": [-122.3412292, 47.6276346]}}, {"type": "Feature", "properties": {"id": 4351936891, "name": "Pure Barre", "category": "fitness_centre", "tags": ["fitness-centre", "barre", "pilates", "studio"], "sources": ["osm", "overture"], "website": "https://www.purebarre.com/location/seattle-queen-anne-wa", "phone": "+12063279817", "address": "500 Mercer St Ste c205"}, "geometry": {"type": "Point", "coordinates": [-122.347267, 47.6251083]}}, {"type": "Feature", "properties": {"id": 5080055921, "name": "KMS", "category": "fitness_centre", "tags": ["fitness-centre"], "sources": ["osm"]}, "geometry": {"type": "Point", "coordinates": [-122.341252, 47.6282885]}}, {"type": "Feature", "properties": {"id": 9932395218, "name": "ISMMA", "category": "fitness_centre", "tags": ["fitness-centre"], "sources": ["osm"], "stations": [{"stopCode": 50, "lines": "1,2", "name": "Westlake Station", "walkingMeters": 1232, "walkingSeconds": 889, "band": 15}]}, "geometry": {"type": "Point", "coordinates": [-122.3408999, 47.6207723]}}, {"type": "Feature", "properties": {"id": "900f333e-c8bf-49a1-940b-f5caa5a4ab6e", "name": "Krav Maga Seattle", "category": "fitness_centre", "tags": ["fitness-centre", "gym"], "sources": ["overture"], "website": "http://www.kmseattle.com/", "phone": "2067240208", "address": "1009 8th Ave N"}, "geometry": {"type": "Point", "coordinates": [-122.3410721, 47.6279984]}}, {"type": "Feature", "properties": {"id": "de8b405c-ac7e-4d58-8d99-f9a9aece8afa", "name": "Eka Yoga", "category": "fitness_centre", "tags": ["fitness-centre", "yoga", "studio"], "sources": ["overture"], "website": "http://www.ekayogaseattle.com", "phone": "(206) 271-4269", "address": "621 5th Ave N"}, "geometry": {"type": "Point", "coordinates": [-122.3478317, 47.6252098]}}, {"type": "Feature", "properties": {"id": "48aad3bc-cba3-49d7-bd38-7a462d10fe38", "name": "Instructor Certification At Pilates Seattle International", "category": "fitness_centre", "tags": ["fitness-centre", "pilates", "studio"], "sources": ["overture"], "website": "https://pilatesseattle.com", "phone": "2064053560", "address": "501 Dexter Ave N"}, "geometry": {"type": "Point", "coordinates": [-122.3427811, 47.6233978]}}, {"type": "Feature", "properties": {"id": "86df79e1-b7a0-425c-91a4-f58336ab2ea7", "name": "Seattle Strength & Performance", "category": "fitness_centre", "tags": ["fitness-centre", "fitness", "trainer"], "sources": ["overture"], "website": "http://www.seattlesp.com", "phone": "+12066594339", "address": "525 Dexter Ave N"}, "geometry": {"type": "Point", "coordinates": [-122.3427734, 47.6239891]}}, {"type": "Feature", "properties": {"id": "c2b8dd94-6cf6-4bca-b7c0-515edd6ce3c5", "name": "Industrious - South Lake Union", "category": "fitness_centre", "tags": ["fitness-centre", "gym"], "sources": ["overture"], "website": "https://www.crossfitindustrious.com/south-lake-union/", "phone": "+12065865203", "address": "231 Dexter Ave N", "stations": [{"stopCode": 50, "lines": "1,2", "name": "Westlake Station", "walkingMeters": 1244, "walkingSeconds": 898, "band": 15}]}, "geometry": {"type": "Point", "coordinates": [-122.3426132, 47.6207466]}}, {"type": "Feature", "properties": {"id": "65e1680a-5502-47d7-9903-6ee6d130fd4d", "name": "Excellence Health and Fitness", "category": "fitness_centre", "tags": ["fitness-centre", "gym"], "sources": ["overture"], "website": "http://excellencefitness.com/", "phone": "+12064556455", "address": "400 Dexter Ave N"}, "geometry": {"type": "Point", "coordinates": [-122.3420258, 47.6223221]}}, {"type": "Feature", "properties": {"id": "c669199e-3dc1-42b7-8198-b3118e25ff61", "name": "MOOV Seattle", "category": "fitness_centre", "tags": ["fitness-centre", "pilates", "studio"], "sources": ["overture"], "website": "http://www.moovseattle.com/", "phone": "+12069711333", "address": "771 Thomas St", "stations": [{"stopCode": 50, "lines": "1,2", "name": "Westlake Station", "walkingMeters": 1226, "walkingSeconds": 885, "band": 15}]}, "geometry": {"type": "Point", "coordinates": [-122.341301, 47.6206551]}}]}