{"type": "FeatureCollection", "features": [{"type": "Feature", "properties": {"id": "45da22cd-3148-4fa5-987f-deefc6659a27", "name": "Subway", "category": "restaurant", "tags": ["restaurant", "sandwich"], "sources": ["overture"], "website": "https://restaurants.subway.com/united-states/wa/bothell/18825-campus-way-ne", "phone": "(425) 352-3604", "address": "18825 Campus Way NE, Lb-1"}, "geometry": {"type": "Point", "coordinates": [-122.1910706, 47.7595406]}}, {"type": "Feature", "properties": {"id": 12122984960, "name": "Dg Coffee", "category": "cafe", "tags": ["cafe", "coffee-shop"], "sources": ["osm"], "phone": "+1-206-979-9655", "address": "10610 Woodinville Drive", "hours": "Mo-Su 06:00-16:00"}, "geometry": {"type": "Point", "coordinates": [-122.1979664, 47.7584643]}}, {"type": "Feature", "properties": {"id": 12661144187, "name": "Gold Brew", "category": "cafe", "tags": ["cafe", "coffee-shop", "outdoor-seating"], "sources": ["osm"], "website": "https://bothelldining.campusdish.com/LocationsAndMenus/GoldBrew", "address": "18115 Campus Way Northeast", "hours": "Mo-Th 08:00-18:00; Fr 08:00-16:00; Sa-Su off"}, "geometry": {"type": "Point", "coordinates": [-122.191133, 47.7584024]}}, {"type": "Feature", "properties": {"id": "100869bb-3210-4795-96d0-fd530e14f747", "name": "Common Grounds Coffee Shop", "category": "cafe", "tags": ["cafe"], "sources": ["overture"], "website": "https://uwb.edu/asuwb", "phone": "4253523313", "address": "18115 Campus Way NE"}, "geometry": {"type": "Point", "coordinates": [-122.1906662, 47.7589874]}}, {"type": "Feature", "properties": {"id": 12253907613, "name": "Secret Gnome", "category": "artwork", "tags": ["artwork"], "sources": ["osm"]}, "geometry": {"type": "Point", "coordinates": [-122.191622, 47.7597743]}}, {"type": "Feature", "properties": {"id": "9eaf61fb-a4d0-49bd-bf74-4774b419ac45", "name": "Village Apartments", "category": "attraction", "tags": ["attraction", "landmark", "historical", "building"], "sources": ["overture"], "phone": "+14258062035", "address": "10619 E Riverside Dr #37"}, "geometry": {"type": "Point", "coordinates": [-122.1985092, 47.7551689]}}, {"type": "Feature", "properties": {"id": 335488611, "name": "Brackett's Landing Park", "category": "park", "tags": ["park"], "sources": ["osm"]}, "geometry": {"type": "Point", "coordinates": [-122.1932667, 47.7544522]}}, {"type": "Feature", "properties": {"id": 1324219343, "name": "The Snail", "category": "garden", "tags": ["garden"], "sources": ["osm"]}, "geometry": {"type": "Point", "coordinates": [-122.1917461, 47.7587615]}}, {"type": "Feature", "properties": {"id": "b25407ab-7b39-47c2-83af-89d49bce1801", "name": "Brackett's Landing", "category": "park", "tags": ["park"], "sources": ["overture"], "website": "http://www.ci.bothell.wa.us/1023/Bracketts-Landing-Park", "phone": "+14258066760", "address": "NE 174th St &, Woodinville Dr"}, "geometry": {"type": "Point", "coordinates": [-122.1934357, 47.7548828]}}, {"type": "Feature", "properties": {"id": "388b7c7e-a167-4203-b295-01b338a8bfb5", "name": "Sammamish River Crossing", "category": "park", "tags": ["park"], "sources": ["overture"], "address": "Sammamish River Park"}, "geometry": {"type": "Point", "coordinates": [-122.1968231, 47.7540665]}}, {"type": "Feature", "properties": {"id": 10229234723, "name": "P.O.D Provisions On Demand", "category": "convenience", "tags": ["convenience"], "sources": ["osm"], "hours": "Mo-Th 08:00-19:00; Fr 08:00-17:00; Sa-Su off"}, "geometry": {"type": "Point", "coordinates": [-122.191114, 47.7595434]}}, {"type": "Feature", "properties": {"id": "d90a1260-cf53-4ecc-ac5d-7eda5e6855e9", "name": "Pacific Institute of Medical Sciences", "category": "clinic", "tags": ["clinic", "medical"], "sources": ["overture"], "phone": "+14259495779", "address": "10634 E Riverside Dr Ste 300"}, "geometry": {"type": "Point", "coordinates": [-122.1978073, 47.7555389]}}, {"type": "Feature", "properties": {"id": 55565074, "name": "Library Annex", "category": "library", "tags": ["library"], "sources": ["osm"], "hours": "Mo-Th 08:00-22:00, Fr 08:00-17:00, Sa 09:00-17:00, Su 12:00-20:00"}, "geometry": {"type": "Point", "coordinates": [-122.1909441, 47.7596758]}}, {"type": "Feature", "properties": {"id": 256669460, "name": "Library 1", "category": "library", "tags": ["library", "wheelchair-accessible", "wifi"], "sources": ["osm"], "hours": "Mo-Th 08:00-22:00, Fr 08:00-17:00, Sa 09:00-17:00, Su 12:00-20:00"}, "geometry": {"type": "Point", "coordinates": [-122.1913724, 47.7597931]}}, {"type": "Feature", "properties": {"id": "4269d6fc-6364-4ac9-9fb6-d650e2f60cf6", "name": "ARC Fitness", "category": "fitness_centre", "tags": ["fitness-centre", "gym"], "sources": ["overture"], "website": "http://myarc.uwb.edu/", "address": "18220 Campus Way NE"}, "geometry": {"type": "Point", "coordinates": [-122.1901245, 47.7591133]}}, {"type": "Feature", "properties": {"id": "4f88956e-49f6-4305-9021-060de63cb535", "name": "The Fitness Compound", "category": "fitness_centre", "tags": ["fitness-centre", "gym"], "sources": ["overture"], "website": "https://thefitnesscompound.com/", "phone": "+14259087124", "address": "10700 Woodinville Dr"}, "geometry": {"type": "Point", "coordinates": [-122.1976318, 47.7582207]}}]}