{"type": "FeatureCollection", "features": [{"type": "Feature", "properties": {"id": 762446099, "name": "Italianissimo Ristorante", "category": "restaurant", "tags": ["restaurant", "italian"], "sources": ["osm", "overture"], "website": "https://www.italianissimoristorante.com/", "phone": "+14254856888", "address": "15608 NE Woodinville Duvall Pl", "hours": "Mo-Th 15:00-20:00; Fr-Sa 12:00-21:00; Su 12:00-20:00"}, "geometry": {"type": "Point", "coordinates": [-122.130965, 47.7628828]}}, {"type": "Feature", "properties": {"id": "bea5fd00-a273-4054-82c6-ba978de366a2", "name": "Tre Giomi And Dunn Llc", "category": "restaurant", "tags": ["restaurant"], "sources": ["overture"], "address": "15608 NE Woodinville Duvall Pl"}, "geometry": {"type": "Point", "coordinates": [-122.1309891, 47.7629318]}}, {"type": "Feature", "properties": {"id": "97156f3b-3a3c-4cd2-a333-008f2717c4ca", "name": "Kay Barnes Watercolors", "category": "gallery", "tags": ["gallery", "art"], "sources": ["overture"], "website": "http://www.kaybarnes.com/", "phone": "2063727611", "address": "18815 156th Ave NE"}, "geometry": {"type": "Point", "coordinates": [-122.1322403, 47.7639618]}}, {"type": "Feature", "properties": {"id": 9083208817, "name": "18665 151st Ave NE", "category": "guest_house", "tags": ["guest-house"], "sources": ["osm"], "address": "18665 151st Avenue Northeast"}, "geometry": {"type": "Point", "coordinates": [-122.1393275, 47.7627118]}}, {"type": "Feature", "properties": {"id": "654ebbe6-1fdb-4a53-8ce9-1d36d6efb09e", "name": "ampm", "category": "convenience", "tags": ["convenience"], "sources": ["overture"], "website": "https://www.ampm.com/", "phone": "+14254869193", "address": "15520 NE Woodinville Duvall Rd"}, "geometry": {"type": "Point", "coordinates": [-122.1320724, 47.7618637]}}, {"type": "Feature", "properties": {"id": "095b9aac-90e5-4e0a-9d09-2e5feec84b6b", "name": "Jacksons Food Stores", "category": "convenience", "tags": ["convenience"], "sources": ["overture"], "website": "http://www.jacksons.com/", "phone": "4254817813", "address": "15606 NE Woodinville Duvall Pl"}, "geometry": {"type": "Point", "coordinates": [-122.131134, 47.7620201]}}, {"type": "Feature", "properties": {"id": "28f1566b-f821-4729-9cc6-be3778c42af7", "name": "Washington Fca Baseball", "category": "sports_centre", "tags": ["sports-centre", "sports", "club", "league"], "sources": ["overture"], "website": "wafcabaseball.org", "address": "18500 156th Ave NE"}, "geometry": {"type": "Point", "coordinates": [-122.1309204, 47.7628555]}}]}