{"type": "FeatureCollection", "features": [{"type": "Feature", "properties": {"id": 4556367299, "name": "Westernco Donut", "category": "fast_food", "tags": ["fast-food", "donut"], "sources": ["osm"], "hours": "Mo-Sa 04:00-15:00; Su 05:00-12:00"}, "geometry": {"type": "Point", "coordinates": [-122.1960126, 47.4863163]}}, {"type": "Feature", "properties": {"id": 396469119, "name": "Burger King", "category": "fast_food", "tags": ["fast-food", "burger", "takeaway", "drive-through", "wheelchair-accessible", "vegetarian", "wifi", "restaurant", "american"], "sources": ["osm", "overture"], "website": "https://burgerking.com/store-locator/store/4830", "phone": "+14252762480", "address": "311 Sunset Blvd. N.", "hours": "Mo-Su 07:00-21:00"}, "geometry": {"type": "Point", "coordinates": [-122.1957084, 47.4869815]}}, {"type": "Feature", "properties": {"id": "eef9dacf-daf1-4fe3-9202-5f1063fb8b1a", "name": "Zhen Kee", "category": "restaurant", "tags": ["restaurant", "chinese"], "sources": ["overture"], "website": "https://www.zhenkee.com", "phone": "(425) 277-1886", "address": "151 Sunset Blvd N"}, "geometry": {"type": "Point", "coordinates": [-122.1970215, 47.4846497]}}, {"type": "Feature", "properties": {"id": 654870957, "name": "BigFoot Java", "category": "cafe", "tags": ["cafe", "coffee-shop", "takeaway", "vegetarian", "coffee"], "sources": ["osm", "overture"], "website": "https://bigfootjava.com/locations/bronson-way-bigfoot-java/", "phone": "+14252715946", "address": "1408 Bronson Way N", "hours": "24/7"}, "geometry": {"type": "Point", "coordinates": [-122.1985006, 47.4844145]}}, {"type": "Feature", "properties": {"id": 654870800, "name": "Gourmet Latte", "category": "cafe", "tags": ["cafe", "coffee-shop", "coffee"], "sources": ["osm", "overture"], "website": "http://gourmetlatte.com", "phone": "+14255726955", "address": "350 Sunset Blvd N"}, "geometry": {"type": "Point", "coordinates": [-122.1943573, 47.4877161]}}, {"type": "Feature", "properties": {"id": 13673123275, "name": "Woods Coffee", "category": "cafe", "tags": ["cafe", "coffee-shop", "outdoor-seating", "drive-through"], "sources": ["osm"], "website": "https://woodscoffee.com/", "phone": "+1 425 645 9234", "address": "151 Sunset Boulevard North", "hours": "Mo-Fr 04:30-20:00; Sa-Su 05:30-20:00"}, "geometry": {"type": "Point", "coordinates": [-122.197014, 47.4846524]}}, {"type": "Feature", "properties": {"id": 4236749127, "name": "Ay! Jalisco Tienda Mexicana y Carnicera", "category": "restaurant", "tags": ["restaurant", "mexican"], "sources": ["osm"], "address": "108 Factory Avenue North"}, "geometry": {"type": "Point", "coordinates": [-122.1979445, 47.4843229]}}, {"type": "Feature", "properties": {"id": 4556370092, "name": "Sunset Bistro", "category": "cafe", "tags": ["cafe", "romanian"], "sources": ["osm"], "address": "354 Sunset Boulevard North"}, "geometry": {"type": "Point", "coordinates": [-122.193895, 47.4883679]}}, {"type": "Feature", "properties": {"id": 5482985021, "name": "Momoya Sushi & Bento", "category": "restaurant", "tags": ["restaurant", "japanese", "sushi", "asian"], "sources": ["osm", "overture"], "phone": "+14252711717", "address": "241 Sunset Blvd N"}, "geometry": {"type": "Point", "coordinates": [-122.196123, 47.4860927]}}, {"type": "Feature", "properties": {"id": 11194788221, "name": "Taqueria Birrieria Perla", "category": "fast_food", "tags": ["fast-food", "mexican", "restaurant", "taco"], "sources": ["osm", "overture"], "website": "https://perlabirrieriataqueria.com/", "phone": "+12067510785", "address": "1408 Bronson Way N"}, "geometry": {"type": "Point", "coordinates": [-122.1990966, 47.4842115]}}, {"type": "Feature", "properties": {"id": 48681525, "name": "Mizu", "category": "restaurant", "tags": ["restaurant", "steak-house", "japanese", "wheelchair-accessible"], "sources": ["osm"], "address": "1820 Maple Valley Highway"}, "geometry": {"type": "Point", "coordinates": [-122.1947368, 47.4833699]}}, {"type": "Feature", "properties": {"id": "ed26d4d9-86cc-49fe-a1ea-94c03a355bd7", "name": "Shari's Cafe and Pies", "category": "restaurant", "tags": ["restaurant", "breakfast-and-brunch", "breakfast", "brunch"], "sources": ["overture"], "website": "https://www.sharis.com/cafe-locations/renton", "phone": "4252358117", "address": "1820 Maple Valley Hwy"}, "geometry": {"type": "Point", "coordinates": [-122.1947327, 47.4833527]}}, {"type": "Feature", "properties": {"id": "e73601ee-80e2-475b-8a3a-b39406bde476", "name": "Stir Chinese Restaurant", "category": "restaurant", "tags": ["restaurant", "chinese"], "sources": ["overture"], "website": "http://www.stirfood.com", "phone": "(425) 235-1818", "address": "151 Sunset Blvd N"}, "geometry": {"type": "Point", "coordinates": [-122.1970139, 47.4847031]}}, {"type": "Feature", "properties": {"id": "70757127-f206-4c82-8112-c63b43a409a0", "name": "Omar Al Khyam Restaurant", "category": "restaurant", "tags": ["restaurant"], "sources": ["overture"], "address": "354 Sunset Blvd N"}, "geometry": {"type": "Point", "coordinates": [-122.1939087, 47.4883614]}}, {"type": "Feature", "properties": {"id": "27a081bc-c163-4af9-a031-3e7fc192be9f", "name": "Sunset Bistro llc", "category": "restaurant", "tags": ["restaurant", "romanian", "eastern-european", "european"], "sources": ["overture"], "website": "http://sunset-bistro.business.site/", "phone": "+14255720440", "address": "354 Sunset Blvd N"}, "geometry": {"type": "Point", "coordinates": [-122.193924, 47.4882889]}}, {"type": "Feature", "properties": {"id": "3206eccd-0258-40b0-b9ee-7fd967c5458b", "name": "Mizu Japanese Steakhouse", "category": "restaurant", "tags": ["restaurant", "japanese", "sushi"], "sources": ["overture"], "website": "https://www.mizusteakhouse.com/reservation", "phone": "+12065759109", "address": "1820 Maple Valley Hwy"}, "geometry": {"type": "Point", "coordinates": [-122.194809, 47.4833374]}}, {"type": "Feature", "properties": {"id": "fbfd911f-8b61-46cf-9676-0a07ad1733d6", "name": "Sips Espresso", "category": "cafe", "tags": ["cafe"], "sources": ["overture"], "website": "http://www.javajoesespresso.com", "phone": "(425) 226-7477", "address": "350 Sunset Blvd N"}, "geometry": {"type": "Point", "coordinates": [-122.1940536, 47.4879608]}}, {"type": "Feature", "properties": {"id": 162979123, "name": "Cedar River Park", "category": "park", "tags": ["park"], "sources": ["osm"], "website": "https://www.rentonwa.gov/city_hall/parks_and_recreation/parks_and_trails/find_a_park_or_trail/cedar_river_park", "hours": "sunrise-sunset"}, "geometry": {"type": "Point", "coordinates": [-122.19518, 47.4813841]}}, {"type": "Feature", "properties": {"id": "951d738c-0ae4-4a52-a965-ed22f1c932fc", "name": "Cedar River Park", "category": "park", "tags": ["park"], "sources": ["overture"], "website": "http://www.kingcounty.gov/recreation/parks/trails/regionaltrailssystem/cedarriver.aspx", "phone": "+14254306700", "address": "1717 Maple Vly Hwy"}, "geometry": {"type": "Point", "coordinates": [-122.1968155, 47.481823]}}, {"type": "Feature", "properties": {"id": "2871a92a-be5b-4f46-b81a-772ba3e0ed35", "name": "Renton parkrun", "category": "park", "tags": ["park"], "sources": ["overture"], "website": "http://www.parkrun.us/renton", "address": "405 Cedar River Trail Walk"}, "geometry": {"type": "Point", "coordinates": [-122.1996231, 47.4803581]}}, {"type": "Feature", "properties": {"id": "57c952c5-08d5-41e1-a0fb-7f5cb7e00791", "name": "Quality Inn", "category": "hotel", "tags": ["hotel"], "sources": ["overture"], "phone": "4252267600", "address": "1850 Maple Valley Hwy"}, "geometry": {"type": "Point", "coordinates": [-122.1951065, 47.4831123]}}, {"type": "Feature", "properties": {"id": 180408028, "name": "Best Western Plus - Renton", "category": "hotel", "tags": ["hotel"], "sources": ["osm"], "website": "http://www.qualityinn.com/hotel-renton-washington-WA191", "phone": "+1-425-226-7600", "address": "1850 Maple Valley Highway"}, "geometry": {"type": "Point", "coordinates": [-122.1941231, 47.4836625]}}, {"type": "Feature", "properties": {"id": 592889545, "name": "Renton Inn", "category": "hotel", "tags": ["hotel", "guest-house", "inn"], "sources": ["osm", "overture"], "website": "https://plus.google.com/104304098564576402725/about?gl=us&hl=en", "phone": "+14256879846", "address": "219 Sunset Blvd N"}, "geometry": {"type": "Point", "coordinates": [-122.1965537, 47.4853813]}}, {"type": "Feature", "properties": {"id": "583390be-86d3-4682-b0d1-33429fc14c7d", "name": "Best Western Plus Renton Inn", "category": "hotel", "tags": ["hotel"], "sources": ["overture"], "website": "https://www.bestwestern.com/en_US/book/hotel-rooms.48185.html?iata=00171890&ssob=BLBWI0003G&cid=BLBWI0003G%3Ayext%3Awebsite%3A48185", "phone": "+14252267600", "address": "1850 Maple Vly Hwy"}, "geometry": {"type": "Point", "coordinates": [-122.1943512, 47.4836731]}}, {"type": "Feature", "properties": {"id": 396478018, "name": "7-Eleven", "category": "convenience", "tags": ["convenience", "delivery"], "sources": ["osm", "overture"], "website": "https://www.7-eleven.com/", "phone": "+12069207019", "address": "404 Sunset Blvd N"}, "geometry": {"type": "Point", "coordinates": [-122.1938011, 47.4886315]}}, {"type": "Feature", "properties": {"id": 396478017, "name": "Buddy's", "category": "cannabis", "tags": ["cannabis", "clinic"], "sources": ["osm", "overture"], "website": "http://www.buddys-wa.com", "phone": "+14252269333", "address": "420 Sunset Blvd N", "hours": "08:00-23:00"}, "geometry": {"type": "Point", "coordinates": [-122.1935572, 47.4893057]}}, {"type": "Feature", "properties": {"id": 4556452017, "name": "Vape-o-rama", "category": "tobacco", "tags": ["tobacco"], "sources": ["osm"], "address": "239 Sunset Boulevard North"}, "geometry": {"type": "Point", "coordinates": [-122.1961646, 47.4860245]}}, {"type": "Feature", "properties": {"id": 592886695, "name": "Dunn Lumber", "category": "doityourself", "tags": ["doityourself", "hardware"], "sources": ["osm", "overture"], "website": "https://www.dunnlumber.com/storelocator/storedetails?id=2", "phone": "+14252553429", "address": "120 Factory Ave N", "hours": "Mo-Fr 07:00-18:00; Sa 08:00-17:00"}, "geometry": {"type": "Point", "coordinates": [-122.1975882, 47.4856425]}}, {"type": "Feature", "properties": {"id": 654870946, "name": "Bronson Mini Mart", "category": "convenience", "tags": ["convenience"], "sources": ["osm"], "address": "1408 Bronson Way North"}, "geometry": {"type": "Point", "coordinates": [-122.1988932, 47.4844431]}}, {"type": "Feature", "properties": {"id": "a550ddb0-9b73-4715-a8b3-5345e0ad9142", "name": "Jai Enterprises Inc", "category": "supermarket", "tags": ["supermarket"], "sources": ["overture"], "address": "404 Sunset Blvd N"}, "geometry": {"type": "Point", "coordinates": [-122.1938019, 47.4886284]}}, {"type": "Feature", "properties": {"id": "ee9c6b0b-22b4-411b-a260-b5d331d9201a", "name": "Jeannie By Design", "category": "doityourself", "tags": ["doityourself", "home", "improvement"], "sources": ["overture"], "website": "http://www.jeanniebydesign.com", "phone": "(425) 255-3869", "address": "82 Monterey Pl NE"}, "geometry": {"type": "Point", "coordinates": [-122.1902618, 47.4826164]}}, {"type": "Feature", "properties": {"id": "afeefe36-ca52-4657-ba79-9d7fc50aaeb7", "name": "TMC Brothers Painting Company", "category": "doityourself", "tags": ["doityourself", "building", "supply"], "sources": ["overture"], "website": "https://tmc-brothers-painting.com", "phone": "(206) 225-1632", "address": "300 Vuemont Pl NE Apt S101"}, "geometry": {"type": "Point", "coordinates": [-122.1902237, 47.4854736]}}, {"type": "Feature", "properties": {"id": "05d452b3-09c5-4a07-a948-b99da55ae6db", "name": "Mahanaim Inc", "category": "supermarket", "tags": ["supermarket"], "sources": ["overture"], "website": "https://www.mahanaim.info", "address": "1408 Bronson Way N"}, "geometry": {"type": "Point", "coordinates": [-122.1989059, 47.4844398]}}, {"type": "Feature", "properties": {"id": "1ac21793-a7f7-45d1-8c49-11a1c9b6d3bd", "name": "Ay Jalisco", "category": "supermarket", "tags": ["supermarket", "mexican"], "sources": ["overture"], "website": "http://www.southernpatrol.com/2009/02/victoria-tienda-mexicana-y-carniceria.html", "phone": "+14252276060", "address": "108 Factory Ave N"}, "geometry": {"type": "Point", "coordinates": [-122.1978149, 47.4843216]}}, {"type": "Feature", "properties": {"id": "d597c823-64f9-4029-a7ab-aec66925ccaa", "name": "Allen's Furniture", "category": "furniture", "tags": ["furniture"], "sources": ["overture"], "website": "https://www.progressivelp.com/onlineapplication/onlineapplication.aspx?sid=Allen4253518554", "phone": "+14253518554", "address": "350 Sunset Blvd N"}, "geometry": {"type": "Point", "coordinates": [-122.1944809, 47.4878387]}}, {"type": "Feature", "properties": {"id": "e9a141cb-ff27-427b-be4e-dac6f0c7f3b7", "name": "Kaiser Permanente", "category": "clinic", "tags": ["clinic", "medical"], "sources": ["overture"], "website": "https://wa.kaiserpermanente.org/html/public/locations/renton", "phone": "+14252352800", "address": "275 Bronson Wy NE"}, "geometry": {"type": "Point", "coordinates": [-122.1925049, 47.4864616]}}, {"type": "Feature", "properties": {"id": "dab29cfe-eea0-42a3-bbb8-7c96d347a9b5", "name": "Group Health Cooperative", "category": "hospital", "tags": ["hospital"], "sources": ["overture"], "website": "http://www.ghc.org", "phone": "+14252352804", "address": "275 Bronson Way NE"}, "geometry": {"type": "Point", "coordinates": [-122.1926804, 47.4865456]}}, {"type": "Feature", "properties": {"id": "d65f73a9-507d-46eb-bb84-70d2a589c245", "name": "Renton Medical Center", "category": "clinic", "tags": ["clinic", "medical"], "sources": ["overture"], "website": "https://healthy.kaiserpermanente.org/washington/facilities/renton-medical-center-339005", "address": "275 Bronson Wy NE"}, "geometry": {"type": "Point", "coordinates": [-122.1917267, 47.4866028]}}, {"type": "Feature", "properties": {"id": 653524918, "name": "Henry Moses Aquatic Center", "category": "sports_centre", "tags": ["sports-centre", "swimming"], "sources": ["osm"], "hours": "Mo-Su 11:00-14:00, 15:00-18:00"}, "geometry": {"type": "Point", "coordinates": [-122.1953337, 47.4815038]}}]}