{"type": "FeatureCollection", "features": [{"type": "Feature", "properties": {"id": 2106231828, "name": "Subway", "category": "fast_food", "tags": ["fast-food", "sandwich", "takeaway", "restaurant"], "sources": ["osm", "overture"], "website": "https://www.subway.com", "phone": "14258854088", "address": "14712 Ne 91st St  Ste 500", "hours": "Mo-Fr 07:00-22:00; Sa-Su 09:00-20:00"}, "geometry": {"type": "Point", "coordinates": [-122.144064, 47.6835259]}}, {"type": "Feature", "properties": {"id": 1262848052, "name": "Black Raven Brewing Company", "category": "pub", "tags": ["pub", "brewery", "microbrew"], "sources": ["osm"], "website": "https://blackravenbrewing.com", "phone": "+1-425-881-3020", "address": "14679 Northeast 95th Street", "hours": "Mo-We 14:00-21:00; Th 14:00-22:00; Fr 12:00-22:00; Sa 12:00-21:00; Su 12:00-20:00"}, "geometry": {"type": "Point", "coordinates": [-122.1446573, 47.6855472]}}, {"type": "Feature", "properties": {"id": 2106232130, "name": "Zaucer Pizza", "category": "restaurant", "tags": ["restaurant", "pizza", "takeaway", "italian"], "sources": ["osm", "overture"], "website": "http://www.zaucer.com/", "phone": "+14253762700", "address": "14712 NE 91st St", "hours": "Mo-Fr 10:00-21:00,Sa 11:00-21:00,Su 16:00-20:00"}, "geometry": {"type": "Point", "coordinates": [-122.1441749, 47.6835205]}}, {"type": "Feature", "properties": {"id": 6546105692, "name": "Willows Deli", "category": "restaurant", "tags": ["restaurant", "american", "sandwich", "outdoor-seating", "air-conditioned", "wifi"], "sources": ["osm", "overture"], "website": "https://www.willowsdeli.com", "phone": "14258852021", "address": "14858 NE 95th St", "hours": "Mo-Fr 07:00-16:00"}, "geometry": {"type": "Point", "coordinates": [-122.142272, 47.6862274]}}, {"type": "Feature", "properties": {"id": 6991510649, "name": "Big Block Brewing Taproom", "category": "pub", "tags": ["pub", "microbrew", "brewery"], "sources": ["osm"], "address": "14950 Northeast 95th Street"}, "geometry": {"type": "Point", "coordinates": [-122.141135, 47.6861775]}}, {"type": "Feature", "properties": {"id": "73da1c89-1ab3-47ff-8891-e28caa8d3f8f", "name": "Black Raven Brewing", "category": "bar", "tags": ["bar", "brewery"], "sources": ["overture"], "website": "http://linktr.ee/blackravenbrewing", "phone": "+14258813020", "address": "14679 NE 95th St"}, "geometry": {"type": "Point", "coordinates": [-122.1443481, 47.6854782]}}, {"type": "Feature", "properties": {"id": "7547dfdc-e0c8-41f4-a241-b6491a08d598", "name": "Big Block Brewing Redmond", "category": "bar", "tags": ["bar", "brewery"], "sources": ["overture"], "website": "http://Bigblockbrewery.com/", "phone": "+14256583644", "address": "14950 NE 95th St"}, "geometry": {"type": "Point", "coordinates": [-122.1411514, 47.6861496]}}, {"type": "Feature", "properties": {"id": "b9b368c4-ef6b-479d-8cab-f2e12f80af0e", "name": "Pasta Ya Gotcha", "category": "restaurant", "tags": ["restaurant"], "sources": ["overture"], "phone": "14255589525", "address": "14868 NE 95th St"}, "geometry": {"type": "Point", "coordinates": [-122.1424103, 47.6862297]}}, {"type": "Feature", "properties": {"id": "08dc0709-21e8-40e8-a64a-467408f38cc4", "name": "B&h Junior Inc", "category": "restaurant", "tags": ["restaurant"], "sources": ["overture"], "address": "14858 NE 95th St"}, "geometry": {"type": "Point", "coordinates": [-122.1429749, 47.686264]}}, {"type": "Feature", "properties": {"id": "891c2db7-b7a9-4718-9dd4-86413b18811c", "name": "La Cherie Bakery", "category": "bakery", "tags": ["bakery"], "sources": ["overture"], "website": "http://www.lacheriebakery.com/", "phone": "+13607871780", "address": "14676 NE 95th St"}, "geometry": {"type": "Point", "coordinates": [-122.1446991, 47.6868668]}}, {"type": "Feature", "properties": {"id": "93a37cbb-72b1-40a3-af5f-e48303d34666", "name": "Origin Bakery", "category": "bakery", "tags": ["bakery"], "sources": ["overture"], "website": "https://www.theoriginbakery.com", "phone": "14258189988", "address": "14676 NE 95th St"}, "geometry": {"type": "Point", "coordinates": [-122.1447678, 47.6869431]}}, {"type": "Feature", "properties": {"id": "d5b0119c-500e-431d-8e6f-d34eb80f78ac", "name": "Midori Bakery", "category": "bakery", "tags": ["bakery"], "sources": ["overture"], "website": "http://www.midoribakery.com", "phone": "(425) 307-1394", "address": "14676 NE 95th St"}, "geometry": {"type": "Point", "coordinates": [-122.1448212, 47.6869431]}}, {"type": "Feature", "properties": {"id": "80e02207-574a-45b2-9243-db7cdbd71f11", "name": "Tela Art Resource", "category": "gallery", "tags": ["gallery", "art"], "sources": ["overture"], "website": "https://www.telaart.com", "phone": "14254972004", "address": "15030 NE 95th St"}, "geometry": {"type": "Point", "coordinates": [-122.1404724, 47.6869278]}}, {"type": "Feature", "properties": {"id": "c4100b0f-f2fe-464a-a654-675117433c25", "name": "Wonderoom Art Space", "category": "gallery", "tags": ["gallery", "art"], "sources": ["overture"], "website": "http://instagram.com/wonderoom.studio", "phone": "+14256865888", "address": "14824 NE 95th St #2541"}, "geometry": {"type": "Point", "coordinates": [-122.1431351, 47.6863213]}}, {"type": "Feature", "properties": {"id": 1063097271, "name": "ampm", "category": "convenience", "tags": ["convenience"], "sources": ["osm", "overture"], "website": "https://www.ampm.com/", "phone": "+14258696804", "address": "9015 Willows Rd NE", "hours": "24/7"}, "geometry": {"type": "Point", "coordinates": [-122.1435291, 47.6823944]}}, {"type": "Feature", "properties": {"id": 6234680134, "name": "Bearcom", "category": "electronics", "tags": ["electronics"], "sources": ["osm"], "website": "https://bearcom.com/", "phone": "+1-425-895-8118;+1-800-313-2327", "address": "14940 Northeast 95th Street"}, "geometry": {"type": "Point", "coordinates": [-122.1416869, 47.68619]}}, {"type": "Feature", "properties": {"id": 7196725785, "name": "Cellphones", "category": "mobile_phone", "tags": ["mobile-phone"], "sources": ["osm"]}, "geometry": {"type": "Point", "coordinates": [-122.1445983, 47.6835299]}}, {"type": "Feature", "properties": {"id": "3adafdf0-edf5-444e-9b38-c063db98922c", "name": "Fastenal Fulfillment Center", "category": "doityourself", "tags": ["doityourself", "building", "supply"], "sources": ["overture"], "website": "https://www.fastenal.com", "phone": "14258694878", "address": "9145 Willows Rd NE"}, "geometry": {"type": "Point", "coordinates": [-122.1447144, 47.6838264]}}, {"type": "Feature", "properties": {"id": "b0a4be02-3e96-497b-bd63-1beeb5a4a48a", "name": "Design Hardwood Products", "category": "hardware", "tags": ["hardware"], "sources": ["overture"], "website": "http://www.woodwise.com", "phone": "+14258690859", "address": "15050 NE 95th St"}, "geometry": {"type": "Point", "coordinates": [-122.1400681, 47.6870308]}}, {"type": "Feature", "properties": {"id": "8390593b-e13f-49c2-9af5-25e247e99183", "name": "L&w Supply - Redmond, Wa", "category": "doityourself", "tags": ["doityourself", "building", "supply"], "sources": ["overture"], "website": "https://www.lwsupply.com", "phone": "14258823116", "address": "14980 NE 90th St"}, "geometry": {"type": "Point", "coordinates": [-122.1406403, 47.6826897]}}, {"type": "Feature", "properties": {"id": "aaa143f6-428b-4293-95bf-2c93438407b9", "name": "Williams Flower & Gift - Redmond", "category": "florist", "tags": ["florist"], "sources": ["overture"], "website": "https://www.williamsflowers.com", "phone": "+14252423573", "address": "8705 Willows Rd NE"}, "geometry": {"type": "Point", "coordinates": [-122.1417694, 47.6808777]}}, {"type": "Feature", "properties": {"id": "7a3ff6d7-9b13-46dd-a892-e50d80d48448", "name": "Aimless Goods", "category": "clothes", "tags": ["clothes"], "sources": ["overture"], "website": "http://Aimlessgoods.com/", "phone": "+12068581991", "address": "14609 NE 91st St"}, "geometry": {"type": "Point", "coordinates": [-122.1459885, 47.6830521]}}, {"type": "Feature", "properties": {"id": "ced04908-f008-4648-8b83-972f0d567e41", "name": "Redmond Floral", "category": "florist", "tags": ["florist"], "sources": ["overture"], "website": "https://redmondfloral.com", "phone": "14258853333", "address": "14864 NE 95th St"}, "geometry": {"type": "Point", "coordinates": [-122.1425323, 47.6866875]}}, {"type": "Feature", "properties": {"id": "ebd2b1c6-3bae-4aae-bf0b-281a16ef640b", "name": "Screamer Gear", "category": "clothes", "tags": ["clothes"], "sources": ["overture"], "website": "https://screamer.com/pages/contact", "phone": "12066679000", "address": "14778 NE 95th St"}, "geometry": {"type": "Point", "coordinates": [-122.1435165, 47.6864014]}}, {"type": "Feature", "properties": {"id": "31fea93f-3c49-4848-909c-3c2ecb9e59bd", "name": "Pacific Nook Furniture", "category": "furniture", "tags": ["furniture"], "sources": ["overture"], "website": "http://www.pacificnook.com/", "phone": "+18667886928", "address": "14640 NE 91st St"}, "geometry": {"type": "Point", "coordinates": [-122.1451187, 47.6835022]}}, {"type": "Feature", "properties": {"id": "e3ff8d8d-9796-48ca-94db-3e09bd472afd", "name": "Rotovac Professional Carpet Cleaning Equipment And Supplies", "category": "doityourself", "tags": ["doityourself", "building", "supply"], "sources": ["overture"], "website": "http://www.rotovac.com", "phone": "+14258836746", "address": "14615 Ne 91st St Ste C"}, "geometry": {"type": "Point", "coordinates": [-122.1450958, 47.6827087]}}, {"type": "Feature", "properties": {"id": "42dadba6-779c-4392-a014-655ce541cfb4", "name": "Consonus Washington Pharmacy", "category": "pharmacy", "tags": ["pharmacy"], "sources": ["overture"], "website": "http://www.consonushealth.com/pharmacy", "phone": "4258692306", "address": "14729 NE 87th St"}, "geometry": {"type": "Point", "coordinates": [-122.143837, 47.680069]}}, {"type": "Feature", "properties": {"id": 10713154026, "name": "FM Sports", "category": "fitness_centre", "tags": ["fitness-centre", "gym"], "sources": ["osm", "overture"], "website": "https://fmsports.teamsnapsites.com/", "phone": "12062279507", "address": "9117 151st Ave NE"}, "geometry": {"type": "Point", "coordinates": [-122.1403244, 47.6836378]}}, {"type": "Feature", "properties": {"id": "99233bea-98e0-4098-85bc-320d1b54b753", "name": "Movefree Academy", "category": "fitness_centre", "tags": ["fitness-centre", "gym"], "sources": ["overture"], "website": "http://www.movefreeacademy.com", "phone": "(888) 481-0886", "address": "14787 NE 95th St"}, "geometry": {"type": "Point", "coordinates": [-122.1434021, 47.6847878]}}, {"type": "Feature", "properties": {"id": "c70e1fd4-eddc-4404-9c30-72b3367149f9", "name": "Kutting Edge Fitness", "category": "fitness_centre", "tags": ["fitness-centre", "gym"], "sources": ["overture"], "website": "http://www.kuttingedgefitness.com/", "phone": "+14255047583", "address": "14766 NE 95th St"}, "geometry": {"type": "Point", "coordinates": [-122.1437073, 47.686203]}}, {"type": "Feature", "properties": {"id": "63d0c020-536d-4f90-bca9-1826cbb30ad1", "name": "Eastside Baseball Academy", "category": "sports_centre", "tags": ["sports-centre", "sports", "club", "league"], "sources": ["overture"], "address": "15046 NE 95th St"}, "geometry": {"type": "Point", "coordinates": [-122.1401825, 47.6875381]}}, {"type": "Feature", "properties": {"id": "f8ab5721-a233-41b8-9e3f-01b72b18aa06", "name": "Warrior Strength Training", "category": "fitness_centre", "tags": ["fitness-centre", "gym"], "sources": ["overture"], "website": "http://www.warriorstrengthtraining.com", "phone": "(425) 445-9447", "address": "9123 151st Ave NE"}, "geometry": {"type": "Point", "coordinates": [-122.1401901, 47.6836281]}}, {"type": "Feature", "properties": {"id": "ade42e20-1633-408e-9fe1-09599d60028f", "name": "Moving To Heal - Joyful Fitness", "category": "fitness_centre", "tags": ["fitness-centre", "yoga", "studio"], "sources": ["overture"], "website": "https://www.movingtoheal.net", "phone": "14257022416", "address": "14950 NE 95th St"}, "geometry": {"type": "Point", "coordinates": [-122.1412048, 47.6862602]}}, {"type": "Feature", "properties": {"id": "415a874d-e15e-4b6b-b294-dfcc2909635b", "name": "Swing Labs", "category": "fitness_centre", "tags": ["fitness-centre", "fitness", "trainer"], "sources": ["overture"], "website": "http://swinglabpro.com/", "phone": "+14253075786", "address": "14588 NE 95th St"}, "geometry": {"type": "Point", "coordinates": [-122.1458893, 47.6874771]}}, {"type": "Feature", "properties": {"id": "52a42b56-2fa5-40a3-ac18-bb9dd5a98470", "name": "Fit By Design", "category": "fitness_centre", "tags": ["fitness-centre", "fitness", "trainer"], "sources": ["overture"], "website": "http://www.fdbaz.com", "address": "14818 NE 95th St"}, "geometry": {"type": "Point", "coordinates": [-122.143074, 47.6866264]}}, {"type": "Feature", "properties": {"id": "fecc968d-8051-43b3-a75a-bc8a4d891484", "name": "Fiteru", "category": "fitness_centre", "tags": ["fitness-centre", "gym"], "sources": ["overture"], "address": "14788 NE 95th St"}, "geometry": {"type": "Point", "coordinates": [-122.1434784, 47.686882]}}, {"type": "Feature", "properties": {"id": "ef48ac52-86e3-47f9-bf1e-903477635264", "name": "Golfletica Sports and Rehab", "category": "fitness_centre", "tags": ["fitness-centre", "fitness", "trainer"], "sources": ["overture"], "website": "http://www.GOLFLETICA.com/", "phone": "+14252217253", "address": "14603 NE 87th St"}, "geometry": {"type": "Point", "coordinates": [-122.1449509, 47.6801643]}}, {"type": "Feature", "properties": {"id": "73b0cb80-4cdc-444a-a23b-9fbc2cbb1d18", "name": "FM Elite Programs", "category": "fitness_centre", "tags": ["fitness-centre", "gym"], "sources": ["overture"], "website": "https://fm-elite-programs.square.site/", "phone": "+12063174703", "address": "9040 Willows Rd NE"}, "geometry": {"type": "Point", "coordinates": [-122.14254, 47.683857]}}]}