{"type": "FeatureCollection", "features": [{"type": "Feature", "properties": {"id": "9841da29-a1c6-4085-a197-557c2b1737ea", "name": "Pizza Hut Express", "category": "restaurant", "tags": ["restaurant", "pizza"], "sources": ["overture"], "phone": "4252070067", "address": "1215 N Landing Way"}, "geometry": {"type": "Point", "coordinates": [-122.1998062, 47.4962387]}}, {"type": "Feature", "properties": {"id": 11349794459, "name": "Sizzle Dogs", "category": "fast_food", "tags": ["fast-food", "hot-dog", "restaurant", "hot", "dog", "american"], "sources": ["osm", "overture"], "website": "http://www.sizzledogs.com", "phone": "+14256389135", "address": "1000 Garden Ave N", "hours": "09:30-18:00"}, "geometry": {"type": "Point", "coordinates": [-122.1995049, 47.4998475]}}, {"type": "Feature", "properties": {"id": "6d27e1ff-0801-4412-85f8-94278d59a922", "name": "PACCAR Parts", "category": "restaurant", "tags": ["restaurant"], "sources": ["overture"], "website": "https://www.paccarparts.com/", "phone": "+14252544400", "address": "750 Houser Way N"}, "geometry": {"type": "Point", "coordinates": [-122.1937485, 47.4938316]}}, {"type": "Feature", "properties": {"id": "3bd8e53e-6ebf-4191-b539-92c166f3700c", "name": "Distant Lands Coffee", "category": "cafe", "tags": ["cafe", "coffee"], "sources": ["overture"], "website": "http://www.dlcoffee.com/", "phone": "+18007584437", "address": "801 Houser Way N"}, "geometry": {"type": "Point", "coordinates": [-122.1954956, 47.4960976]}}, {"type": "Feature", "properties": {"id": "0129c633-7358-44be-9d4e-efe2520d015e", "name": "Sunset Condominiums", "category": "attraction", "tags": ["attraction", "landmark", "historical", "building"], "sources": ["overture"], "address": "901 Sunset Blvd NE"}, "geometry": {"type": "Point", "coordinates": [-122.1918488, 47.4972496]}}, {"type": "Feature", "properties": {"id": "3fb16312-6811-4bba-b5a2-2d37846e5e3b", "name": "Sunset Garden Condos", "category": "attraction", "tags": ["attraction", "landmark", "historical", "building"], "sources": ["overture"], "address": "949 Aberdeen Ave NE"}, "geometry": {"type": "Point", "coordinates": [-122.1923065, 47.4980621]}}, {"type": "Feature", "properties": {"id": 430210581, "name": "Target", "category": "department_store", "tags": ["department-store", "wheelchair-accessible", "wifi", "department"], "sources": ["osm", "overture"], "website": "https://www.target.com/sl/renton/2290", "phone": "+14252070067", "address": "1215 N Landing Way", "hours": "08:00-22:00"}, "geometry": {"type": "Point", "coordinates": [-122.1998698, 47.4962639]}}, {"type": "Feature", "properties": {"id": 42856332, "name": "WinCo Foods", "category": "supermarket", "tags": ["supermarket"], "sources": ["osm"], "website": "https://www.wincofoods.com/stores/win-co-foods-renton-177/770448", "address": "800 Garden Avenue North", "hours": "24/7"}, "geometry": {"type": "Point", "coordinates": [-122.1977074, 47.4965924]}}, {"type": "Feature", "properties": {"id": "90000064-4aaf-47df-bcc3-66132f67be1f", "name": "World Market", "category": "furniture", "tags": ["furniture"], "sources": ["overture"], "website": "https://stores.worldmarket.com/wa/renton/721-n-landing-way.html", "phone": "(425) 277-7580", "address": "1215 N Landing Way Ste A"}, "geometry": {"type": "Point", "coordinates": [-122.1999054, 47.4963226]}}, {"type": "Feature", "properties": {"id": "6753f689-8daa-4ae4-872b-595bf6a09056", "name": "Stoneway Concrete", "category": "doityourself", "tags": ["doityourself", "building", "supply"], "sources": ["overture"], "website": "http://stonewayconcrete.com", "phone": "+14252261000", "address": "915 Houser Way N"}, "geometry": {"type": "Point", "coordinates": [-122.197197, 47.4998817]}}, {"type": "Feature", "properties": {"id": 5140241522, "name": "CVS Pharmacy", "category": "pharmacy", "tags": ["pharmacy"], "sources": ["osm", "overture"], "website": "https://www.cvs.com", "phone": "14252070078", "address": "1215 N Landing Way", "hours": "Mo-Fr 09:00-21:00; Sa-Su 09:00-18:00"}, "geometry": {"type": "Point", "coordinates": [-122.1997518, 47.4965816]}}]}