{"type": "FeatureCollection", "features": [{"type": "Feature", "properties": {"id": 2462452995, "name": "Chipotle", "category": "fast_food", "tags": ["fast-food", "mexican", "takeaway"], "sources": ["osm"], "website": "https://locations.chipotle.com/wa/seattle/12725-lake-city-way-ne", "phone": "+1-206-367-1688", "address": "12725 Lake City Way Northeast", "hours": "Mo-Su 10:45-23:00"}, "geometry": {"type": "Point", "coordinates": [-122.2941885, 47.7218482]}}, {"type": "Feature", "properties": {"id": 1624468432, "name": "The Beer Authority", "category": "pub", "tags": ["pub", "brewery", "wifi"], "sources": ["osm"], "website": "https://www.seattlebeerauthority.com/", "phone": "+1-206-417-9629", "address": "12720 Lake City Way Northeast", "hours": "Mo-Th 14:00-22:00; Fr,Sa 14:00-23:00; Su 10:00-22:00"}, "geometry": {"type": "Point", "coordinates": [-122.293348, 47.7219293]}}, {"type": "Feature", "properties": {"id": 2152901649, "name": "Elliott Bay Brewery", "category": "pub", "tags": ["pub", "wheelchair-accessible"], "sources": ["osm"], "website": "http://www.elliottbaybrewery.com/locations-menus/lake-city/", "phone": "+1-206-365-2337", "address": "12537 Lake City Way Northeast", "hours": "Su 09:30-23:00; Mo-We 11:00-23:00; Th-Fr 11:00-24:00; Sa 09:30-24:00"}, "geometry": {"type": "Point", "coordinates": [-122.294893, 47.7203026]}}, {"type": "Feature", "properties": {"id": 2152901654, "name": "Pho An", "category": "restaurant", "tags": ["restaurant", "vietnamese", "asian", "noodles"], "sources": ["osm", "overture"], "website": "https://www.clover.com/online-ordering/pho-an-seattle", "phone": "+12063623439", "address": "12526 Lake City Way NE"}, "geometry": {"type": "Point", "coordinates": [-122.2944944, 47.7200437]}}, {"type": "Feature", "properties": {"id": 2152901657, "name": "Double J Saloon", "category": "bar", "tags": ["bar", "outdoor-seating"], "sources": ["osm", "overture"], "website": "http://www.double-j.com/", "phone": "+12062574804", "address": "12534 Lake City Way NE", "hours": "Mo-Su 14:00-02:00"}, "geometry": {"type": "Point", "coordinates": [-122.2943823, 47.7202867]}}, {"type": "Feature", "properties": {"id": 2462338175, "name": "Shawarma Man", "category": "restaurant", "tags": ["restaurant", "arabic", "greek"], "sources": ["osm"], "website": "https://www.chawlas2seattle.us/", "phone": "+1-206-402-4574", "address": "12716 Lake City Way Northeast", "hours": "Mo-Su 11:00-14:00,17:00-02:00"}, "geometry": {"type": "Point", "coordinates": [-122.29355, 47.7216637]}}, {"type": "Feature", "properties": {"id": 2462338187, "name": "Seatango", "category": "cafe", "tags": ["cafe", "argentinian"], "sources": ["osm"], "website": "https://seatangofoods.com/", "phone": "+1-206-327-9787", "address": "12728 Lake City Way Northeast", "hours": "Tu-Th 08:00-16:00; Fr 08:00-17:00; Sa 10:00-17:00"}, "geometry": {"type": "Point", "coordinates": [-122.29326, 47.722113]}}, {"type": "Feature", "properties": {"id": 2462452959, "name": "Rachel's Bagels and Burritos", "category": "cafe", "tags": ["cafe", "bagel", "breakfast", "coffee-shop", "takeaway"], "sources": ["osm"], "website": "https://www.rachelsbagels.com/lake-city", "phone": "+1-206-257-5761", "address": "12535 Lake City Way Northeast", "hours": "We-Su 08:00-13:00"}, "geometry": {"type": "Point", "coordinates": [-122.2949594, 47.7202449]}}, {"type": "Feature", "properties": {"id": 2462453028, "name": "Hellbent Brewing Company", "category": "pub", "tags": ["pub", "outdoor-seating", "microbrew", "brewery", "bar"], "sources": ["osm", "overture"], "website": "http://hellbentbrewingcompany.com/", "phone": "+12063613707", "address": "13035 Lake City Way NE", "hours": "Mo-Th 12:00-23:00; Fr-Sa 12:00-24:00; Su 12:00-22:00"}, "geometry": {"type": "Point", "coordinates": [-122.2931111, 47.7238772]}}, {"type": "Feature", "properties": {"id": "431245ab-dcea-486a-9615-6f86eae4a8ca", "name": "Teriyaki Time", "category": "restaurant", "tags": ["restaurant", "japanese", "asian"], "sources": ["overture"], "website": "http://Www.teriyakitimeseattle.com/", "phone": "+12063675003", "address": "3008 NE 127th St"}, "geometry": {"type": "Point", "coordinates": [-122.2960205, 47.7214775]}}, {"type": "Feature", "properties": {"id": 10200112851, "name": "Monarca Express", "category": "fast_food", "tags": ["fast-food", "mexican", "takeaway"], "sources": ["osm"], "phone": "+1-206-852-7699", "address": "13001 Lake City Way Northeast", "hours": "Mo-Fr 10:00-15:00"}, "geometry": {"type": "Point", "coordinates": [-122.2936459, 47.7230115]}}, {"type": "Feature", "properties": {"id": 5729227621, "name": "Man'oushe Express", "category": "restaurant", "tags": ["restaurant", "mediterranean", "lebanese", "middle-eastern"], "sources": ["osm", "overture"], "website": "http://www.manousheexpress.com/", "phone": "+12063670895", "address": "13721 Lake City Way NE", "hours": "Tu-Sa 09:30-20:00; Su 09:30-19:00"}, "geometry": {"type": "Point", "coordinates": [-122.2925161, 47.7290786]}}, {"type": "Feature", "properties": {"id": 6018444071, "name": "Mount&Bao", "category": "cafe", "tags": ["cafe", "chinese", "restaurant", "dim-sum", "noodles"], "sources": ["osm", "overture"], "website": "http://www.mountbaoxinchunyuan.com/", "phone": "+12065567137", "address": "12534 Lake City Way NE"}, "geometry": {"type": "Point", "coordinates": [-122.2944056, 47.7202265]}}, {"type": "Feature", "properties": {"id": 10200112850, "name": "Bangkok Food Truck", "category": "fast_food", "tags": ["fast-food", "thai", "takeaway", "delivery"], "sources": ["osm"], "address": "13001 Lake City Way Northeast", "hours": "Mo-Sa 11:00-20:00"}, "geometry": {"type": "Point", "coordinates": [-122.2936465, 47.7230689]}}, {"type": "Feature", "properties": {"id": "99b269f6-7927-4fc6-9049-0fad6a03c178", "name": "Jack in the Box", "category": "restaurant", "tags": ["restaurant", "taco", "burger", "fast-food", "mexican"], "sources": ["overture"], "website": "http://www.jackinthebox.com/locations/8497", "phone": "2063643485", "address": "13055 Lake City Way NE"}, "geometry": {"type": "Point", "coordinates": [-122.2926941, 47.7245026]}}, {"type": "Feature", "properties": {"id": 221419589, "name": "Aceituno's", "category": "restaurant", "tags": ["restaurant", "mexican", "wheelchair-accessible"], "sources": ["osm"], "address": "13055 Lake City Way Northeast", "hours": "Mo-Su 09:00-21:00"}, "geometry": {"type": "Point", "coordinates": [-122.2930798, 47.7245426]}}, {"type": "Feature", "properties": {"id": "88e00542-7d17-499e-b6bd-8777f179aaaf", "name": "Chipotle Mexican Grill", "category": "restaurant", "tags": ["restaurant", "mexican", "taco", "texmex"], "sources": ["overture"], "website": "https://locations.chipotle.com/wa/seattle/12725-lake-city-way-ne?utm_source=facebook&utm_medium=yext&utm_campaign=yext_listings%3Frestaurant%3D2935", "phone": "+12063671688", "address": "12725 Lake City Way NE"}, "geometry": {"type": "Point", "coordinates": [-122.2941437, 47.7218437]}}, {"type": "Feature", "properties": {"id": "1f3fb729-2687-4835-bc2a-76b20c745268", "name": "Papa Murphy's Take 'N' Bake Pizza", "category": "restaurant", "tags": ["restaurant", "pizza"], "sources": ["overture"], "website": "https://order.papamurphys.com/menu/papa-murphys-ne-127th-street", "phone": "2063067272", "address": "3000 NE 127th St"}, "geometry": {"type": "Point", "coordinates": [-122.2960129, 47.721199]}}, {"type": "Feature", "properties": {"id": "5d63bcc4-648b-4f44-a064-9b7c37814dd0", "name": "Romio's Pizza and Pasta", "category": "restaurant", "tags": ["restaurant", "pizza"], "sources": ["overture"], "website": "http://romioslakecity.com", "phone": "(206) 361-1188", "address": "12534 Lake City Way NE"}, "geometry": {"type": "Point", "coordinates": [-122.2944031, 47.7201271]}}, {"type": "Feature", "properties": {"id": "b42d382e-afd2-42dc-99f1-1e2bdbf800cb", "name": "Aceituno's Mexican Food Lake City", "category": "restaurant", "tags": ["restaurant", "mexican"], "sources": ["overture"], "website": "www.aceitunosmexicanfood.com", "phone": "12069223773", "address": "13055 Lake City Way NE"}, "geometry": {"type": "Point", "coordinates": [-122.2930756, 47.7245216]}}, {"type": "Feature", "properties": {"id": "9e25ea07-91c0-4d30-9ade-8ded1b35106c", "name": "Toyoda Sushi", "category": "restaurant", "tags": ["restaurant", "sushi", "japanese", "asian"], "sources": ["overture"], "website": "https://sites.google.com/site/toyodasushi/home", "phone": "+12063677972", "address": "12543 Lake City Way NE"}, "geometry": {"type": "Point", "coordinates": [-122.2951126, 47.7204437]}}, {"type": "Feature", "properties": {"id": "a4967340-b2a9-468d-a6a6-75414f737e72", "name": "Bangkok99 Food Truck", "category": "restaurant", "tags": ["restaurant", "thai", "asian"], "sources": ["overture"], "website": "http://bangkokfoodtruckseattle.favorite-cafes.com", "phone": "+12063692211", "address": "13001 Lake City Way NE"}, "geometry": {"type": "Point", "coordinates": [-122.2936478, 47.7230988]}}, {"type": "Feature", "properties": {"id": "84c3c778-229b-4093-8a03-10822323162c", "name": "Seatango Argentine Bakery & Cafe", "category": "restaurant", "tags": ["restaurant"], "sources": ["overture"], "website": "http://www.seatangofoods.com", "phone": "12063279787", "address": "12728 Lake City Way NE"}, "geometry": {"type": "Point", "coordinates": [-122.2932739, 47.7221069]}}, {"type": "Feature", "properties": {"id": "51e7913d-0594-4e2c-927b-6c9df3a3b791", "name": "La Boheme Bakery", "category": "bakery", "tags": ["bakery"], "sources": ["overture"], "website": "https://www.labohemebakery.com", "phone": "(206) 946-1166", "address": "12728 Lake City Way NE"}, "geometry": {"type": "Point", "coordinates": [-122.2931747, 47.7220764]}}, {"type": "Feature", "properties": {"id": "f6f722ef-9847-4514-973a-a2cf1367c69c", "name": "Bebe Pizza", "category": "restaurant", "tags": ["restaurant", "indian"], "sources": ["overture"], "phone": "+12024064574", "address": "12716 Lake City Way NE"}, "geometry": {"type": "Point", "coordinates": [-122.2934723, 47.7216911]}}, {"type": "Feature", "properties": {"id": "ced96bab-cb15-4235-8fcd-d938e85a1944", "name": "Manila Manila", "category": "restaurant", "tags": ["restaurant", "filipino"], "sources": ["overture"], "website": "http://www.agr.wa.gov", "phone": "(206) 363-2667", "address": "12710 Lake City Way NE"}, "geometry": {"type": "Point", "coordinates": [-122.293541, 47.721489]}}, {"type": "Feature", "properties": {"id": "8b90d100-47f9-463a-be64-dde832c9a2cf", "name": "Chawlas2 Seattle", "category": "restaurant", "tags": ["restaurant"], "sources": ["overture"], "website": "http://www.chawlas2seattle.us/", "phone": "+12064024574", "address": "12716 Lake City Way NE"}, "geometry": {"type": "Point", "coordinates": [-122.2935638, 47.7216568]}}, {"type": "Feature", "properties": {"id": "8aba67d6-0e9a-48c3-8432-7ca774198e38", "name": "Otto\u2019s Smokehouse", "category": "restaurant", "tags": ["restaurant", "barbecue"], "sources": ["overture"], "website": "http://ottossmokehouse.com", "phone": "(206) 695-2328", "address": "12716 Lake City Way NE"}, "geometry": {"type": "Point", "coordinates": [-122.2935638, 47.7217293]}}, {"type": "Feature", "properties": {"id": "c33872a1-b8ee-4dd7-b6cc-932093ce26ff", "name": "Pexos Sports Bar and Grill", "category": "bar", "tags": ["bar"], "sources": ["overture"], "website": "http://lakecitypowersports.com", "phone": "(206) 362-2911", "address": "12725 Lake City Way NE"}, "geometry": {"type": "Point", "coordinates": [-122.2943573, 47.7217102]}}, {"type": "Feature", "properties": {"id": "25886637-5eee-4bc8-8837-552a1f612739", "name": "Elliott Bay Brewing - Lake City", "category": "bar", "tags": ["bar", "brewery"], "sources": ["overture"], "website": "https://www.elliottbaybrewing.com", "phone": "12063652337", "address": "12537 Lake City Way NE"}, "geometry": {"type": "Point", "coordinates": [-122.2949371, 47.7203598]}}, {"type": "Feature", "properties": {"id": "e699e7b7-b4e8-4528-b6e6-7f3f2127c58b", "name": "Brother Barrel", "category": "bar", "tags": ["bar", "beer"], "sources": ["overture"], "website": "http://BrotherBarrel.com/", "phone": "+12064533155", "address": "12535 Lake City Way NE"}, "geometry": {"type": "Point", "coordinates": [-122.2950211, 47.7203064]}}, {"type": "Feature", "properties": {"id": "1a28a48c-b051-47e5-9a5a-918018ad019a", "name": "Pho Binh", "category": "restaurant", "tags": ["restaurant", "vietnamese"], "sources": ["overture"], "website": "http://www.phobinh.com", "phone": "(206) 361-5144", "address": "13310 Lake City Way NE"}, "geometry": {"type": "Point", "coordinates": [-122.2920609, 47.7250252]}}, {"type": "Feature", "properties": {"id": "ff12beef-971f-4d88-8d1e-7e2e8a920025", "name": "Green Papaya Vietnamese Cuisine", "category": "restaurant", "tags": ["restaurant"], "sources": ["overture"], "phone": "+12063615144", "address": "13310 Lake City Way NE"}, "geometry": {"type": "Point", "coordinates": [-122.2918472, 47.725029]}}, {"type": "Feature", "properties": {"id": "303afa7c-4024-4639-8967-551e639aa855", "name": "Starry Night Pub", "category": "bar", "tags": ["bar"], "sources": ["overture"], "phone": "2064207306", "address": "13717 Lake City Way NE"}, "geometry": {"type": "Point", "coordinates": [-122.2926102, 47.7289352]}}, {"type": "Feature", "properties": {"id": "8a55510a-185a-411d-88dd-5bf647015a95", "name": "El Norte", "category": "restaurant", "tags": ["restaurant", "mexican"], "sources": ["overture"], "website": "http://elnorteloungeseattle.com", "phone": "(206) 954-1349", "address": "13717 Lake City Way NE"}, "geometry": {"type": "Point", "coordinates": [-122.2925339, 47.7289352]}}, {"type": "Feature", "properties": {"id": "c398708d-2dca-4775-af10-3709eab8c1d1", "name": "Golden Billiards", "category": "bar", "tags": ["bar"], "sources": ["overture"], "website": "http://goldenfleecebilliards.net/", "phone": "+12063671103", "address": "13741 Lake City Way NE"}, "geometry": {"type": "Point", "coordinates": [-122.2927628, 47.7296677]}}, {"type": "Feature", "properties": {"id": 3211770334, "name": "Imbrication", "category": "artwork", "tags": ["artwork"], "sources": ["osm"]}, "geometry": {"type": "Point", "coordinates": [-122.298717, 47.72015]}}, {"type": "Feature", "properties": {"id": "e920c321-bd9d-4fa9-b2d4-b2a276f879d4", "name": "Hidden Creek Village", "category": "attraction", "tags": ["attraction", "landmark", "historical", "building"], "sources": ["overture"], "website": "https://www.hiddencreekvillageapts.com", "phone": "+12063623721", "address": "13751 32nd Ave NE"}, "geometry": {"type": "Point", "coordinates": [-122.294426, 47.729496]}}, {"type": "Feature", "properties": {"id": "554588e7-e91b-4770-8b42-367a2d7068ee", "name": "ClockTower Apartment Homes", "category": "attraction", "tags": ["attraction", "landmark", "historical", "building"], "sources": ["overture"], "website": "http://www.clocktower-apartments.com", "phone": "+12064601531", "address": "13725 32nd Ave NE"}, "geometry": {"type": "Point", "coordinates": [-122.2942429, 47.7289162]}}, {"type": "Feature", "properties": {"id": "fccfb6b4-08c8-469e-a39d-365236073f53", "name": "Park 3025 Apartments", "category": "attraction", "tags": ["attraction", "landmark", "historical", "building"], "sources": ["overture"], "website": "https://www.park3025.graninc.com/", "phone": "+12063670369", "address": "3025 NE 137th St"}, "geometry": {"type": "Point", "coordinates": [-122.2953644, 47.7276726]}}, {"type": "Feature", "properties": {"id": "1edaa459-7444-41b1-b25f-ae71f80ae038", "name": "Mysa Apartments", "category": "attraction", "tags": ["attraction", "landmark", "historical", "building"], "sources": ["overture"], "website": "https://www.oriapts.com/mysa/", "phone": "+12065255625", "address": "3025 NE 130th St"}, "geometry": {"type": "Point", "coordinates": [-122.294838, 47.7224083]}}, {"type": "Feature", "properties": {"id": "f819a5da-aafd-4db9-ba5e-5e2e3a4d8534", "name": "Solara Apartments", "category": "attraction", "tags": ["attraction", "landmark", "historical", "building"], "sources": ["overture"], "website": "https://www.solaraapts.com/", "phone": "+12065904458", "address": "12736 Lake City Way NE"}, "geometry": {"type": "Point", "coordinates": [-122.2933426, 47.722168]}}, {"type": "Feature", "properties": {"id": "dee1309b-1157-4eb4-946d-9d2b52dd904e", "name": "Shorecrest Apartments", "category": "attraction", "tags": ["attraction", "landmark", "historical", "building"], "sources": ["overture"], "address": "12542 35th Ave NE"}, "geometry": {"type": "Point", "coordinates": [-122.2904205, 47.7205353]}}, {"type": "Feature", "properties": {"id": "94c82c5c-f893-42c1-81e7-b7667fed1907", "name": "Lake City Court", "category": "attraction", "tags": ["attraction", "landmark", "historical", "building"], "sources": ["overture"], "website": "https://www.seattlehousing.org/properties/lake-city-court", "phone": "+12063673474", "address": "12536 33rd Ave NE #301"}, "geometry": {"type": "Point", "coordinates": [-122.2921753, 47.7203407]}}, {"type": "Feature", "properties": {"id": "a13f418b-33ed-4976-b941-64d6f93c2d2f", "name": "Meadowbrook Pond", "category": "park", "tags": ["park"], "sources": ["overture"], "website": "http://www.seattle.gov/parks/find/centers/meadowbrook-community-center", "phone": "+12066843000", "address": "100 Dexter Ave N"}, "geometry": {"type": "Point", "coordinates": [-122.290802, 47.7209282]}}, {"type": "Feature", "properties": {"id": 50275581, "name": "Albert Davis Park", "category": "park", "tags": ["park"], "sources": ["osm", "overture"], "website": "http://seattle.gov/parks/park_detail.asp?ID=244", "phone": "+12066844075", "address": "12526 27th Ave NE"}, "geometry": {"type": "Point", "coordinates": [-122.2987514, 47.7201226]}}, {"type": "Feature", "properties": {"id": 1177982890, "name": "Jane's Fighting Garden", "category": "garden", "tags": ["garden"], "sources": ["osm"]}, "geometry": {"type": "Point", "coordinates": [-122.2938037, 47.7271363]}}, {"type": "Feature", "properties": {"id": "12111337-6c3f-49ed-8d36-dc483b298954", "name": "Dogwood Play Park", "category": "park", "tags": ["park", "dog"], "sources": ["overture"], "website": "https://dogwood-play-park.square.site/", "phone": "+12064566884", "address": "12568 33rd Ave NE"}, "geometry": {"type": "Point", "coordinates": [-122.2922516, 47.7211075]}}, {"type": "Feature", "properties": {"id": "3895034f-97fb-4ba3-8515-6119ae185b86", "name": "Cedar Park, Seattle", "category": "park", "tags": ["park"], "sources": ["overture"], "address": "12728 33rd Ave NE"}, "geometry": {"type": "Point", "coordinates": [-122.2921677, 47.7218933]}}, {"type": "Feature", "properties": {"id": 97526535, "name": "Grocery Outlet", "category": "supermarket", "tags": ["supermarket"], "sources": ["osm", "overture"], "website": "https://www.groceryoutlet.com/circulars/storeid/118", "phone": "+12069710192", "address": "3020 Ne 127th St", "hours": "Mo-Su 08:00-22:00"}, "geometry": {"type": "Point", "coordinates": [-122.2952057, 47.7216444]}}, {"type": "Feature", "properties": {"id": "15d53060-89f7-4f9a-9064-23c994327e71", "name": "Fred Meyer", "category": "supermarket", "tags": ["supermarket"], "sources": ["overture"], "website": "https://www.fredmeyer.com", "phone": "12064402400", "address": "13000 Lake City Way NE"}, "geometry": {"type": "Point", "coordinates": [-122.2923431, 47.7236977]}}, {"type": "Feature", "properties": {"id": 221419632, "name": "Food Mart", "category": "convenience", "tags": ["convenience"], "sources": ["osm"]}, "geometry": {"type": "Point", "coordinates": [-122.2936427, 47.7231851]}}, {"type": "Feature", "properties": {"id": 810668274, "name": "Tweedy and Popp", "category": "doityourself", "tags": ["doityourself"], "sources": ["osm"], "website": "https://www.acehardware.com/store-details/14747", "phone": "+1-206-363-1246", "address": "3040 Northeast 127th Street", "hours": "Mo-Fr 08:00-18:00; Sa 09:00-18:00; Su 09:00-17:00"}, "geometry": {"type": "Point", "coordinates": [-122.2948379, 47.7216443]}}, {"type": "Feature", "properties": {"id": 2152901661, "name": "T-Mobile", "category": "mobile_phone", "tags": ["mobile-phone"], "sources": ["osm"], "website": "https://www.t-mobile.com/stores/bd/t-mobile-seattle-wa-98125-9007", "hours": "Mo-Sa 10:00-20:00; Su 11:00-17:00"}, "geometry": {"type": "Point", "coordinates": [-122.295006, 47.7201122]}}, {"type": "Feature", "properties": {"id": "5410aafc-aec2-42e0-b2f4-b885ee120855", "name": "T-mobile", "category": "mobile_phone", "tags": ["mobile-phone", "mobile"], "sources": ["overture"], "website": "https://www.t-mobile.com", "phone": "+12063621088", "address": "12513 Lake City Way Ne Ste 1"}, "geometry": {"type": "Point", "coordinates": [-122.2930984, 47.725502]}}, {"type": "Feature", "properties": {"id": 5836906473, "name": "Kilimanjaro Market", "category": "convenience", "tags": ["convenience", "supermarket"], "sources": ["osm", "overture"], "phone": "12064401440", "address": "12714 Lake City Way NE"}, "geometry": {"type": "Point", "coordinates": [-122.293662, 47.7215331]}}, {"type": "Feature", "properties": {"id": 9955964856, "name": "Goodies Mediterranean Market", "category": "deli", "tags": ["deli", "mediterranean"], "sources": ["osm"], "website": "http://www.goodiesmedmarket.com/", "phone": "+1-206-362-2694", "address": "13721 Lake City Way Northeast", "hours": "Mo-Th 09:00-20:00; Fr-Su 08:30-20:00"}, "geometry": {"type": "Point", "coordinates": [-122.2928263, 47.7290931]}}, {"type": "Feature", "properties": {"id": "128d41ea-d6b6-497c-a567-e841f2f01d1c", "name": "Cricket Wireless Authorized Retailer", "category": "mobile_phone", "tags": ["mobile-phone", "mobile"], "sources": ["overture"], "website": "https://www.att.com", "phone": "+19512452533", "address": "13000 Lake City Way NE"}, "geometry": {"type": "Point", "coordinates": [-122.2923431, 47.7236977]}}, {"type": "Feature", "properties": {"id": "62c603a4-36b6-4fcd-960b-e06b10ce67f7", "name": "Cash America Pawn", "category": "jewelry", "tags": ["jewelry"], "sources": ["overture"], "website": "http://www.cashamerica.com/", "phone": "2063619010", "address": "12700 Lake City Way NE"}, "geometry": {"type": "Point", "coordinates": [-122.2939682, 47.721283]}}, {"type": "Feature", "properties": {"id": "27db2821-90ea-4043-a691-57c787be9484", "name": "Chevron Station Seattle", "category": "convenience", "tags": ["convenience"], "sources": ["overture"], "phone": "2063633263", "address": "13001 Lake City Way NE"}, "geometry": {"type": "Point", "coordinates": [-122.2934036, 47.723526]}}, {"type": "Feature", "properties": {"id": "535dc0ff-4244-411c-a7f8-4eeffb0ef6e5", "name": "Decent Exposures", "category": "clothes", "tags": ["clothes"], "sources": ["overture"], "website": "http://www.decentexposures.com", "phone": "(206) 364-4540", "address": "12554 Lake City Way NE Ste 8"}, "geometry": {"type": "Point", "coordinates": [-122.2936401, 47.7207832]}}, {"type": "Feature", "properties": {"id": "0595be4a-d5bf-469c-8157-f0ae8b5ade60", "name": "Aurora Rents - Lake City", "category": "hardware", "tags": ["hardware"], "sources": ["overture"], "website": "http://www.aurorarents.com", "phone": "(206) 362-7368", "address": "12558 Lake City Way NE"}, "geometry": {"type": "Point", "coordinates": [-122.2935867, 47.7211685]}}, {"type": "Feature", "properties": {"id": "5d0a1b07-36ec-4339-8358-5e51dc705cfe", "name": "Tweedy and Popp Hardware at Lake City", "category": "hardware", "tags": ["hardware"], "sources": ["overture"], "website": "http://www.tweedypopp.com/", "phone": "+12063631246", "address": "3040 NE 127th St"}, "geometry": {"type": "Point", "coordinates": [-122.2947922, 47.7215767]}}, {"type": "Feature", "properties": {"id": "e0fca70b-88f6-4a54-9bfb-b8414f9b996a", "name": "McGlynn Plastering", "category": "doityourself", "tags": ["doityourself", "building", "supply"], "sources": ["overture"], "website": "http://www.mcglynnplastering.com", "phone": "(206) 329-1907", "address": "13340 Lake City Way NE"}, "geometry": {"type": "Point", "coordinates": [-122.2920074, 47.7256966]}}, {"type": "Feature", "properties": {"id": "3b933780-8c83-4e82-94e4-e7a47aa49ae9", "name": "Construction Essentials Llc", "category": "doityourself", "tags": ["doityourself", "building", "supply"], "sources": ["overture"], "phone": "8446868866", "address": "13340 Lake City Way NE"}, "geometry": {"type": "Point", "coordinates": [-122.2916489, 47.7258606]}}, {"type": "Feature", "properties": {"id": 10749103206, "name": "Seattle Indian Health Board Lake City Clinic", "category": "clinic", "tags": ["clinic"], "sources": ["osm"], "website": "https://www.sihb.org/", "phone": "+1-206-324-9360", "address": "12736 33rd Avenue Northeast", "hours": "Mo,We-Fr 08:00-17:00; Tu 09:00-17:00"}, "geometry": {"type": "Point", "coordinates": [-122.2919986, 47.722238]}}, {"type": "Feature", "properties": {"id": 10759839262, "name": "Neighborcare Health Lake City", "category": "clinic", "tags": ["clinic"], "sources": ["osm"], "website": "https://neighborcare.org/clinics/neighborcare-health-lake-city", "phone": "+1-206-417-0783", "address": "12721 30th Avenue Northeast", "hours": "Mo-Fr 08:00-17:00"}, "geometry": {"type": "Point", "coordinates": [-122.2967427, 47.7218848]}}, {"type": "Feature", "properties": {"id": "235ba8b2-c8b7-41ca-b0ba-5802e91c9de7", "name": "Immediate Clinic Lake City", "category": "clinic", "tags": ["clinic", "medical"], "sources": ["overture"], "website": "http://www.immediateclinic.com/lake-city-urgent-care", "phone": "2067925216", "address": "3050 NE 127th St"}, "geometry": {"type": "Point", "coordinates": [-122.294426, 47.721096]}}, {"type": "Feature", "properties": {"id": 192267454, "name": "Wells Fargo", "category": "bank", "tags": ["bank", "credit", "union"], "sources": ["osm", "overture"], "website": "http://www.wellsfargo.com", "phone": "+12063654728", "address": "12739 Lake City Way Ne", "hours": "Mo-Fr 09:00-17:00; Sa 09:00-12:00"}, "geometry": {"type": "Point", "coordinates": [-122.2937998, 47.7225208]}}, {"type": "Feature", "properties": {"id": 2965420911, "name": "Lake City Post Office", "category": "post_office", "tags": ["post-office"], "sources": ["osm"], "website": "https://tools.usps.com/locations/details/1369557", "phone": "+1-206-364-0608", "address": "3019 Northeast 127th Street", "hours": "Mo-Fr 08:30-17:30; Sa 08:30-15:00; Su off; PH off"}, "geometry": {"type": "Point", "coordinates": [-122.2952629, 47.7209542]}}, {"type": "Feature", "properties": {"id": "f533f02c-805e-4fba-b94c-1986e02f1743", "name": "U.S. Bank ATM", "category": "bank", "tags": ["bank", "credit", "union"], "sources": ["overture"], "website": "http://www.usbank.com/locations", "phone": "8008722657", "address": "13000 Lake City Way NE"}, "geometry": {"type": "Point", "coordinates": [-122.2926559, 47.7241592]}}, {"type": "Feature", "properties": {"id": "7b2205ea-accd-48ce-9444-fde745e012fd", "name": "UPS Access Point location", "category": "post_office", "tags": ["post-office", "office"], "sources": ["overture"], "website": "https://locations.ups.com/wa/seattle/access-point-location-137698.html?utm_source=bing&utm_medium=organic&utm_campaign=rio", "phone": "2063683937", "address": "3012 NE 127th St"}, "geometry": {"type": "Point", "coordinates": [-122.2961426, 47.7216797]}}, {"type": "Feature", "properties": {"id": "94f34ba0-9c5c-4b33-a9c9-05d88dedb697", "name": "Us Post Office Lake City Wa", "category": "post_office", "tags": ["post-office", "office"], "sources": ["overture"], "website": "https://tools.usps.com/find-location.htm?y_source=1_MzM3OTE1NS00NDAtbG9jYXRpb24ud2Vic2l0ZQ%3D%3D&searchRadius=10&address=98125&locationType=po", "phone": "+12063640608", "address": "3019 NE 127th St"}, "geometry": {"type": "Point", "coordinates": [-122.2952652, 47.7209473]}}, {"type": "Feature", "properties": {"id": 2152901648, "name": "Power Body", "category": "fitness_centre", "tags": ["fitness-centre", "fitness", "trainer"], "sources": ["osm", "overture"], "website": "http://powerbodyllc.com", "phone": "12063856653", "address": "12528 Lake City Way NE", "hours": "Mo-Th 05:00-19:00; Fr 05:00-15:00; Sa 08:00-12:00"}, "geometry": {"type": "Point", "coordinates": [-122.2944601, 47.720105]}}, {"type": "Feature", "properties": {"id": 10749990968, "name": "Blosm Studio", "category": "fitness_centre", "tags": ["fitness-centre", "yoga"], "sources": ["osm"], "website": "https://www.blosmstudio.com/", "phone": "+1-616-916-4428", "address": "12549 28th Avenue Northeast", "hours": "\"by class schedule\""}, "geometry": {"type": "Point", "coordinates": [-122.2978856, 47.7207892]}}, {"type": "Feature", "properties": {"id": "2871c2e3-218c-499b-8d1c-a09872d51034", "name": "Seattle Gymnastics Academy Lake City (28th)", "category": "fitness_centre", "tags": ["fitness-centre", "gym"], "sources": ["overture"], "website": "https://seattlegymnastics.com", "phone": "2062673108", "address": "12739 28th Ave NE"}, "geometry": {"type": "Point", "coordinates": [-122.2981796, 47.7223587]}}, {"type": "Feature", "properties": {"id": "74afec9e-282e-46ed-9ec0-5e5933108d97", "name": "Two Dog Yoga Studio", "category": "fitness_centre", "tags": ["fitness-centre", "yoga", "studio"], "sources": ["overture"], "website": "http://www.twodogyoga.com", "phone": "(206) 367-9608", "address": "12549 28th Ave NE"}, "geometry": {"type": "Point", "coordinates": [-122.2982025, 47.7207642]}}, {"type": "Feature", "properties": {"id": "0ad99bb9-4b80-42d3-89e3-b4558d8f1bf8", "name": "Slate CrossFit", "category": "fitness_centre", "tags": ["fitness-centre", "gym"], "sources": ["overture"], "website": "http://www.slatecrossfit.com", "phone": "(210) 748-2274", "address": "2701 NE 127th St"}, "geometry": {"type": "Point", "coordinates": [-122.2985992, 47.7208748]}}, {"type": "Feature", "properties": {"id": "e33a5ccc-7a03-454c-8929-914e6ae3a64b", "name": "Slate Strength & Conditioning", "category": "fitness_centre", "tags": ["fitness-centre", "gym"], "sources": ["overture"], "website": "http://www.slatecrossfit.com", "phone": "+12064329126", "address": "2701 NE 127th St"}, "geometry": {"type": "Point", "coordinates": [-122.2985153, 47.720993]}}, {"type": "Feature", "properties": {"id": "4fdace04-1efa-45c5-b340-c725eaef0d64", "name": "Ianfitness Lake City", "category": "fitness_centre", "tags": ["fitness-centre", "gym"], "sources": ["overture"], "phone": "+12063490242", "address": "12528 Lake City Way NE"}, "geometry": {"type": "Point", "coordinates": [-122.2943497, 47.7201271]}}, {"type": "Feature", "properties": {"id": "43fa53d1-ccde-4d57-a5b5-63f474cc8588", "name": "ARMA Self-Defense-Origin", "category": "fitness_centre", "tags": ["fitness-centre", "gym"], "sources": ["overture"], "website": "https://www.youtube.com/playlist?list=PLMF5W9nMFj5dX6u-lbEuyq5kwoj5dB1El", "phone": "+12064238831", "address": "lake city way NE"}, "geometry": {"type": "Point", "coordinates": [-122.2926636, 47.7243729]}}]}