{"type": "FeatureCollection", "features": [{"type": "Feature", "properties": {"id": "75311608-6ead-4f14-8399-7a53349069bd", "name": "Markland Woods Apartments", "category": "attraction", "tags": ["attraction", "landmark", "historical", "building"], "sources": ["overture"], "phone": "+14257755637", "address": "23337 Cedar Way"}, "geometry": {"type": "Point", "coordinates": [-122.2900085, 47.7868843]}}, {"type": "Feature", "properties": {"id": "8500141a-4b1a-4f44-9df0-e14bdf45bcf1", "name": "Cedar Terrace Apartments", "category": "attraction", "tags": ["attraction", "landmark", "historical", "building"], "sources": ["overture"], "website": "http://www.essexapartmenthomes.com/washington/seattle-area-apartments/bellevue-apartments/cedar-terrace", "phone": "+14257440797", "address": "23111 44th Ave W B"}, "geometry": {"type": "Point", "coordinates": [-122.2917633, 47.7888527]}}, {"type": "Feature", "properties": {"id": "7accc222-f1ee-4b25-ac85-e7b512abf336", "name": "Terrace Creek Park", "category": "park", "tags": ["park"], "sources": ["overture"], "website": "http://www.cityofmlt.com/cityServices/parks/terraceCreekPark.htm", "phone": "+14257761811", "address": "23200 48th Ave W"}, "geometry": {"type": "Point", "coordinates": [-122.2979736, 47.7873802]}}, {"type": "Feature", "properties": {"id": "25ab566d-26be-437a-bd13-5331cd6ed59e", "name": "Candy Cane Park", "category": "park", "tags": ["park"], "sources": ["overture"], "website": "http://www.cityofmlt.com/cityServices/parks/terraceCreekPark.htm", "address": "23200 48th Ave W"}, "geometry": {"type": "Point", "coordinates": [-122.297966, 47.7874069]}}, {"type": "Feature", "properties": {"id": "f58b30c2-1d05-4c5c-a267-8eef7a4f2dd6", "name": "Vic Steiner Carpentry", "category": "doityourself", "tags": ["doityourself", "building", "supply"], "sources": ["overture"], "website": "http://vicsteinercarpentry.com", "phone": "(425) 789-4317", "address": "4701 237th Pl SW"}, "geometry": {"type": "Point", "coordinates": [-122.296402, 47.7834816]}}]}