{"type": "FeatureCollection", "features": [{"type": "Feature", "properties": {"id": "2e155195-2029-4753-b3d5-6c8b1b7002f9", "name": "Madison at River's Edge", "category": "attraction", "tags": ["attraction", "landmark", "historical", "building"], "sources": ["overture"], "website": "http://www.liveatmadisonapts.com/?rcstdid=MTE%3D-aKFOxiSL8lQ%3D", "phone": "+12534806901", "address": "1741 22nd St NE"}, "geometry": {"type": "Point", "coordinates": [-122.2061615, 47.3261452]}}, {"type": "Feature", "properties": {"id": "3447f18b-588a-4b53-89e4-882df76ef3b3", "name": "ZoomFigy | Washington D.C. DC", "category": "jewelry", "tags": ["jewelry"], "sources": ["overture"], "website": "https://www.zoomfigy.com/", "phone": "+19187329740", "address": "1637 22nd Way NE"}, "geometry": {"type": "Point", "coordinates": [-122.2080765, 47.3265076]}}]}