{"type": "FeatureCollection", "features": [{"type": "Feature", "properties": {"id": 3636374915, "name": "Subway", "category": "fast_food", "tags": ["fast-food", "sandwich", "takeaway", "fast", "food"], "sources": ["osm", "overture"], "website": "https://restaurants.subway.com/united-states/wa/kent/23235-pacific-coast-hwy-south?utm_source=yxt-bing&utm_medium=local&utm_term=acq&utm_content=11173&utm_campaign=evergreen-2020&y_source=1_MTQ4OTg3OTYtNDgzLWxvY2F0aW9uLndlYnNpdGU%3D", "phone": "2068243193", "address": "23235 Pacific Coast Hwy South", "hours": "Mo-Sa 08:00-22:00; Su 09:00-21:30", "stations": [{"stopCode": 67, "lines": "1", "name": "Star Lake Station", "walkingMeters": 387, "walkingSeconds": 282, "band": 5}]}, "geometry": {"type": "Point", "coordinates": [-122.2967497, 47.3928692]}}, {"type": "Feature", "properties": {"id": "dc47f827-e497-4778-b1eb-ad58fb6cfa28", "name": "Starbucks", "category": "cafe", "tags": ["cafe", "coffee"], "sources": ["overture"], "phone": "2068709311", "address": "23325 Pacific Hwy S Midway Xing", "stations": [{"stopCode": 67, "lines": "1", "name": "Star Lake Station", "walkingMeters": 363, "walkingSeconds": 265, "band": 5}]}, "geometry": {"type": "Point", "coordinates": [-122.295166, 47.3922043]}}, {"type": "Feature", "properties": {"id": 653707114, "name": "McDonald's", "category": "fast_food", "tags": ["fast-food", "burger", "takeaway", "drive-through", "wifi", "fast", "food"], "sources": ["osm", "overture"], "website": "https://www.mcdonalds.com/us/en-us/location/wa/des-moines/22644-pacific-hwy-s/5760.html?cid=RF%3AYXT%3ARoN%3A%3AClicks%3Fcid%3DRF%3AYXT%3AFB%3A%3AClicks", "phone": "+12068247414", "address": "22644 Pacific Hwy S", "hours": "24/7", "stations": [{"stopCode": 67, "lines": "1", "name": "Star Lake Station", "walkingMeters": 592, "walkingSeconds": 426, "band": 10}]}, "geometry": {"type": "Point", "coordinates": [-122.2953457, 47.3979135]}}, {"type": "Feature", "properties": {"id": 242425852, "name": "Pizza Hut", "category": "restaurant", "tags": ["restaurant", "pizza", "wifi", "fast-food"], "sources": ["osm", "overture"], "website": "https://locations.pizzahut.com/wa/kent/23321-pacific-highway-s?utm_medium=organic&utm_source=local&utm_campaign=yextpowerlistings&utm_content=website&utm_term=309427", "phone": "+12068787200", "address": "23321 Pacific Hwy S", "hours": "Su-Th 11:00-22:00; Fr-Sa 11:00-23:00", "stations": [{"stopCode": 67, "lines": "1", "name": "Star Lake Station", "walkingMeters": 395, "walkingSeconds": 288, "band": 5}]}, "geometry": {"type": "Point", "coordinates": [-122.2955226, 47.392282]}}, {"type": "Feature", "properties": {"id": "b28d31ae-60c7-4cdd-b42e-a45054591d8f", "name": "Taco Bell", "category": "fast_food", "tags": ["fast-food", "fast", "food"], "sources": ["overture"], "website": "http://www.tacobell.com", "phone": "(206) 824-4437", "address": "22660 Pacific Hwy S", "stations": [{"stopCode": 67, "lines": "1", "name": "Star Lake Station", "walkingMeters": 548, "walkingSeconds": 394, "band": 10}]}, "geometry": {"type": "Point", "coordinates": [-122.2951736, 47.3974686]}}, {"type": "Feature", "properties": {"id": 5255008522, "name": "Indian Bistro", "category": "restaurant", "tags": ["restaurant", "indian", "asian"], "sources": ["osm", "overture"], "website": "https://indianbistrokentwa.com/", "phone": "+12065922296", "address": "23223 Pacific Hwy S", "stations": [{"stopCode": 67, "lines": "1", "name": "Star Lake Station", "walkingMeters": 415, "walkingSeconds": 298, "band": 5}]}, "geometry": {"type": "Point", "coordinates": [-122.2967373, 47.3931976]}}, {"type": "Feature", "properties": {"id": 5777099558, "name": "Menudaria Maria Mexican Food", "category": "restaurant", "tags": ["restaurant", "mexican"], "sources": ["osm"], "stations": [{"stopCode": 67, "lines": "1", "name": "Star Lake Station", "walkingMeters": 149, "walkingSeconds": 107, "band": 5}]}, "geometry": {"type": "Point", "coordinates": [-122.2945628, 47.3940641]}}, {"type": "Feature", "properties": {"id": "083a6466-59e2-4c3e-8a7f-0057682ac26d", "name": "California Burrito", "category": "restaurant", "tags": ["restaurant", "mexican", "fast-food", "texmex"], "sources": ["overture"], "website": "http://californiaburrito.in", "phone": "+12065929561", "address": "22660 Pacific Hwy S", "stations": [{"stopCode": 67, "lines": "1", "name": "Star Lake Station", "walkingMeters": 544, "walkingSeconds": 392, "band": 10}]}, "geometry": {"type": "Point", "coordinates": [-122.2952118, 47.3974457]}}, {"type": "Feature", "properties": {"id": 241572901, "name": "Master Burger Meister", "category": "fast_food", "tags": ["fast-food"], "sources": ["osm"], "address": "23241 Pacific Highway South", "stations": [{"stopCode": 67, "lines": "1", "name": "Star Lake Station", "walkingMeters": 313, "walkingSeconds": 229, "band": 5}]}, "geometry": {"type": "Point", "coordinates": [-122.2954721, 47.3930053]}}, {"type": "Feature", "properties": {"id": 241572908, "name": "Jafra", "category": "cafe", "tags": ["cafe", "donut", "coffee-shop", "restaurant", "bar-and-grill", "american"], "sources": ["osm", "overture"], "website": "https://www.jafra-wa.com", "phone": "+12063333331", "address": "23100 Pacific Hwy S", "stations": [{"stopCode": 67, "lines": "1", "name": "Star Lake Station", "walkingMeters": 113, "walkingSeconds": 82, "band": 5}]}, "geometry": {"type": "Point", "coordinates": [-122.2943322, 47.3939079]}}, {"type": "Feature", "properties": {"id": 241883069, "name": "The Players Sports Bar and Grill", "category": "restaurant", "tags": ["restaurant", "american"], "sources": ["osm"], "address": "22855 Pacific Highway South", "stations": [{"stopCode": 67, "lines": "1", "name": "Star Lake Station", "walkingMeters": 470, "walkingSeconds": 338, "band": 5}]}, "geometry": {"type": "Point", "coordinates": [-122.2955324, 47.3956235]}}, {"type": "Feature", "properties": {"id": 241883070, "name": "California Burrito Taco Shop", "category": "restaurant", "tags": ["restaurant", "mexican", "indoor-seating"], "sources": ["osm"], "website": "https://caburritos.com/", "phone": "+1-206-592-9561", "address": "22660 Pacific Highway South", "hours": "24/7", "stations": [{"stopCode": 67, "lines": "1", "name": "Star Lake Station", "walkingMeters": 573, "walkingSeconds": 413, "band": 10}]}, "geometry": {"type": "Point", "coordinates": [-122.2951735, 47.3974881]}}, {"type": "Feature", "properties": {"id": 242425851, "name": "Moe Vegan", "category": "restaurant", "tags": ["restaurant", "vegetarian"], "sources": ["osm", "overture"], "website": "http://www.moevegan.com/", "phone": "+12068864471", "address": "23325 Pacific Hwy S", "hours": "Th,Fr 11:00-20:00; Sa,Su 12:00-20:00; Mo-We off", "stations": [{"stopCode": 67, "lines": "1", "name": "Star Lake Station", "walkingMeters": 387, "walkingSeconds": 282, "band": 5}]}, "geometry": {"type": "Point", "coordinates": [-122.2954132, 47.3922817]}}, {"type": "Feature", "properties": {"id": 276668186, "name": "Konich's Teriyaki", "category": "restaurant", "tags": ["restaurant", "teriyaki", "japanese", "asian"], "sources": ["osm", "overture"], "website": "https://m.facebook.com/pages/Konichs-Teriyaki/120759777938348", "phone": "+12068784860", "address": "23217 Pacific Hwy S", "hours": "Mo-Sa 11:00-20:00", "stations": [{"stopCode": 67, "lines": "1", "name": "Star Lake Station", "walkingMeters": 372, "walkingSeconds": 268, "band": 5}]}, "geometry": {"type": "Point", "coordinates": [-122.2964518, 47.393634]}}, {"type": "Feature", "properties": {"id": "dea5e70c-47ac-468d-8119-00fd19664f5d", "name": "Mariscos La Botana", "category": "restaurant", "tags": ["restaurant", "mexican", "seafood"], "sources": ["overture"], "website": "http://www.thestranger.com/locations/24410/la-botana", "phone": "+12064130854", "address": "22855 Pacific Hwy S", "stations": [{"stopCode": 67, "lines": "1", "name": "Star Lake Station", "walkingMeters": 346, "walkingSeconds": 258, "band": 5}]}, "geometry": {"type": "Point", "coordinates": [-122.2955322, 47.395668]}}, {"type": "Feature", "properties": {"id": "a7049063-5aa5-4497-8440-dc4ddd85681f", "name": "Menuderia Maria", "category": "restaurant", "tags": ["restaurant", "mexican", "latin-american", "taco"], "sources": ["overture"], "phone": "+12064293831", "address": "23060 Pacific Hwy S", "stations": [{"stopCode": 67, "lines": "1", "name": "Star Lake Station", "walkingMeters": 146, "walkingSeconds": 105, "band": 5}]}, "geometry": {"type": "Point", "coordinates": [-122.2945251, 47.394043]}}, {"type": "Feature", "properties": {"id": "78f2dd1d-1c31-4d00-b279-521edb99c60b", "name": "Tacos San Juan", "category": "restaurant", "tags": ["restaurant", "mexican"], "sources": ["overture"], "website": "http://www.sanjuantaqueria.com", "phone": "+12532599833", "address": "23250 Pacific Hwy S", "stations": [{"stopCode": 67, "lines": "1", "name": "Star Lake Station", "walkingMeters": 294, "walkingSeconds": 228, "band": 5}]}, "geometry": {"type": "Point", "coordinates": [-122.2945099, 47.3923836]}}, {"type": "Feature", "properties": {"id": "b8c58e25-b31d-4cf7-b81e-b292ac333f14", "name": "La Chamoyada", "category": "restaurant", "tags": ["restaurant"], "sources": ["overture"], "website": "https://www.lachamoyadakent.com/?utm_source=bing&utm_medium=websiteurl&utm_campaign=search", "phone": "2532269178", "address": "23311 pacific Highway", "stations": [{"stopCode": 67, "lines": "1", "name": "Star Lake Station", "walkingMeters": 404, "walkingSeconds": 294, "band": 5}]}, "geometry": {"type": "Point", "coordinates": [-122.2954788, 47.3924561]}}, {"type": "Feature", "properties": {"id": "378b6e3b-e518-4a1b-bc90-191fb34b36e1", "name": "Circo Circo Restaurant", "category": "restaurant", "tags": ["restaurant", "american"], "sources": ["overture"], "website": "http://www.lospinosortingwa.com", "phone": "(206) 878-4424", "address": "23223 Pacific Hwy S", "stations": [{"stopCode": 67, "lines": "1", "name": "Star Lake Station", "walkingMeters": 394, "walkingSeconds": 287, "band": 5}]}, "geometry": {"type": "Point", "coordinates": [-122.2967758, 47.3931541]}}, {"type": "Feature", "properties": {"id": "d3964fa7-1fb7-4389-b982-58dfc36ac37c", "name": "Los Cabos", "category": "restaurant", "tags": ["restaurant", "mexican"], "sources": ["overture"], "website": "http://www.loscabosok.com", "phone": "(206) 653-7652", "address": "23223 Pacific Hwy S", "stations": [{"stopCode": 67, "lines": "1", "name": "Star Lake Station", "walkingMeters": 394, "walkingSeconds": 287, "band": 5}]}, "geometry": {"type": "Point", "coordinates": [-122.2967758, 47.3931541]}}, {"type": "Feature", "properties": {"id": "38a7e2c7-16ba-4e60-87c5-c786efa3620d", "name": "Just Poke Des Moines", "category": "restaurant", "tags": ["restaurant", "poke", "hawaiian", "japanese"], "sources": ["overture"], "website": "http://www.justpoke.com/", "phone": "+12064292365", "address": "23609 Pacific Hwy S", "stations": [{"stopCode": 67, "lines": "1", "name": "Star Lake Station", "walkingMeters": 623, "walkingSeconds": 452, "band": 10}]}, "geometry": {"type": "Point", "coordinates": [-122.2959976, 47.3900833]}}, {"type": "Feature", "properties": {"id": "f6ba09c2-c239-4bbc-ad28-31a9d8c630af", "name": "Des Moines Marina Pier", "category": "park", "tags": ["park"], "sources": ["overture"], "stations": [{"stopCode": 67, "lines": "1", "name": "Star Lake Station", "walkingMeters": 748, "walkingSeconds": 539, "band": 10}]}, "geometry": {"type": "Point", "coordinates": [-122.2960663, 47.3990746]}}, {"type": "Feature", "properties": {"id": "7d9c32ea-3935-419b-8ef9-cac165cc12d5", "name": "Snowqualmie Falls", "category": "park", "tags": ["park"], "sources": ["overture"], "address": "I-5", "stations": [{"stopCode": 67, "lines": "1", "name": "Star Lake Station", "walkingMeters": 408, "walkingSeconds": 294, "band": 5}]}, "geometry": {"type": "Point", "coordinates": [-122.2927246, 47.3915672]}}, {"type": "Feature", "properties": {"id": 242425833, "name": "Garden Suites", "category": "hotel", "tags": ["hotel"], "sources": ["osm", "overture"], "phone": "2068783020", "address": "22845 Pacific Highway S", "stations": [{"stopCode": 67, "lines": "1", "name": "Star Lake Station", "walkingMeters": 483, "walkingSeconds": 347, "band": 10}]}, "geometry": {"type": "Point", "coordinates": [-122.2960406, 47.3961446]}}, {"type": "Feature", "properties": {"id": 275303936, "name": "New Best Inn", "category": "motel", "tags": ["motel"], "sources": ["osm", "overture"], "website": "https://new-best-inn.hub.biz/", "phone": "+12068701280", "address": "23408 30th Ave S", "stations": [{"stopCode": 67, "lines": "1", "name": "Star Lake Station", "walkingMeters": 420, "walkingSeconds": 302, "band": 5}]}, "geometry": {"type": "Point", "coordinates": [-122.2930079, 47.3915511]}}, {"type": "Feature", "properties": {"id": "ae64f853-bfbe-4f02-8445-afca675fce38", "name": "Red Lion Inn & Suites Des Moines", "category": "hotel", "tags": ["hotel", "resort"], "sources": ["overture"], "website": "https://www.redlion.com/red-lion-inn-suites/wa/des-moines/red-lion-inn-suites-des-moines", "phone": "2068783020", "address": "22845 Pacific Highway S", "stations": [{"stopCode": 67, "lines": "1", "name": "Star Lake Station", "walkingMeters": 485, "walkingSeconds": 349, "band": 10}]}, "geometry": {"type": "Point", "coordinates": [-122.2960434, 47.3960686]}}, {"type": "Feature", "properties": {"id": 242674164, "name": "7-Eleven", "category": "convenience", "tags": ["convenience"], "sources": ["osm", "overture"], "website": "https://www.7-eleven.com/", "phone": "+12068787730", "address": "2904 S Kent-Des Moines Rd", "stations": [{"stopCode": 67, "lines": "1", "name": "Star Lake Station", "walkingMeters": 460, "walkingSeconds": 331, "band": 5}]}, "geometry": {"type": "Point", "coordinates": [-122.296612, 47.3953228]}}, {"type": "Feature", "properties": {"id": 3636374917, "name": "Metro by T-Mobile", "category": "mobile_phone", "tags": ["mobile-phone", "mobile"], "sources": ["osm", "overture"], "website": "https://www.metrobyt-mobile.com/stores/bd/metro-by-t-mobile-kent-wa-10297970/?utm_source=facebook&utm_medium=lastmile&utm_campaign=33831", "phone": "+12062498902", "address": "23233 Pacific Hwy S", "stations": [{"stopCode": 67, "lines": "1", "name": "Star Lake Station", "walkingMeters": 388, "walkingSeconds": 283, "band": 5}]}, "geometry": {"type": "Point", "coordinates": [-122.296748, 47.3929335]}}, {"type": "Feature", "properties": {"id": "32274800-4932-44e5-bd46-4cf2f2d80749", "name": "Dollar Tree", "category": "convenience", "tags": ["convenience"], "sources": ["overture"], "website": "http://www.dollartree.com/locations/wa/kent/7542/", "phone": "2537652072", "address": "23406 Pacific Highway S", "stations": [{"stopCode": 67, "lines": "1", "name": "Star Lake Station", "walkingMeters": 402, "walkingSeconds": 289, "band": 5}]}, "geometry": {"type": "Point", "coordinates": [-122.295166, 47.3915253]}}, {"type": "Feature", "properties": {"id": 3636374912, "name": "Harbor Freight Tools", "category": "hardware", "tags": ["hardware", "wheelchair-accessible"], "sources": ["osm"], "address": "23313 Pacific Highway South", "hours": "Mo-Sa 08:00-20:00; Su 09:00-18:00", "stations": [{"stopCode": 67, "lines": "1", "name": "Star Lake Station", "walkingMeters": 413, "walkingSeconds": 301, "band": 5}]}, "geometry": {"type": "Point", "coordinates": [-122.2964776, 47.3925]}}, {"type": "Feature", "properties": {"id": 3636374913, "name": "The Market at La Plaza", "category": "supermarket", "tags": ["supermarket"], "sources": ["osm"], "address": "23311 Pacific Highway South", "hours": "Mo-Su 06:00-22:00", "stations": [{"stopCode": 67, "lines": "1", "name": "Star Lake Station", "walkingMeters": 402, "walkingSeconds": 293, "band": 10}]}, "geometry": {"type": "Point", "coordinates": [-122.2967558, 47.3926731]}}, {"type": "Feature", "properties": {"id": 3636374920, "name": "Boost Mobile", "category": "mobile_phone", "tags": ["mobile-phone", "mobile"], "sources": ["osm", "overture"], "website": "http://retail.boostmobile.com/15482", "phone": "+12532173820", "address": "23227 Pacific Hwy S", "hours": "Mo-Fr 10:00-20:00; Sa 10:00-19:00; Su 11:00-18:00", "stations": [{"stopCode": 67, "lines": "1", "name": "Star Lake Station", "walkingMeters": 401, "walkingSeconds": 292, "band": 5}]}, "geometry": {"type": "Point", "coordinates": [-122.296746, 47.3930806]}}, {"type": "Feature", "properties": {"id": 9610115117, "name": "A+ Smoke", "category": "tobacco", "tags": ["tobacco"], "sources": ["osm"], "stations": [{"stopCode": 67, "lines": "1", "name": "Star Lake Station", "walkingMeters": 421, "walkingSeconds": 303, "band": 5}]}, "geometry": {"type": "Point", "coordinates": [-122.2944463, 47.3915711]}}, {"type": "Feature", "properties": {"id": 13030602738, "name": "Queen Saffa Market & Deli", "category": "convenience", "tags": ["convenience"], "sources": ["osm"], "stations": [{"stopCode": 67, "lines": "1", "name": "Star Lake Station", "walkingMeters": 426, "walkingSeconds": 307, "band": 5}]}, "geometry": {"type": "Point", "coordinates": [-122.2941048, 47.3916002]}}, {"type": "Feature", "properties": {"id": 242425843, "name": "Baghdad Halal Market", "category": "supermarket", "tags": ["supermarket"], "sources": ["osm"], "stations": [{"stopCode": 67, "lines": "1", "name": "Star Lake Station", "walkingMeters": 399, "walkingSeconds": 287, "band": 5}]}, "geometry": {"type": "Point", "coordinates": [-122.2948143, 47.3962851]}}, {"type": "Feature", "properties": {"id": 271665298, "name": "Greenside Recreational Cannabis", "category": "cannabis", "tags": ["cannabis"], "sources": ["osm"], "address": "23407 Pacific Highway South", "stations": [{"stopCode": 67, "lines": "1", "name": "Star Lake Station", "walkingMeters": 665, "walkingSeconds": 482, "band": 10}]}, "geometry": {"type": "Point", "coordinates": [-122.2956845, 47.3916981]}}, {"type": "Feature", "properties": {"id": 276668185, "name": "Lucky Liquor & Wine", "category": "alcohol", "tags": ["alcohol"], "sources": ["osm"], "address": "23219 Pacific Highway South", "hours": "Su-Th 09:00-21:00; Fr-Sa 09:00-22:00", "stations": [{"stopCode": 67, "lines": "1", "name": "Star Lake Station", "walkingMeters": 386, "walkingSeconds": 278, "band": 5}]}, "geometry": {"type": "Point", "coordinates": [-122.2965961, 47.3935539]}}, {"type": "Feature", "properties": {"id": "ae7aeca7-c9f3-4c9f-83de-41d85a4c9e3e", "name": "LifeSafer Ignition Interlock", "category": "clothes", "tags": ["clothes"], "sources": ["overture"], "website": "http://www.lifesafer.com/", "phone": "8003289890", "address": "23452 30th Ave S", "stations": [{"stopCode": 67, "lines": "1", "name": "Star Lake Station", "walkingMeters": 504, "walkingSeconds": 363, "band": 10}]}, "geometry": {"type": "Point", "coordinates": [-122.2935638, 47.3906288]}}, {"type": "Feature", "properties": {"id": "ad61cd50-629f-4e60-88cb-5d514fbb576f", "name": "Halal Baghdad Market", "category": "supermarket", "tags": ["supermarket", "halal"], "sources": ["overture"], "phone": "+12065568698", "address": "22848 Pacific Hwy S", "stations": [{"stopCode": 67, "lines": "1", "name": "Star Lake Station", "walkingMeters": 424, "walkingSeconds": 305, "band": 5}]}, "geometry": {"type": "Point", "coordinates": [-122.2947998, 47.3963318]}}, {"type": "Feature", "properties": {"id": "3bb62f23-f452-43c1-a6ab-8108bd084b20", "name": "King Marquet,organic and Halal food", "category": "supermarket", "tags": ["supermarket", "halal"], "sources": ["overture"], "phone": "+12068326720", "address": "22848 Pacific Hwy S", "stations": [{"stopCode": 67, "lines": "1", "name": "Star Lake Station", "walkingMeters": 422, "walkingSeconds": 304, "band": 5}]}, "geometry": {"type": "Point", "coordinates": [-122.2948151, 47.3963242]}}, {"type": "Feature", "properties": {"id": "c0c6814c-0090-49a4-9202-8d4309f72e67", "name": "Mayta's Market International", "category": "supermarket", "tags": ["supermarket"], "sources": ["overture"], "website": "https://www.maytasmarket.com", "phone": "+12064292195", "address": "23311b Pacific Hwy S", "stations": [{"stopCode": 67, "lines": "1", "name": "Star Lake Station", "walkingMeters": 402, "walkingSeconds": 293, "band": 10}]}, "geometry": {"type": "Point", "coordinates": [-122.2968674, 47.3926392]}}, {"type": "Feature", "properties": {"id": "ba76b591-4b0c-4c61-80bd-11be60a8f1b9", "name": "State of Washington Kent", "category": "alcohol", "tags": ["alcohol"], "sources": ["overture"], "website": "http://liq.wa.gov", "phone": "+12538724068", "address": "23219 Pacific Hwy S", "stations": [{"stopCode": 67, "lines": "1", "name": "Star Lake Station", "walkingMeters": 392, "walkingSeconds": 282, "band": 5}]}, "geometry": {"type": "Point", "coordinates": [-122.2966461, 47.3935051]}}, {"type": "Feature", "properties": {"id": "9208b639-f4ed-4dc1-bd9c-74c7117c645b", "name": "Joyeria y Perfumeria Marys", "category": "jewelry", "tags": ["jewelry"], "sources": ["overture"], "phone": "+12066693894", "address": "23235 Pacific Hwy S", "stations": [{"stopCode": 67, "lines": "1", "name": "Star Lake Station", "walkingMeters": 399, "walkingSeconds": 291, "band": 5}]}, "geometry": {"type": "Point", "coordinates": [-122.2968445, 47.3930969]}}, {"type": "Feature", "properties": {"id": "e84c2200-8eae-4588-81bc-ebe5d1240254", "name": "Khalij Halal Market", "category": "supermarket", "tags": ["supermarket"], "sources": ["overture"], "website": "http://www.khalijmarket.com/", "phone": "+12064292843", "address": "23227 Pacific Hwy S", "stations": [{"stopCode": 67, "lines": "1", "name": "Star Lake Station", "walkingMeters": 392, "walkingSeconds": 286, "band": 5}]}, "geometry": {"type": "Point", "coordinates": [-122.2967758, 47.3929787]}}, {"type": "Feature", "properties": {"id": "aaa2639c-d3e6-4266-9b5b-e455cee6de11", "name": "Greenside Recreational", "category": "cannabis", "tags": ["cannabis", "clinic"], "sources": ["overture"], "website": "https://greensiderec.com/dispensaries/des-moines/", "phone": "+12068786470", "address": "23407 Pacific Hwy S", "stations": [{"stopCode": 67, "lines": "1", "name": "Star Lake Station", "walkingMeters": 430, "walkingSeconds": 313, "band": 5}]}, "geometry": {"type": "Point", "coordinates": [-122.2955322, 47.3916893]}}, {"type": "Feature", "properties": {"id": "a3cd5b09-a5e3-4bf9-b5e8-f63d24673296", "name": "Butter Creek Farms Inc", "category": "supermarket", "tags": ["supermarket"], "sources": ["overture"], "address": "23444 30th Ave S Ste 104", "stations": [{"stopCode": 67, "lines": "1", "name": "Star Lake Station", "walkingMeters": 475, "walkingSeconds": 354, "band": 10}]}, "geometry": {"type": "Point", "coordinates": [-122.2928391, 47.3907166]}}, {"type": "Feature", "properties": {"id": "9718cb99-908a-4081-b860-fec6189e392f", "name": "Queen Safa Market and Deli", "category": "supermarket", "tags": ["supermarket"], "sources": ["overture"], "phone": "+12537197007", "address": "23424 Pacific Hwy S", "stations": [{"stopCode": 67, "lines": "1", "name": "Star Lake Station", "walkingMeters": 367, "walkingSeconds": 274, "band": 5}]}, "geometry": {"type": "Point", "coordinates": [-122.2941132, 47.3915787]}}, {"type": "Feature", "properties": {"id": 6960783828, "name": "Walgreens", "category": "pharmacy", "tags": ["pharmacy"], "sources": ["osm"], "stations": [{"stopCode": 67, "lines": "1", "name": "Star Lake Station", "walkingMeters": 328, "walkingSeconds": 236, "band": 5}]}, "geometry": {"type": "Point", "coordinates": [-122.2956509, 47.3949793]}}, {"type": "Feature", "properties": {"id": 242425839, "name": "Highline Physical Therapy", "category": "clinic", "tags": ["clinic"], "sources": ["osm"], "address": "22659 Pacific Highway South", "stations": [{"stopCode": 67, "lines": "1", "name": "Star Lake Station", "walkingMeters": 632, "walkingSeconds": 456, "band": 10}]}, "geometry": {"type": "Point", "coordinates": [-122.2963945, 47.397403]}}, {"type": "Feature", "properties": {"id": 276668187, "name": "UW Neighborhood Kent/Des Moines Clinic", "category": "clinic", "tags": ["clinic"], "sources": ["osm"], "address": "23213 Pacific Highway South", "hours": "Mo-Tu 08:00-19:00; We-Th 08:00-18:00; Fr 08:00-17:30; Sa 08:00-16:00", "stations": [{"stopCode": 67, "lines": "1", "name": "Star Lake Station", "walkingMeters": 347, "walkingSeconds": 249, "band": 5}]}, "geometry": {"type": "Point", "coordinates": [-122.2961972, 47.393781]}}, {"type": "Feature", "properties": {"id": "6d0507fe-b32c-4ae9-bc7c-1d361fea7fad", "name": "Walgreens Pharmacy", "category": "pharmacy", "tags": ["pharmacy"], "sources": ["overture"], "website": "https://www.walgreens.com", "phone": "+12068701832", "address": "23003 Pacific Hwy S", "stations": [{"stopCode": 67, "lines": "1", "name": "Star Lake Station", "walkingMeters": 300, "walkingSeconds": 216, "band": 5}]}, "geometry": {"type": "Point", "coordinates": [-122.2954102, 47.395092]}}, {"type": "Feature", "properties": {"id": "bb825f94-86ea-451c-9d0f-4cf14ce423e0", "name": "HealthPoint Midway Clinic", "category": "hospital", "tags": ["hospital"], "sources": ["overture"], "website": "http://www.midwaygaming.com", "phone": "+12065929888", "address": "22855 Pacific Hwy S", "stations": [{"stopCode": 67, "lines": "1", "name": "Star Lake Station", "walkingMeters": 360, "walkingSeconds": 259, "band": 5}]}, "geometry": {"type": "Point", "coordinates": [-122.2955017, 47.3956184]}}, {"type": "Feature", "properties": {"id": "6e4d0a75-9bb8-45c3-9a7c-8cf05295b048", "name": "UW Physicians Neighborhood Clinic", "category": "clinic", "tags": ["clinic", "medical"], "sources": ["overture"], "website": "www.uwmedicine.org/locations/primary-care-kent-des-moines", "phone": "+12068708880", "address": "23213 Pacific Hwy S #1", "stations": [{"stopCode": 67, "lines": "1", "name": "Star Lake Station", "walkingMeters": 336, "walkingSeconds": 251, "band": 5}]}, "geometry": {"type": "Point", "coordinates": [-122.2963715, 47.3935547]}}, {"type": "Feature", "properties": {"id": "b23a26fd-b96c-4471-8bfd-612867fbe054", "name": "United States Postal Service", "category": "post_office", "tags": ["post-office", "office"], "sources": ["overture"], "website": "https://tools.usps.com/locations/details/1373027?utm_source=website-url&utm_medium=search&utm_campaign=yext", "phone": "8002758777", "address": "23406 Pacific Hwy S, Ste 106", "stations": [{"stopCode": 67, "lines": "1", "name": "Star Lake Station", "walkingMeters": 414, "walkingSeconds": 298, "band": 5}]}, "geometry": {"type": "Point", "coordinates": [-122.2945328, 47.3915405]}}, {"type": "Feature", "properties": {"id": "28432e0e-1d2e-4cbc-9dd9-16ec402bade4", "name": "Post Office-Pacific Highway", "category": "post_office", "tags": ["post-office", "office"], "sources": ["overture"], "website": "http://www.usps.com", "phone": "+12538562406", "address": "23418 Pacific Hwy S", "stations": [{"stopCode": 67, "lines": "1", "name": "Star Lake Station", "walkingMeters": 395, "walkingSeconds": 284, "band": 5}]}, "geometry": {"type": "Point", "coordinates": [-122.2944641, 47.3918724]}}]}