{"type": "FeatureCollection", "features": [{"type": "Feature", "properties": {"id": "4aa3c9e7-4551-40f9-8d54-975809bfcfe8", "name": "Starbucks", "category": "cafe", "tags": ["cafe", "coffee"], "sources": ["overture"], "phone": "4258272130", "address": "2255carillon Pt Carillon Pt"}, "geometry": {"type": "Point", "coordinates": [-122.2064896, 47.6566124]}}, {"type": "Feature", "properties": {"id": 1092119087, "name": "Como", "category": "restaurant", "tags": ["restaurant", "italian", "pizza"], "sources": ["osm", "overture"], "website": "http://WWW.COMOUSA.COM/", "phone": "+14254840787", "address": "1270 Carillon Point"}, "geometry": {"type": "Point", "coordinates": [-122.2075705, 47.6568768]}}, {"type": "Feature", "properties": {"id": "9dc99bc4-714f-4449-89c0-4e245187348d", "name": "BluWater Bistro", "category": "restaurant", "tags": ["restaurant", "seafood"], "sources": ["overture"], "website": "http://www.bluwaterbistro.com", "phone": "(425) 822-4000", "address": "2220 Carillon Pt"}, "geometry": {"type": "Point", "coordinates": [-122.2065659, 47.6557236]}}, {"type": "Feature", "properties": {"id": "6f76b723-3f50-4efa-b925-2703d58217fb", "name": "Carillon Kitchen", "category": "restaurant", "tags": ["restaurant", "breakfast-and-brunch", "breakfast", "brunch", "american"], "sources": ["overture"], "website": "http://www.carillonkitchen.com/", "phone": "+14257396363", "address": "2240 Carillon Point"}, "geometry": {"type": "Point", "coordinates": [-122.2070541, 47.6564713]}}, {"type": "Feature", "properties": {"id": "52a1a643-dbd7-4cc1-854c-d1d67e49dda3", "name": "Le Grand Bistro Americain", "category": "restaurant", "tags": ["restaurant", "french", "european"], "sources": ["overture"], "website": "http://www.bistrolegrand.com/", "phone": "+14258287778", "address": "2220 Carillon Point"}, "geometry": {"type": "Point", "coordinates": [-122.2074585, 47.6562843]}}, {"type": "Feature", "properties": {"id": "bb31e2bd-fc87-4d83-973b-7b027eb6d4f9", "name": "El Encanto", "category": "restaurant", "tags": ["restaurant", "mexican"], "sources": ["overture"], "website": "http://www.elencantousa.com/", "phone": "+14252027114", "address": "1170 Carillon Point"}, "geometry": {"type": "Point", "coordinates": [-122.2075729, 47.6568604]}}, {"type": "Feature", "properties": {"id": "2a44f7e3-18fe-42e2-9623-fcec90f19a8d", "name": "Bin On The Lake", "category": "bar", "tags": ["bar", "wine"], "sources": ["overture"], "website": "http://www.thewoodmark.com/bin-on-the-lake/", "phone": "4258035595", "address": "1270 Carillon Point, LLC"}, "geometry": {"type": "Point", "coordinates": [-122.2075729, 47.6568108]}}, {"type": "Feature", "properties": {"id": "bf03de0b-56d4-4fae-9291-1eb79f347c7e", "name": "Yarrow Bay Grill", "category": "restaurant", "tags": ["restaurant", "seafood"], "sources": ["overture"], "website": "http://www.ybgrill.com/", "phone": "(425) 889-9052", "address": "1270 Carillon Pt"}, "geometry": {"type": "Point", "coordinates": [-122.2075958, 47.6569099]}}, {"type": "Feature", "properties": {"id": "d3698e29-5d43-40fb-86fc-4b5c62dede49", "name": "The Lodge Acquisition Kirkland Llc", "category": "restaurant", "tags": ["restaurant"], "sources": ["overture"], "website": "https://thelodgesportsgrille.com", "address": "5400 Carillon Pt"}, "geometry": {"type": "Point", "coordinates": [-122.2059555, 47.6549187]}}, {"type": "Feature", "properties": {"id": "2849305f-bcb3-43e8-9964-e0454860e96e", "name": "Waters", "category": "restaurant", "tags": ["restaurant"], "sources": ["overture"], "website": "http://www.watersbistro.com", "phone": "(425) 822-3700", "address": "1200 Carillon Pt"}, "geometry": {"type": "Point", "coordinates": [-122.2068863, 47.6571693]}}, {"type": "Feature", "properties": {"id": 4340593390, "name": "Winter", "category": "artwork", "tags": ["artwork"], "sources": ["osm"]}, "geometry": {"type": "Point", "coordinates": [-122.207109, 47.6593849]}}, {"type": "Feature", "properties": {"id": 4787312007, "name": "Bounding Mule Deer", "category": "artwork", "tags": ["artwork"], "sources": ["osm"]}, "geometry": {"type": "Point", "coordinates": [-122.204908, 47.6570965]}}, {"type": "Feature", "properties": {"id": 8515265083, "name": "Large Painted Phoenix", "category": "artwork", "tags": ["artwork"], "sources": ["osm"]}, "geometry": {"type": "Point", "coordinates": [-122.2067816, 47.6555956]}}, {"type": "Feature", "properties": {"id": "b3ce14c5-9f74-43a6-a965-9990816298c4", "name": "The Carillon Apartment Residences", "category": "attraction", "tags": ["attraction", "landmark", "historical", "building"], "sources": ["overture"], "website": "https://www.bozzuto.com/apartments-for-rent/wa/kirkland/the-carillon-apartments?utm_source=SocialMedia&utm_medium=social-media&utm_campaign=TheCarillonApartments_Facebook", "phone": "+14256754380", "address": "5604 Lakeview Dr"}, "geometry": {"type": "Point", "coordinates": [-122.2040863, 47.6580353]}}, {"type": "Feature", "properties": {"id": "792361bf-b603-46ca-8d48-96f6ec4b2187", "name": "Nyb Fine Art Gallery", "category": "gallery", "tags": ["gallery", "art"], "sources": ["overture"], "website": "https://nybgallery.com", "phone": "14254661776", "address": "1260 Carillon Pt"}, "geometry": {"type": "Point", "coordinates": [-122.206955, 47.656826]}}, {"type": "Feature", "properties": {"id": 55950330, "name": "Carillon Woods", "category": "park", "tags": ["park"], "sources": ["osm"]}, "geometry": {"type": "Point", "coordinates": [-122.2002558, 47.6566004]}}, {"type": "Feature", "properties": {"id": 93944144, "name": "The Woodmark", "category": "hotel", "tags": ["hotel", "smoking"], "sources": ["osm"], "address": "Carillon Point"}, "geometry": {"type": "Point", "coordinates": [-122.207222, 47.6571577]}}, {"type": "Feature", "properties": {"id": "25784543-0537-41c3-a192-5a2f620a6f35", "name": "The Woodmark Hotel and Still Spa", "category": "hotel", "tags": ["hotel"], "sources": ["overture"], "website": "http://www.thewoodmark.com/", "phone": "+14258223700", "address": "1200 Carillon Point"}, "geometry": {"type": "Point", "coordinates": [-122.207283, 47.6568947]}}, {"type": "Feature", "properties": {"id": "dc649aa9-1edc-4f74-b8c9-1f5f62ec4188", "name": "Urbanheer", "category": "clothes", "tags": ["clothes"], "sources": ["overture"], "website": "http://www.urbanheer.com/", "phone": "+14253809871", "address": "1260 Carillon Point"}, "geometry": {"type": "Point", "coordinates": [-122.2070999, 47.6568222]}}, {"type": "Feature", "properties": {"id": "91610897-0ba7-46e7-af7c-b62ddb5c519c", "name": "Clear Wireless Llc", "category": "mobile_phone", "tags": ["mobile-phone", "mobile"], "sources": ["overture"], "address": "4000 Carillon Pt  Ste 400"}, "geometry": {"type": "Point", "coordinates": [-122.2059479, 47.656311]}}, {"type": "Feature", "properties": {"id": "ff824c2e-8fca-401f-b3e9-4d9c41b61456", "name": "T. Anthony Jewelers", "category": "jewelry", "tags": ["jewelry"], "sources": ["overture"], "website": "http://www.tanthonyjewelers.com/", "phone": "+12069102670", "address": "2245 Carillon Point"}, "geometry": {"type": "Point", "coordinates": [-122.2067871, 47.6565056]}}, {"type": "Feature", "properties": {"id": "48f487e1-902a-4fb9-9704-32c89d4a8375", "name": "Sono Bello", "category": "clinic", "tags": ["clinic", "medical"], "sources": ["overture"], "website": "https://www.sonobello.com", "phone": "(800) 995-1136", "address": "5250 Carillon Pt"}, "geometry": {"type": "Point", "coordinates": [-122.2055969, 47.6559105]}}, {"type": "Feature", "properties": {"id": "b4572a25-67bf-4feb-9f94-44f0bc2c4afc", "name": "US Post Office", "category": "post_office", "tags": ["post-office", "office"], "sources": ["overture"], "website": "http://www.usps.com", "phone": "(425) 889-8282", "address": "2265 Carillon Pt"}, "geometry": {"type": "Point", "coordinates": [-122.207077, 47.656311]}}, {"type": "Feature", "properties": {"id": "d19c8c18-662f-47fd-86b7-998b75ba9b22", "name": "Bank of America Mortgage", "category": "bank", "tags": ["bank", "credit", "union"], "sources": ["overture"], "website": "https://www.bankofamerica.com/mortgage/home-mortgage/", "phone": "2062284020", "address": "5612 Lake Washington Blvd NE"}, "geometry": {"type": "Point", "coordinates": [-122.2056808, 47.6589699]}}, {"type": "Feature", "properties": {"id": "36c72da9-4993-48b2-8821-80a2a10cbce2", "name": "Independent Financial Group", "category": "bank", "tags": ["bank", "credit", "union"], "sources": ["overture"], "website": "https://www.ifgwa.com/", "phone": "4252027296", "address": "5400 Carillon Pt"}, "geometry": {"type": "Point", "coordinates": [-122.2059402, 47.654953]}}, {"type": "Feature", "properties": {"id": "fbf4f3f0-ce58-47e8-a5ce-dffd2887a9e2", "name": "Balcom Investments", "category": "bank", "tags": ["bank", "credit", "union"], "sources": ["overture"], "website": "https://www.balcominvestments.com/", "phone": "4252846800", "address": "2270 Carillon Pt"}, "geometry": {"type": "Point", "coordinates": [-122.2065506, 47.6563835]}}, {"type": "Feature", "properties": {"id": "025d07a6-eda8-4765-87af-50109280b1f2", "name": "Fly Fitness", "category": "fitness_centre", "tags": ["fitness-centre", "gym"], "sources": ["overture"], "website": "http://www.wearesuperfly.com/", "phone": "4255224408", "address": "2225 Carillon Pt"}, "geometry": {"type": "Point", "coordinates": [-122.206871, 47.6564598]}}]}