{"type": "FeatureCollection", "features": [{"type": "Feature", "properties": {"id": "08240e72-60a5-492c-81be-105279cfac52", "name": "Denny Park", "category": "park", "tags": ["park"], "sources": ["overture"], "address": "73rd Pl NE"}, "geometry": {"type": "Point", "coordinates": [-122.2455444, 47.7081985]}}, {"type": "Feature", "properties": {"id": "8768eebc-4f83-41cf-8eca-58517a6c7cab", "name": "Artist Point Mt. Baker, WA", "category": "park", "tags": ["park"], "sources": ["overture"], "website": "http://www.fs.usda.gov/recarea/mbs/recreation/recarea/?recid=80180&actid=50", "phone": "+13608565700"}, "geometry": {"type": "Point", "coordinates": [-122.2450256, 47.7042007]}}]}