{"type": "FeatureCollection", "features": [{"type": "Feature", "properties": {"id": "a60910dc-961c-47df-a47e-45fd8c0f3307", "name": "Starbucks", "category": "cafe", "tags": ["cafe", "coffee"], "sources": ["overture"], "website": "http://www.starbucks.com", "phone": "(253) 859-5500", "address": "212th"}, "geometry": {"type": "Point", "coordinates": [-122.2195358, 47.414257]}}, {"type": "Feature", "properties": {"id": 4279412889, "name": "Leonardi's Pizza", "category": "fast_food", "tags": ["fast-food", "pizza", "restaurant"], "sources": ["osm", "overture"], "website": "http://wincofoods.com/departments/pizza", "phone": "(253) 850-4076", "address": "21100 91st Pl S"}, "geometry": {"type": "Point", "coordinates": [-122.219034, 47.4142951]}}, {"type": "Feature", "properties": {"id": 53332180, "name": "WinCo Foods", "category": "supermarket", "tags": ["supermarket"], "sources": ["osm", "overture"], "website": "https://wincofoods.com/", "phone": "+12538508818", "address": "21100 91st Pl S", "hours": "24/7"}, "geometry": {"type": "Point", "coordinates": [-122.2189939, 47.4146327]}}, {"type": "Feature", "properties": {"id": "13f6cb76-44a9-4d1c-82c1-883695a563ed", "name": "Remble Bee Botanical Designs", "category": "florist", "tags": ["florist"], "sources": ["overture"], "website": "https://remblebee.com/", "phone": "2064549090", "address": "9531 S 213th St"}, "geometry": {"type": "Point", "coordinates": [-122.2125092, 47.4111786]}}]}