{"type": "FeatureCollection", "features": [{"type": "Feature", "properties": {"id": 293835813, "name": "Von's 1000 Spirits", "category": "restaurant", "tags": ["restaurant", "american", "burger", "seafood", "salad", "pasta", "pizza", "bar"], "sources": ["osm", "overture"], "website": "https://www.vons1000spirits.com/#Vons-Woodinville", "phone": "4255402440", "address": "15029 Woodinville \u2013 Redmond Rd NE Ste 100", "hours": "Mo-Su 11:30-22:00"}, "geometry": {"type": "Point", "coordinates": [-122.155845, 47.7371942]}}, {"type": "Feature", "properties": {"id": 5266167421, "name": "Woodinville Whiskey Co.", "category": "bar", "tags": ["bar"], "sources": ["osm"], "address": "14509 Woodinville Redmond Road Northeast", "hours": "11:00-18:00"}, "geometry": {"type": "Point", "coordinates": [-122.1531717, 47.7333929]}}, {"type": "Feature", "properties": {"id": 6222346773, "name": "Watts Brewing Company", "category": "pub", "tags": ["pub", "outdoor-seating", "indoor-seating", "microbrew", "bar", "brewery"], "sources": ["osm", "overture"], "website": "https://wattsbrewingcompany.com/reservations", "phone": "+12066583646", "address": "15510 Woodinville Redmond Rd NE e110", "hours": "Mo-Th 14:00-21:00; Fr 14:00-22:00; Sa 12:00-22:00; Su 12:00-20:00"}, "geometry": {"type": "Point", "coordinates": [-122.1537618, 47.7398964]}}, {"type": "Feature", "properties": {"id": 7042488885, "name": "Northwest Spirits", "category": "bar", "tags": ["bar", "distillery"], "sources": ["osm"], "website": "https://northwestspirits.com", "phone": "+1-425-403-2320", "address": "15029 Woodinville Redmond Road Northeast", "hours": "We-Th 16:00-21:00; Fr-Sa 14:00-21:00; Su 14:00-19:00"}, "geometry": {"type": "Point", "coordinates": [-122.156086, 47.7372174]}}, {"type": "Feature", "properties": {"id": 1305154355, "name": "The Hollywood Tavern", "category": "pub", "tags": ["pub", "burger", "outdoor-seating", "vegetarian", "vegan", "dog-friendly", "air-conditioned", "wifi"], "sources": ["osm"], "website": "https://thehollywoodtavern.com", "phone": "+1-425-481-7703", "address": "14508 Woodinville Redmond Road Northeast", "hours": "Su-Th 11:00-21:00; Fr-Sa 11:00-22:00"}, "geometry": {"type": "Point", "coordinates": [-122.1529165, 47.7331554]}}, {"type": "Feature", "properties": {"id": "5e01903b-e829-408b-9c1b-320c0beb438f", "name": "Woodinville Wine Country", "category": "bar", "tags": ["bar", "wine"], "sources": ["overture"], "website": "http://woodinvillewinecountry.com/", "phone": "4252873298", "address": "14030 NE 145th St"}, "geometry": {"type": "Point", "coordinates": [-122.1509476, 47.7328987]}}, {"type": "Feature", "properties": {"id": "4c166b9e-2883-4329-a640-dff832aa7d9b", "name": "Sumerian Brewing Co.", "category": "bar", "tags": ["bar", "brewery"], "sources": ["overture"], "website": "http://sumerianbrewingco.com", "phone": "(425) 486-5330", "address": "15510 Woodinville Redmond Rd NE Bldg E110"}, "geometry": {"type": "Point", "coordinates": [-122.1538696, 47.7399139]}}, {"type": "Feature", "properties": {"id": "af30c6f3-f47b-4129-9d0d-edbfb16c1c1f", "name": "Hollywood Tavern", "category": "restaurant", "tags": ["restaurant", "pub", "bar-and-grill", "american"], "sources": ["overture"], "website": "http://thehollywoodtavern.com/", "phone": "+14254817703", "address": "14501 Woodinville Redmond Rd NE"}, "geometry": {"type": "Point", "coordinates": [-122.1529007, 47.7333527]}}, {"type": "Feature", "properties": {"id": 293835767, "name": "Columbia Winery", "category": "attraction", "tags": ["attraction", "winery", "wine"], "sources": ["osm"], "address": "14030 Northeast 145th Street", "hours": "Sa-Th 11:00-18:00; Fr 11:00-19:00"}, "geometry": {"type": "Point", "coordinates": [-122.152472, 47.7343394]}}, {"type": "Feature", "properties": {"id": 293835811, "name": "Novelty Hill Winery", "category": "attraction", "tags": ["attraction", "winery", "wine"], "sources": ["osm"]}, "geometry": {"type": "Point", "coordinates": [-122.1536087, 47.735539]}}, {"type": "Feature", "properties": {"id": 1215045352, "name": "JM Cellars", "category": "attraction", "tags": ["attraction", "winery", "wine"], "sources": ["osm", "overture"], "website": "http://www.jmcellars.com/", "phone": "+14254856508", "address": "14404 137th Pl NE"}, "geometry": {"type": "Point", "coordinates": [-122.155346, 47.7316502]}}, {"type": "Feature", "properties": {"id": 1216138130, "name": "Januik Winery", "category": "attraction", "tags": ["attraction", "winery", "wine"], "sources": ["osm"]}, "geometry": {"type": "Point", "coordinates": [-122.1534415, 47.7353083]}}, {"type": "Feature", "properties": {"id": 1226375622, "name": "Woodhouse Winery", "category": "attraction", "tags": ["attraction", "winery", "wine"], "sources": ["osm"]}, "geometry": {"type": "Point", "coordinates": [-122.154654, 47.7379857]}}, {"type": "Feature", "properties": {"id": "81e0c41b-c27e-41ce-bc04-4acc0929c082", "name": "Chateau Ste. Michelle Winery", "category": "wine", "tags": ["wine", "winery"], "sources": ["overture"], "website": "https://www.ste-michelle.com/", "phone": "+14254881133", "address": "14111 NE 145th St"}, "geometry": {"type": "Point", "coordinates": [-122.1510239, 47.7310448]}}, {"type": "Feature", "properties": {"id": 7042488288, "name": "Celaeno Winery", "category": "wine", "tags": ["wine", "wifi", "winery"], "sources": ["osm", "overture"], "website": "http://www.celaenowinery.com/", "phone": "+14254179725", "address": "15007 Woodinville Redmond Rd NE", "hours": "Fr-Su 12:00-17:00"}, "geometry": {"type": "Point", "coordinates": [-122.155684, 47.7369286]}}, {"type": "Feature", "properties": {"id": 7042488387, "name": "Cascade Cliffs Vineyard & Winery", "category": "wine", "tags": ["wine"], "sources": ["osm"]}, "geometry": {"type": "Point", "coordinates": [-122.155963, 47.7372081]}}, {"type": "Feature", "properties": {"id": "76afac35-4a9a-4391-bb59-e12e2fcf8196", "name": "Isenhower Cellars", "category": "wine", "tags": ["wine", "winery"], "sources": ["overture"], "website": "http://www.isenhowercellars.com", "phone": "+14254882299", "address": "15007 Woodinville Redmond Rd NE"}, "geometry": {"type": "Point", "coordinates": [-122.1556168, 47.7369843]}}, {"type": "Feature", "properties": {"id": "05979edb-227d-4379-b1d1-f18420576e50", "name": "Cascade Cliffs Tasting Room", "category": "wine", "tags": ["wine", "winery"], "sources": ["overture"], "website": "http://cascadecliffs.com", "phone": "+14253989520", "address": "15029 Woodinville Redmond Rd NE"}, "geometry": {"type": "Point", "coordinates": [-122.1559525, 47.7372475]}}, {"type": "Feature", "properties": {"id": "59641590-1727-427f-b37f-8d5d67dfa1d2", "name": "Basel Cellars", "category": "wine", "tags": ["wine", "winery"], "sources": ["overture"], "website": "http://www.baselcellars.com", "phone": "(425) 497-1910", "address": "15029 Woodinville Redmond Rd NE"}, "geometry": {"type": "Point", "coordinates": [-122.1559525, 47.7372475]}}, {"type": "Feature", "properties": {"id": "bf59bf3d-a063-4cc2-8fcc-a45f8f7b2ed0", "name": "Ideal Toys Direct", "category": "toys", "tags": ["toys"], "sources": ["overture"], "website": "https://idealtoysdirect.com", "phone": "+14254158407", "address": "15530 Woodinville Redmond Rd Ne Ste B300"}, "geometry": {"type": "Point", "coordinates": [-122.157135, 47.7398758]}}, {"type": "Feature", "properties": {"id": "0748dfaf-d789-4761-91c4-10abacd6fd40", "name": "Washington RetroFoam", "category": "doityourself", "tags": ["doityourself", "building", "supply"], "sources": ["overture"], "website": "https://www.retrofoam.com/dealers/washington/seattle-spray-foam-insulation-contractor-", "phone": "4255200043", "address": "15300 Redmond Woodinville Rd NE, Office 16"}, "geometry": {"type": "Point", "coordinates": [-122.1536026, 47.7391243]}}, {"type": "Feature", "properties": {"id": "75af50b4-210d-4f57-ac2b-88eafd6d1a29", "name": "Andrew Januik Wines", "category": "wine", "tags": ["wine", "winery"], "sources": ["overture"], "website": "http://www.AndrewJanuikWines.com/", "phone": "+14254815502", "address": "14710 Woodinville Redmond Rd NE"}, "geometry": {"type": "Point", "coordinates": [-122.1532669, 47.7349205]}}, {"type": "Feature", "properties": {"id": 5162371579, "name": "Alpha Gymnastics", "category": "fitness_centre", "tags": ["fitness-centre", "gymnastics", "cheer"], "sources": ["osm"], "website": "https://www.alphagymnasticswa.com", "phone": "+1-425-486-7429"}, "geometry": {"type": "Point", "coordinates": [-122.1535924, 47.736924]}}]}