{"type": "FeatureCollection", "features": [{"type": "Feature", "properties": {"id": 264241941, "name": "Lower Washout Way", "category": "park", "tags": ["park"], "sources": ["osm"]}, "geometry": {"type": "Point", "coordinates": [-122.1608219, 47.5520785]}}, {"type": "Feature", "properties": {"id": 1209573812, "name": "Forest Hill Neighborhood Park", "category": "park", "tags": ["park"], "sources": ["osm", "overture"], "website": "http://www.bellevuewa.gov/forest_glen.htm", "phone": "+14254526885", "address": "13232 SE 51st Pl"}, "geometry": {"type": "Point", "coordinates": [-122.1630089, 47.5582068]}}, {"type": "Feature", "properties": {"id": "b891f4b6-a9d4-45ec-a475-d0200470e8aa", "name": "Coal Creek Parkway Trails", "category": "park", "tags": ["park"], "sources": ["overture"], "website": "http://parkstrails.myparksandrecreation.com/details.aspx?pid=463", "phone": "+14254526885", "address": "Coal Creek Park"}, "geometry": {"type": "Point", "coordinates": [-122.1659698, 47.5532722]}}]}