{"type": "FeatureCollection", "features": [{"type": "Feature", "properties": {"id": "f9ebce93-9a9d-43cb-9253-e835064d0078", "name": "Normandy Park Villa", "category": "attraction", "tags": ["attraction", "landmark", "historical", "building"], "sources": ["overture"], "website": "https://normandyparkvilla.prospectportal.com/", "phone": "+12069795815", "address": "18207 1st Ave S"}, "geometry": {"type": "Point", "coordinates": [-122.3353577, 47.4396744]}}, {"type": "Feature", "properties": {"id": "8303908f-ceeb-4087-8226-6aadf977f4eb", "name": "Brittany Park Apartments", "category": "attraction", "tags": ["attraction", "landmark", "historical", "building"], "sources": ["overture"], "phone": "+12066936403", "address": "18265 1st Ave S"}, "geometry": {"type": "Point", "coordinates": [-122.3356323, 47.4384804]}}, {"type": "Feature", "properties": {"id": "6fd33cd6-a5a5-4169-baaa-896baad0d6e6", "name": "Walker Preserve Nomandy Park Wa", "category": "park", "tags": ["park"], "sources": ["overture"], "address": " "}, "geometry": {"type": "Point", "coordinates": [-122.3390121, 47.4393196]}}, {"type": "Feature", "properties": {"id": "d5e132d1-31f4-480f-a9a8-e1ebf09de581", "name": "Cornerstone Health & Fitness", "category": "fitness_centre", "tags": ["fitness-centre", "gym"], "sources": ["overture"], "website": "http://www.cornerstonehealthfitness.com/", "phone": "+12062912785", "address": "19205 1st Ave S"}, "geometry": {"type": "Point", "coordinates": [-122.3360977, 47.4309158]}}]}