{"type": "FeatureCollection", "features": [{"type": "Feature", "properties": {"id": "f62b7d5c-ac7c-4b02-8bd3-f06b54d9473f", "name": "Las Bugambilias", "category": "fast_food", "tags": ["fast-food", "food", "truck"], "sources": ["overture"], "website": "https://www.instagram.com/lasbugambiliasmexicanfood", "phone": "(425) 351-0980", "address": "7655 Sunset Hwy", "stations": [{"stopCode": 55, "lines": "2", "name": "Mercer Island Station", "walkingMeters": 847, "walkingSeconds": 632, "band": 15}]}, "geometry": {"type": "Point", "coordinates": [-122.2253494, 47.5906563]}}, {"type": "Feature", "properties": {"id": 656767418, "name": "Viewing Platform", "category": "viewpoint", "tags": ["viewpoint"], "sources": ["osm"], "stations": [{"stopCode": 55, "lines": "2", "name": "Mercer Island Station", "walkingMeters": 1266, "walkingSeconds": 973, "band": 15}]}, "geometry": {"type": "Point", "coordinates": [-122.2276833, 47.5943162]}}, {"type": "Feature", "properties": {"id": 4904852155, "name": "Call of the Wild", "category": "artwork", "tags": ["artwork"], "sources": ["osm"], "stations": [{"stopCode": 55, "lines": "2", "name": "Mercer Island Station", "walkingMeters": 990, "walkingSeconds": 714, "band": 15}]}, "geometry": {"type": "Point", "coordinates": [-122.2254449, 47.5914014]}}, {"type": "Feature", "properties": {"id": 4904852159, "name": "P + B", "category": "artwork", "tags": ["artwork"], "sources": ["osm"], "stations": [{"stopCode": 55, "lines": "2", "name": "Mercer Island Station", "walkingMeters": 1147, "walkingSeconds": 827, "band": 15}]}, "geometry": {"type": "Point", "coordinates": [-122.2262972, 47.5931956]}}, {"type": "Feature", "properties": {"id": 4911666551, "name": "Handsome Bollards", "category": "artwork", "tags": ["artwork"], "sources": ["osm"], "stations": [{"stopCode": 55, "lines": "2", "name": "Mercer Island Station", "walkingMeters": 1099, "walkingSeconds": 792, "band": 15}]}, "geometry": {"type": "Point", "coordinates": [-122.2244154, 47.5908796]}}, {"type": "Feature", "properties": {"id": 4912168254, "name": "Peruvian Paso Colt", "category": "artwork", "tags": ["artwork"], "sources": ["osm"], "stations": [{"stopCode": 55, "lines": "2", "name": "Mercer Island Station", "walkingMeters": 687, "walkingSeconds": 496, "band": 10}]}, "geometry": {"type": "Point", "coordinates": [-122.2281081, 47.5901829]}}, {"type": "Feature", "properties": {"id": 258709927, "name": "Luther Burbank Park", "category": "park", "tags": ["park"], "sources": ["osm"], "stations": [{"stopCode": 55, "lines": "2", "name": "Mercer Island Station", "walkingMeters": 753, "walkingSeconds": 544, "band": 10}]}, "geometry": {"type": "Point", "coordinates": [-122.2271861, 47.5901738]}}, {"type": "Feature", "properties": {"id": "d44b9f1e-4abe-4760-aef0-d64c83486821", "name": "Luther Burbank Park", "category": "park", "tags": ["park"], "sources": ["overture"], "website": "https://www.mercerisland.gov/parksrec/page/luther-burbank-park", "phone": "+12062757609", "address": "2040 84th Ave SE", "stations": [{"stopCode": 55, "lines": "2", "name": "Mercer Island Station", "walkingMeters": 962, "walkingSeconds": 694, "band": 15}]}, "geometry": {"type": "Point", "coordinates": [-122.2257156, 47.5911903]}}, {"type": "Feature", "properties": {"id": "4c7cf0ab-dc93-44d5-a08a-a91725636d0d", "name": "Calkins Point Sand Beach", "category": "park", "tags": ["park"], "sources": ["overture"]}, "geometry": {"type": "Point", "coordinates": [-122.2279205, 47.5951653]}}, {"type": "Feature", "properties": {"id": "00c908ae-5175-4654-ba73-84c9b4f0c616", "name": "Mercer Island Dog Park", "category": "park", "tags": ["park", "dog"], "sources": ["overture"], "website": "https://www.bringfido.com/attraction/parks/city/mercer-island-wa-us", "stations": [{"stopCode": 55, "lines": "2", "name": "Mercer Island Station", "walkingMeters": 1202, "walkingSeconds": 866, "band": 15}]}, "geometry": {"type": "Point", "coordinates": [-122.2262955, 47.59375]}}, {"type": "Feature", "properties": {"id": "198f3807-3aff-4304-8b58-dff5a4d82348", "name": "Mercer Island City Parks & Recreation", "category": "playground", "tags": ["playground"], "sources": ["overture"], "website": "http://www.mercergov.org/parks", "phone": "(206) 236-7321", "address": "2040 84th Ave SE", "stations": [{"stopCode": 55, "lines": "2", "name": "Mercer Island Station", "walkingMeters": 1006, "walkingSeconds": 726, "band": 15}]}, "geometry": {"type": "Point", "coordinates": [-122.2253876, 47.5915565]}}, {"type": "Feature", "properties": {"id": "2ef63e47-9a8f-4615-9f96-41073c0fdc24", "name": "Yogabliss", "category": "fitness_centre", "tags": ["fitness-centre", "yoga", "studio"], "sources": ["overture"], "website": "https://yogabliss.org", "address": "8236 SE 24th St", "stations": [{"stopCode": 55, "lines": "2", "name": "Mercer Island Station", "walkingMeters": 625, "walkingSeconds": 466, "band": 10}]}, "geometry": {"type": "Point", "coordinates": [-122.2274246, 47.5900269]}}]}