{"type": "FeatureCollection", "features": [{"type": "Feature", "properties": {"id": 229839362, "name": "Volunteer Park Cafe & Pantry", "category": "cafe", "tags": ["cafe", "outdoor-seating", "indoor-seating"], "sources": ["osm", "overture"], "website": "https://www.volunteerpark.cafe", "phone": "12062745538", "address": "1501 17th Ave E", "hours": "We-Su 08:00-17:00"}, "geometry": {"type": "Point", "coordinates": [-122.3101429, 47.6324463]}}, {"type": "Feature", "properties": {"id": "58088999-8086-4b58-a38e-fd8df8980fdb", "name": "Ericka Burke, Inc", "category": "restaurant", "tags": ["restaurant"], "sources": ["overture"], "address": "1501 17th Ave E"}, "geometry": {"type": "Point", "coordinates": [-122.3101425, 47.6324425]}}, {"type": "Feature", "properties": {"id": 3211770239, "name": "Untitled", "category": "artwork", "tags": ["artwork"], "sources": ["osm"]}, "geometry": {"type": "Point", "coordinates": [-122.312333, 47.634333]}}, {"type": "Feature", "properties": {"id": 3211770230, "name": "Untitled Bird-Bath", "category": "artwork", "tags": ["artwork"], "sources": ["osm"]}, "geometry": {"type": "Point", "coordinates": [-122.316733, 47.6312]}}, {"type": "Feature", "properties": {"id": 3211770232, "name": "William H. Seward", "category": "artwork", "tags": ["artwork", "wheelchair-accessible"], "sources": ["osm"], "address": "1400 East Galer Street"}, "geometry": {"type": "Point", "coordinates": [-122.315724, 47.6318615]}}, {"type": "Feature", "properties": {"id": 3211770233, "name": "Homage in Green", "category": "artwork", "tags": ["artwork", "wheelchair-accessible"], "sources": ["osm"]}, "geometry": {"type": "Point", "coordinates": [-122.3157327, 47.6320695]}}, {"type": "Feature", "properties": {"id": 3211770235, "name": "Playform", "category": "artwork", "tags": ["artwork"], "sources": ["osm"], "address": "1400 East Galer Street"}, "geometry": {"type": "Point", "coordinates": [-122.3132105, 47.6321627]}}, {"type": "Feature", "properties": {"id": 10935410391, "name": "Louisa Boren Overlook", "category": "viewpoint", "tags": ["viewpoint"], "sources": ["osm"]}, "geometry": {"type": "Point", "coordinates": [-122.312497, 47.6345142]}}, {"type": "Feature", "properties": {"id": 11390273669, "name": "Soft Services", "category": "artwork", "tags": ["artwork"], "sources": ["osm"]}, "geometry": {"type": "Point", "coordinates": [-122.3161813, 47.6316242]}}, {"type": "Feature", "properties": {"id": 36839785, "name": "Seattle Asian Art Museum", "category": "museum", "tags": ["museum", "wheelchair-accessible"], "sources": ["osm"], "website": "https://www.seattleartmuseum.org/visit/seattle-asian-art-museum", "phone": "+1-206-654-3100", "address": "1400 East Prospect Street", "hours": "Th-Su 10:00-17:00"}, "geometry": {"type": "Point", "coordinates": [-122.3141762, 47.6302816]}}, {"type": "Feature", "properties": {"id": "08b7e2b9-46f7-4142-a0b9-435e26e4c717", "name": "The Bostonian", "category": "attraction", "tags": ["attraction", "landmark", "historical", "building"], "sources": ["overture"], "phone": "+12068997734", "address": "1000 E Boston St"}, "geometry": {"type": "Point", "coordinates": [-122.3197403, 47.6385193]}}, {"type": "Feature", "properties": {"id": 13800188, "name": "Volunteer Park", "category": "park", "tags": ["park"], "sources": ["osm"], "website": "https://www.seattle.gov/parks/allparks/volunteer-park", "address": "1247 15th Avenue East", "hours": "06:00-22:00"}, "geometry": {"type": "Point", "coordinates": [-122.3156097, 47.6303808]}}, {"type": "Feature", "properties": {"id": "9a8bd2f5-f28e-4723-884e-dd31f3e2ecc2", "name": "Volunteer Park", "category": "park", "tags": ["park"], "sources": ["overture"], "website": "https://www.seattle.gov/parks/find/parks/volunteer-park", "phone": "+12066844075", "address": "1247 15th Ave E"}, "geometry": {"type": "Point", "coordinates": [-122.3163757, 47.6310768]}}, {"type": "Feature", "properties": {"id": 50536573, "name": "Louisa Boren Park", "category": "park", "tags": ["park"], "sources": ["osm"], "website": "https://seattle.gov/parks/allparks/boren-park", "address": "1606 15th Avenue East"}, "geometry": {"type": "Point", "coordinates": [-122.3116852, 47.635301]}}, {"type": "Feature", "properties": {"id": 52324868, "name": "Grand Army of the Republic Cemetery", "category": "park", "tags": ["park"], "sources": ["osm"], "website": "https://www.seattle.gov/parks/allparks/grand-army-of-the-republic-cemetery"}, "geometry": {"type": "Point", "coordinates": [-122.316315, 47.6364435]}}, {"type": "Feature", "properties": {"id": 306623380, "name": "Volunteer Park Playground", "category": "playground", "tags": ["playground"], "sources": ["osm"]}, "geometry": {"type": "Point", "coordinates": [-122.3133636, 47.6321072]}}, {"type": "Feature", "properties": {"id": 1098985604, "name": "Dahlia garden", "category": "garden", "tags": ["garden"], "sources": ["osm"]}, "geometry": {"type": "Point", "coordinates": [-122.3144861, 47.63136]}}, {"type": "Feature", "properties": {"id": "8913cd61-234a-4e26-8082-feae2f1894f2", "name": "Seattle Arboretum and Conservatory", "category": "park", "tags": ["park"], "sources": ["overture"], "website": "https://botanicgardens.uw.edu/washington-park-arboretum/"}, "geometry": {"type": "Point", "coordinates": [-122.315712, 47.6319389]}}, {"type": "Feature", "properties": {"id": "6d81b490-58c4-47ed-b98c-43002d36918a", "name": "Louisa Boren Lookout", "category": "park", "tags": ["park"], "sources": ["overture"], "website": "http://www.seattle.gov/parks/park_detail.asp?ID=362", "phone": "+12066844075", "address": "1606 15th Ave E"}, "geometry": {"type": "Point", "coordinates": [-122.3127823, 47.6346741]}}, {"type": "Feature", "properties": {"id": "6835684f-e81d-407d-ab38-857b49561886", "name": "Mildred's Bed & Breakfast", "category": "guest_house", "tags": ["guest-house", "bed", "breakfast"], "sources": ["overture"], "website": "http://www.mildredsbnb.com/", "phone": "+12063256072", "address": "1202 15th Ave E"}, "geometry": {"type": "Point", "coordinates": [-122.312355, 47.6307755]}}, {"type": "Feature", "properties": {"id": 306623379, "name": "Volunteer Park Wading Pool", "category": "swimming_pool", "tags": ["swimming-pool"], "sources": ["osm"], "website": "https://www.seattle.gov/parks/recreation/outdoor-water-recreation/sprayparks-and-wading-pools"}, "geometry": {"type": "Point", "coordinates": [-122.3139472, 47.6320671]}}, {"type": "Feature", "properties": {"id": "9a93f82c-8368-44c8-9caa-1763f76e92a8", "name": "Music and Movement Summer Camp", "category": "fitness_centre", "tags": ["fitness-centre", "gym"], "sources": ["overture"], "website": "http://musicandmovement2013.wix.com/musicandmovement", "phone": "+13013250367", "address": "1200 10th Ave E"}, "geometry": {"type": "Point", "coordinates": [-122.3198166, 47.6306648]}}]}