{"type": "FeatureCollection", "features": [{"type": "Feature", "properties": {"id": 92223842, "name": "Starbucks", "category": "cafe", "tags": ["cafe", "coffee-shop", "outdoor-seating", "takeaway", "wifi", "coffee"], "sources": ["osm", "overture"], "website": "https://www.starbucks.com/store-locator/store/16060/", "phone": "+12065239594", "address": "7100 E Green Lake Dr N", "hours": "Mo-Su 05:00-21:00", "stations": [{"stopCode": 46, "lines": "1,2", "name": "Roosevelt Station", "walkingMeters": 962, "walkingSeconds": 692, "band": 15}]}, "geometry": {"type": "Point", "coordinates": [-122.3254943, 47.6799917]}}, {"type": "Feature", "properties": {"id": 477872229, "name": "Smile Thai Cuisine", "category": "restaurant", "tags": ["restaurant", "thai", "asian"], "sources": ["osm", "overture"], "website": "http://smilethaiseattle.com/", "phone": "+12069851182", "address": "6411 Latona Ave NE", "stations": [{"stopCode": 46, "lines": "1,2", "name": "Roosevelt Station", "walkingMeters": 835, "walkingSeconds": 603, "band": 10}]}, "geometry": {"type": "Point", "coordinates": [-122.3256061, 47.6755809]}}, {"type": "Feature", "properties": {"id": 1385481122, "name": "Cafe Lulu", "category": "cafe", "tags": ["cafe", "wheelchair-accessible", "wifi"], "sources": ["osm", "overture"], "website": "http://www.cafeluluseattle.com/", "phone": "+12065277062", "address": "6417 Latona Ave NE", "hours": "Mo-Fr 06:30-14:00; Sa-Su 07:30-14:00", "stations": [{"stopCode": 46, "lines": "1,2", "name": "Roosevelt Station", "walkingMeters": 827, "walkingSeconds": 598, "band": 10}]}, "geometry": {"type": "Point", "coordinates": [-122.3255978, 47.6756476]}}, {"type": "Feature", "properties": {"id": 1735555959, "name": "Latona Pub", "category": "pub", "tags": ["pub", "outdoor-seating", "indoor-seating"], "sources": ["osm", "overture"], "website": "http://latonapub.com/", "phone": "+12065252238", "address": "6423 Latona Ave NE", "hours": "We-Sa 12:00-23:00; Tu 16:00-23:00; Su 12:00-21:00", "stations": [{"stopCode": 46, "lines": "1,2", "name": "Roosevelt Station", "walkingMeters": 809, "walkingSeconds": 585, "band": 10}]}, "geometry": {"type": "Point", "coordinates": [-122.3255853, 47.6758124]}}, {"type": "Feature", "properties": {"id": 1981751146, "name": "Tsui Sushi Bar", "category": "restaurant", "tags": ["restaurant", "sushi", "wheelchair-accessible", "japanese", "asian"], "sources": ["osm", "overture"], "website": "http://tsuisushi.com/", "phone": "+14254727298", "address": "6421 Latona Ave NE", "stations": [{"stopCode": 46, "lines": "1,2", "name": "Roosevelt Station", "walkingMeters": 820, "walkingSeconds": 593, "band": 10}]}, "geometry": {"type": "Point", "coordinates": [-122.3256094, 47.6757104]}}, {"type": "Feature", "properties": {"id": 2463138706, "name": "The Dish Cafe", "category": "cafe", "tags": ["cafe", "indoor-seating"], "sources": ["osm"], "website": "https://dishcafe.net/", "phone": "+1-206-782-9985", "address": "301 Northeast 65th Street", "hours": "Tu-Su 08:00-13:45", "stations": [{"stopCode": 46, "lines": "1,2", "name": "Roosevelt Station", "walkingMeters": 784, "walkingSeconds": 567, "band": 10}]}, "geometry": {"type": "Point", "coordinates": [-122.3252848, 47.6757995]}}, {"type": "Feature", "properties": {"id": 2463139393, "name": "Fotini", "category": "restaurant", "tags": ["restaurant"], "sources": ["osm"], "website": "https://www.fotinirestaurantandbar.com/", "address": "6804 East Green Lake Way North", "stations": [{"stopCode": 46, "lines": "1,2", "name": "Roosevelt Station", "walkingMeters": 1107, "walkingSeconds": 795, "band": 15}]}, "geometry": {"type": "Point", "coordinates": [-122.3278828, 47.6781419]}}, {"type": "Feature", "properties": {"id": 2463139396, "name": "Jellyfish Brewing", "category": "pub", "tags": ["pub", "outdoor-seating"], "sources": ["osm"], "website": "https://jellyfishbrewing.com", "address": "6808 East Green Lake Way North", "stations": [{"stopCode": 46, "lines": "1,2", "name": "Roosevelt Station", "walkingMeters": 1095, "walkingSeconds": 786, "band": 15}]}, "geometry": {"type": "Point", "coordinates": [-122.3277255, 47.6781854]}}, {"type": "Feature", "properties": {"id": 3311160763, "name": "Retreat", "category": "cafe", "tags": ["cafe", "coffee-shop", "outdoor-seating", "restaurant", "comfort-food"], "sources": ["osm", "overture"], "website": "http://www.retreat-greenlake.com/", "phone": "+12066448331", "address": "6900 East Green Lake Way N", "hours": "Mo-Su 07:00-21:00", "stations": [{"stopCode": 46, "lines": "1,2", "name": "Roosevelt Station", "walkingMeters": 1002, "walkingSeconds": 720, "band": 15}]}, "geometry": {"type": "Point", "coordinates": [-122.3265376, 47.6784958]}}, {"type": "Feature", "properties": {"id": 3311160767, "name": "Thai Ocean", "category": "restaurant", "tags": ["restaurant", "thai", "wheelchair-accessible", "asian"], "sources": ["osm", "overture"], "website": "http://www.thaiocean.com/", "phone": "+12065265023", "address": "401 NE Ravenna Blvd", "hours": "Mo-Fr 11:30-21:30; Sa 12:00-22:00; Su 12:00-21:30", "stations": [{"stopCode": 46, "lines": "1,2", "name": "Roosevelt Station", "walkingMeters": 878, "walkingSeconds": 631, "band": 10}]}, "geometry": {"type": "Point", "coordinates": [-122.3251274, 47.678306]}}, {"type": "Feature", "properties": {"id": 9905980747, "name": "Greenlake Sushi and Roll", "category": "restaurant", "tags": ["restaurant", "sushi", "vegan"], "sources": ["osm"], "website": "https://greenlakesushi.square.site/", "phone": "+1-206-941-0960", "address": "7012 Woodlawn Avenue Northeast", "hours": "Tu,We 16:30-21:00; Th,Fr 11:30-15:00,16:30-21:00; Sa,Su 11:30-21:00", "stations": [{"stopCode": 46, "lines": "1,2", "name": "Roosevelt Station", "walkingMeters": 875, "walkingSeconds": 629, "band": 10}]}, "geometry": {"type": "Point", "coordinates": [-122.3243476, 47.6794643]}}, {"type": "Feature", "properties": {"id": 10265128423, "name": "Spud Fish & Chips", "category": "fast_food", "tags": ["fast-food", "fish-and-chips", "outdoor-seating", "indoor-seating", "takeaway", "wine", "beer", "air-conditioned", "restaurant", "fish", "chips", "seafood", "british"], "sources": ["osm", "overture"], "website": "http://www.greenlakespud.com/", "phone": "+12065240565", "address": "6860 East Green Lake Way N", "hours": "Mo-Su 11:00-21:00", "stations": [{"stopCode": 46, "lines": "1,2", "name": "Roosevelt Station", "walkingMeters": 1033, "walkingSeconds": 742, "band": 15}]}, "geometry": {"type": "Point", "coordinates": [-122.3269232, 47.6783516]}}, {"type": "Feature", "properties": {"id": 13325218114, "name": "Greenlake Dumpling", "category": "restaurant", "tags": ["restaurant", "asian", "outdoor-seating", "wifi"], "sources": ["osm"], "website": "https://chowbusmkt.wixsite.com/website-692", "phone": "+1 206-889-3727", "address": "6900 East Green Lake Way North", "stations": [{"stopCode": 46, "lines": "1,2", "name": "Roosevelt Station", "walkingMeters": 921, "walkingSeconds": 662, "band": 10}]}, "geometry": {"type": "Point", "coordinates": [-122.3257366, 47.6789172]}}, {"type": "Feature", "properties": {"id": 13325257793, "name": "Momi Indian Kitchen", "category": "restaurant", "tags": ["restaurant", "delivery", "vegetarian", "indian"], "sources": ["osm", "overture"], "website": "http://www.momikitchen.com/", "phone": "+12064927137", "address": "6900 East Green Lake Way N", "hours": "Tu 11:30-14:30,17:00-21:30; We 11:30-14:30,17:00-21:30; Th 11:30-14:30,17:00-21:30; Fr 11:30-14:30,17:00-21:30; Sa 11:30-14:30,17:00-21:30; Su 11:30-14:30,17:00-21:00; Mo off", "stations": [{"stopCode": 46, "lines": "1,2", "name": "Roosevelt Station", "walkingMeters": 969, "walkingSeconds": 696, "band": 15}]}, "geometry": {"type": "Point", "coordinates": [-122.3262282, 47.6787029]}}, {"type": "Feature", "properties": {"id": "fa72594f-d885-459a-88f5-42fb88f14e81", "name": "Peet's Coffee & Tea", "category": "cafe", "tags": ["cafe", "coffee"], "sources": ["overture"], "website": "http://www.peets.com/", "phone": "2062671305", "address": "6850 E Green Lake Way N", "stations": [{"stopCode": 46, "lines": "1,2", "name": "Roosevelt Station", "walkingMeters": 1060, "walkingSeconds": 762, "band": 15}]}, "geometry": {"type": "Point", "coordinates": [-122.3273163, 47.6784058]}}, {"type": "Feature", "properties": {"id": "ad6709e4-eab3-4e09-a622-177204e9ce24", "name": "Revolutions Espresso & Bakery", "category": "cafe", "tags": ["cafe", "coffee"], "sources": ["overture"], "website": "http://www.thecoffeerevolution.com/", "phone": "(206) 527-1908", "address": "7012 Woodlawn Ave NE", "stations": [{"stopCode": 46, "lines": "1,2", "name": "Roosevelt Station", "walkingMeters": 869, "walkingSeconds": 625, "band": 10}]}, "geometry": {"type": "Point", "coordinates": [-122.3245163, 47.6794281]}}, {"type": "Feature", "properties": {"id": "0301a22a-2d46-431d-bcbb-e8ab902e0194", "name": "The Cowgill Family Restaurant Company, I", "category": "restaurant", "tags": ["restaurant"], "sources": ["overture"], "address": "401 Ne Ravenna Blvd Ste C", "stations": [{"stopCode": 46, "lines": "1,2", "name": "Roosevelt Station", "walkingMeters": 907, "walkingSeconds": 677, "band": 10}]}, "geometry": {"type": "Point", "coordinates": [-122.3249435, 47.6783066]}}, {"type": "Feature", "properties": {"id": "367d5b5c-a580-4a78-ad7c-02c30e203d0c", "name": "The Dish Cafe Greenlake", "category": "restaurant", "tags": ["restaurant", "breakfast-and-brunch", "breakfast", "brunch"], "sources": ["overture"], "website": "http://www.thedishseattle.com/", "phone": "2065255411", "address": "301 NE 65th St", "stations": [{"stopCode": 46, "lines": "1,2", "name": "Roosevelt Station", "walkingMeters": 792, "walkingSeconds": 573, "band": 10}]}, "geometry": {"type": "Point", "coordinates": [-122.3253937, 47.6758041]}}, {"type": "Feature", "properties": {"id": "3ebb3329-2f4f-4536-aad9-80384da6f41e", "name": "Thurston's Bistro & Lounge", "category": "restaurant", "tags": ["restaurant", "american"], "sources": ["overture"], "website": "http://www.thurstonsbistro.com", "phone": "(206) 402-3553", "address": "6421 Latona Ave NE", "stations": [{"stopCode": 46, "lines": "1,2", "name": "Roosevelt Station", "walkingMeters": 816, "walkingSeconds": 590, "band": 10}]}, "geometry": {"type": "Point", "coordinates": [-122.3257065, 47.6757584]}}, {"type": "Feature", "properties": {"id": "653cbaa3-d7c7-4b4c-a765-abf75a23ebdb", "name": "Mona's Bistro", "category": "bar", "tags": ["bar"], "sources": ["overture"], "website": "http://monasseattle.com", "phone": "(206) 526-1188", "address": "6421 Latona Ave NE", "stations": [{"stopCode": 46, "lines": "1,2", "name": "Roosevelt Station", "walkingMeters": 818, "walkingSeconds": 592, "band": 10}]}, "geometry": {"type": "Point", "coordinates": [-122.3256302, 47.6757278]}}, {"type": "Feature", "properties": {"id": "2ec72673-ff28-4b04-878e-6c8846e4b79c", "name": "The Butcher and The Baker", "category": "restaurant", "tags": ["restaurant", "breakfast-and-brunch", "breakfast", "brunch"], "sources": ["overture"], "phone": "2068512571", "address": "6412 Latona Ave NE", "stations": [{"stopCode": 46, "lines": "1,2", "name": "Roosevelt Station", "walkingMeters": 845, "walkingSeconds": 611, "band": 10}]}, "geometry": {"type": "Point", "coordinates": [-122.3253784, 47.6753197]}}, {"type": "Feature", "properties": {"id": "a3d1328e-9704-4083-a324-2559e743a9ba", "name": "Krittika's Noodles & Thai", "category": "restaurant", "tags": ["restaurant", "noodles", "thai"], "sources": ["overture"], "website": "https://www.krittikas.com/", "phone": "2069851182", "address": "6411 Latona Ave NE", "stations": [{"stopCode": 46, "lines": "1,2", "name": "Roosevelt Station", "walkingMeters": 869, "walkingSeconds": 628, "band": 10}]}, "geometry": {"type": "Point", "coordinates": [-122.325531, 47.6752586]}}, {"type": "Feature", "properties": {"id": "ac04626c-721e-4d58-8b94-bce9cb4aa9a0", "name": "O'ginger Bistro", "category": "restaurant", "tags": ["restaurant", "thai"], "sources": ["overture"], "website": "http://ogingerbistro.net", "phone": "(206) 922-2362", "address": "6900 E Green Lake Way N", "stations": [{"stopCode": 46, "lines": "1,2", "name": "Roosevelt Station", "walkingMeters": 1008, "walkingSeconds": 724, "band": 15}]}, "geometry": {"type": "Point", "coordinates": [-122.3262177, 47.6784019]}}, {"type": "Feature", "properties": {"id": "6fc21619-f53d-46e5-86f9-5ea6673f3ff5", "name": "Turnpike Pizza", "category": "restaurant", "tags": ["restaurant", "pizza"], "sources": ["overture"], "website": "http://turnpikepizza.com", "phone": "(206) 708-1860", "address": "6900 E Green Lake Way N", "stations": [{"stopCode": 46, "lines": "1,2", "name": "Roosevelt Station", "walkingMeters": 960, "walkingSeconds": 690, "band": 15}]}, "geometry": {"type": "Point", "coordinates": [-122.3262177, 47.6788216]}}, {"type": "Feature", "properties": {"id": "c20288c1-fc1f-4968-8081-9e0bed92593d", "name": "Bell's Cookie Co", "category": "bakery", "tags": ["bakery"], "sources": ["overture"], "website": "https://www.bellscookies.com/", "phone": "+12064467355", "address": "6900 East Green Lake Way N Ste D", "stations": [{"stopCode": 46, "lines": "1,2", "name": "Roosevelt Station", "walkingMeters": 971, "walkingSeconds": 698, "band": 15}]}, "geometry": {"type": "Point", "coordinates": [-122.3262863, 47.6787186]}}, {"type": "Feature", "properties": {"id": "1dc579eb-4a43-4cc2-b061-0ce4b61a8674", "name": "Teddy's Bigger Burgers - Greenlake", "category": "restaurant", "tags": ["restaurant", "burger"], "sources": ["overture"], "website": "http://www.greenlake.teddysbb.com/home", "phone": "(206) 582-1885", "address": "6900 E Green Lake Way N Unit C", "stations": [{"stopCode": 46, "lines": "1,2", "name": "Roosevelt Station", "walkingMeters": 991, "walkingSeconds": 712, "band": 15}]}, "geometry": {"type": "Point", "coordinates": [-122.3264694, 47.6785889]}}, {"type": "Feature", "properties": {"id": "3226fe22-f186-4024-a07f-f81ad0a3d745", "name": "FIX Coffeehouse", "category": "cafe", "tags": ["cafe", "coffee"], "sources": ["overture"], "website": "http://fixgreenlake.com", "phone": "(206) 453-4279", "address": "6900 E Green Lake Way N", "stations": [{"stopCode": 46, "lines": "1,2", "name": "Roosevelt Station", "walkingMeters": 1002, "walkingSeconds": 720, "band": 15}]}, "geometry": {"type": "Point", "coordinates": [-122.326622, 47.6786423]}}, {"type": "Feature", "properties": {"id": "a7f6035f-34cc-4ff9-a9f0-dd4232457e91", "name": "Vg Services Inc", "category": "restaurant", "tags": ["restaurant"], "sources": ["overture"], "address": "6808 E Green Lake Way N", "stations": [{"stopCode": 46, "lines": "1,2", "name": "Roosevelt Station", "walkingMeters": 1164, "walkingSeconds": 869, "band": 15}]}, "geometry": {"type": "Point", "coordinates": [-122.327713, 47.6781425]}}, {"type": "Feature", "properties": {"id": "cfbc34cf-a142-402e-8ee6-786cb44ae095", "name": "Nell's", "category": "restaurant", "tags": ["restaurant", "french", "american"], "sources": ["overture"], "website": "http://www.nellsrestaurant.com/", "phone": "+12065244044", "address": "6804 East Green Lake Way N", "stations": [{"stopCode": 46, "lines": "1,2", "name": "Roosevelt Station", "walkingMeters": 1096, "walkingSeconds": 788, "band": 15}]}, "geometry": {"type": "Point", "coordinates": [-122.3277435, 47.6781349]}}, {"type": "Feature", "properties": {"id": "eb831301-f7aa-42c6-8984-85806c511b55", "name": "Tacos Guaymas", "category": "restaurant", "tags": ["restaurant", "mexican"], "sources": ["overture"], "website": "http://www.tacosguaymas.com", "phone": "(206) 729-6563", "address": "6808 E Green Lake Way N", "stations": [{"stopCode": 46, "lines": "1,2", "name": "Roosevelt Station", "walkingMeters": 1088, "walkingSeconds": 782, "band": 15}]}, "geometry": {"type": "Point", "coordinates": [-122.3276443, 47.6782417]}}, {"type": "Feature", "properties": {"id": 4608693536, "name": "Bettie Page", "category": "artwork", "tags": ["artwork"], "sources": ["osm"], "stations": [{"stopCode": 46, "lines": "1,2", "name": "Roosevelt Station", "walkingMeters": 934, "walkingSeconds": 672, "band": 10}]}, "geometry": {"type": "Point", "coordinates": [-122.3209537, 47.6713332]}}, {"type": "Feature", "properties": {"id": 8895999717, "name": "Divine", "category": "artwork", "tags": ["artwork"], "sources": ["osm"], "stations": [{"stopCode": 46, "lines": "1,2", "name": "Roosevelt Station", "walkingMeters": 938, "walkingSeconds": 675, "band": 15}]}, "geometry": {"type": "Point", "coordinates": [-122.3209537, 47.6712916]}}, {"type": "Feature", "properties": {"id": 988343287, "name": "Green Lake Dragonfly Mural", "category": "artwork", "tags": ["artwork"], "sources": ["osm"], "stations": [{"stopCode": 46, "lines": "1,2", "name": "Roosevelt Station", "walkingMeters": 1102, "walkingSeconds": 792, "band": 15}]}, "geometry": {"type": "Point", "coordinates": [-122.324475, 47.6723607]}}, {"type": "Feature", "properties": {"id": "9c4d5c30-afde-4c4a-8059-ae21334652e0", "name": "Meta Arte", "category": "gallery", "tags": ["gallery", "art"], "sources": ["overture"], "website": "http://metaarte.net", "phone": "(206) 523-3071", "address": "563 NE Ravenna Blvd", "stations": [{"stopCode": 46, "lines": "1,2", "name": "Roosevelt Station", "walkingMeters": 587, "walkingSeconds": 422, "band": 10}]}, "geometry": {"type": "Point", "coordinates": [-122.3227768, 47.6760979]}}, {"type": "Feature", "properties": {"id": "f5dcb042-9395-426a-bf64-2ea32fac1234", "name": "Florera Greenlake", "category": "attraction", "tags": ["attraction", "landmark", "historical", "building"], "sources": ["overture"], "website": "http://www.ownflorera.com/", "phone": "+14259992190", "address": "413 NE 70th St", "stations": [{"stopCode": 46, "lines": "1,2", "name": "Roosevelt Station", "walkingMeters": 866, "walkingSeconds": 646, "band": 10}]}, "geometry": {"type": "Point", "coordinates": [-122.3241348, 47.6789894]}}, {"type": "Feature", "properties": {"id": "3e4ed1a7-4423-48a5-8947-f8cb427524a9", "name": "Helene Apartments", "category": "attraction", "tags": ["attraction", "landmark", "historical", "building"], "sources": ["overture"], "phone": "+14258664106", "address": "414 NE Ravenna Blvd", "stations": [{"stopCode": 46, "lines": "1,2", "name": "Roosevelt Station", "walkingMeters": 848, "walkingSeconds": 633, "band": 10}]}, "geometry": {"type": "Point", "coordinates": [-122.3242035, 47.6785164]}}, {"type": "Feature", "properties": {"id": "27c73f52-9d8c-4c8f-95e8-2b3e9509a0ac", "name": "Magic Magpie Studio, Henna Art by Antoinette", "category": "gallery", "tags": ["gallery", "art"], "sources": ["overture"], "website": "http://www.antoin.net", "phone": "(206) 327-3915", "address": "6410 Latona Ave NE", "stations": [{"stopCode": 46, "lines": "1,2", "name": "Roosevelt Station", "walkingMeters": 799, "walkingSeconds": 578, "band": 10}]}, "geometry": {"type": "Point", "coordinates": [-122.3252258, 47.6757355]}}, {"type": "Feature", "properties": {"id": "df2f689f-0450-437b-bf74-cda046f79a1e", "name": "DockSide Apartments", "category": "attraction", "tags": ["attraction", "landmark", "historical", "building"], "sources": ["overture"], "phone": "+12064023213", "address": "6860 East Green Lake Way N", "stations": [{"stopCode": 46, "lines": "1,2", "name": "Roosevelt Station", "walkingMeters": 1086, "walkingSeconds": 810, "band": 15}]}, "geometry": {"type": "Point", "coordinates": [-122.3268204, 47.6783714]}}, {"type": "Feature", "properties": {"id": "9278bce6-87e4-4d65-90a9-dead235d9904", "name": "Circa Green Lake Apartments", "category": "attraction", "tags": ["attraction", "landmark", "historical", "building"], "sources": ["overture"], "website": "http://www.circagreenlake.com/", "phone": "+18774125003", "address": "6900 East Green Lake Way N", "stations": [{"stopCode": 46, "lines": "1,2", "name": "Roosevelt Station", "walkingMeters": 906, "walkingSeconds": 651, "band": 10}]}, "geometry": {"type": "Point", "coordinates": [-122.325592, 47.6784706]}}, {"type": "Feature", "properties": {"id": 59037674, "name": "Northeast 60th Street Park", "category": "park", "tags": ["park"], "sources": ["osm"], "website": "https://www.seattle.gov/parks/allparks/ne-60th-street-park", "stations": [{"stopCode": 46, "lines": "1,2", "name": "Roosevelt Station", "walkingMeters": 1105, "walkingSeconds": 795, "band": 15}]}, "geometry": {"type": "Point", "coordinates": [-122.3225352, 47.6711205]}}, {"type": "Feature", "properties": {"id": "4b9904d2-1285-4e61-9f59-2f991ebf5d61", "name": "Green Lake Park and Ride", "category": "park", "tags": ["park"], "sources": ["overture"], "website": "http://www.soundtransit.org/Rider-Guide/Green-Lake-PR", "phone": "+12065533000", "address": "6601 8th Ave NE", "stations": [{"stopCode": 46, "lines": "1,2", "name": "Roosevelt Station", "walkingMeters": 483, "walkingSeconds": 360, "band": 5}]}, "geometry": {"type": "Point", "coordinates": [-122.3209, 47.6762009]}}, {"type": "Feature", "properties": {"id": "e7f95852-7130-438b-85af-88792b99c3ac", "name": "Ravenna Boulevard", "category": "park", "tags": ["park"], "sources": ["overture"], "address": "E Green Lake Way to 20th Ave NE", "stations": [{"stopCode": 46, "lines": "1,2", "name": "Roosevelt Station", "walkingMeters": 563, "walkingSeconds": 420, "band": 10}]}, "geometry": {"type": "Point", "coordinates": [-122.3211594, 47.6748581]}}, {"type": "Feature", "properties": {"id": "ac0b6cbe-78fe-42d0-b15a-6cfd56ac950f", "name": "Green Lake Park", "category": "park", "tags": ["park"], "sources": ["overture"], "website": "https://www.seattle.gov", "phone": "12066844075", "address": "7201 E Green Lake Dr N", "stations": [{"stopCode": 46, "lines": "1,2", "name": "Roosevelt Station", "walkingMeters": 1097, "walkingSeconds": 789, "band": 15}]}, "geometry": {"type": "Point", "coordinates": [-122.3285675, 47.6796875]}}, {"type": "Feature", "properties": {"id": 2463138704, "name": "G & F Grocery", "category": "convenience", "tags": ["convenience"], "sources": ["osm", "overture"], "phone": "+12065270544", "address": "300 NE 65th St", "stations": [{"stopCode": 46, "lines": "1,2", "name": "Roosevelt Station", "walkingMeters": 795, "walkingSeconds": 571, "band": 10}]}, "geometry": {"type": "Point", "coordinates": [-122.3255395, 47.6760172]}}, {"type": "Feature", "properties": {"id": 2463138716, "name": "Ship Song", "category": "gift", "tags": ["gift"], "sources": ["osm"], "address": "310 Northeast 65th Street", "hours": "Th-Fr 11:00-18:00; Sa 10:00-17:00; Su 10:00-15:00", "stations": [{"stopCode": 46, "lines": "1,2", "name": "Roosevelt Station", "walkingMeters": 774, "walkingSeconds": 556, "band": 10}]}, "geometry": {"type": "Point", "coordinates": [-122.3252519, 47.6760165]}}, {"type": "Feature", "properties": {"id": 2463139201, "name": "Blue Sky Bridal", "category": "clothes", "tags": ["clothes"], "sources": ["osm"], "website": "https://blueskybridal.com", "phone": "+1-206-783-8700", "address": "561 Northeast Ravenna Boulevard", "hours": "\"By appointment only\"", "stations": [{"stopCode": 46, "lines": "1,2", "name": "Roosevelt Station", "walkingMeters": 587, "walkingSeconds": 422, "band": 10}]}, "geometry": {"type": "Point", "coordinates": [-122.3227569, 47.6761112]}}, {"type": "Feature", "properties": {"id": 2463139278, "name": "JDM Smoke Shop", "category": "tobacco", "tags": ["tobacco"], "sources": ["osm"], "address": "6410 Latona Avenue Northeast", "stations": [{"stopCode": 46, "lines": "1,2", "name": "Roosevelt Station", "walkingMeters": 811, "walkingSeconds": 586, "band": 10}]}, "geometry": {"type": "Point", "coordinates": [-122.3252913, 47.6756226]}}, {"type": "Feature", "properties": {"id": 2888316901, "name": "Road Runner Sports", "category": "shoes", "tags": ["shoes", "shoe"], "sources": ["osm", "overture"], "website": "https://stores.roadrunnersports.com/wa/seattle/running-shoe-store-102.html?utm_source=localeze&utm_medium=organic&utm_campaign=retail&utm_term=102", "phone": "2065175100", "address": "7020 Woodlawn Ave NE", "hours": "Mo-Sa 10:00-19:00; Su 10:00-18:00", "stations": [{"stopCode": 46, "lines": "1,2", "name": "Roosevelt Station", "walkingMeters": 872, "walkingSeconds": 627, "band": 10}]}, "geometry": {"type": "Point", "coordinates": [-122.324397, 47.679679]}}, {"type": "Feature", "properties": {"id": 10961682079, "name": "Title Nine", "category": "clothes", "tags": ["clothes", "womens"], "sources": ["osm", "overture"], "website": "https://www.titlenine.com/store-locator/title+nine+-+seattle.do", "phone": "+12065221425", "address": "7000 Woodlawn Ave NE", "hours": "Mo-Sa 10:00-18:00; Su 12:00-17:00", "stations": [{"stopCode": 46, "lines": "1,2", "name": "Roosevelt Station", "walkingMeters": 827, "walkingSeconds": 595, "band": 10}]}, "geometry": {"type": "Point", "coordinates": [-122.3245663, 47.6791705]}}, {"type": "Feature", "properties": {"id": 13325218113, "name": "Hotspot Mini Mart", "category": "convenience", "tags": ["convenience"], "sources": ["osm"], "hours": "Mo-Su 07:00-23:00", "stations": [{"stopCode": 46, "lines": "1,2", "name": "Roosevelt Station", "walkingMeters": 827, "walkingSeconds": 594, "band": 10}]}, "geometry": {"type": "Point", "coordinates": [-122.3248926, 47.6783884]}}, {"type": "Feature", "properties": {"id": 37644026, "name": "Gregg's Greenlake Cycle", "category": "bicycle", "tags": ["bicycle"], "sources": ["osm"], "website": "https://www.greggscycles.com/", "phone": "+1-206-523-1822", "address": "7007 Woodlawn Avenue Northeast", "hours": "Mo-Fr 10:00-20:00; Sa,Su 10:00-18:00", "stations": [{"stopCode": 46, "lines": "1,2", "name": "Roosevelt Station", "walkingMeters": 884, "walkingSeconds": 635, "band": 10}]}, "geometry": {"type": "Point", "coordinates": [-122.3249337, 47.6794823]}}, {"type": "Feature", "properties": {"id": "825896a5-66c8-4180-b3c9-be7e4bb20ed7", "name": "Plus One Construction", "category": "doityourself", "tags": ["doityourself", "building", "supply"], "sources": ["overture"], "website": "http://www.plusoneconstruction.com", "phone": "(206) 507-4848", "address": "419 NE 70th St", "stations": [{"stopCode": 46, "lines": "1,2", "name": "Roosevelt Station", "walkingMeters": 781, "walkingSeconds": 562, "band": 10}]}, "geometry": {"type": "Point", "coordinates": [-122.3239441, 47.6789818]}}, {"type": "Feature", "properties": {"id": "28cd4904-d32e-46e4-8515-8762082053ef", "name": "Pryde + Johnson", "category": "doityourself", "tags": ["doityourself", "building", "supply"], "sources": ["overture"], "website": "http://www.prydejohnson.com", "phone": "(206) 352-7000", "address": "419 NE 70th St", "stations": [{"stopCode": 46, "lines": "1,2", "name": "Roosevelt Station", "walkingMeters": 775, "walkingSeconds": 557, "band": 10}]}, "geometry": {"type": "Point", "coordinates": [-122.3238983, 47.6790619]}}, {"type": "Feature", "properties": {"id": "31175cf9-d858-4f6d-980c-a018557d2bcc", "name": "Park's Pharmacy", "category": "convenience", "tags": ["convenience"], "sources": ["overture"], "website": "http://www.mygnp.com/store?id=0013000000ioBFWAA2&utm_source=bing&utm_medium=local&utm_campaign=localmaps&utm_content=4917829", "phone": "2065273010", "address": "401 NE Ravenna Blvd", "stations": [{"stopCode": 46, "lines": "1,2", "name": "Roosevelt Station", "walkingMeters": 754, "walkingSeconds": 542, "band": 10}]}, "geometry": {"type": "Point", "coordinates": [-122.3242416, 47.6780128]}}, {"type": "Feature", "properties": {"id": "0bf39bf4-1879-4a76-9f34-66690e323bae", "name": "Shana Kelly, Ms", "category": "clinic", "tags": ["clinic", "medical"], "sources": ["overture"], "website": "http://www.communicationcorner.org", "phone": "+12062991780", "address": "444 NE Ravenna Blvd", "stations": [{"stopCode": 46, "lines": "1,2", "name": "Roosevelt Station", "walkingMeters": 751, "walkingSeconds": 560, "band": 10}]}, "geometry": {"type": "Point", "coordinates": [-122.323349, 47.6781349]}}, {"type": "Feature", "properties": {"id": 8734076982, "name": "KeyBank", "category": "bank", "tags": ["bank", "credit", "union"], "sources": ["osm", "overture"], "website": "https://www.key.com/locations/WA/Seattle/BRCH47310003/400-Ne-Ravenna-Blvd?ppc=cmpyxt", "phone": "+12068026200", "address": "400 NE Ravenna Blvd", "hours": "Mo-Th 09:00-17:00; Fr 09:00-18:00; Sa 10:00-13:30", "stations": [{"stopCode": 46, "lines": "1,2", "name": "Roosevelt Station", "walkingMeters": 818, "walkingSeconds": 588, "band": 10}]}, "geometry": {"type": "Point", "coordinates": [-122.324437, 47.6789447]}}, {"type": "Feature", "properties": {"id": 3311161061, "name": "Wells Fargo", "category": "bank", "tags": ["bank"], "sources": ["osm"], "website": "https://wellsfargo.com", "phone": "+1-800-932-2741", "address": "6900 East Green Lake Way North", "hours": "Mo-Fr 09:00-17:00", "stations": [{"stopCode": 46, "lines": "1,2", "name": "Roosevelt Station", "walkingMeters": 936, "walkingSeconds": 672, "band": 15}]}, "geometry": {"type": "Point", "coordinates": [-122.32589, 47.6788776]}}, {"type": "Feature", "properties": {"id": 9905980750, "name": "Park Postal", "category": "post_office", "tags": ["post-office", "office"], "sources": ["osm", "overture"], "website": "http://www.parkpostal.com", "phone": "(206) 312-0976", "address": "414 NE Ravenna Blvd Ste A", "hours": "Mo-Fr 09:30-18:00; Sa 10:00-16:00", "stations": [{"stopCode": 46, "lines": "1,2", "name": "Roosevelt Station", "walkingMeters": 782, "walkingSeconds": 562, "band": 10}]}, "geometry": {"type": "Point", "coordinates": [-122.3242259, 47.6786101]}}, {"type": "Feature", "properties": {"id": "6f54ef4c-4d0a-432a-be4c-a6d53001e915", "name": "Wells Fargo Bank", "category": "bank", "tags": ["bank", "credit", "union"], "sources": ["overture"], "website": "https://www.wellsfargo.com/locator/bank/6900__E__GREEN__LAKE__WAY__N__STE__E_SEATTLE_WA_98115/?utm_campaign=Local_Listings&utm_source=Others&group=Community_Bank&loc=AD79436", "phone": "2062192380", "address": "6900 E GREEN LAKE WAY N STE E", "stations": [{"stopCode": 46, "lines": "1,2", "name": "Roosevelt Station", "walkingMeters": 940, "walkingSeconds": 675, "band": 15}]}, "geometry": {"type": "Point", "coordinates": [-122.3259201, 47.6788483]}}, {"type": "Feature", "properties": {"id": "5b5a35c7-db39-4fe4-a58c-95c0f788186e", "name": "FamilySearch center", "category": "library", "tags": ["library"], "sources": ["overture"], "phone": "2065221233", "address": "5701 8th Ave NE", "stations": [{"stopCode": 46, "lines": "1,2", "name": "Roosevelt Station", "walkingMeters": 1006, "walkingSeconds": 724, "band": 15}]}, "geometry": {"type": "Point", "coordinates": [-122.320137, 47.6700745]}}, {"type": "Feature", "properties": {"id": 2463138851, "name": "Flight Room", "category": "fitness_centre", "tags": ["fitness-centre", "gymnastics"], "sources": ["osm"], "address": "412 Northeast 70th Street", "stations": [{"stopCode": 46, "lines": "1,2", "name": "Roosevelt Station", "walkingMeters": 796, "walkingSeconds": 572, "band": 10}]}, "geometry": {"type": "Point", "coordinates": [-122.3241583, 47.6792726]}}, {"type": "Feature", "properties": {"id": 2463139066, "name": "Green Lake Strength & Conditioning", "category": "fitness_centre", "tags": ["fitness-centre", "gym"], "sources": ["osm", "overture"], "website": "https://greenlakestrength.com/", "phone": "+12062033958", "address": "466 NE 70th St", "hours": "Mo-Fr 06:00-13:00,15:30-19:30; Sa,Su 08:00-12:00", "stations": [{"stopCode": 46, "lines": "1,2", "name": "Roosevelt Station", "walkingMeters": 712, "walkingSeconds": 512, "band": 10}]}, "geometry": {"type": "Point", "coordinates": [-122.3231152, 47.6795116]}}, {"type": "Feature", "properties": {"id": 2995132086, "name": "Pure Barre", "category": "fitness_centre", "tags": ["fitness-centre", "barre", "pilates", "studio"], "sources": ["osm", "overture"], "website": "https://www.purebarre.com/location/seattle-green-lake-wa", "phone": "+12064201667", "address": "406 NE 71st St", "stations": [{"stopCode": 46, "lines": "1,2", "name": "Roosevelt Station", "walkingMeters": 864, "walkingSeconds": 622, "band": 10}]}, "geometry": {"type": "Point", "coordinates": [-122.32429, 47.6799493]}}, {"type": "Feature", "properties": {"id": 11160050275, "name": "Yoga by Fran Gallo", "category": "fitness_centre", "tags": ["fitness-centre", "yoga", "studio"], "sources": ["osm", "overture"], "website": "https://linktr.ee/YogaByFranGallo", "address": "6869 Woodlawn Ave NE Ste 100", "stations": [{"stopCode": 46, "lines": "1,2", "name": "Roosevelt Station", "walkingMeters": 989, "walkingSeconds": 711, "band": 15}]}, "geometry": {"type": "Point", "coordinates": [-122.3265772, 47.6778569]}}, {"type": "Feature", "properties": {"id": "e9ea84b7-8e23-43e8-81b1-7af1cfc03450", "name": "Puget Sound CrossFit", "category": "fitness_centre", "tags": ["fitness-centre", "gym"], "sources": ["overture"], "website": "http://www.pugetsoundcrossfit.com/", "phone": "+12067782256", "address": "125 NE 62nd St", "stations": [{"stopCode": 46, "lines": "1,2", "name": "Roosevelt Station", "walkingMeters": 1214, "walkingSeconds": 872, "band": 15}]}, "geometry": {"type": "Point", "coordinates": [-122.3280029, 47.6738434]}}, {"type": "Feature", "properties": {"id": "d50fef5d-17e8-4875-a777-92d63c8cd096", "name": "Blacklion Sports", "category": "fitness_centre", "tags": ["fitness-centre", "fitness", "trainer"], "sources": ["overture"], "website": "refinedmelody.com", "phone": "+12064272899", "address": "466 NE 70th St", "stations": [{"stopCode": 46, "lines": "1,2", "name": "Roosevelt Station", "walkingMeters": 818, "walkingSeconds": 610, "band": 10}]}, "geometry": {"type": "Point", "coordinates": [-122.323143, 47.6795464]}}, {"type": "Feature", "properties": {"id": "fc2ad836-6754-440d-80aa-08f14fa2d954", "name": "Northwest Crossfit", "category": "fitness_centre", "tags": ["fitness-centre", "gym"], "sources": ["overture"], "website": "http://www.nwcrossfit.com", "phone": "(206) 526-5425", "address": "466 NE 70th St", "stations": [{"stopCode": 46, "lines": "1,2", "name": "Roosevelt Station", "walkingMeters": 716, "walkingSeconds": 515, "band": 10}]}, "geometry": {"type": "Point", "coordinates": [-122.3231888, 47.6795807]}}, {"type": "Feature", "properties": {"id": "89d69d68-6e00-43f9-91ea-60f0c8f16a72", "name": "Seattle Pilates Collective", "category": "fitness_centre", "tags": ["fitness-centre", "pilates", "studio"], "sources": ["overture"], "website": "https://www.seattlepilatescollective.com", "phone": "(206) 771-5591", "address": "412 NE 70th St", "stations": [{"stopCode": 46, "lines": "1,2", "name": "Roosevelt Station", "walkingMeters": 804, "walkingSeconds": 578, "band": 10}]}, "geometry": {"type": "Point", "coordinates": [-122.3242874, 47.6793022]}}, {"type": "Feature", "properties": {"id": "09872f22-3340-4868-94b2-0d540309039e", "name": "The Yogi Grind", "category": "fitness_centre", "tags": ["fitness-centre", "yoga", "studio"], "sources": ["overture"], "website": "http://www.seattleyogalounge.com", "phone": "(360) 910-1510", "address": "6900 E Green Lake Way N", "stations": [{"stopCode": 46, "lines": "1,2", "name": "Roosevelt Station", "walkingMeters": 1008, "walkingSeconds": 724, "band": 15}]}, "geometry": {"type": "Point", "coordinates": [-122.3261261, 47.6783791]}}]}