{"type": "FeatureCollection", "features": [{"type": "Feature", "properties": {"id": 9236047677, "name": "Musashi's", "category": "restaurant", "tags": ["restaurant", "japanese", "sushi", "asian"], "sources": ["osm", "overture"], "website": "https://musashiswa.wixsite.com/musashis", "phone": "+14253013292", "address": "2200 W Meeker St Ste Y104"}, "geometry": {"type": "Point", "coordinates": [-122.2654265, 47.3789226]}}, {"type": "Feature", "properties": {"id": 9799388338, "name": "Fam Le Sippin", "category": "cafe", "tags": ["cafe", "bubble-tea", "coffee", "tea"], "sources": ["osm"], "address": "2200 West Meeker Street"}, "geometry": {"type": "Point", "coordinates": [-122.2657427, 47.3790123]}}, {"type": "Feature", "properties": {"id": 13629044373, "name": "Riverdeck Cafe", "category": "cafe", "tags": ["cafe"], "sources": ["osm"]}, "geometry": {"type": "Point", "coordinates": [-122.2690872, 47.3780542]}}, {"type": "Feature", "properties": {"id": 4216612489, "name": "Cedar and Salmon", "category": "artwork", "tags": ["artwork"], "sources": ["osm"]}, "geometry": {"type": "Point", "coordinates": [-122.2698614, 47.3771251]}}, {"type": "Feature", "properties": {"id": "eaa6ce46-aa45-4d47-9fbe-9495ea52a46c", "name": "Ethos Apartments Kent", "category": "attraction", "tags": ["attraction", "landmark", "historical", "building"], "sources": ["overture"], "website": "https://www.ethoskent.com/", "phone": "+12532365401", "address": "2200 W Meeker St"}, "geometry": {"type": "Point", "coordinates": [-122.2660446, 47.3785477]}}, {"type": "Feature", "properties": {"id": 25923728, "name": "Mullen Slough Natural Area", "category": "park", "tags": ["park"], "sources": ["osm"]}, "geometry": {"type": "Point", "coordinates": [-122.2613104, 47.377036]}}, {"type": "Feature", "properties": {"id": 25924039, "name": "Old Fishing Hole Park", "category": "park", "tags": ["park"], "sources": ["osm"], "website": "https://www.kentwa.gov/departments/kent-parks/parks-places/parks-trails/old-fishing-hole", "hours": "dawn-dusk"}, "geometry": {"type": "Point", "coordinates": [-122.2694893, 47.377039]}}, {"type": "Feature", "properties": {"id": "91909f85-0228-4fc2-a489-1d8a358aa69a", "name": "Old Fishing Hole", "category": "park", "tags": ["park"], "sources": ["overture"], "website": "http://www.ci.kent.wa.us/content.aspx?id=11196", "phone": "+12538565200", "address": "24945 Frager Rd S"}, "geometry": {"type": "Point", "coordinates": [-122.269165, 47.3767548]}}, {"type": "Feature", "properties": {"id": "26621741-086b-4733-9179-8259150c905e", "name": "Club Pilates", "category": "fitness_centre", "tags": ["fitness-centre", "pilates", "studio"], "sources": ["overture"], "website": "https://www.clubpilates.com/kent", "phone": "+12532778586", "address": "2200 W Meeker St Ste 1"}, "geometry": {"type": "Point", "coordinates": [-122.2649994, 47.3792534]}}]}