{"type": "FeatureCollection", "features": [{"type": "Feature", "properties": {"id": 4331007810, "name": "Subway", "category": "fast_food", "tags": ["fast-food", "sandwich", "indoor-seating", "takeaway", "fast", "food"], "sources": ["osm", "overture"], "website": "https://restaurants.subway.com/united-states/wa/normandy-park/19987-1st-ave?utm_source=yxt-bing&utm_medium=local&utm_term=acq&utm_content=18180&utm_campaign=evergreen-2020&y_source=1_MTQ5MDUwMTgtNDgzLWxvY2F0aW9uLndlYnNpdGU%3D", "phone": "2064293090", "address": "19987 1st Ave, #107", "hours": "Mo-Su 10:00-21:00"}, "geometry": {"type": "Point", "coordinates": [-122.335696, 47.4238168]}}, {"type": "Feature", "properties": {"id": 4331007809, "name": "Papa John's", "category": "fast_food", "tags": ["fast-food", "pizza", "takeaway"], "sources": ["osm"], "website": "https://locations.papajohns.com/united-states/wa/98148/normandy-park/19893-1st-ave", "phone": "+1-206-248-3333", "address": "19893 1st Avenue", "hours": "Mo-Th 10:30-23:00; Fr-Sa 10:30-24:00; Su 10:30-23:00"}, "geometry": {"type": "Point", "coordinates": [-122.335741, 47.4240722]}}, {"type": "Feature", "properties": {"id": 4331007808, "name": "Rose Pho", "category": "restaurant", "tags": ["restaurant", "vietnamese", "noodles", "asian"], "sources": ["osm", "overture"], "website": "http://rose-pho.com/", "phone": "+12065922451", "address": "19865 1st Ave S #302", "hours": "Mo-Sa 10:30-21:00; Su 11:00-21:00"}, "geometry": {"type": "Point", "coordinates": [-122.3364835, 47.4243796]}}, {"type": "Feature", "properties": {"id": 4331097608, "name": "Empire Coffee", "category": "cafe", "tags": ["cafe", "coffee-shop", "coffee"], "sources": ["osm", "overture"], "phone": "+12064145440", "address": "19865 1st Ave S"}, "geometry": {"type": "Point", "coordinates": [-122.3363516, 47.4243715]}}, {"type": "Feature", "properties": {"id": 5877079603, "name": "Normandy Park Alehouse", "category": "pub", "tags": ["pub", "restaurant", "bar-and-grill"], "sources": ["osm", "overture"], "website": "http://www.normandyparkalehouse.com/", "phone": "+12065926986", "address": "19803 1st Ave S #104"}, "geometry": {"type": "Point", "coordinates": [-122.3357049, 47.4250829]}}, {"type": "Feature", "properties": {"id": "4cc1b34b-fee2-4093-a9c6-aa09d641eb53", "name": "Krispy Krunchy Chicken", "category": "restaurant", "tags": ["restaurant", "chicken"], "sources": ["overture"], "website": "https://locations.krispykrunchy.com/wa/normandy-park/19803-1st-avenue-south", "phone": "2066517567", "address": "19803 1st Ave S"}, "geometry": {"type": "Point", "coordinates": [-122.3353729, 47.425148]}}, {"type": "Feature", "properties": {"id": "ab1f57ea-349a-4d17-8379-b44530680b7b", "name": "Normandy Perk", "category": "cafe", "tags": ["cafe", "coffee"], "sources": ["overture"], "website": "http://normandyperk.com", "phone": "(206) 454-8384", "address": "19865 1st Ave S"}, "geometry": {"type": "Point", "coordinates": [-122.3364258, 47.4244194]}}, {"type": "Feature", "properties": {"id": "73c50d9a-e3aa-4699-8494-2af7b60e67f7", "name": "archery bistro", "category": "restaurant", "tags": ["restaurant", "american"], "sources": ["overture"], "website": "http://www.archerybistro.com/", "phone": "(206) 429-3145", "address": "19803 1st Ave S Ste 104"}, "geometry": {"type": "Point", "coordinates": [-122.3356323, 47.4251556]}}, {"type": "Feature", "properties": {"id": "d2c8cf58-afde-48d8-8509-b9f7882641e5", "name": "Papa Johns Pizza", "category": "restaurant", "tags": ["restaurant", "pizza", "fast-food"], "sources": ["overture"], "website": "https://locations.papajohns.com/united-states/wa/98148/normandy-park/19893-1st-ave-s?utm_source=facebook-store-pages&utm_medium=referral&y_source=1_MTA2OTA4MTctNTU5LWxvY2F0aW9uLndlYnNpdGU%3D", "phone": "+12062483333", "address": "19893 1st Ave S"}, "geometry": {"type": "Point", "coordinates": [-122.3357468, 47.424015]}}, {"type": "Feature", "properties": {"id": "2dfc30c1-97fe-49be-825c-4e5546578d77", "name": "Indian Bite", "category": "restaurant", "tags": ["restaurant", "indian"], "sources": ["overture"], "phone": "+12063333335", "address": "19987 1st Ave S"}, "geometry": {"type": "Point", "coordinates": [-122.3356552, 47.4234619]}}, {"type": "Feature", "properties": {"id": "640fa1dc-df5a-49f9-ab45-773eb0cb917c", "name": "Photo Adventures Gallery Llc", "category": "gallery", "tags": ["gallery", "art"], "sources": ["overture"], "website": "http://photoadventuresgallery.com", "phone": "17373463536", "address": "19655 1st Ave S  Ste 204"}, "geometry": {"type": "Point", "coordinates": [-122.3360443, 47.4268227]}}, {"type": "Feature", "properties": {"id": 172711357, "name": "Marvista Park", "category": "park", "tags": ["park"], "sources": ["osm", "overture"], "website": "http://marvista-park.placestars.com/", "phone": "+12062487603", "address": "19990 4th Ave SW"}, "geometry": {"type": "Point", "coordinates": [-122.3397798, 47.4240984]}}, {"type": "Feature", "properties": {"id": 13075413905, "name": "Grocery Outlet", "category": "supermarket", "tags": ["supermarket", "wheelchair-accessible", "variety-store", "discount"], "sources": ["osm", "overture"], "website": "https://www.groceryoutlet.com/circulars/storeid/591?utm_source=bing&utm_medium=yext", "phone": "2063190911", "address": "19805 1st Ave S Ste 100", "hours": "Mo-Su 07:00-21:00"}, "geometry": {"type": "Point", "coordinates": [-122.3370565, 47.4249171]}}, {"type": "Feature", "properties": {"id": 9325841395, "name": "T-Mobile", "category": "mobile_phone", "tags": ["mobile-phone"], "sources": ["osm"], "website": "https://www.t-mobile.com/stores/bd/t-mobile-normandy-park-wa-98148-5374"}, "geometry": {"type": "Point", "coordinates": [-122.335749, 47.4244454]}}, {"type": "Feature", "properties": {"id": 4331096505, "name": "Ace Hardware", "category": "doityourself", "tags": ["doityourself", "hardware"], "sources": ["osm", "overture"], "website": "https://www.acehardware.com/store-details/15827", "phone": "+12068242288", "address": "19901 1st Ave S Ste 402", "hours": "Mo-Sa 08:00-19:00; Su 09:00-18:00"}, "geometry": {"type": "Point", "coordinates": [-122.3370547, 47.424039]}}, {"type": "Feature", "properties": {"id": 4331007811, "name": "Soggy Dog", "category": "pet", "tags": ["pet"], "sources": ["osm"], "website": "https://thesoggydoggy.com/", "phone": "+1-206-824-6600", "hours": "Th-Mo 10:00-20:00; Tu-We off"}, "geometry": {"type": "Point", "coordinates": [-122.3357341, 47.4242425]}}, {"type": "Feature", "properties": {"id": "4725c892-3f97-4c64-8279-e781b92fb07d", "name": "Wild West Tour Company", "category": "supermarket", "tags": ["supermarket"], "sources": ["overture"], "address": "19655 1st Ave S Ste 203"}, "geometry": {"type": "Point", "coordinates": [-122.3360443, 47.4268227]}}, {"type": "Feature", "properties": {"id": "fc6f8182-2b4f-4a99-85ed-eb4452da7d2c", "name": "T-mobile Authorized Retailer", "category": "mobile_phone", "tags": ["mobile-phone", "mobile"], "sources": ["overture"], "website": "https://www.t-mobile.com", "phone": "12068786506", "address": "19893 1st Ave S  Ste 207"}, "geometry": {"type": "Point", "coordinates": [-122.3365936, 47.4239235]}}, {"type": "Feature", "properties": {"id": "49ebe3d3-f5ba-49c0-9939-cdf9c340f57c", "name": "Moxie Kidz", "category": "clothes", "tags": ["clothes", "childrens"], "sources": ["overture"], "phone": "+12068527215", "address": "19865 1st Ave S Ste 303"}, "geometry": {"type": "Point", "coordinates": [-122.3371124, 47.4241638]}}, {"type": "Feature", "properties": {"id": "582970e8-adf0-4cac-a3f1-35db69e54f45", "name": "Ignite Financial SVC", "category": "bank", "tags": ["bank", "credit", "union"], "sources": ["overture"], "website": "https://www.ignitefinservices.com/contact", "phone": "2532368880", "address": "19439 1st Ave S Ste B3"}, "geometry": {"type": "Point", "coordinates": [-122.3358841, 47.4275322]}}, {"type": "Feature", "properties": {"id": "19030fc7-0845-48a9-bc59-26c1cf019ed5", "name": "Karuna Arts Yoga", "category": "fitness_centre", "tags": ["fitness-centre", "yoga", "studio"], "sources": ["overture"], "website": "http://www.normandyparkyoga.com", "phone": "(206) 878-9642", "address": "19655 1st Ave S Ste 102"}, "geometry": {"type": "Point", "coordinates": [-122.3359604, 47.4266319]}}]}