{"type": "FeatureCollection", "features": [{"type": "Feature", "properties": {"id": 275866494, "name": "Highlands Park", "category": "park", "tags": ["park"], "sources": ["osm"], "address": "9100 140th Avenue Southeast"}, "geometry": {"type": "Point", "coordinates": [-122.1535142, 47.520191]}}, {"type": "Feature", "properties": {"id": 163608507, "name": "China Creek Park", "category": "park", "tags": ["park"], "sources": ["osm"]}, "geometry": {"type": "Point", "coordinates": [-122.1503881, 47.5292345]}}]}