{"type": "FeatureCollection", "features": [{"type": "Feature", "properties": {"id": "de9dc752-47c6-4be2-b67c-613dc7cc23fb", "name": "Caf\u00e9 Remix", "category": "cafe", "tags": ["cafe"], "sources": ["overture"], "website": "https://bizremix.com", "phone": "12067245012", "address": "33120 Pacific Hwy S  Ste 2"}, "geometry": {"type": "Point", "coordinates": [-122.3125839, 47.3045769]}}, {"type": "Feature", "properties": {"id": 6178125805, "name": "Black Box Restaurant", "category": "restaurant", "tags": ["restaurant"], "sources": ["osm"], "stations": [{"stopCode": 68, "lines": "1", "name": "Federal Way Downtown Station", "walkingMeters": 997, "walkingSeconds": 720, "band": 15}]}, "geometry": {"type": "Point", "coordinates": [-122.312871, 47.3090269]}}, {"type": "Feature", "properties": {"id": 6178125822, "name": "Daebak Wang Mandoo", "category": "restaurant", "tags": ["restaurant", "korean", "asian"], "sources": ["osm", "overture"], "website": "http://www.bigmandoo.com", "phone": "+12535179548", "address": "33100 Pacific Hwy S #5"}, "geometry": {"type": "Point", "coordinates": [-122.3126699, 47.3052913]}}, {"type": "Feature", "properties": {"id": 6178125833, "name": "Senor Taco", "category": "restaurant", "tags": ["restaurant", "taco", "mexican", "latin-american"], "sources": ["osm", "overture"], "website": "http://senor-taco.com", "phone": "+12536619915", "address": "33120 Pacific Hwy S #1"}, "geometry": {"type": "Point", "coordinates": [-122.3130146, 47.3047812]}}, {"type": "Feature", "properties": {"id": 6178125838, "name": "Cockatoo's Chicken Restaurant", "category": "restaurant", "tags": ["restaurant", "chicken", "korean", "asian"], "sources": ["osm", "overture"], "website": "https://www.cockatooschicken.com/order", "phone": "+12536612960", "address": "33130 Pacific Hwy S"}, "geometry": {"type": "Point", "coordinates": [-122.312631, 47.3044292]}}, {"type": "Feature", "properties": {"id": 85677097, "name": "The Burger Express", "category": "fast_food", "tags": ["fast-food", "burger"], "sources": ["osm"], "address": "32805 Pacific Highway South", "stations": [{"stopCode": 68, "lines": "1", "name": "Federal Way Downtown Station", "walkingMeters": 1175, "walkingSeconds": 850, "band": 15}]}, "geometry": {"type": "Point", "coordinates": [-122.3138863, 47.3077493]}}, {"type": "Feature", "properties": {"id": 85680010, "name": "Hae Song Korean BBQ", "category": "restaurant", "tags": ["restaurant", "korean", "barbecue", "asian"], "sources": ["osm", "overture"], "website": "http://www.haesong-bbq.com/", "phone": "+12538785103", "address": "32703 Pacific Hwy S", "stations": [{"stopCode": 68, "lines": "1", "name": "Federal Way Downtown Station", "walkingMeters": 1061, "walkingSeconds": 768, "band": 15}]}, "geometry": {"type": "Point", "coordinates": [-122.3140584, 47.3086941]}}, {"type": "Feature", "properties": {"id": "cd8f166c-f93c-4656-a2e9-fe301519c966", "name": "Noahs Arc, Llc", "category": "restaurant", "tags": ["restaurant"], "sources": ["overture"], "address": "33100 Pacific Hwy S Ste 5"}, "geometry": {"type": "Point", "coordinates": [-122.3125916, 47.3052826]}}, {"type": "Feature", "properties": {"id": "cc2f3f5f-f902-40f5-a015-b9eeb7a7409c", "name": "Korean Newspaper Co", "category": "restaurant", "tags": ["restaurant", "korean", "asian"], "sources": ["overture"], "phone": "+14257786747", "address": "33100 Pacific Hwy S"}, "geometry": {"type": "Point", "coordinates": [-122.3125916, 47.3052826]}}, {"type": "Feature", "properties": {"id": "82df3929-e810-46ed-847e-144f68b9898f", "name": "Big Pot Seolleongtang \ud070\uc1a5\uc124\ub801\ud0d5", "category": "restaurant", "tags": ["restaurant", "korean", "soup", "asian"], "sources": ["overture"], "phone": "+12535173700", "address": "33120 Pacific Hwy S"}, "geometry": {"type": "Point", "coordinates": [-122.3125687, 47.3047523]}}, {"type": "Feature", "properties": {"id": "eb592ee3-534b-4be7-9fbd-e5a1f661f953", "name": "Jin Kook Korean Restaurant \uc9c4\uad6d\uc774\ub124 \uc124\ub801\ud0d5", "category": "restaurant", "tags": ["restaurant", "asian", "fusion"], "sources": ["overture"], "phone": "2535173700", "address": "33120 Pacific Hwy S, #4"}, "geometry": {"type": "Point", "coordinates": [-122.312561, 47.3047485]}}, {"type": "Feature", "properties": {"id": "4ae327eb-69d7-4f4e-97a3-5b488de214f7", "name": "Lm Salon Inc / Dba Nail Trix", "category": "restaurant", "tags": ["restaurant"], "sources": ["overture"], "address": "32700 Pacific Hwy S Ste 6", "stations": [{"stopCode": 68, "lines": "1", "name": "Federal Way Downtown Station", "walkingMeters": 1228, "walkingSeconds": 916, "band": 15}]}, "geometry": {"type": "Point", "coordinates": [-122.3126144, 47.3085175]}}, {"type": "Feature", "properties": {"id": "167d2473-0b16-4475-b5b1-98956e044782", "name": "Chang Ko Restaurant", "category": "restaurant", "tags": ["restaurant", "korean"], "sources": ["overture"], "phone": "12538389841", "address": "32610 Pacific Hwy S  Ste B3", "stations": [{"stopCode": 68, "lines": "1", "name": "Federal Way Downtown Station", "walkingMeters": 1054, "walkingSeconds": 761, "band": 15}]}, "geometry": {"type": "Point", "coordinates": [-122.3119202, 47.3092499]}}, {"type": "Feature", "properties": {"id": "8c635b10-56c6-49dc-b80a-f6850d0bb689", "name": "Kcl Management Llc", "category": "restaurant", "tags": ["restaurant"], "sources": ["overture"], "website": "https://haesongbbq.com", "address": "32703 Pacific Hwy S", "stations": [{"stopCode": 68, "lines": "1", "name": "Federal Way Downtown Station", "walkingMeters": 1212, "walkingSeconds": 904, "band": 15}]}, "geometry": {"type": "Point", "coordinates": [-122.314209, 47.3087502]}}, {"type": "Feature", "properties": {"id": "936e1cea-5ff3-4f09-99e0-ca8e7125b49d", "name": "Burger Express", "category": "restaurant", "tags": ["restaurant", "burger", "fast-food", "american"], "sources": ["overture"], "website": "http://www.burgerexpress.com", "phone": "+12538742701", "address": "32805 Pacific Hwy S", "stations": [{"stopCode": 68, "lines": "1", "name": "Federal Way Downtown Station", "walkingMeters": 1172, "walkingSeconds": 846, "band": 15}]}, "geometry": {"type": "Point", "coordinates": [-122.3138657, 47.3076859]}}, {"type": "Feature", "properties": {"id": 7831469475, "name": "Line Up: Frog", "category": "artwork", "tags": ["artwork"], "sources": ["osm"], "website": "https://gloriabornstein.com/line-up"}, "geometry": {"type": "Point", "coordinates": [-122.3181377, 47.3079963]}}, {"type": "Feature", "properties": {"id": 7831469476, "name": "Line Up: Turtle", "category": "artwork", "tags": ["artwork"], "sources": ["osm"], "website": "https://gloriabornstein.com/line-up"}, "geometry": {"type": "Point", "coordinates": [-122.3181169, 47.3080274]}}, {"type": "Feature", "properties": {"id": 7831469477, "name": "Line Up: Owl", "category": "artwork", "tags": ["artwork"], "sources": ["osm"], "website": "https://gloriabornstein.com/line-up"}, "geometry": {"type": "Point", "coordinates": [-122.3180935, 47.308072]}}, {"type": "Feature", "properties": {"id": 7831469478, "name": "Line Up: Foot", "category": "artwork", "tags": ["artwork"], "sources": ["osm"], "website": "https://gloriabornstein.com/line-up"}, "geometry": {"type": "Point", "coordinates": [-122.3180568, 47.3081416]}}, {"type": "Feature", "properties": {"id": 7831469479, "name": "Line Up: Hand", "category": "artwork", "tags": ["artwork"], "sources": ["osm"], "website": "https://gloriabornstein.com/line-up"}, "geometry": {"type": "Point", "coordinates": [-122.3180422, 47.3081991]}}, {"type": "Feature", "properties": {"id": "e4a1db04-6579-466c-af43-c4659a5fa208", "name": "Arbor Woods Apartments", "category": "attraction", "tags": ["attraction", "landmark", "historical", "building"], "sources": ["overture"], "website": "https://www.rentcafe.com", "phone": "+12536610315", "address": "1800 S 330th St"}, "geometry": {"type": "Point", "coordinates": [-122.3102264, 47.3070679]}}, {"type": "Feature", "properties": {"id": "e6e63517-81e0-41bc-8792-ee7f0f73b539", "name": "Habitat Condominiums", "category": "attraction", "tags": ["attraction", "landmark", "historical", "building"], "sources": ["overture"], "website": "https://www.landcast.com/.../45551/habitat-condo-federal-way-wa", "phone": "+12533506533", "address": "1801 S 330th St"}, "geometry": {"type": "Point", "coordinates": [-122.310585, 47.3058777]}}, {"type": "Feature", "properties": {"id": "b98eb5f5-a1be-4b13-9ed4-bfaeaafadf9d", "name": "Celebration Senior Living Apartments", "category": "attraction", "tags": ["attraction", "landmark", "historical", "building"], "sources": ["overture"], "website": "https://housing4seniors.com/communities/federal-way-celebration-senior-living/", "phone": "+12063314311", "address": "1524 S 328th St", "stations": [{"stopCode": 68, "lines": "1", "name": "Federal Way Downtown Station", "walkingMeters": 1279, "walkingSeconds": 954, "band": 15}]}, "geometry": {"type": "Point", "coordinates": [-122.3143311, 47.3082962]}}, {"type": "Feature", "properties": {"id": 85677976, "name": "Econo Lodge", "category": "motel", "tags": ["motel", "hotel"], "sources": ["osm", "overture"], "website": "https://www.choicehotels.com/washington/federal-way/econo-lodge-hotels/wa168?mc=llyxyxpx", "phone": "(253) 838-7700", "address": "1505 S 328th St", "stations": [{"stopCode": 68, "lines": "1", "name": "Federal Way Downtown Station", "walkingMeters": 1260, "walkingSeconds": 911, "band": 15}]}, "geometry": {"type": "Point", "coordinates": [-122.315038, 47.3076028]}}, {"type": "Feature", "properties": {"id": 166387735, "name": "Eastwind Motel", "category": "motel", "tags": ["motel"], "sources": ["osm", "overture"], "website": "www.eastwindhotels.com", "phone": "12539522622", "address": "33230 Pacific Hwy S"}, "geometry": {"type": "Point", "coordinates": [-122.3124595, 47.3033565]}}, {"type": "Feature", "properties": {"id": 457165501, "name": "New Horizon Motel", "category": "motel", "tags": ["motel"], "sources": ["osm", "overture"], "website": "https://newhorizonmotel.com", "phone": "12539272377", "address": "33002 Pacific Hwy S"}, "geometry": {"type": "Point", "coordinates": [-122.3125934, 47.3058757]}}, {"type": "Feature", "properties": {"id": 85680779, "name": "Grocery Outlet", "category": "supermarket", "tags": ["supermarket"], "sources": ["osm", "overture"], "website": "https://groceryoutlet.com/circulars/storeid/154", "phone": "+12538359025", "address": "32945 Pacific Hwy S", "stations": [{"stopCode": 68, "lines": "1", "name": "Federal Way Downtown Station", "walkingMeters": 1366, "walkingSeconds": 988, "band": 15}]}, "geometry": {"type": "Point", "coordinates": [-122.3144544, 47.3064951]}}, {"type": "Feature", "properties": {"id": 6178125813, "name": "Big Dog Little Dog Daycare & Boarding", "category": "pet", "tags": ["pet"], "sources": ["osm"], "stations": [{"stopCode": 68, "lines": "1", "name": "Federal Way Downtown Station", "walkingMeters": 1052, "walkingSeconds": 760, "band": 15}]}, "geometry": {"type": "Point", "coordinates": [-122.3129207, 47.3084632]}}, {"type": "Feature", "properties": {"id": 6178125830, "name": "DJ Imprints", "category": "clothes", "tags": ["clothes"], "sources": ["osm"]}, "geometry": {"type": "Point", "coordinates": [-122.3129985, 47.3049294]}}, {"type": "Feature", "properties": {"id": 6178125831, "name": "Fish Island", "category": "pet", "tags": ["pet"], "sources": ["osm"]}, "geometry": {"type": "Point", "coordinates": [-122.3124889, 47.304722]}}, {"type": "Feature", "properties": {"id": 6178125836, "name": "Puppy Village", "category": "pet", "tags": ["pet"], "sources": ["osm", "overture"], "website": "http://www.puppyvillage.net/", "phone": "+12532427500", "address": "33130 Pacific Hwy S"}, "geometry": {"type": "Point", "coordinates": [-122.3128711, 47.3044201]}}, {"type": "Feature", "properties": {"id": 85689030, "name": "Ernie's Truck Stop", "category": "convenience", "tags": ["convenience"], "sources": ["osm"], "address": "33101 Pacific Highway South"}, "geometry": {"type": "Point", "coordinates": [-122.3140195, 47.3048662]}}, {"type": "Feature", "properties": {"id": "3d4b3074-32dc-4b5b-9146-9581d4871871", "name": "Sherwin-Williams", "category": "hardware", "tags": ["hardware"], "sources": ["overture"], "website": "https://www.sherwin-williams.com/store-locator/paint-store/federal-way/wa/708096", "phone": "+12538742188", "address": "32818 Pacific Hwy S", "stations": [{"stopCode": 68, "lines": "1", "name": "Federal Way Downtown Station", "walkingMeters": 1143, "walkingSeconds": 825, "band": 15}]}, "geometry": {"type": "Point", "coordinates": [-122.3130875, 47.3075256]}}, {"type": "Feature", "properties": {"id": "b5669f69-007b-4bb4-b890-842d0e93e31a", "name": "Justus Fashion", "category": "clothes", "tags": ["clothes", "womens"], "sources": ["overture"], "website": "https://justusfashion.com", "phone": "+12533872479", "address": "32829 Pacific Hwy S Unit 6164", "stations": [{"stopCode": 68, "lines": "1", "name": "Federal Way Downtown Station", "walkingMeters": 1444, "walkingSeconds": 1078, "band": 15}]}, "geometry": {"type": "Point", "coordinates": [-122.3142014, 47.3071213]}}, {"type": "Feature", "properties": {"id": 85677688, "name": "United States Post Office", "category": "post_office", "tags": ["post-office"], "sources": ["osm"], "address": "32829 Pacific Highway South", "stations": [{"stopCode": 68, "lines": "1", "name": "Federal Way Downtown Station", "walkingMeters": 1228, "walkingSeconds": 888, "band": 15}]}, "geometry": {"type": "Point", "coordinates": [-122.314387, 47.3071091]}}, {"type": "Feature", "properties": {"id": "9862dd29-5032-446f-a74e-32d879764ff1", "name": "United States Postal Service - Federal Way", "category": "post_office", "tags": ["post-office", "office"], "sources": ["overture"], "website": "https://tools.usps.com/find-location.htm?location=1363270", "phone": "+18002758777", "address": "32829 Pacific Hwy S", "stations": [{"stopCode": 68, "lines": "1", "name": "Federal Way Downtown Station", "walkingMeters": 1272, "walkingSeconds": 918, "band": 15}]}, "geometry": {"type": "Point", "coordinates": [-122.3143539, 47.3070831]}}]}