{"type": "FeatureCollection", "features": [{"type": "Feature", "properties": {"id": 362149556, "name": "Cowgirls Espresso", "category": "cafe", "tags": ["cafe", "coffee-shop", "coffee"], "sources": ["osm", "overture"], "website": "http://www.cowgirlsespresso.com", "phone": "(253) 236-4612", "address": "1734 Central Ave S"}, "geometry": {"type": "Point", "coordinates": [-122.2296385, 47.3635949]}}, {"type": "Feature", "properties": {"id": 5432451030, "name": "Central Ave. Pub & Eatery", "category": "pub", "tags": ["pub"], "sources": ["osm"]}, "geometry": {"type": "Point", "coordinates": [-122.2294427, 47.367035]}}, {"type": "Feature", "properties": {"id": 640711218, "name": "Bahn 12 by JP", "category": "restaurant", "tags": ["restaurant", "lao", "thai"], "sources": ["osm"], "address": "1734 Central Avenue South"}, "geometry": {"type": "Point", "coordinates": [-122.2291273, 47.3635679]}}, {"type": "Feature", "properties": {"id": "eb9dcc3e-6548-44d2-8956-abb6e4a61354", "name": "Denny's Restaurant", "category": "restaurant", "tags": ["restaurant"], "sources": ["overture"], "website": "https://www.dennys.com/", "phone": "+12538546621", "address": "1246 North Central Ave."}, "geometry": {"type": "Point", "coordinates": [-122.2292938, 47.3684044]}}, {"type": "Feature", "properties": {"id": "29107a53-25e2-40b6-a863-36f348b190cc", "name": "Bahn Sip Song Thai Bistro", "category": "restaurant", "tags": ["restaurant", "thai"], "sources": ["overture"], "website": "http://www.bahn12.com", "phone": "(253) 854-0042", "address": "1734 Central Ave S"}, "geometry": {"type": "Point", "coordinates": [-122.2291031, 47.3635216]}}, {"type": "Feature", "properties": {"id": "d87c1aab-7485-4dcd-aa45-96732a2647a2", "name": "Circle Chinese Cuisine", "category": "restaurant", "tags": ["restaurant", "chinese", "asian"], "sources": ["overture"], "website": "http://circlechinesecuisine.net", "phone": "+12068299812", "address": "1734 Central Ave S"}, "geometry": {"type": "Point", "coordinates": [-122.2292099, 47.3636513]}}, {"type": "Feature", "properties": {"id": "0c067b4f-2289-43c8-a794-94c4b5621454", "name": "The New Central Ave Pub", "category": "bar", "tags": ["bar", "sports"], "sources": ["overture"], "website": "http://www.centralavepub.com", "phone": "(253) 277-1847", "address": "1404 Central Ave S Unit 104"}, "geometry": {"type": "Point", "coordinates": [-122.2291718, 47.3669281]}}, {"type": "Feature", "properties": {"id": "c898c55e-2484-457a-85ef-90d9d76bb210", "name": "Bend of the River Apartment Homes", "category": "attraction", "tags": ["attraction", "landmark", "historical", "building"], "sources": ["overture"], "website": "http://www.weidner.com/kent/bend-of-the-river-apartment-homes", "phone": "+12538543989", "address": "8712 S 259th St"}, "geometry": {"type": "Point", "coordinates": [-122.2234802, 47.3696022]}}, {"type": "Feature", "properties": {"id": "7c74b40b-c6df-4470-8242-eb2fd538bd30", "name": "Madison on the River Apartments", "category": "attraction", "tags": ["attraction", "landmark", "historical", "building"], "sources": ["overture"], "website": "https://sites.google.com/view/morapartments/home?authuser=1", "phone": "+12536004027", "address": "8721 S 259th St"}, "geometry": {"type": "Point", "coordinates": [-122.2235336, 47.3694649]}}, {"type": "Feature", "properties": {"id": "b56bdf3c-be1d-471b-998b-1b874cf9f286", "name": "North Green River Park", "category": "park", "tags": ["park"], "sources": ["overture"], "website": "http://www.kingcounty.gov/.../parks-recreation/parks/.../green-river.aspx", "address": " "}, "geometry": {"type": "Point", "coordinates": [-122.220108, 47.365921]}}, {"type": "Feature", "properties": {"id": 25910956, "name": "Horsehead Bend Natural Area", "category": "park", "tags": ["park"], "sources": ["osm"]}, "geometry": {"type": "Point", "coordinates": [-122.2229518, 47.3673041]}}, {"type": "Feature", "properties": {"id": 5441373422, "name": "Twin Plastics", "category": "hardware", "tags": ["hardware"], "sources": ["osm"]}, "geometry": {"type": "Point", "coordinates": [-122.229083, 47.3658795]}}, {"type": "Feature", "properties": {"id": 5441507841, "name": "Foam Rubber City", "category": "hardware", "tags": ["hardware"], "sources": ["osm"]}, "geometry": {"type": "Point", "coordinates": [-122.2295063, 47.3658216]}}, {"type": "Feature", "properties": {"id": "d425df74-52bb-4147-be55-d3cb003037f3", "name": "Swift Tool Co.", "category": "hardware", "tags": ["hardware"], "sources": ["overture"], "website": "swifttool.com", "phone": "12538547777", "address": "1720 Central Ave S"}, "geometry": {"type": "Point", "coordinates": [-122.2285538, 47.364254]}}, {"type": "Feature", "properties": {"id": "e4bcafc9-ad2a-47b5-821b-332b39e265f7", "name": "Bmc West Building Materials Center", "category": "doityourself", "tags": ["doityourself", "building", "supply"], "sources": ["overture"], "website": "https://bmcwest.com", "phone": "+12538544990", "address": "1720 Central Ave S"}, "geometry": {"type": "Point", "coordinates": [-122.2285538, 47.364254]}}, {"type": "Feature", "properties": {"id": "bac9f308-eb3b-45cc-91d1-187b359ac71b", "name": "Yaran Halal Market & Restaurant \u0645\u0627\u0631\u06a9\u06cc\u062a \u0648 \u0631\u0633\u062a\u0648\u0631\u0627\u0646\u062a \u06cc\u0627\u0631\u0627\u0646", "category": "supermarket", "tags": ["supermarket"], "sources": ["overture"], "phone": "+12532467973", "address": "1404 Central Ave S"}, "geometry": {"type": "Point", "coordinates": [-122.2295609, 47.3670731]}}, {"type": "Feature", "properties": {"id": "6fce30b4-00d0-44fb-838c-2584a333ac23", "name": "DYWIDAG-Systems International USA Inc.", "category": "doityourself", "tags": ["doityourself", "building", "supply"], "sources": ["overture"], "website": "http://www.dsiamerica.com/", "phone": "2538599995", "address": "1314 Central Ave S"}, "geometry": {"type": "Point", "coordinates": [-122.2295837, 47.3679886]}}, {"type": "Feature", "properties": {"id": "d9f027ed-dea2-4845-afc4-11748d690114", "name": "Providence ElderPlace Kent - South", "category": "clinic", "tags": ["clinic", "medical"], "sources": ["overture"], "website": "https://www.providence.org/locations/wa/elderplace-kent-south?ls=location&y_source=1_MTU5OTAxNDEtNzE1LWxvY2F0aW9uLndlYnNpdGU=", "phone": "2063205325", "address": "1404 Central Ave S Ste 110"}, "geometry": {"type": "Point", "coordinates": [-122.229248, 47.3669395]}}, {"type": "Feature", "properties": {"id": 5432451032, "name": "Bounce It Up", "category": "fitness_centre", "tags": ["fitness-centre"], "sources": ["osm"]}, "geometry": {"type": "Point", "coordinates": [-122.229451, 47.3665436]}}]}