{"type": "FeatureCollection", "features": [{"type": "Feature", "properties": {"id": 93650099, "name": "Subway", "category": "fast_food", "tags": ["fast-food", "sandwich", "takeaway", "restaurant"], "sources": ["osm", "overture"], "website": "https://restaurants.subway.com/united-states/wa/shoreline/18501-aurora-ave-north", "phone": "+12065427394", "address": "18501 Aurora Ave North", "hours": "08:00-21:00"}, "geometry": {"type": "Point", "coordinates": [-122.3464379, 47.7638297]}}, {"type": "Feature", "properties": {"id": 3063785717, "name": "Starbucks", "category": "cafe", "tags": ["cafe", "coffee-shop", "takeaway", "wifi", "coffee"], "sources": ["osm", "overture"], "website": "https://www.starbucks.com/store-locator/store/7371/", "phone": "+12065422093", "address": "18336 Midvale Ave N"}, "geometry": {"type": "Point", "coordinates": [-122.3445604, 47.7625015]}}, {"type": "Feature", "properties": {"id": "c438aeaf-301b-4c1c-9ae8-a8a11f206f81", "name": "Starbucks", "category": "cafe", "tags": ["cafe", "coffee"], "sources": ["overture"], "website": "https://www.starbucks.com/store-locator/store/1022911", "phone": "2065468000", "address": "18325 Aurora Ave N"}, "geometry": {"type": "Point", "coordinates": [-122.3477936, 47.7619591]}}, {"type": "Feature", "properties": {"id": 761805568, "name": "Darrell's Tavern", "category": "bar", "tags": ["bar", "pub", "bar-and-grill"], "sources": ["osm", "overture"], "website": "http://www.darrellstavern.com/", "phone": "+12065426688", "address": "18041 Aurora Ave N"}, "geometry": {"type": "Point", "coordinates": [-122.3469035, 47.7606641]}}, {"type": "Feature", "properties": {"id": 1086723127, "name": "Thai Bistro", "category": "restaurant", "tags": ["restaurant", "thai"], "sources": ["osm"], "website": "https://www.thaibistro.us/"}, "geometry": {"type": "Point", "coordinates": [-122.3441936, 47.7625053]}}, {"type": "Feature", "properties": {"id": 6814643596, "name": "Menchie's", "category": "ice_cream", "tags": ["ice-cream", "frozen-yogurt"], "sources": ["osm"], "hours": "Mo-Su 14:00-21:00"}, "geometry": {"type": "Point", "coordinates": [-122.34503, 47.7616336]}}, {"type": "Feature", "properties": {"id": 3179505959, "name": "Little Caesars", "category": "fast_food", "tags": ["fast-food", "pizza", "takeaway"], "sources": ["osm"], "website": "https://littlecaesars.com/en-us/store/8878/"}, "geometry": {"type": "Point", "coordinates": [-122.3445722, 47.7619534]}}, {"type": "Feature", "properties": {"id": 5341407639, "name": "Kobe Bento Teriyaki & Wok", "category": "restaurant", "tags": ["restaurant", "asian"], "sources": ["osm"], "phone": "+1-206-533-1927"}, "geometry": {"type": "Point", "coordinates": [-122.344576, 47.7618997]}}, {"type": "Feature", "properties": {"id": 11899589147, "name": "Sky Coffee", "category": "cafe", "tags": ["cafe"], "sources": ["osm"], "website": "https://www.skynursery.com/coffee-stand/", "hours": "Mo-Su 09:00-17:00"}, "geometry": {"type": "Point", "coordinates": [-122.3446697, 47.7653299]}}, {"type": "Feature", "properties": {"id": 302145339, "name": "Jack in the Box", "category": "fast_food", "tags": ["fast-food", "burger", "takeaway", "drive-through", "fast", "food"], "sources": ["osm", "overture"], "website": "https://www.jackinthebox.com", "phone": "+12065461978", "address": "18213 Aurora Ave N", "hours": "24/7"}, "geometry": {"type": "Point", "coordinates": [-122.3464355, 47.7610654]}}, {"type": "Feature", "properties": {"id": 61485275, "name": "Spiro's Pizza & Pasta", "category": "restaurant", "tags": ["restaurant", "pizza"], "sources": ["osm"], "website": "https://ilovespiros.com/", "address": "18411 Aurora Avenue North"}, "geometry": {"type": "Point", "coordinates": [-122.3464049, 47.7627823]}}, {"type": "Feature", "properties": {"id": "33adac5e-ed9b-44fe-a7c9-36eaba60986c", "name": "Little Caesars Pizza", "category": "restaurant", "tags": ["restaurant", "pizza", "fast-food"], "sources": ["overture"], "website": "https://littlecaesars.com/en-us/store/8878", "phone": "+12068017656", "address": "18336 Aurora Ave N"}, "geometry": {"type": "Point", "coordinates": [-122.3446503, 47.7620888]}}, {"type": "Feature", "properties": {"id": "c327b399-a286-4a3c-b369-d15ebe922ed5", "name": "Spirit Nails", "category": "restaurant", "tags": ["restaurant"], "sources": ["overture"], "website": "https://spiritanimalco.com", "address": "18820 Aurora Ave N Ste 103"}, "geometry": {"type": "Point", "coordinates": [-122.3454971, 47.7664032]}}, {"type": "Feature", "properties": {"id": "f3e22088-76d8-4442-b1a4-c1f71935e180", "name": "John Thang Llc", "category": "restaurant", "tags": ["restaurant"], "sources": ["overture"], "address": "18325 Aurora Ave N"}, "geometry": {"type": "Point", "coordinates": [-122.3477478, 47.7619133]}}, {"type": "Feature", "properties": {"id": "819e9683-0de0-43e5-b249-a1851f84e82c", "name": "Spiro's Pizza and Pasta", "category": "restaurant", "tags": ["restaurant", "pizza", "italian"], "sources": ["overture"], "website": "http://www.Ilovespiros.com/", "phone": "+12065462900", "address": "18411 Aurora Ave N"}, "geometry": {"type": "Point", "coordinates": [-122.3463974, 47.7627182]}}, {"type": "Feature", "properties": {"id": "b69ee741-b355-4c93-a2f6-8c05afccfe42", "name": "TNT Seafood Restaurant", "category": "restaurant", "tags": ["restaurant", "chinese", "seafood"], "sources": ["overture"], "phone": "+12065423438", "address": "18320 Aurora Ave N"}, "geometry": {"type": "Point", "coordinates": [-122.3457642, 47.7617493]}}, {"type": "Feature", "properties": {"id": "e9437354-60b5-42c8-a11b-32c2182b458e", "name": "Kobe Bento Teriyaki", "category": "restaurant", "tags": ["restaurant", "japanese", "asian"], "sources": ["overture"], "website": "http://kobeteriyaki.com/", "phone": "+12065331927", "address": "18336 Aurora Ave N Ste 106"}, "geometry": {"type": "Point", "coordinates": [-122.3446808, 47.762001]}}, {"type": "Feature", "properties": {"id": "751ee990-41c5-41a9-b2d3-70e35cef0bab", "name": "Thai Bistro Shoreline", "category": "restaurant", "tags": ["restaurant", "thai", "asian"], "sources": ["overture"], "website": "https://www.thaibistro.us/", "phone": "+12065336200", "address": "18336 Aurora Ave N"}, "geometry": {"type": "Point", "coordinates": [-122.344223, 47.7624283]}}, {"type": "Feature", "properties": {"id": "7201bd27-43b4-4fd9-8531-1e29b8ed76ee", "name": "Caliburger Shoreline", "category": "restaurant", "tags": ["restaurant", "burger"], "sources": ["overture"], "phone": "12068017562", "address": "18336 Aurora Ave N"}, "geometry": {"type": "Point", "coordinates": [-122.3444824, 47.7621231]}}, {"type": "Feature", "properties": {"id": 11068208636, "name": "Welcome Stone", "category": "artwork", "tags": ["artwork"], "sources": ["osm"]}, "geometry": {"type": "Point", "coordinates": [-122.3493108, 47.7635071]}}, {"type": "Feature", "properties": {"id": 11436249268, "name": "Richmond Highlands", "category": "artwork", "tags": ["artwork"], "sources": ["osm"]}, "geometry": {"type": "Point", "coordinates": [-122.3464155, 47.7628401]}}, {"type": "Feature", "properties": {"id": 682172210, "name": "Shoreline Historical Museum", "category": "museum", "tags": ["museum", "history"], "sources": ["osm", "overture"], "website": "http://www.youtube.com/watch?v=-ayEzEkFuag&feature=share", "phone": "+12065427111", "address": "18501 Linden Ave N"}, "geometry": {"type": "Point", "coordinates": [-122.3487909, 47.7634495]}}, {"type": "Feature", "properties": {"id": "cf81de90-946b-4c30-8912-27ce07450b7f", "name": "192 Shoreline", "category": "attraction", "tags": ["attraction", "landmark", "historical", "building"], "sources": ["overture"], "website": "https://www.192shoreline.com/?utm_knock=fb", "phone": "+14253213415", "address": "19022 Aurora Ave N"}, "geometry": {"type": "Point", "coordinates": [-122.3453827, 47.7674026]}}, {"type": "Feature", "properties": {"id": "d846a8ef-36a3-4edf-9810-33a384bea6d9", "name": "Canopy Apartments", "category": "attraction", "tags": ["attraction", "landmark", "historical", "building"], "sources": ["overture"], "website": "https://www.sheaapartments.com/apartments/canopy/?utm_source=facebook&utm_medium=organic", "phone": "+18775355642", "address": "18815 Aurora Ave N"}, "geometry": {"type": "Point", "coordinates": [-122.3465271, 47.7650871]}}, {"type": "Feature", "properties": {"id": "27724706-2e0a-4445-b6bd-0f2abce4f75e", "name": "Echo Lake Apartments", "category": "attraction", "tags": ["attraction", "landmark", "historical", "building"], "sources": ["overture"], "website": "http://echolakeapartments.com/", "phone": "+12066725275", "address": "1150 N 192nd St"}, "geometry": {"type": "Point", "coordinates": [-122.3442612, 47.7689857]}}, {"type": "Feature", "properties": {"id": "1d0b3417-73ad-4b5c-a351-bbb90b4bd815", "name": "Richmond Highlands Park", "category": "park", "tags": ["park"], "sources": ["overture"], "phone": "+12065421220", "address": "18407 Aurora Ave N"}, "geometry": {"type": "Point", "coordinates": [-122.3465195, 47.762413]}}, {"type": "Feature", "properties": {"id": 368362183, "name": "7-Eleven", "category": "convenience", "tags": ["convenience"], "sources": ["osm", "overture"], "website": "https://www.7-eleven.com/", "phone": "+12065463637", "address": "1232 N 185th Street", "hours": "24/7"}, "geometry": {"type": "Point", "coordinates": [-122.3425759, 47.7636326]}}, {"type": "Feature", "properties": {"id": 761807351, "name": "Fred Meyer", "category": "supermarket", "tags": ["supermarket", "wifi"], "sources": ["osm", "overture"], "website": "https://www.fredmeyer.com/stores/grocery/wa/shoreline/shoreline/701/00013?cid=loc_70100013_fb", "phone": "+12065460720", "address": "18325 Aurora Ave N", "hours": "Mo-Su 06:00-22:00"}, "geometry": {"type": "Point", "coordinates": [-122.3474936, 47.7622039]}}, {"type": "Feature", "properties": {"id": 4062668292, "name": "T-Mobile", "category": "mobile_phone", "tags": ["mobile-phone", "mobile"], "sources": ["osm", "overture"], "website": "https://www.t-mobile.com/stores/bd/t-mobile-shoreline-wa-98133-4sig?utm_source=facebook&utm_medium=lastmile&utm_campaign=4SIG", "phone": "+12065735586", "address": "18336 Aurora Ave N"}, "geometry": {"type": "Point", "coordinates": [-122.345157, 47.7616421]}}, {"type": "Feature", "properties": {"id": 93650085, "name": "Dunn Lumber", "category": "doityourself", "tags": ["doityourself"], "sources": ["osm"], "address": "1108 North 185th Street"}, "geometry": {"type": "Point", "coordinates": [-122.345186, 47.7638311]}}, {"type": "Feature", "properties": {"id": "87ce2e24-6ac6-4310-9c55-c0cec8fd9015", "name": "Mallory Paint Store", "category": "doityourself", "tags": ["doityourself", "building", "supply"], "sources": ["overture"], "website": "http://mallorypaint.com/", "phone": "+12065462468", "address": "18811 Aurora Ave N"}, "geometry": {"type": "Point", "coordinates": [-122.3465729, 47.7653275]}}, {"type": "Feature", "properties": {"id": "b53af1b9-34c4-4178-b55b-cc300c21a89e", "name": "State Liquor Store", "category": "alcohol", "tags": ["alcohol"], "sources": ["overture"], "website": "http://liq.wa.gov", "phone": "(206) 533-6240", "address": "18336 Aurora Ave N"}, "geometry": {"type": "Point", "coordinates": [-122.344429, 47.7620659]}}, {"type": "Feature", "properties": {"id": "dae94ff3-98aa-404c-9c76-9cbf5b4e84fb", "name": "Washington State Cannabis Group", "category": "cannabis", "tags": ["cannabis", "clinic"], "sources": ["overture"], "website": "http://www.washingtonstatecannabis.com/", "phone": "2066189091", "address": "18820 Aurora Ave N Ste 104B"}, "geometry": {"type": "Point", "coordinates": [-122.3455658, 47.7661476]}}, {"type": "Feature", "properties": {"id": "1d7f077c-aa94-44ba-b841-01de77c14fee", "name": "Smoke Time", "category": "pharmacy", "tags": ["pharmacy"], "sources": ["overture"], "phone": "+12066295642", "address": "18820 Aurora Ave N"}, "geometry": {"type": "Point", "coordinates": [-122.3455276, 47.7663536]}}, {"type": "Feature", "properties": {"id": "96987399-b4a5-4466-8474-61b6613f61bf", "name": "Bartell Drugs", "category": "pharmacy", "tags": ["pharmacy"], "sources": ["overture"], "website": "https://www.bartelldrugs.com/store/185th-and-aurora/", "phone": "+12065422678", "address": "18420 Aurora Ave N"}, "geometry": {"type": "Point", "coordinates": [-122.3449097, 47.7628593]}}, {"type": "Feature", "properties": {"id": 3179505957, "name": "Bank of America", "category": "bank", "tags": ["bank"], "sources": ["osm"]}, "geometry": {"type": "Point", "coordinates": [-122.3474562, 47.7639381]}}, {"type": "Feature", "properties": {"id": 309273904, "name": "Chase", "category": "bank", "tags": ["bank"], "sources": ["osm"], "website": "https://locator.chase.com/wa/shoreline/18200-midvale-ave-n", "phone": "+1-206-542-3161", "address": "18200 Midvale Avenue North", "hours": "Mo-Fr 09:00-17:00; Sa 09:00-13:00; Su closed"}, "geometry": {"type": "Point", "coordinates": [-122.3451888, 47.7610684]}}, {"type": "Feature", "properties": {"id": 4062681289, "name": "BECU", "category": "bank", "tags": ["bank"], "sources": ["osm"]}, "geometry": {"type": "Point", "coordinates": [-122.344574, 47.7621447]}}, {"type": "Feature", "properties": {"id": 5341404084, "name": "North City Post Office", "category": "post_office", "tags": ["post-office"], "sources": ["osm"], "address": "18336 Aurora Avenue North"}, "geometry": {"type": "Point", "coordinates": [-122.344565, 47.7618485]}}, {"type": "Feature", "properties": {"id": "e0ce6ef4-27ce-4333-9cf8-b9a1e3a833d3", "name": "United States Postal Service", "category": "post_office", "tags": ["post-office", "office"], "sources": ["overture"], "website": "https://tools.usps.com/locations/details/1516055?utm_source=website-url&utm_medium=search&utm_campaign=yext", "phone": "8002758777", "address": "18336 Aurora Ave N Ste 105"}, "geometry": {"type": "Point", "coordinates": [-122.344841, 47.7619972]}}, {"type": "Feature", "properties": {"id": "54192a11-da57-48eb-b8b8-6a8416f5d1b2", "name": "Bank of America Financial Center", "category": "bank", "tags": ["bank", "credit", "union"], "sources": ["overture"], "website": "https://locators.bankofamerica.com/wa/shoreline/financial-centers-shoreline-10993.html", "phone": "2065423166", "address": "18525 Firlands Way N"}, "geometry": {"type": "Point", "coordinates": [-122.3475266, 47.7638931]}}, {"type": "Feature", "properties": {"id": "9ca3a868-8ae0-4dc4-85fb-78869fc9a844", "name": "U.S. Bank ATM", "category": "bank", "tags": ["bank", "credit", "union"], "sources": ["overture"], "website": "http://www.usbank.com/locations", "phone": "8008722657", "address": "18325 Aurora Ave N"}, "geometry": {"type": "Point", "coordinates": [-122.347229, 47.7619171]}}, {"type": "Feature", "properties": {"id": "1c81ea1d-8eee-40b4-8aff-e256fd579287", "name": "Chase Bank", "category": "bank", "tags": ["bank", "credit", "union"], "sources": ["overture"], "website": "https://locator.chase.com/wa/shoreline/18200-midvale-ave-n?jp_cmp=rb%2FLocalListings%2Faff%2Fbranch%2Fna&y_source=1_MjAzODI1NC01NTktbG9jYXRpb24ud2Vic2l0ZQ%3D%3D", "phone": "+12065423161", "address": "18200 Midvale Ave N"}, "geometry": {"type": "Point", "coordinates": [-122.3453064, 47.7610893]}}, {"type": "Feature", "properties": {"id": 4062681389, "name": "Orangetheory Fitness", "category": "fitness_centre", "tags": ["fitness-centre", "gym"], "sources": ["osm", "overture"], "website": "https://www.orangetheory.com/en-us/locations/shoreline-washington-0571?utm_medium=seo&utm_source=fb&utm_term=corporate&utm_campaign=soci", "phone": "+12065041511", "address": "18336 Aurora Ave N #108"}, "geometry": {"type": "Point", "coordinates": [-122.344577, 47.7620183]}}, {"type": "Feature", "properties": {"id": 238583948, "name": "Dale Turner Family YMCA", "category": "sports_centre", "tags": ["sports-centre"], "sources": ["osm"], "address": "19290 Aurora Avenue North", "hours": "Mo-Th 06:00-21:00, Fr 06:00-20:00, Sa 07:00-17:00, Su 08:00-17:00"}, "geometry": {"type": "Point", "coordinates": [-122.3453267, 47.7692612]}}, {"type": "Feature", "properties": {"id": "37ffbca5-65fe-4942-afc7-2c885fcaced2", "name": "YMCA Shorelline", "category": "fitness_centre", "tags": ["fitness-centre", "gym"], "sources": ["overture"], "website": "http://www.seattleymca.org/locations/dale-turner-family-ymca", "phone": "(206) 629-4819", "address": "19290 Aurora Ave N"}, "geometry": {"type": "Point", "coordinates": [-122.3454361, 47.769352]}}, {"type": "Feature", "properties": {"id": "8d422991-f211-4a7a-9aaf-5f63f89c2698", "name": "Spartan Martial Arts - Edmonds/Shoreline", "category": "fitness_centre", "tags": ["fitness-centre", "gym"], "sources": ["overture"], "phone": "+12067154360", "address": "19290 Aurora Ave N"}, "geometry": {"type": "Point", "coordinates": [-122.3452835, 47.7692337]}}, {"type": "Feature", "properties": {"id": "5aff512d-86dd-4701-ba51-74898b22d118", "name": "Get Strong First", "category": "fitness_centre", "tags": ["fitness-centre", "gym"], "sources": ["overture"], "website": "http://getstrongfirst.com/", "phone": "+12065424833", "address": "18501 Aurora Ave N B"}, "geometry": {"type": "Point", "coordinates": [-122.3463211, 47.7638054]}}]}