{"type": "FeatureCollection", "features": [{"type": "Feature", "properties": {"id": 802745802, "name": "Shake N' Go", "category": "fast_food", "tags": ["fast-food", "burger", "fast", "food", "american"], "sources": ["osm", "overture"], "website": "https://shakengo.menu11.com", "phone": "+14254826267", "address": "19131 144th Ave NE"}, "geometry": {"type": "Point", "coordinates": [-122.1480569, 47.7657424]}}, {"type": "Feature", "properties": {"id": "ef8db01c-8340-4366-aea2-75005fec3758", "name": "Spinderella Studios", "category": "restaurant", "tags": ["restaurant"], "sources": ["overture"], "website": "http://www.spinderellastudios.com", "phone": "+14252212052", "address": "19151 144th Ave NE"}, "geometry": {"type": "Point", "coordinates": [-122.148407, 47.7662239]}}, {"type": "Feature", "properties": {"id": "6355bda5-9bb0-4b1d-bc61-d56c0b16b32b", "name": "Dirty Bucket Brewing Co.", "category": "bar", "tags": ["bar", "brewery"], "sources": ["overture"], "phone": "4259495224", "address": "19151 144th Ave Ne  # A"}, "geometry": {"type": "Point", "coordinates": [-122.1482773, 47.7662659]}}, {"type": "Feature", "properties": {"id": "e79b7dc8-f9d4-4047-8052-7170e5b53f99", "name": "Trophy Cupcakes & Party - Woodinville Bakery - Not A Retail Location", "category": "bakery", "tags": ["bakery"], "sources": ["overture"], "website": "https://www.trophycupcakes.com", "phone": "12066327020", "address": "19510 144th Ave Ne  Ste B1"}, "geometry": {"type": "Point", "coordinates": [-122.1463623, 47.7693481]}}, {"type": "Feature", "properties": {"id": "49b3de0a-6653-4e39-a77d-68cdef398228", "name": "Perkins American Food Co.", "category": "bakery", "tags": ["bakery"], "sources": ["overture"], "website": "http://www.perkinsrestaurants.com", "phone": "(425) 488-3535", "address": "19510 144th Ave NE"}, "geometry": {"type": "Point", "coordinates": [-122.1462936, 47.769352]}}, {"type": "Feature", "properties": {"id": "684ad42c-66f6-43d4-aec0-732854e85953", "name": "Triplehorn Brewing Co", "category": "bar", "tags": ["bar", "brewery"], "sources": ["overture"], "website": "https://www.TriplehornBrewing.com/", "phone": "+14252427979", "address": "19510 144th Ave NE Ste E6"}, "geometry": {"type": "Point", "coordinates": [-122.1455536, 47.7691269]}}, {"type": "Feature", "properties": {"id": "82f439eb-ad95-4eb7-8ef2-1d95144e059e", "name": "Bosk Brew Works", "category": "bar", "tags": ["bar", "brewery"], "sources": ["overture"], "website": "boskbrewworks.com", "phone": "14254194782", "address": "14350 NE 193rd Pl"}, "geometry": {"type": "Point", "coordinates": [-122.1493301, 47.7684097]}}, {"type": "Feature", "properties": {"id": "7d3f52ae-03a7-44d0-bbac-7bf1828d2c83", "name": "Alexandria Nicole Cellars", "category": "bar", "tags": ["bar", "wine"], "sources": ["overture"], "website": "https://www.alexandrianicolecellars.com", "phone": "+14254832968", "address": "19501 144th Ave NE"}, "geometry": {"type": "Point", "coordinates": [-122.1493912, 47.7693939]}}, {"type": "Feature", "properties": {"id": "f75f2b7c-e7f2-4967-b02f-8e2f1e34b076", "name": "Passing Time Winery", "category": "bar", "tags": ["bar"], "sources": ["overture"], "website": "https://www.passingtime.com", "phone": "14252415670", "address": "18808 142nd Ave NE"}, "geometry": {"type": "Point", "coordinates": [-122.1492081, 47.7640572]}}, {"type": "Feature", "properties": {"id": "2e895576-196a-4d97-9d0d-794eea37975d", "name": "Hops & Seed Brewing Company", "category": "bar", "tags": ["bar", "brewery"], "sources": ["overture"], "website": "http://hopsandseed.com", "phone": "14252245327", "address": "18800 142nd Ave Ne  Ste 5b"}, "geometry": {"type": "Point", "coordinates": [-122.1495972, 47.7640495]}}, {"type": "Feature", "properties": {"id": "9b0bec00-08a8-45e2-8a7e-a8c2920ab1fa", "name": "Greenbrier Heights Senior", "category": "attraction", "tags": ["attraction", "landmark", "historical", "building"], "sources": ["overture"], "phone": "+14254814497", "address": "14390 NE 189th Pl"}, "geometry": {"type": "Point", "coordinates": [-122.1483154, 47.7647285]}}, {"type": "Feature", "properties": {"id": "2ddba469-9862-4ef7-a7ad-97af510e9e55", "name": "Locust Cider Woodinville", "category": "museum", "tags": ["museum", "pizza"], "sources": ["overture"], "website": "http://www.locustcider.com/", "phone": "4258922075", "address": "19151 144th Ave NE"}, "geometry": {"type": "Point", "coordinates": [-122.1485748, 47.766243]}}, {"type": "Feature", "properties": {"id": "c12c3664-0c57-43d8-bd5f-17426c257e94", "name": "Greenbriar Heights Family Apartments", "category": "attraction", "tags": ["attraction", "landmark", "historical", "building"], "sources": ["overture"], "website": "http://www.quantumms.com/woodinville-wa/greenbrier-family", "phone": "+14254248882", "address": "18746 144th Ave NE"}, "geometry": {"type": "Point", "coordinates": [-122.147644, 47.7635078]}}, {"type": "Feature", "properties": {"id": "f43b1aa6-a036-42ac-86c9-d2f3d10fe68f", "name": "Howard Mandville Gallery", "category": "gallery", "tags": ["gallery", "art"], "sources": ["overture"], "website": "http://www.howardmandville.com/", "phone": "+14254888212", "address": "19501 144th Ave NE"}, "geometry": {"type": "Point", "coordinates": [-122.1493912, 47.7693939]}}, {"type": "Feature", "properties": {"id": "cf6bd272-4009-4309-8bae-5d28735f34f7", "name": "Chateau Woods", "category": "attraction", "tags": ["attraction", "landmark", "historical", "building"], "sources": ["overture"], "website": "http://www.cwliving.com/", "phone": "+14256867411", "address": "18250 142nd Ave NE"}, "geometry": {"type": "Point", "coordinates": [-122.1488953, 47.760437]}}, {"type": "Feature", "properties": {"id": 1368163196, "name": "Greenbriar Neighborhood Park", "category": "park", "tags": ["park"], "sources": ["osm"]}, "geometry": {"type": "Point", "coordinates": [-122.1481337, 47.7633569]}}, {"type": "Feature", "properties": {"id": "47fda7c8-7cb2-442a-9706-262172127755", "name": "Tanglin Ridge Park", "category": "park", "tags": ["park"], "sources": ["overture"], "address": "NE 185th St"}, "geometry": {"type": "Point", "coordinates": [-122.1412735, 47.7616158]}}, {"type": "Feature", "properties": {"id": "a4965f4d-3f2b-488e-b060-b58f331312b7", "name": "DiStefano Winery", "category": "wine", "tags": ["wine", "winery"], "sources": ["overture"], "website": "http://www.distefanowinery.com/", "phone": "+14254871648", "address": "18648 142nd Ave NE"}, "geometry": {"type": "Point", "coordinates": [-122.1497803, 47.7625999]}}, {"type": "Feature", "properties": {"id": "b01dd172-97d5-485d-ab5e-34d8d346d229", "name": "William Church Winery", "category": "wine", "tags": ["wine", "winery"], "sources": ["overture"], "website": "http://www.williamchurchwinery.com/", "phone": "(425) 482-2510", "address": "19495 144th Ave NE"}, "geometry": {"type": "Point", "coordinates": [-122.1483383, 47.7686501]}}, {"type": "Feature", "properties": {"id": "887b3b6f-322f-4438-b52f-c1eb85175517", "name": "Lachini Vineyards", "category": "wine", "tags": ["wine", "winery"], "sources": ["overture"], "website": "https://www.lachinivineyards.com/contact-us.html", "address": "14455 NE North Woodinville Way"}, "geometry": {"type": "Point", "coordinates": [-122.1465607, 47.7651443]}}, {"type": "Feature", "properties": {"id": 5479550334, "name": "Pondera Winery", "category": "wine", "tags": ["wine", "winery"], "sources": ["osm", "overture"], "website": "http://www.ponderawinery.com/", "phone": "+12064597721", "address": "19501 144th Ave NE B400"}, "geometry": {"type": "Point", "coordinates": [-122.149467, 47.7695487]}}, {"type": "Feature", "properties": {"id": 6673322624, "name": "Armstrong Family Winery", "category": "wine", "tags": ["wine", "winery"], "sources": ["osm", "overture"], "website": "http://www.armstrongwinery.com/", "phone": "+14254878000", "address": "19151 144th Ave NE Ste i"}, "geometry": {"type": "Point", "coordinates": [-122.1482937, 47.7664348]}}, {"type": "Feature", "properties": {"id": 6673322633, "name": "Page Cellars", "category": "wine", "tags": ["wine", "winery"], "sources": ["osm", "overture"], "website": "http://pagecellars.com/", "phone": "+14258777789", "address": "19495 144th Ave NE Suite A-160"}, "geometry": {"type": "Point", "coordinates": [-122.1498718, 47.768777]}}, {"type": "Feature", "properties": {"id": 6673322634, "name": "Elevation Cellars", "category": "wine", "tags": ["wine", "winery"], "sources": ["osm", "overture"], "website": "http://www.elevationcellars.com/", "phone": "+14254832800", "address": "19495 144th Ave NE"}, "geometry": {"type": "Point", "coordinates": [-122.1486991, 47.7687748]}}, {"type": "Feature", "properties": {"id": 6673322635, "name": "Tinte Cellars", "category": "wine", "tags": ["wine"], "sources": ["osm"], "website": "https://tintecellars.com/"}, "geometry": {"type": "Point", "coordinates": [-122.1484025, 47.7687722]}}, {"type": "Feature", "properties": {"id": "67184fa2-3f24-4b71-b7f8-604387d5ea86", "name": "Ancestry Cellars", "category": "wine", "tags": ["wine", "winery"], "sources": ["overture"], "website": "http://ancestrycellars.com/", "phone": "+12066079115", "address": "19510 144th Ave NE c1"}, "geometry": {"type": "Point", "coordinates": [-122.1464081, 47.7694206]}}, {"type": "Feature", "properties": {"id": "7c1de7b2-ea67-4a59-9759-5a3fdb35dedb", "name": "Chelan Ridge Winery Woodinville Tasting Room", "category": "wine", "tags": ["wine", "winery"], "sources": ["overture"], "website": "https://www.chelanridgewinery.com/woodinville/", "phone": "+14256860700", "address": "19151 144th Ave NE"}, "geometry": {"type": "Point", "coordinates": [-122.1484756, 47.766243]}}, {"type": "Feature", "properties": {"id": "3f01656c-d2a2-4e1d-af31-7d1da1b186b2", "name": "Five Star Cellars", "category": "wine", "tags": ["wine", "winery"], "sources": ["overture"], "website": "https://www.fivestarcellars.com/", "phone": "+14252862198", "address": "19151 144th Ave NE"}, "geometry": {"type": "Point", "coordinates": [-122.1482697, 47.7662544]}}, {"type": "Feature", "properties": {"id": "9154f201-82a6-4ab5-aaf5-ed39fca5f094", "name": "Sol Stone Winery", "category": "wine", "tags": ["wine", "winery"], "sources": ["overture"], "phone": "+14254194401", "address": "19151 144th Ave Ne Ste The"}, "geometry": {"type": "Point", "coordinates": [-122.1482773, 47.7662659]}}, {"type": "Feature", "properties": {"id": "067bcfd9-2e4d-4692-9101-c2d130c087a4", "name": "Alluvium Cellars", "category": "wine", "tags": ["wine", "winery"], "sources": ["overture"], "phone": "4253105070", "address": "19151 144th Ave Ne  Ste J"}, "geometry": {"type": "Point", "coordinates": [-122.1482773, 47.7662659]}}, {"type": "Feature", "properties": {"id": "97f5c2da-4f23-40e6-a540-69a65b5a8cc6", "name": "Welcome Road Winery", "category": "wine", "tags": ["wine", "winery"], "sources": ["overture"], "website": "http://www.welcomeroadwinery.com", "phone": "(206) 486-0788", "address": "19151 144th Ave NE"}, "geometry": {"type": "Point", "coordinates": [-122.1482468, 47.7664108]}}, {"type": "Feature", "properties": {"id": "c6f745a1-d67a-4fdb-8395-641a864b4473", "name": "Sky River Mead and Wine", "category": "wine", "tags": ["wine", "winery"], "sources": ["overture"], "website": "http://www.skyrivermead.com/", "phone": "+14252423815", "address": "19151 144th Ave NE"}, "geometry": {"type": "Point", "coordinates": [-122.1483459, 47.7662964]}}, {"type": "Feature", "properties": {"id": "5f64b6a0-76e1-4698-ba0a-7091aa4d5d1a", "name": "Beaumont Cellars", "category": "wine", "tags": ["wine", "winery"], "sources": ["overture"], "website": "http://www.beaumontcellars.com", "phone": "+14254826349", "address": "19151 144th Ave NE"}, "geometry": {"type": "Point", "coordinates": [-122.1483002, 47.7660866]}}, {"type": "Feature", "properties": {"id": "cdd180f5-38af-48b7-b06c-f2a232498b4f", "name": "Gard Vintners Woodinville", "category": "wine", "tags": ["wine", "winery"], "sources": ["overture"], "website": "http://www.gardwine.com/", "phone": "+14254153813", "address": "19151 144th Ave NE d"}, "geometry": {"type": "Point", "coordinates": [-122.1482544, 47.7661476]}}, {"type": "Feature", "properties": {"id": "d7d2ac4b-2819-4243-a0bb-2a22f91f87c4", "name": "Mattress City", "category": "furniture", "tags": ["furniture"], "sources": ["overture"], "website": "https://www.mattress-city.com/woodinville-wa", "phone": "+14252090599", "address": "14522 NE North Woodinville Way"}, "geometry": {"type": "Point", "coordinates": [-122.1454163, 47.7658539]}}, {"type": "Feature", "properties": {"id": "3a6b2cb8-41d8-49bd-9737-1266a6a6530e", "name": "Emerald State Drywall", "category": "doityourself", "tags": ["doityourself", "building", "supply"], "sources": ["overture"], "website": "http://www.emeraldstatedrywall.com", "phone": "(425) 419-4433", "address": "14522 NE North Woodinville Way Ste 101B"}, "geometry": {"type": "Point", "coordinates": [-122.1454086, 47.7658653]}}, {"type": "Feature", "properties": {"id": "3d5ca63d-dff9-460a-abae-118e5d259577", "name": "Play Alive", "category": "toys", "tags": ["toys"], "sources": ["overture"], "website": "http://www.playvisions.com/", "phone": "+14254822836", "address": "19180 144th Ave NE"}, "geometry": {"type": "Point", "coordinates": [-122.1456528, 47.7667885]}}, {"type": "Feature", "properties": {"id": "a03df9a6-d9c9-4e8d-9570-cdfb22a2ea39", "name": "William Grassie Wine Estates", "category": "wine", "tags": ["wine", "winery"], "sources": ["overture"], "website": "https://www.wmgrassiewines.com/", "phone": "+19134614601", "address": "19510 144th Ave NE"}, "geometry": {"type": "Point", "coordinates": [-122.1464005, 47.769413]}}, {"type": "Feature", "properties": {"id": "4e748f1e-7d31-4b3f-8e10-057fd88ca815", "name": "Quiddity Wines", "category": "wine", "tags": ["wine", "winery"], "sources": ["overture"], "website": "https://QuiddityWines.com/", "phone": "+14258948003", "address": "19510 144th Ave NE"}, "geometry": {"type": "Point", "coordinates": [-122.1464005, 47.769413]}}, {"type": "Feature", "properties": {"id": "98d780c7-1727-48ff-a5b0-3306f84c7e5b", "name": "TruthTeller Winery", "category": "wine", "tags": ["wine", "winery"], "sources": ["overture"], "website": "http://www.truthtellerwinery.com", "phone": "(425) 785-9217", "address": "19510 144th Ave NE"}, "geometry": {"type": "Point", "coordinates": [-122.1464691, 47.7693977]}}, {"type": "Feature", "properties": {"id": "b148a257-52ba-4723-a994-3b20b52ced18", "name": "Wild Alaskan", "category": "pet", "tags": ["pet"], "sources": ["overture"], "website": "http://www.wild-alaskan.com/", "phone": "+14254811110", "address": "19600 144th Ave NE"}, "geometry": {"type": "Point", "coordinates": [-122.145813, 47.7699356]}}, {"type": "Feature", "properties": {"id": "edaf51db-b1a5-4241-92ec-63e8f4c121d7", "name": "Long Cellars", "category": "wine", "tags": ["wine", "winery"], "sources": ["overture"], "website": "http://www.longcellars.com/", "phone": "+14256985198", "address": "19510 144th Ave NE Ste A-6"}, "geometry": {"type": "Point", "coordinates": [-122.147438, 47.7695618]}}, {"type": "Feature", "properties": {"id": "767a9147-61cc-4b89-9377-1304b6247b01", "name": "Luxe Wine Cellars", "category": "wine", "tags": ["wine", "winery"], "sources": ["overture"], "phone": "2062744628", "address": "19501 144th Ave NE A-700"}, "geometry": {"type": "Point", "coordinates": [-122.1478043, 47.7693748]}}, {"type": "Feature", "properties": {"id": "b7f6b06d-ce3d-43c5-a033-0ca5b0beb31e", "name": "Vortex Cellars", "category": "wine", "tags": ["wine", "winery"], "sources": ["overture"], "website": "http://www.vortexcellars.com/", "phone": "4258778416", "address": "19501 144th Ave NE Ste D-500"}, "geometry": {"type": "Point", "coordinates": [-122.1477966, 47.7685051]}}, {"type": "Feature", "properties": {"id": "f81cf56e-95c9-4e60-a4ce-539125c91c24", "name": "Tinte Cellars Winery and Tasting Room", "category": "wine", "tags": ["wine", "winery"], "sources": ["overture"], "website": "https://tintecellars.com/", "phone": "4256599463", "address": "19495 144th Ave NE Ste A110"}, "geometry": {"type": "Point", "coordinates": [-122.1481628, 47.7687073]}}, {"type": "Feature", "properties": {"id": "066056dd-ecaa-4bb6-9751-72cae3c41c10", "name": "Tilton River Cellars", "category": "wine", "tags": ["wine", "winery"], "sources": ["overture"], "website": "http://tiltonrivercellars.com/", "phone": "+12069540440", "address": "19495 144th Ave NE Suite A-115"}, "geometry": {"type": "Point", "coordinates": [-122.1483459, 47.7687416]}}, {"type": "Feature", "properties": {"id": "3edbff3e-5d65-4ca4-9b99-ed846745bc1d", "name": "WIT Cellars", "category": "wine", "tags": ["wine", "winery"], "sources": ["overture"], "website": "http://www.witcellars.com", "phone": "+14252866516", "address": "19501 144th Ave NE a400"}, "geometry": {"type": "Point", "coordinates": [-122.1483994, 47.769516]}}, {"type": "Feature", "properties": {"id": "f15d0725-2f77-4a36-89ca-0872687342dc", "name": "Story Cellars Winery", "category": "wine", "tags": ["wine", "winery"], "sources": ["overture"], "website": "http://www.storycellars.com", "phone": "+12069311948", "address": "19501 144th Ave NE STE A500"}, "geometry": {"type": "Point", "coordinates": [-122.1483612, 47.769474]}}, {"type": "Feature", "properties": {"id": "d22457cb-8cd4-4c88-872a-04b480a0dbc9", "name": "Davenport Cellars", "category": "wine", "tags": ["wine", "winery"], "sources": ["overture"], "website": "http://davenportcellars.com", "phone": "(425) 457-4957", "address": "19501 144th Ave NE #B600"}, "geometry": {"type": "Point", "coordinates": [-122.1494141, 47.769352]}}, {"type": "Feature", "properties": {"id": "47e45752-8960-4c33-8b22-939e30db2ec4", "name": "Woodinville Tasting Room - Rocky Pond Winery", "category": "wine", "tags": ["wine", "winery"], "sources": ["overture"], "website": "http://www.rockypondwinery.com", "phone": "+14258771717", "address": "19501 144th Ave NE"}, "geometry": {"type": "Point", "coordinates": [-122.1496429, 47.7694664]}}, {"type": "Feature", "properties": {"id": "53098368-7d69-4deb-874d-f53db4250293", "name": "Warr-King Wines", "category": "wine", "tags": ["wine", "winery"], "sources": ["overture"], "website": "http://warr-kingwines.com/", "phone": "+14255583994", "address": "19495 144th Ave NE STE B205"}, "geometry": {"type": "Point", "coordinates": [-122.1498566, 47.768795]}}, {"type": "Feature", "properties": {"id": "9fcc9b97-1280-41d7-aae6-889644ce2bd5", "name": "Ashan Cellars", "category": "wine", "tags": ["wine", "winery", "fast-food"], "sources": ["overture"], "website": "http://www.ashancellars.com/", "phone": "+12063510719", "address": "19501 144th Ave NE"}, "geometry": {"type": "Point", "coordinates": [-122.1493912, 47.7693939]}}, {"type": "Feature", "properties": {"id": "b992b2ed-b9cb-4844-bdc2-7461cda8b6ad", "name": "Cuillin Hills Winery", "category": "wine", "tags": ["wine", "winery"], "sources": ["overture"], "website": "http://www.cuillinhills.com", "phone": "+14254021907", "address": "19495 144th Ave NE"}, "geometry": {"type": "Point", "coordinates": [-122.148735, 47.7687607]}}, {"type": "Feature", "properties": {"id": "ac769de4-62c4-42c3-b40c-b620d1cd43d4", "name": "Matthews Cellars", "category": "wine", "tags": ["wine", "winery"], "sources": ["overture"], "website": "http://www.matthewsestate.com", "phone": "+14254883883", "address": "19495 144th Ave NE"}, "geometry": {"type": "Point", "coordinates": [-122.148735, 47.7687607]}}, {"type": "Feature", "properties": {"id": "5df2ed7b-a3c6-42b0-82b2-4942f32877b6", "name": "Covington Cellars", "category": "wine", "tags": ["wine", "winery"], "sources": ["overture"], "phone": "14258068636", "address": "18580 142nd Ave NE"}, "geometry": {"type": "Point", "coordinates": [-122.149147, 47.7622681]}}, {"type": "Feature", "properties": {"id": "a65dd087-4e7c-4771-9ce8-81b5929ec835", "name": "Liminal Winery", "category": "wine", "tags": ["wine", "winery"], "sources": ["overture"], "website": "http://www.liminalwine.com/", "phone": "+14259495696", "address": "18720 142nd Ave NE"}, "geometry": {"type": "Point", "coordinates": [-122.1493301, 47.7629471]}}, {"type": "Feature", "properties": {"id": "9a4ed474-b048-4063-8197-3876d4642202", "name": "Damsel Cellars", "category": "wine", "tags": ["wine", "winery"], "sources": ["overture"], "website": "http://www.damselcellars.com/", "phone": "+12064652433", "address": "18746 142nd Ave NE"}, "geometry": {"type": "Point", "coordinates": [-122.1492615, 47.763546]}}, {"type": "Feature", "properties": {"id": "e52d5279-a109-4ccc-afb9-447bf10c4f8a", "name": "Avennia", "category": "wine", "tags": ["wine", "winery"], "sources": ["overture"], "website": "http://www.avennia.com", "phone": "(425) 877-1639", "address": "18808 142nd Ave NE"}, "geometry": {"type": "Point", "coordinates": [-122.1492157, 47.7640991]}}, {"type": "Feature", "properties": {"id": "ac9310a9-b91d-4c89-b42a-8ce8559b5c7c", "name": "Lord Lion Winery", "category": "wine", "tags": ["wine", "winery"], "sources": ["overture"], "website": "http://www.lordlionwinery.com", "phone": "14253182311", "address": "18808 142nd Ave Ne  Ste 5b"}, "geometry": {"type": "Point", "coordinates": [-122.1492081, 47.7640572]}}, {"type": "Feature", "properties": {"id": "1cf54143-e2d6-433f-9ece-0d1504f8f33f", "name": "Kevin White Winery", "category": "wine", "tags": ["wine", "winery"], "sources": ["overture"], "website": "https://www.kevinwhitewinery.com/", "phone": "2069925746", "address": "18808 142nd Ave NE Ste 5A"}, "geometry": {"type": "Point", "coordinates": [-122.1492233, 47.7640648]}}, {"type": "Feature", "properties": {"id": "9d468497-9b97-46c2-a9c1-7c1245d19e11", "name": "Sightglass Cellars", "category": "wine", "tags": ["wine", "winery"], "sources": ["overture"], "website": "http://www.sightglasscellars.com", "phone": "+14255033779", "address": "18800 142nd Ave NE"}, "geometry": {"type": "Point", "coordinates": [-122.1492233, 47.7637291]}}, {"type": "Feature", "properties": {"id": "1091462f-fc63-43bd-b9e1-c4038b8f59c9", "name": "Finn Hill Winery", "category": "wine", "tags": ["wine", "winery"], "sources": ["overture"], "website": "https://finnhillwinery.com", "phone": "+12064094378", "address": "18800 142nd Ave Ne Ste 5a"}, "geometry": {"type": "Point", "coordinates": [-122.1495972, 47.7640495]}}, {"type": "Feature", "properties": {"id": "52df3162-5ecc-4e39-95d9-9fa78278525a", "name": "Callan Cellars", "category": "wine", "tags": ["wine", "winery"], "sources": ["overture"], "website": "https://www.callancellars.com/wine-club.html", "phone": "+14258295448", "address": "18742 142nd Ave NE"}, "geometry": {"type": "Point", "coordinates": [-122.149498, 47.7635956]}}, {"type": "Feature", "properties": {"id": "27471dd4-2c6c-437d-8ac6-ddcabf345e38", "name": "Chateau Rollat Winery", "category": "wine", "tags": ["wine", "winery"], "sources": ["overture"], "website": "http://www.rollat.com", "address": "18742 142nd Ave NE"}, "geometry": {"type": "Point", "coordinates": [-122.1494598, 47.7634544]}}, {"type": "Feature", "properties": {"id": "a97b314c-554c-4e44-95ac-6bc4aa4c8a54", "name": "Pomum Cellars", "category": "wine", "tags": ["wine", "winery"], "sources": ["overture"], "website": "http://www.pomumcellars.com/", "phone": "+12063629203", "address": "18512 142nd Ave NE"}, "geometry": {"type": "Point", "coordinates": [-122.149498, 47.7618713]}}, {"type": "Feature", "properties": {"id": "e3929c98-43cf-4407-b923-ffafd3ddc1fb", "name": "Lobo Hills", "category": "wine", "tags": ["wine", "winery"], "sources": ["overture"], "website": "http://www.lobohills.com/", "phone": "+14254851097", "address": "18506 142nd Ave NE"}, "geometry": {"type": "Point", "coordinates": [-122.1497879, 47.7618599]}}, {"type": "Feature", "properties": {"id": "3a968527-8290-44fa-8c2a-085673872c37", "name": "Hestia Cellars", "category": "wine", "tags": ["wine", "winery"], "sources": ["overture"], "phone": "14253334270", "address": "18572 142nd Ave NE"}, "geometry": {"type": "Point", "coordinates": [-122.1497116, 47.7622528]}}, {"type": "Feature", "properties": {"id": "709e313c-b195-4f4d-86a6-1fbbd02fce46", "name": "City Limits", "category": "alcohol", "tags": ["alcohol"], "sources": ["overture"], "website": "http://www.citylimitswine.com/", "phone": "+14252058680", "address": "18570 142nd Ave NE"}, "geometry": {"type": "Point", "coordinates": [-122.149704, 47.7622337]}}, {"type": "Feature", "properties": {"id": "e0c86cfe-ecb6-4056-b472-642ef03c76bd", "name": "Auclair Winery", "category": "wine", "tags": ["wine", "winery"], "sources": ["overture"], "website": "http://www.auclairwinery.com/", "phone": "+14255018099", "address": "18654 142nd Ave NE"}, "geometry": {"type": "Point", "coordinates": [-122.1496887, 47.7625237]}}, {"type": "Feature", "properties": {"id": "87a7c36d-3317-4fe4-9f83-fb749dcce296", "name": "Cedergreen Cellars", "category": "wine", "tags": ["wine", "winery"], "sources": ["overture"], "website": "http://www.cedergreencellars.com/", "phone": "+14258277244", "address": "18646 142nd Ave NE"}, "geometry": {"type": "Point", "coordinates": [-122.1498032, 47.7625084]}}, {"type": "Feature", "properties": {"id": "3043acec-3c13-47b4-b745-0aed5aac92b6", "name": "Stevens Winery", "category": "wine", "tags": ["wine", "winery"], "sources": ["overture"], "website": "http://www.stevenswinery.com", "phone": "+14254249463", "address": "18520 142nd Ave NE"}, "geometry": {"type": "Point", "coordinates": [-122.1498413, 47.7618904]}}, {"type": "Feature", "properties": {"id": "a5715d89-ef1b-4f53-9288-6b6f36f0224c", "name": "Kaella", "category": "wine", "tags": ["wine", "winery"], "sources": ["overture"], "website": "http://www.kaellawinery.com", "phone": "(425) 478-0676", "address": "18800 142nd Ave NE Ste 5B"}, "geometry": {"type": "Point", "coordinates": [-122.1498566, 47.7641029]}}, {"type": "Feature", "properties": {"id": "c282017b-a166-451c-8675-94997a673964", "name": "Bellegrove Pharmacy", "category": "pharmacy", "tags": ["pharmacy"], "sources": ["overture"], "website": "http://www.bgrxonline.com/", "phone": "+18004462123", "address": "18800 142nd Ave NE"}, "geometry": {"type": "Point", "coordinates": [-122.1499863, 47.76408]}}, {"type": "Feature", "properties": {"id": "0196a08a-e4c9-4f93-a26e-02f4f5763f8c", "name": "CrossFit Chateau", "category": "fitness_centre", "tags": ["fitness-centre", "gym"], "sources": ["overture"], "website": "http://www.crossfitchateau.com/", "phone": "+14252648528", "address": "19400 144th Ave NE"}, "geometry": {"type": "Point", "coordinates": [-122.1473465, 47.7679939]}}, {"type": "Feature", "properties": {"id": 99055591, "name": "Northshore Gymnastics", "category": "sports_centre", "tags": ["sports-centre"], "sources": ["osm"]}, "geometry": {"type": "Point", "coordinates": [-122.145415, 47.7684695]}}, {"type": "Feature", "properties": {"id": "301d025d-1ffa-4532-a2dc-c90f27101d0e", "name": "Wilkins Performance", "category": "fitness_centre", "tags": ["fitness-centre", "gym"], "sources": ["overture"], "website": "http://www.wilkinsperformance.com", "phone": "(425) 949-9659", "address": "19151 144th Ave NE"}, "geometry": {"type": "Point", "coordinates": [-122.1484756, 47.7660637]}}, {"type": "Feature", "properties": {"id": "760730f6-4c81-4264-9d85-561652d33698", "name": "The Lift", "category": "fitness_centre", "tags": ["fitness-centre", "gym"], "sources": ["overture"], "website": "https://www.theliftgym.fit/", "phone": "+14255785023", "address": "14522 NE North Woodinville Way"}, "geometry": {"type": "Point", "coordinates": [-122.1456451, 47.7663116]}}, {"type": "Feature", "properties": {"id": "ec5a376f-4ffa-4460-b0da-25a16b84e3bb", "name": "Curtis Clay Training", "category": "fitness_centre", "tags": ["fitness-centre", "gym"], "sources": ["overture"], "website": "https://www.curtisclaytraining.com/", "address": "19510 144th Ave NE 7"}, "geometry": {"type": "Point", "coordinates": [-122.1463852, 47.7694054]}}, {"type": "Feature", "properties": {"id": "36934963-7942-4fb9-9da9-a1a1edbb0ea1", "name": "Trinity Training", "category": "fitness_centre", "tags": ["fitness-centre", "gym"], "sources": ["overture"], "website": "http://www.trinitytraining.org/", "phone": "+12068908195", "address": "19460 144th Ave NE"}, "geometry": {"type": "Point", "coordinates": [-122.1454391, 47.7685089]}}, {"type": "Feature", "properties": {"id": "5eadc05f-7d5c-4c47-b21e-c982c43d8350", "name": "Victory Performance Training", "category": "fitness_centre", "tags": ["fitness-centre", "gym"], "sources": ["overture"], "website": "http://vperformancetraining.com/", "phone": "+12062889674", "address": "19510 144th Ave NE d7"}, "geometry": {"type": "Point", "coordinates": [-122.1459198, 47.7693253]}}, {"type": "Feature", "properties": {"id": "ccac20e2-9505-4e3f-904d-9bbcaf7ccf1e", "name": "Agoge Crossfit Woodinville", "category": "fitness_centre", "tags": ["fitness-centre", "gym"], "sources": ["overture"], "website": "http://www.agogegym.com/", "phone": "4259499645", "address": "19400 144th Ave NE Ste A"}, "geometry": {"type": "Point", "coordinates": [-122.1472092, 47.7683563]}}]}