{"type": "FeatureCollection", "features": [{"type": "Feature", "properties": {"id": 39882357, "name": "Taco Time", "category": "fast_food", "tags": ["fast-food", "mexican", "takeaway", "vegetarian"], "sources": ["osm"], "address": "2002 South 320th Street", "stations": [{"stopCode": 68, "lines": "1", "name": "Federal Way Downtown Station", "walkingMeters": 424, "walkingSeconds": 305, "band": 5}]}, "geometry": {"type": "Point", "coordinates": [-122.3082653, 47.3154851]}}, {"type": "Feature", "properties": {"id": 1781078688, "name": "Subway", "category": "fast_food", "tags": ["fast-food", "sandwich", "takeaway", "restaurant"], "sources": ["osm", "overture"], "website": "https://restaurants.subway.com/united-states/wa/federal-way/2004-s-commons?utm_source=yxt-bing&utm_medium=local&utm_term=acq&utm_content=22242&utm_campaign=evergreen-2020&y_source=1_MTQ4OTgwMTctNDgzLWxvY2F0aW9uLndlYnNpdGU%3D", "phone": "2539466787", "address": "2004 S. Commons, C6", "hours": "Mo-Sa 10:00-19:00; Su 11:00-17:00", "stations": [{"stopCode": 68, "lines": "1", "name": "Federal Way Downtown Station", "walkingMeters": 746, "walkingSeconds": 537, "band": 10}]}, "geometry": {"type": "Point", "coordinates": [-122.3073941, 47.3135965]}}, {"type": "Feature", "properties": {"id": 39882479, "name": "Starbucks", "category": "cafe", "tags": ["cafe", "coffee-shop", "takeaway", "coffee"], "sources": ["osm", "overture"], "website": "https://www.starbucks.com/store-locator/store/15730/", "phone": "+12535293934", "address": "2032 S 320th St", "stations": [{"stopCode": 68, "lines": "1", "name": "Federal Way Downtown Station", "walkingMeters": 530, "walkingSeconds": 380, "band": 10}]}, "geometry": {"type": "Point", "coordinates": [-122.3070381, 47.3154581]}}, {"type": "Feature", "properties": {"id": "97ac415d-33ac-4664-96bb-ffb67c435fb1", "name": "Starbucks", "category": "cafe", "tags": ["cafe", "coffee"], "sources": ["overture"], "website": "http://www.starbucks.com/", "phone": "+12537337520", "address": "2201 Sea Tac Mall Blvd", "stations": [{"stopCode": 68, "lines": "1", "name": "Federal Way Downtown Station", "walkingMeters": 884, "walkingSeconds": 636, "band": 10}]}, "geometry": {"type": "Point", "coordinates": [-122.3057404, 47.3132439]}}, {"type": "Feature", "properties": {"id": 42389302, "name": "McDonald's", "category": "fast_food", "tags": ["fast-food", "burger", "takeaway", "drive-through", "wifi", "fast", "food"], "sources": ["osm", "overture"], "website": "https://www.mcdonalds.com/us/en-us/location/wa/federal-way/2302-s-320th-st/4119.html?cid=RF%3AYXT%3ARoN%3A%3AClicks%3Fcid%3DRF%3AYXT%3AFB%3A%3AClicks", "phone": "+12539413210", "address": "2302 S 320th St", "hours": "07:00-21:00", "stations": [{"stopCode": 68, "lines": "1", "name": "Federal Way Downtown Station", "walkingMeters": 896, "walkingSeconds": 644, "band": 10}]}, "geometry": {"type": "Point", "coordinates": [-122.3032813, 47.3155442]}}, {"type": "Feature", "properties": {"id": 1732788738, "name": "Jimmy John's", "category": "fast_food", "tags": ["fast-food", "sandwich", "takeaway", "wheelchair-accessible", "vegetarian", "restaurant"], "sources": ["osm", "overture"], "website": "https://locations.jimmyjohns.com/wa/federalway/sandwiches-1438.html", "phone": "+15748551470", "address": "31889 Gateway Center Blvd S", "hours": "Mo-Su 10:30-22:00", "stations": [{"stopCode": 68, "lines": "1", "name": "Federal Way Downtown Station", "walkingMeters": 1134, "walkingSeconds": 815, "band": 15}]}, "geometry": {"type": "Point", "coordinates": [-122.3012157, 47.3164542]}}, {"type": "Feature", "properties": {"id": 9338211070, "name": "Baskin-Robbins", "category": "ice_cream", "tags": ["ice-cream"], "sources": ["osm"], "website": "https://locations.baskinrobbins.com/wa/federal-way/1946-s.-seatac-mall-b-42-361893-br", "phone": "+1-253-946-3375", "address": "1946 South Seatac Mall", "hours": "Mo-Th 10:00-19:00; Fr-Sa 10:00-20:00; Su 11:00-18:00", "stations": [{"stopCode": 68, "lines": "1", "name": "Federal Way Downtown Station", "walkingMeters": 614, "walkingSeconds": 442, "band": 10}]}, "geometry": {"type": "Point", "coordinates": [-122.3079323, 47.3138079]}}, {"type": "Feature", "properties": {"id": 1732788530, "name": "East India Grill", "category": "restaurant", "tags": ["restaurant", "indian", "asian"], "sources": ["osm", "overture"], "website": "http://www.eastindiagrillwa.com/", "phone": "+12535299292", "address": "31845 Gateway Center Blvd S", "stations": [{"stopCode": 68, "lines": "1", "name": "Federal Way Downtown Station", "walkingMeters": 1172, "walkingSeconds": 842, "band": 15}]}, "geometry": {"type": "Point", "coordinates": [-122.3006146, 47.3168906]}}, {"type": "Feature", "properties": {"id": 1732788579, "name": "Cold Stone Creamery", "category": "ice_cream", "tags": ["ice-cream", "outdoor-seating", "indoor-seating", "wheelchair-accessible"], "sources": ["osm"], "address": "2430 South 319th Place", "hours": "Mo-Th 11:30-21:00; Fr,Sa 11:30-22:00; Su 12:00-21:00", "stations": [{"stopCode": 68, "lines": "1", "name": "Federal Way Downtown Station", "walkingMeters": 1056, "walkingSeconds": 759, "band": 15}]}, "geometry": {"type": "Point", "coordinates": [-122.3013659, 47.3164615]}}, {"type": "Feature", "properties": {"id": 1740008161, "name": "Cafe Remix", "category": "cafe", "tags": ["cafe", "bakery", "bagel"], "sources": ["osm", "overture"], "website": "https://bizremix.com/cafe-remix", "phone": "(253) 941-4188", "address": "2002 S Commons Ste C2", "stations": [{"stopCode": 68, "lines": "1", "name": "Federal Way Downtown Station", "walkingMeters": 655, "walkingSeconds": 472, "band": 10}]}, "geometry": {"type": "Point", "coordinates": [-122.307397, 47.3137954]}}, {"type": "Feature", "properties": {"id": 161288739, "name": "Panera Bread", "category": "fast_food", "tags": ["fast-food", "sandwich", "bakery", "outdoor-seating", "indoor-seating", "takeaway", "wheelchair-accessible", "air-conditioned"], "sources": ["osm", "overture"], "website": "http://www.panerabread.com", "phone": "+12538392499", "address": "2107 South 320th Street", "hours": "Mo-Sa 06:00-21:00; Su 07:00-21:00", "stations": [{"stopCode": 68, "lines": "1", "name": "Federal Way Downtown Station", "walkingMeters": 634, "walkingSeconds": 456, "band": 10}]}, "geometry": {"type": "Point", "coordinates": [-122.3063612, 47.314864]}}, {"type": "Feature", "properties": {"id": 85423356, "name": "Red Robin", "category": "restaurant", "tags": ["restaurant", "burger"], "sources": ["osm"], "address": "31920 Gateway Center Boulevard South", "stations": [{"stopCode": 68, "lines": "1", "name": "Federal Way Downtown Station", "walkingMeters": 1109, "walkingSeconds": 797, "band": 15}]}, "geometry": {"type": "Point", "coordinates": [-122.3003026, 47.3155381]}}, {"type": "Feature", "properties": {"id": 1781078571, "name": "Mae Mee Bakery", "category": "fast_food", "tags": ["fast-food", "chinese"], "sources": ["osm"], "stations": [{"stopCode": 68, "lines": "1", "name": "Federal Way Downtown Station", "walkingMeters": 614, "walkingSeconds": 442, "band": 10}]}, "geometry": {"type": "Point", "coordinates": [-122.307902, 47.3137318]}}, {"type": "Feature", "properties": {"id": 1781078624, "name": "Torero's Taqueria", "category": "fast_food", "tags": ["fast-food", "mexican"], "sources": ["osm"], "stations": [{"stopCode": 68, "lines": "1", "name": "Federal Way Downtown Station", "walkingMeters": 607, "walkingSeconds": 437, "band": 10}]}, "geometry": {"type": "Point", "coordinates": [-122.3080461, 47.3137227]}}, {"type": "Feature", "properties": {"id": "b85bcf99-6b51-479d-a122-72d21d8deb56", "name": "Torero's Taqueria", "category": "restaurant", "tags": ["restaurant", "mexican"], "sources": ["overture"], "website": "https://toreros-mexicanrestaurants.com", "phone": "12539412028", "address": "1900 S Commons", "stations": [{"stopCode": 68, "lines": "1", "name": "Federal Way Downtown Station", "walkingMeters": 752, "walkingSeconds": 561, "band": 10}]}, "geometry": {"type": "Point", "coordinates": [-122.3064117, 47.3134384]}}, {"type": "Feature", "properties": {"id": 4142027461, "name": "Five Guys", "category": "fast_food", "tags": ["fast-food", "burger", "takeaway", "restaurant", "american"], "sources": ["osm", "overture"], "website": "https://restaurants.fiveguys.com/1928-south-commons", "phone": "+12538391425", "address": "1928 South Commons Suite B-1", "hours": "11:00-21:30", "stations": [{"stopCode": 68, "lines": "1", "name": "Federal Way Downtown Station", "walkingMeters": 611, "walkingSeconds": 440, "band": 10}]}, "geometry": {"type": "Point", "coordinates": [-122.3091297, 47.3139269]}}, {"type": "Feature", "properties": {"id": 42389295, "name": "MOD Pizza", "category": "fast_food", "tags": ["fast-food", "pizza", "outdoor-seating", "indoor-seating", "takeaway", "wheelchair-accessible", "vegetarian", "restaurant"], "sources": ["osm", "overture"], "website": "https://locations.modpizza.com/usa/wa/federal-way/2104-s-320th-st?utm_source=facebook&utm_medium=yext", "phone": "+12062126850", "address": "2104 S 320th St", "hours": "Su-We 10:30-22:00; Th-Sa 10:30-23:00", "stations": [{"stopCode": 68, "lines": "1", "name": "Federal Way Downtown Station", "walkingMeters": 534, "walkingSeconds": 384, "band": 10}]}, "geometry": {"type": "Point", "coordinates": [-122.3064725, 47.3155299]}}, {"type": "Feature", "properties": {"id": 11986404469, "name": "Ezell's Chicken", "category": "fast_food", "tags": ["fast-food", "chicken", "takeaway"], "sources": ["osm"], "website": "https://ezellschicken.com/", "phone": "+1-206-429-2634", "stations": [{"stopCode": 68, "lines": "1", "name": "Federal Way Downtown Station", "walkingMeters": 531, "walkingSeconds": 382, "band": 10}]}, "geometry": {"type": "Point", "coordinates": [-122.3068307, 47.3159705]}}, {"type": "Feature", "properties": {"id": "b7c23de6-c613-4abd-9120-309be2b5788c", "name": "Honor Coffee & Tea", "category": "cafe", "tags": ["cafe", "coffee"], "sources": ["overture"], "website": "http://www.honorcoffee.com", "phone": "(253) 941-4188", "address": "2002 S Commons", "stations": [{"stopCode": 68, "lines": "1", "name": "Federal Way Downtown Station", "walkingMeters": 985, "walkingSeconds": 709, "band": 15}]}, "geometry": {"type": "Point", "coordinates": [-122.3083878, 47.3132019]}}, {"type": "Feature", "properties": {"id": 3696218495, "name": "Crazy Cajun", "category": "restaurant", "tags": ["restaurant", "cajun", "takeaway"], "sources": ["osm"], "address": "32034 23rd Avenue South", "hours": "11:00-20:00", "stations": [{"stopCode": 68, "lines": "1", "name": "Federal Way Downtown Station", "walkingMeters": 1016, "walkingSeconds": 732, "band": 15}]}, "geometry": {"type": "Point", "coordinates": [-122.3031668, 47.3139204]}}, {"type": "Feature", "properties": {"id": 39881398, "name": "Ivar's Seafood Bar", "category": "fast_food", "tags": ["fast-food", "seafood", "outdoor-seating", "indoor-seating", "takeaway", "wheelchair-accessible", "air-conditioned", "restaurant"], "sources": ["osm", "overture"], "website": "http://www.ivars.com", "phone": "+12539417321", "address": "2004 S 320th St", "hours": "Su-Th 11:00-21:00; Fr,Sa 11:00-22:00", "stations": [{"stopCode": 68, "lines": "1", "name": "Federal Way Downtown Station", "walkingMeters": 419, "walkingSeconds": 301, "band": 5}]}, "geometry": {"type": "Point", "coordinates": [-122.307966, 47.3160877]}}, {"type": "Feature", "properties": {"id": "85f9d4e7-ef69-48e0-a015-1dac58f86f5d", "name": "Pizza Hut Express", "category": "restaurant", "tags": ["restaurant", "pizza"], "sources": ["overture"], "phone": "2537337520", "address": "2201 S Seatac Mall", "stations": [{"stopCode": 68, "lines": "1", "name": "Federal Way Downtown Station", "walkingMeters": 874, "walkingSeconds": 652, "band": 15}]}, "geometry": {"type": "Point", "coordinates": [-122.3052444, 47.3130493]}}, {"type": "Feature", "properties": {"id": "f6a25df3-31cf-49f5-9a46-0a27adfa5cc5", "name": "Wendy's", "category": "fast_food", "tags": ["fast-food", "fast", "food", "mexican"], "sources": ["overture"], "phone": "2539413574", "address": "2216 S 320th St", "stations": [{"stopCode": 68, "lines": "1", "name": "Federal Way Downtown Station", "walkingMeters": 802, "walkingSeconds": 576, "band": 10}]}, "geometry": {"type": "Point", "coordinates": [-122.3039627, 47.3159866]}}, {"type": "Feature", "properties": {"id": 4459902693, "name": "Pho Hoang Restaurant", "category": "restaurant", "tags": ["restaurant"], "sources": ["osm"], "stations": [{"stopCode": 68, "lines": "1", "name": "Federal Way Downtown Station", "walkingMeters": 1179, "walkingSeconds": 848, "band": 15}]}, "geometry": {"type": "Point", "coordinates": [-122.3009698, 47.3169858]}}, {"type": "Feature", "properties": {"id": 624476030, "name": "Buffalo Wild Wings", "category": "restaurant", "tags": ["restaurant", "wings", "bar", "sports", "bar-and-grill", "american"], "sources": ["osm", "overture"], "website": "https://www.buffalowildwings.com/locations/us/wa/federal-way/2005-south-320th-street/sports-bar-886?utm_source=fb&utm_medium=yext", "phone": "+12535297862", "address": "2005 S 320th St", "stations": [{"stopCode": 68, "lines": "1", "name": "Federal Way Downtown Station", "walkingMeters": 510, "walkingSeconds": 367, "band": 10}]}, "geometry": {"type": "Point", "coordinates": [-122.3081839, 47.3147727]}}, {"type": "Feature", "properties": {"id": 5897068737, "name": "Boba Smoothies", "category": "cafe", "tags": ["cafe"], "sources": ["osm"], "stations": [{"stopCode": 68, "lines": "1", "name": "Federal Way Downtown Station", "walkingMeters": 611, "walkingSeconds": 440, "band": 10}]}, "geometry": {"type": "Point", "coordinates": [-122.309311, 47.3138779]}}, {"type": "Feature", "properties": {"id": 5897068749, "name": "Wetzel's Pretzels", "category": "fast_food", "tags": ["fast-food", "pretzel", "takeaway", "bakery"], "sources": ["osm", "overture"], "website": "https://www.wetzels.com/", "phone": "+15596082844", "address": "1928 S Commons", "stations": [{"stopCode": 68, "lines": "1", "name": "Federal Way Downtown Station", "walkingMeters": 602, "walkingSeconds": 434, "band": 10}]}, "geometry": {"type": "Point", "coordinates": [-122.3081, 47.3135099]}}, {"type": "Feature", "properties": {"id": "d352de3c-7c32-4f84-b69b-881808cfbcb6", "name": "Azteca Mexican Restaurants", "category": "restaurant", "tags": ["restaurant", "mexican", "latin-american"], "sources": ["overture"], "website": "https://www.aztecamex.com", "phone": "+12538396693", "address": "2020 S 320th St", "stations": [{"stopCode": 68, "lines": "1", "name": "Federal Way Downtown Station", "walkingMeters": 548, "walkingSeconds": 394, "band": 10}]}, "geometry": {"type": "Point", "coordinates": [-122.3067017, 47.3161201]}}, {"type": "Feature", "properties": {"id": "22ae1972-f6b7-448f-b3ed-1e50752e5655", "name": "Ezell's Famous Chicken", "category": "restaurant", "tags": ["restaurant", "chicken", "comfort-food", "american"], "sources": ["overture"], "website": "https://www.ezellschicken.com/", "phone": "+12064292634", "address": "2020 S 320th St Ste m", "stations": [{"stopCode": 68, "lines": "1", "name": "Federal Way Downtown Station", "walkingMeters": 531, "walkingSeconds": 382, "band": 10}]}, "geometry": {"type": "Point", "coordinates": [-122.3067703, 47.3159714]}}, {"type": "Feature", "properties": {"id": 5897068746, "name": "Zita Pizza", "category": "fast_food", "tags": ["fast-food", "pizza"], "sources": ["osm"], "stations": [{"stopCode": 68, "lines": "1", "name": "Federal Way Downtown Station", "walkingMeters": 614, "walkingSeconds": 442, "band": 10}]}, "geometry": {"type": "Point", "coordinates": [-122.3083049, 47.3135407]}}, {"type": "Feature", "properties": {"id": 5897068748, "name": "Chili Fries", "category": "fast_food", "tags": ["fast-food", "fast", "food"], "sources": ["osm", "overture"], "website": "https://www.chilifrieswa.com/?utm_source=bing&utm_medium=websiteurl&utm_campaign=search", "phone": "6616759979", "address": "1928 S COMMONS, H2", "stations": [{"stopCode": 68, "lines": "1", "name": "Federal Way Downtown Station", "walkingMeters": 602, "walkingSeconds": 434, "band": 10}]}, "geometry": {"type": "Point", "coordinates": [-122.3081, 47.3135499]}}, {"type": "Feature", "properties": {"id": 5897068751, "name": "Yummy Crepe", "category": "fast_food", "tags": ["fast-food"], "sources": ["osm"], "stations": [{"stopCode": 68, "lines": "1", "name": "Federal Way Downtown Station", "walkingMeters": 985, "walkingSeconds": 709, "band": 15}]}, "geometry": {"type": "Point", "coordinates": [-122.3080641, 47.3132604]}}, {"type": "Feature", "properties": {"id": 5897068760, "name": "Sweet Cakes", "category": "fast_food", "tags": ["fast-food"], "sources": ["osm"], "stations": [{"stopCode": 68, "lines": "1", "name": "Federal Way Downtown Station", "walkingMeters": 753, "walkingSeconds": 542, "band": 10}]}, "geometry": {"type": "Point", "coordinates": [-122.307394, 47.3135361]}}, {"type": "Feature", "properties": {"id": 8392626949, "name": "Azteca", "category": "restaurant", "tags": ["restaurant", "mexican"], "sources": ["osm"], "stations": [{"stopCode": 68, "lines": "1", "name": "Federal Way Downtown Station", "walkingMeters": 535, "walkingSeconds": 385, "band": 10}]}, "geometry": {"type": "Point", "coordinates": [-122.3069394, 47.3161712]}}, {"type": "Feature", "properties": {"id": 9338211069, "name": "Gyro's House", "category": "fast_food", "tags": ["fast-food", "restaurant", "mediterranean", "middle-eastern", "halal"], "sources": ["osm", "overture"], "website": "http://www.gyroshousecommonsmall.com", "phone": "+12538391054", "address": "1945 S Commons", "stations": [{"stopCode": 68, "lines": "1", "name": "Federal Way Downtown Station", "walkingMeters": 606, "walkingSeconds": 436, "band": 10}]}, "geometry": {"type": "Point", "coordinates": [-122.3080597, 47.3138095]}}, {"type": "Feature", "properties": {"id": 10076146312, "name": "Seoul Hotdog", "category": "restaurant", "tags": ["restaurant", "korean", "hot-dog", "hot", "dog"], "sources": ["osm", "overture"], "website": "www.seoulsoulongtang.com", "phone": "+12062498225", "address": "2016 S 320th St", "stations": [{"stopCode": 68, "lines": "1", "name": "Federal Way Downtown Station", "walkingMeters": 505, "walkingSeconds": 363, "band": 5}]}, "geometry": {"type": "Point", "coordinates": [-122.307335, 47.3164584]}}, {"type": "Feature", "properties": {"id": 13676709472, "name": "Crawfish Island", "category": "restaurant", "tags": ["restaurant", "seafood", "wheelchair-accessible", "cajun-and-creole"], "sources": ["osm", "overture"], "website": "https://crawfishisland.com/", "phone": "+12535297288", "address": "31871 Gateway Center Blvd S", "hours": "Mo-Th 14:00-21:30; Fr,Sa 11:00-23:00; Su 11:00-21:30", "stations": [{"stopCode": 68, "lines": "1", "name": "Federal Way Downtown Station", "walkingMeters": 1168, "walkingSeconds": 840, "band": 15}]}, "geometry": {"type": "Point", "coordinates": [-122.3009539, 47.3168928]}}, {"type": "Feature", "properties": {"id": 39881918, "name": "Red Lobster", "category": "restaurant", "tags": ["restaurant", "seafood", "wheelchair-accessible", "american"], "sources": ["osm", "overture"], "website": "https://www.redlobster.com/seafood-restaurants/locations/wa/federal-way/2006-s-320th-street", "phone": "+12539416162", "address": "2006 S 320th St", "hours": "Su-Th 11:30-20:30; Fr,Sa 11:30-21:30", "stations": [{"stopCode": 68, "lines": "1", "name": "Federal Way Downtown Station", "walkingMeters": 472, "walkingSeconds": 339, "band": 10}]}, "geometry": {"type": "Point", "coordinates": [-122.3077163, 47.3155969]}}, {"type": "Feature", "properties": {"id": 42389305, "name": "Black Angus", "category": "restaurant", "tags": ["restaurant", "steak-house", "indoor-seating", "wheelchair-accessible", "air-conditioned"], "sources": ["osm"], "phone": "+1-253-839-8370", "address": "2400 South 320th Street", "hours": "Mo-Fr 15:00-21:00; Sa,Su 12:00-21:00", "stations": [{"stopCode": 68, "lines": "1", "name": "Federal Way Downtown Station", "walkingMeters": 1002, "walkingSeconds": 720, "band": 15}]}, "geometry": {"type": "Point", "coordinates": [-122.3025674, 47.3157759]}}, {"type": "Feature", "properties": {"id": "b4742ec1-c413-43c6-ada9-c9325cacaad1", "name": "Denny's", "category": "restaurant", "tags": ["restaurant", "breakfast-and-brunch", "breakfast", "brunch"], "sources": ["overture"], "website": "http://locations.dennys.com/WA/FEDERAL-WAY/247866/", "phone": "2539413230", "address": "2132 S 320th St", "stations": [{"stopCode": 68, "lines": "1", "name": "Federal Way Downtown Station", "walkingMeters": 654, "walkingSeconds": 470, "band": 10}]}, "geometry": {"type": "Point", "coordinates": [-122.306015, 47.3151093]}}, {"type": "Feature", "properties": {"id": 161288737, "name": "Mama Stortini\u2019s Restaurant and Bar", "category": "restaurant", "tags": ["restaurant", "italian"], "sources": ["osm"], "address": "1911 South 320th Street", "stations": [{"stopCode": 68, "lines": "1", "name": "Federal Way Downtown Station", "walkingMeters": 505, "walkingSeconds": 364, "band": 5}]}, "geometry": {"type": "Point", "coordinates": [-122.3089528, 47.314777]}}, {"type": "Feature", "properties": {"id": "8c93b488-7c57-40ea-bd89-144a2ca0e0f5", "name": "Outback Steakhouse", "category": "restaurant", "tags": ["restaurant", "steakhouse"], "sources": ["overture"], "website": "http://www.outback.com/Locations/details/?unit=4613", "phone": "(253) 839-1340", "address": "2210 S 320th St #A6", "stations": [{"stopCode": 68, "lines": "1", "name": "Federal Way Downtown Station", "walkingMeters": 814, "walkingSeconds": 585, "band": 10}]}, "geometry": {"type": "Point", "coordinates": [-122.303627, 47.3167076]}}, {"type": "Feature", "properties": {"id": 162944348, "name": "Palace", "category": "restaurant", "tags": ["restaurant", "korean"], "sources": ["osm"], "address": "31525 Pete Von Reichbauer Way South", "stations": [{"stopCode": 68, "lines": "1", "name": "Federal Way Downtown Station", "walkingMeters": 545, "walkingSeconds": 392, "band": 10}]}, "geometry": {"type": "Point", "coordinates": [-122.3085722, 47.3190077]}}, {"type": "Feature", "properties": {"id": "32feb68c-2bdf-4265-8daa-1cdfe4636416", "name": "Jersey Mike's", "category": "restaurant", "tags": ["restaurant", "sandwich", "fast-food"], "sources": ["overture"], "website": "https://www.jerseymikes.com/18050/federal-way-wa", "phone": "+12062126897", "address": "2020 South 320th Street Suite 3", "stations": [{"stopCode": 68, "lines": "1", "name": "Federal Way Downtown Station", "walkingMeters": 464, "walkingSeconds": 334, "band": 10}]}, "geometry": {"type": "Point", "coordinates": [-122.3073196, 47.3160706]}}, {"type": "Feature", "properties": {"id": "65fd7509-6b4b-465f-ae13-47be34158b93", "name": "Birrieria Gourmet", "category": "restaurant", "tags": ["restaurant", "mexican"], "sources": ["overture"], "website": "https://pacific.birrieriagourmet.com/?utm_source=bing&utm_medium=websiteurl&utm_campaign=search", "phone": "2067417003", "address": "1928 S Commons, H3", "stations": [{"stopCode": 68, "lines": "1", "name": "Federal Way Downtown Station", "walkingMeters": 611, "walkingSeconds": 440, "band": 10}]}, "geometry": {"type": "Point", "coordinates": [-122.3096237, 47.313385]}}, {"type": "Feature", "properties": {"id": "86e0aeb0-58b4-43c7-abb8-28a7e1fb9f0d", "name": "Palace Korean Bar and Grill", "category": "restaurant", "tags": ["restaurant", "korean", "bar-and-grill", "barbecue"], "sources": ["overture"], "website": "http://www.palacebbq.com", "phone": "+12538934509", "address": "31525 Pete von Reichbauer Way S", "stations": [{"stopCode": 68, "lines": "1", "name": "Federal Way Downtown Station", "walkingMeters": 662, "walkingSeconds": 476, "band": 10}]}, "geometry": {"type": "Point", "coordinates": [-122.3085861, 47.3190842]}}, {"type": "Feature", "properties": {"id": "a3d8ddcb-8f32-4f35-9657-42849b505efa", "name": "Original Roadhouse Grill", "category": "restaurant", "tags": ["restaurant", "american"], "sources": ["overture"], "website": "http://www.originalroadhousegrill.com/", "phone": "(253) 529-1985", "address": "31550 20th Ave S", "stations": [{"stopCode": 68, "lines": "1", "name": "Federal Way Downtown Station", "walkingMeters": 540, "walkingSeconds": 388, "band": 10}]}, "geometry": {"type": "Point", "coordinates": [-122.3085022, 47.3189964]}}, {"type": "Feature", "properties": {"id": "41a737bc-03c6-400e-bdb4-c547f9194c29", "name": "Seasons Restaurant & Lounge", "category": "restaurant", "tags": ["restaurant", "american"], "sources": ["overture"], "website": "http://seasonsrestaurantpittsburgh4.gastrobars.com", "phone": "(253) 529-4000", "address": "32124 25th Ave S", "stations": [{"stopCode": 68, "lines": "1", "name": "Federal Way Downtown Station", "walkingMeters": 1161, "walkingSeconds": 837, "band": 15}]}, "geometry": {"type": "Point", "coordinates": [-122.3008118, 47.3139076]}}, {"type": "Feature", "properties": {"id": "df20493d-920f-4160-a505-49073a5782de", "name": "Red Robin Gourmet Burgers", "category": "restaurant", "tags": ["restaurant", "burger", "american", "theme"], "sources": ["overture"], "website": "https://www.redrobin.com/locations/wa/federalway/federal-way-163", "phone": "+12532519004", "address": "31920 Gateway Center Blvd S", "stations": [{"stopCode": 68, "lines": "1", "name": "Federal Way Downtown Station", "walkingMeters": 1152, "walkingSeconds": 860, "band": 15}]}, "geometry": {"type": "Point", "coordinates": [-122.3004379, 47.3155518]}}, {"type": "Feature", "properties": {"id": "f85ef255-3ebf-4ef2-b16c-d4136cebebc4", "name": "RAM Restaurant & Brewery", "category": "bar", "tags": ["bar", "brewery"], "sources": ["overture"], "phone": "2068786694", "address": "31920 Gateway Center Blvd S", "stations": [{"stopCode": 68, "lines": "1", "name": "Federal Way Downtown Station", "walkingMeters": 1058, "walkingSeconds": 760, "band": 15}]}, "geometry": {"type": "Point", "coordinates": [-122.3007431, 47.3156624]}}, {"type": "Feature", "properties": {"id": "a5b5d7bf-bd06-49ba-95b6-d208660f7ae2", "name": "Black Angus Steakhouse", "category": "restaurant", "tags": ["restaurant", "steakhouse", "american"], "sources": ["overture"], "website": "http://www.blackangus.com/", "phone": "+12538398370", "address": "2400 S 320th St", "stations": [{"stopCode": 68, "lines": "1", "name": "Federal Way Downtown Station", "walkingMeters": 968, "walkingSeconds": 696, "band": 15}]}, "geometry": {"type": "Point", "coordinates": [-122.302536, 47.3156586]}}, {"type": "Feature", "properties": {"id": "4b0abc42-5dd1-4879-8ab8-45eec4b93442", "name": "Topoki Pocha", "category": "restaurant", "tags": ["restaurant", "korean"], "sources": ["overture"], "website": "http://www.topokipocha.com", "phone": "(206) 651-7793", "address": "2200 S 320th St Ste 1B", "stations": [{"stopCode": 68, "lines": "1", "name": "Federal Way Downtown Station", "walkingMeters": 781, "walkingSeconds": 561, "band": 10}]}, "geometry": {"type": "Point", "coordinates": [-122.3042145, 47.3167229]}}, {"type": "Feature", "properties": {"id": "26d5fe4c-8c1d-4b3b-b9bb-ba476e0d556a", "name": "Peking Garden Chinese Restaurant", "category": "restaurant", "tags": ["restaurant", "chinese"], "sources": ["overture"], "website": "http://grandpekingfederalway.net", "phone": "(253) 839-1215", "address": "2200 S 320th St", "stations": [{"stopCode": 68, "lines": "1", "name": "Federal Way Downtown Station", "walkingMeters": 708, "walkingSeconds": 509, "band": 10}]}, "geometry": {"type": "Point", "coordinates": [-122.3046188, 47.3169518]}}, {"type": "Feature", "properties": {"id": "c7cebe59-4ae9-4b9e-9941-7c8be26876bf", "name": "Madi Kat Cupcakes", "category": "bakery", "tags": ["bakery"], "sources": ["overture"], "website": "http://www.madikatcupcakes.com", "phone": "(209) 401-9178", "address": "1928 S Commons", "stations": [{"stopCode": 68, "lines": "1", "name": "Federal Way Downtown Station", "walkingMeters": 1015, "walkingSeconds": 730, "band": 15}]}, "geometry": {"type": "Point", "coordinates": [-122.3037872, 47.3131104]}}, {"type": "Feature", "properties": {"id": "e1aeb0bc-4037-452f-afd6-9db177c3ac02", "name": "Crazy Pho Cajun", "category": "restaurant", "tags": ["restaurant", "vietnamese", "asian", "cajun-and-creole"], "sources": ["overture"], "website": "https://crazy-pho-cajun.hub.biz", "phone": "+12064293893", "address": "32034 23rd Ave S", "stations": [{"stopCode": 68, "lines": "1", "name": "Federal Way Downtown Station", "walkingMeters": 1016, "walkingSeconds": 732, "band": 15}]}, "geometry": {"type": "Point", "coordinates": [-122.3031693, 47.3139229]}}, {"type": "Feature", "properties": {"id": "7af73740-7664-4c77-a422-a4177c5afc01", "name": "Pho Hoa", "category": "restaurant", "tags": ["restaurant", "noodles"], "sources": ["overture"], "website": "http://www.phohoa.com", "phone": "(253) 839-0133", "address": "32034 23rd Ave S", "stations": [{"stopCode": 68, "lines": "1", "name": "Federal Way Downtown Station", "walkingMeters": 1001, "walkingSeconds": 721, "band": 15}]}, "geometry": {"type": "Point", "coordinates": [-122.3030701, 47.3140564]}}, {"type": "Feature", "properties": {"id": "3b1e7b91-f567-4ea7-a9a4-83553d5bbbdf", "name": "Pho Hoa", "category": "restaurant", "tags": ["restaurant"], "sources": ["overture"], "website": "http://website-411993878868431886885-vietnameserestaurant.business.site", "phone": "+12538398413", "address": "2020 S 320th St", "stations": [{"stopCode": 68, "lines": "1", "name": "Federal Way Downtown Station", "walkingMeters": 498, "walkingSeconds": 372, "band": 10}]}, "geometry": {"type": "Point", "coordinates": [-122.3070908, 47.3161087]}}, {"type": "Feature", "properties": {"id": "069456e9-1ae0-485b-8aff-dce2d1fc3df7", "name": "Spicy Attitude", "category": "cafe", "tags": ["cafe", "coffee"], "sources": ["overture"], "website": "https://spicy-attitude.business.site/", "phone": "2064292384", "address": "32040 23rd Ave S # 8", "stations": [{"stopCode": 68, "lines": "1", "name": "Federal Way Downtown Station", "walkingMeters": 1035, "walkingSeconds": 745, "band": 15}]}, "geometry": {"type": "Point", "coordinates": [-122.3032532, 47.3137512]}}, {"type": "Feature", "properties": {"id": "b5d4a1fc-384b-456d-a9f8-d6acc0a18b8f", "name": "Auntie Anne's Pretzels", "category": "fast_food", "tags": ["fast-food", "food", "court"], "sources": ["overture"], "website": "http://www.auntieannes.com", "phone": "(253) 941-9460", "address": "1902 S Commons Ste A", "stations": [{"stopCode": 68, "lines": "1", "name": "Federal Way Downtown Station", "walkingMeters": 921, "walkingSeconds": 663, "band": 15}]}, "geometry": {"type": "Point", "coordinates": [-122.3087082, 47.3122559]}}, {"type": "Feature", "properties": {"id": "f1b056a9-3a9a-4b1f-a0c8-2c96e31c57b0", "name": "Mrs. Fields / Freshens", "category": "bakery", "tags": ["bakery"], "sources": ["overture"], "website": "https://store.mrsfields.com/home/commonsatfederalway", "phone": "(253) 839-3470", "address": "2008 S Commons", "stations": [{"stopCode": 68, "lines": "1", "name": "Federal Way Downtown Station", "walkingMeters": 985, "walkingSeconds": 709, "band": 15}]}, "geometry": {"type": "Point", "coordinates": [-122.3083878, 47.3132019]}}, {"type": "Feature", "properties": {"id": "c4a7fbd7-3bc3-45c9-8417-5b31e148b0a1", "name": "ChaMuy WENO", "category": "restaurant", "tags": ["restaurant", "mexican"], "sources": ["overture"], "phone": "+12532985931", "address": "1928 S Commons", "stations": [{"stopCode": 68, "lines": "1", "name": "Federal Way Downtown Station", "walkingMeters": 602, "walkingSeconds": 434, "band": 10}]}, "geometry": {"type": "Point", "coordinates": [-122.3081436, 47.3134232]}}, {"type": "Feature", "properties": {"id": "3a0ee468-f74f-452f-889d-29d5d9ec95af", "name": "Chinese Gourmet Express", "category": "restaurant", "tags": ["restaurant", "chinese"], "sources": ["overture"], "website": "http://www.chinese-gourmet-express.com", "phone": "(253) 529-3888", "stations": [{"stopCode": 68, "lines": "1", "name": "Federal Way Downtown Station", "walkingMeters": 602, "walkingSeconds": 434, "band": 10}]}, "geometry": {"type": "Point", "coordinates": [-122.3081055, 47.3134384]}}, {"type": "Feature", "properties": {"id": "f540a7cd-a845-4f59-8787-5e5fca356949", "name": "Orange Julius (CLOSED)", "category": "fast_food", "tags": ["fast-food", "food", "court"], "sources": ["overture"], "website": "http://www.orangejulius.com", "phone": "(253) 945-1185", "address": "1928 S Commons # H-1A", "stations": [{"stopCode": 68, "lines": "1", "name": "Federal Way Downtown Station", "walkingMeters": 608, "walkingSeconds": 438, "band": 10}]}, "geometry": {"type": "Point", "coordinates": [-122.3080215, 47.3135834]}}, {"type": "Feature", "properties": {"id": "5bf15ae2-f5f8-49ff-a942-d07ae1e1926a", "name": "Costa Vida Fresh Mexican Grill", "category": "restaurant", "tags": ["restaurant", "mexican"], "sources": ["overture"], "phone": "2062121226", "address": "1900 S Commons", "stations": [{"stopCode": 68, "lines": "1", "name": "Federal Way Downtown Station", "walkingMeters": 626, "walkingSeconds": 450, "band": 10}]}, "geometry": {"type": "Point", "coordinates": [-122.3084869, 47.3139191]}}, {"type": "Feature", "properties": {"id": "52628a9d-047d-446c-aab8-dad51acf625c", "name": "Mae Mee Fresh Food and Bakery", "category": "bakery", "tags": ["bakery", "asian"], "sources": ["overture"], "website": "http://www.maemeefresh.com", "phone": "+12539413941", "address": "1928 S Commons", "stations": [{"stopCode": 68, "lines": "1", "name": "Federal Way Downtown Station", "walkingMeters": 613, "walkingSeconds": 441, "band": 10}]}, "geometry": {"type": "Point", "coordinates": [-122.3079376, 47.3137436]}}, {"type": "Feature", "properties": {"id": "2062d1df-48ac-4cc5-92cc-41815efe195c", "name": "Hot Pot World Rotary", "category": "restaurant", "tags": ["restaurant", "chinese", "asian"], "sources": ["overture"], "website": "http://www.hotpotworld.com/", "phone": "+12064293770", "address": "2020 S 320th St Ste G", "stations": [{"stopCode": 68, "lines": "1", "name": "Federal Way Downtown Station", "walkingMeters": 482, "walkingSeconds": 346, "band": 10}]}, "geometry": {"type": "Point", "coordinates": [-122.3073654, 47.316227]}}, {"type": "Feature", "properties": {"id": "00b94938-2035-493e-996b-c18463fb92aa", "name": "Bibim Express", "category": "restaurant", "tags": ["restaurant", "korean", "asian"], "sources": ["overture"], "website": "http://bibimexpress.com/", "phone": "+12066276064", "address": "2020 S 320th St D", "stations": [{"stopCode": 68, "lines": "1", "name": "Federal Way Downtown Station", "walkingMeters": 461, "walkingSeconds": 331, "band": 10}]}, "geometry": {"type": "Point", "coordinates": [-122.3072739, 47.31604]}}, {"type": "Feature", "properties": {"id": "f6e7c026-fb1a-4581-baf4-1c7e4add7065", "name": "Xiao Xiao", "category": "restaurant", "tags": ["restaurant", "chinese"], "sources": ["overture"], "website": "http://www.xiaoxiaomovie.com", "phone": "(206) 249-8441", "address": "2120 S 320th St Ste C6", "stations": [{"stopCode": 68, "lines": "1", "name": "Federal Way Downtown Station", "walkingMeters": 557, "walkingSeconds": 400, "band": 10}]}, "geometry": {"type": "Point", "coordinates": [-122.306427, 47.3155518]}}, {"type": "Feature", "properties": {"id": "0eb03796-752c-492c-8a3f-c03fe325b7fb", "name": "Cafe Arizona", "category": "cafe", "tags": ["cafe"], "sources": ["overture"], "website": "http://ticketsus.at/yahooinc/123355.html", "phone": "+12535290553", "address": "2012 S 320th St", "stations": [{"stopCode": 68, "lines": "1", "name": "Federal Way Downtown Station", "walkingMeters": 427, "walkingSeconds": 307, "band": 5}]}, "geometry": {"type": "Point", "coordinates": [-122.3070908, 47.3170586]}}, {"type": "Feature", "properties": {"id": "88870da6-13f3-4e6c-a213-88b3bf05690c", "name": "Theary Cambodian Foods", "category": "restaurant", "tags": ["restaurant", "asian", "cambodian"], "sources": ["overture"], "website": "https://theary-cambodian-foods.square.site", "phone": "12062019995", "address": "2012 S 320th St  Ste C", "stations": [{"stopCode": 68, "lines": "1", "name": "Federal Way Downtown Station", "walkingMeters": 476, "walkingSeconds": 355, "band": 5}]}, "geometry": {"type": "Point", "coordinates": [-122.3071747, 47.3166389]}}, {"type": "Feature", "properties": {"id": "c2e9e788-729b-4b03-beec-b053387c700c", "name": "Peking Express", "category": "restaurant", "tags": ["restaurant"], "sources": ["overture"], "website": "https://www.pekingexpressfederalway.com", "phone": "+12539461005", "address": "2012 S 320th St", "stations": [{"stopCode": 68, "lines": "1", "name": "Federal Way Downtown Station", "walkingMeters": 476, "walkingSeconds": 355, "band": 5}]}, "geometry": {"type": "Point", "coordinates": [-122.3071747, 47.3166389]}}, {"type": "Feature", "properties": {"id": "9b6a55dd-c1f8-4113-8fdc-0289535f0114", "name": "Pac Island Grill", "category": "restaurant", "tags": ["restaurant", "polynesian", "hawaiian", "caribbean"], "sources": ["overture"], "website": "http://www.hawaiianstylebbq.net", "phone": "+12535298667", "address": "2012 S 320th St", "stations": [{"stopCode": 68, "lines": "1", "name": "Federal Way Downtown Station", "walkingMeters": 408, "walkingSeconds": 293, "band": 5}]}, "geometry": {"type": "Point", "coordinates": [-122.3073654, 47.3172302]}}, {"type": "Feature", "properties": {"id": "33e23d13-a0aa-4160-9455-24a91056574e", "name": "CLOSED", "category": "restaurant", "tags": ["restaurant", "mexican"], "sources": ["overture"], "website": "http://www.tacotimenw.com/", "phone": "2539411770", "address": "2002 S 320th Street", "stations": [{"stopCode": 68, "lines": "1", "name": "Federal Way Downtown Station", "walkingMeters": 414, "walkingSeconds": 298, "band": 5}]}, "geometry": {"type": "Point", "coordinates": [-122.3082352, 47.3154984]}}, {"type": "Feature", "properties": {"id": "f4d7c858-9736-4b27-a1a6-99e78801d7e7", "name": "El Rinconsito | Federal Way 320", "category": "restaurant", "tags": ["restaurant", "mexican"], "sources": ["overture"], "website": "http://elrinconsito.com/", "phone": "2064292490", "address": "2002 S 320th St", "stations": [{"stopCode": 68, "lines": "1", "name": "Federal Way Downtown Station", "walkingMeters": 424, "walkingSeconds": 305, "band": 5}]}, "geometry": {"type": "Point", "coordinates": [-122.3082809, 47.3154755]}}, {"type": "Feature", "properties": {"id": "086e3c43-d59e-4533-b458-3676040eb1b8", "name": "McGrath's Fish House", "category": "restaurant", "tags": ["restaurant", "seafood"], "sources": ["overture"], "website": "http://mcgrathsfishhouse.com/", "phone": "(253) 839-5000", "address": "1911 S 320th St", "stations": [{"stopCode": 68, "lines": "1", "name": "Federal Way Downtown Station", "walkingMeters": 481, "walkingSeconds": 346, "band": 5}]}, "geometry": {"type": "Point", "coordinates": [-122.3088837, 47.3148842]}}, {"type": "Feature", "properties": {"id": "57706eca-769f-4b1a-ac31-1e250ccafead", "name": "Mama Stortini's", "category": "restaurant", "tags": ["restaurant", "italian", "theme"], "sources": ["overture"], "website": "http://www.mamastortinis.com/federalway/", "phone": "+12533360330", "address": "1911 S 320th St", "stations": [{"stopCode": 68, "lines": "1", "name": "Federal Way Downtown Station", "walkingMeters": 503, "walkingSeconds": 362, "band": 5}]}, "geometry": {"type": "Point", "coordinates": [-122.3090134, 47.3148346]}}, {"type": "Feature", "properties": {"id": 1815351374, "name": "Hi Five", "category": "artwork", "tags": ["artwork"], "sources": ["osm"], "stations": [{"stopCode": 68, "lines": "1", "name": "Federal Way Downtown Station", "walkingMeters": 724, "walkingSeconds": 520, "band": 10}]}, "geometry": {"type": "Point", "coordinates": [-122.3045356, 47.3154244]}}, {"type": "Feature", "properties": {"id": 13235695122, "name": "Lamp", "category": "artwork", "tags": ["artwork"], "sources": ["osm"], "stations": [{"stopCode": 68, "lines": "1", "name": "Federal Way Downtown Station", "walkingMeters": 726, "walkingSeconds": 522, "band": 10}]}, "geometry": {"type": "Point", "coordinates": [-122.3042679, 47.3161747]}}, {"type": "Feature", "properties": {"id": "37ae8964-340d-4882-9991-f2ab503d0d73", "name": "Argyle Apartment Homes", "category": "attraction", "tags": ["attraction", "landmark", "historical", "building"], "sources": ["overture"], "website": "https://theargyleapts.com/", "phone": "+12533674118", "address": "2517 S 316th Ln"}, "geometry": {"type": "Point", "coordinates": [-122.3010635, 47.3191376]}}, {"type": "Feature", "properties": {"id": "5b91b076-a4bc-415d-9e9f-a98dbbdd8700", "name": "Traditions at Federal Way", "category": "attraction", "tags": ["attraction", "landmark", "historical", "building"], "sources": ["overture"], "website": "http://Traditionsatfederalway.com/", "phone": "+12533004079", "address": "31701 Pete von Reichbauer Way S Apt 228", "stations": [{"stopCode": 68, "lines": "1", "name": "Federal Way Downtown Station", "walkingMeters": 457, "walkingSeconds": 328, "band": 5}]}, "geometry": {"type": "Point", "coordinates": [-122.3088913, 47.3175697]}}, {"type": "Feature", "properties": {"id": 161496658, "name": "Town Square Park", "category": "park", "tags": ["park"], "sources": ["osm", "overture"], "website": "http://cityoffederalway.com/page/community-parks-0", "phone": "+12538356960", "address": "31600 Pete von Reichbauer Way S", "hours": "06:00 - 20:00", "stations": [{"stopCode": 68, "lines": "1", "name": "Federal Way Downtown Station", "walkingMeters": 835, "walkingSeconds": 600, "band": 10}]}, "geometry": {"type": "Point", "coordinates": [-122.3071663, 47.3180502]}}, {"type": "Feature", "properties": {"id": 1100979710, "name": "Town Square Rain Garden", "category": "garden", "tags": ["garden"], "sources": ["osm"], "stations": [{"stopCode": 68, "lines": "1", "name": "Federal Way Downtown Station", "walkingMeters": 758, "walkingSeconds": 545, "band": 10}]}, "geometry": {"type": "Point", "coordinates": [-122.306477, 47.3175753]}}, {"type": "Feature", "properties": {"id": "aac7521e-6790-4b38-b2eb-7c03efa60dd8", "name": "Federal Way Interim Sculpture Park", "category": "park", "tags": ["park"], "sources": ["overture"], "address": "2031 S 316th St", "stations": [{"stopCode": 68, "lines": "1", "name": "Federal Way Downtown Station", "walkingMeters": 711, "walkingSeconds": 511, "band": 10}]}, "geometry": {"type": "Point", "coordinates": [-122.3059235, 47.3182526]}}, {"type": "Feature", "properties": {"id": 42391094, "name": "Clarion Hotel", "category": "hotel", "tags": ["hotel"], "sources": ["osm"], "address": "31611 Pete Von Reichbauer Way South", "stations": [{"stopCode": 68, "lines": "1", "name": "Federal Way Downtown Station", "walkingMeters": 617, "walkingSeconds": 444, "band": 10}]}, "geometry": {"type": "Point", "coordinates": [-122.3089447, 47.3183371]}}, {"type": "Feature", "properties": {"id": 85422640, "name": "Best Western Evergreen Inn", "category": "hotel", "tags": ["hotel"], "sources": ["osm"], "address": "32124 25th Avenue South", "stations": [{"stopCode": 68, "lines": "1", "name": "Federal Way Downtown Station", "walkingMeters": 1200, "walkingSeconds": 865, "band": 15}]}, "geometry": {"type": "Point", "coordinates": [-122.3010296, 47.3138536]}}, {"type": "Feature", "properties": {"id": "e898c2c3-c23e-41ed-b507-f64f795d7311", "name": "Best Western Plus Seattle/Federal Way", "category": "hotel", "tags": ["hotel"], "sources": ["overture"], "website": "https://www.bestwestern.com/en_US/book/hotel-rooms.48171.html?iata=00171890&ssob=BLBWI0003G&cid=BLBWI0003G%3Ayext%3Awebsite%3A48171", "phone": "+12535294000", "address": "32124 25th Ave S", "stations": [{"stopCode": 68, "lines": "1", "name": "Federal Way Downtown Station", "walkingMeters": 1115, "walkingSeconds": 803, "band": 15}]}, "geometry": {"type": "Point", "coordinates": [-122.3010864, 47.3138428]}}, {"type": "Feature", "properties": {"id": "ea744c1f-9cdc-42ec-bc31-7e6f25fd054f", "name": "Staybridge Suites Federal Way - Seattle South by IHG", "category": "hotel", "tags": ["hotel", "resort"], "sources": ["overture"], "website": "https://www.ihg.com/spnd/hotels/us/en/federal-way/seafw/hoteldetail?cm_mmc=YextLocal-_-SP-_-US-_-SEAFW", "phone": "2539459833", "address": "32124 25th Avenue S, Building 1", "stations": [{"stopCode": 68, "lines": "1", "name": "Federal Way Downtown Station", "walkingMeters": 1109, "walkingSeconds": 799, "band": 15}]}, "geometry": {"type": "Point", "coordinates": [-122.3012619, 47.3138962]}}, {"type": "Feature", "properties": {"id": "c22b231d-4092-4259-ae82-573f0f0a58e4", "name": "Holiday Inn Express Federal Way - Seattle South by IHG", "category": "hotel", "tags": ["hotel", "resort"], "sources": ["overture"], "website": "https://www.ihg.com/spnd/hotels/us/en/federal-way/seafd/hoteldetail?cm_mmc=YextLocal-_-SP-_-US-_-SEAFD", "phone": "2535294000", "address": "32124 25th Avenue S", "stations": [{"stopCode": 68, "lines": "1", "name": "Federal Way Downtown Station", "walkingMeters": 1198, "walkingSeconds": 863, "band": 15}]}, "geometry": {"type": "Point", "coordinates": [-122.3010406, 47.3139076]}}, {"type": "Feature", "properties": {"id": "334a721c-14ed-4dcd-8448-4b3ddfe1769a", "name": "La Quinta Inn & Suites", "category": "hotel", "tags": ["hotel"], "sources": ["overture"], "website": "http://www.lq.com/?cid=local_7156", "phone": "+12539416000", "address": "31611 Pete von Reichbauer Way S", "stations": [{"stopCode": 68, "lines": "1", "name": "Federal Way Downtown Station", "walkingMeters": 490, "walkingSeconds": 352, "band": 10}]}, "geometry": {"type": "Point", "coordinates": [-122.3087234, 47.3182144]}}, {"type": "Feature", "properties": {"id": "0df2ad3d-4f15-4b70-b8f0-4f47cd4e1df4", "name": "Clarion Hotel Federal Way - Seattle", "category": "hotel", "tags": ["hotel"], "sources": ["overture"], "website": "https://www.choicehotels.com/washington/federal-way/clarion-hotels/wa214?mc=llyxyxpx", "phone": "(253) 941-6000", "address": "31611 Pete Von Reichbauer Way S", "stations": [{"stopCode": 68, "lines": "1", "name": "Federal Way Downtown Station", "walkingMeters": 472, "walkingSeconds": 339, "band": 10}]}, "geometry": {"type": "Point", "coordinates": [-122.3087616, 47.318203]}}, {"type": "Feature", "properties": {"id": "42b8b2e4-58c0-4864-a4f1-11a84fea6dad", "name": "GATEWAY", "category": "mobile_phone", "tags": ["mobile-phone", "mobile"], "sources": ["overture"], "website": "https://www.att.com/stores/washington/federal-way/2499", "address": "2420 S 320th St", "stations": [{"stopCode": 68, "lines": "1", "name": "Federal Way Downtown Station", "walkingMeters": 999, "walkingSeconds": 746, "band": 15}]}, "geometry": {"type": "Point", "coordinates": [-122.3019409, 47.3158798]}}, {"type": "Feature", "properties": {"id": 1279123922, "name": "Target", "category": "department_store", "tags": ["department-store", "department"], "sources": ["osm", "overture"], "website": "https://www.target.com/sl/federal-way/1947", "phone": "+12537337520", "address": "2201 S Commons Federal Way, WA 98003", "hours": "08:00-22:00", "stations": [{"stopCode": 68, "lines": "1", "name": "Federal Way Downtown Station", "walkingMeters": 854, "walkingSeconds": 614, "band": 15}]}, "geometry": {"type": "Point", "coordinates": [-122.3054303, 47.3131675]}}, {"type": "Feature", "properties": {"id": 1758233894, "name": "TJ Maxx", "category": "department_store", "tags": ["department-store", "department"], "sources": ["osm", "overture"], "website": "https://tjmaxx.tjx.com/store/index.jsp", "phone": "+12539462887", "address": "1910 S. 320th Street", "stations": [{"stopCode": 68, "lines": "1", "name": "Federal Way Downtown Station", "walkingMeters": 256, "walkingSeconds": 184, "band": 5}]}, "geometry": {"type": "Point", "coordinates": [-122.3090392, 47.3167956]}}, {"type": "Feature", "properties": {"id": "d219a1c4-4385-4453-8b3f-b970f0e4e06d", "name": "T-Mobile", "category": "mobile_phone", "tags": ["mobile-phone", "mobile"], "sources": ["overture"], "phone": "2534313913", "address": "1941 S Commons", "stations": [{"stopCode": 68, "lines": "1", "name": "Federal Way Downtown Station", "walkingMeters": 759, "walkingSeconds": 546, "band": 15}]}, "geometry": {"type": "Point", "coordinates": [-122.3038406, 47.3129196]}}, {"type": "Feature", "properties": {"id": 1781080139, "name": "AT&T", "category": "mobile_phone", "tags": ["mobile-phone", "mobile"], "sources": ["osm", "overture"], "website": "https://www.att.com/stores/washington/federal-way/201442", "phone": "+12536424888", "address": "1838 S Commons", "stations": [{"stopCode": 68, "lines": "1", "name": "Federal Way Downtown Station", "walkingMeters": 578, "walkingSeconds": 416, "band": 10}]}, "geometry": {"type": "Point", "coordinates": [-122.3097724, 47.3138698]}}, {"type": "Feature", "properties": {"id": 1740008152, "name": "Save by the Day", "category": "department_store", "tags": ["department-store", "variety-store", "discount"], "sources": ["osm", "overture"], "phone": "+12063315113", "address": "1901 S Commons, Mall Entrance", "stations": [{"stopCode": 68, "lines": "1", "name": "Federal Way Downtown Station", "walkingMeters": 855, "walkingSeconds": 616, "band": 15}]}, "geometry": {"type": "Point", "coordinates": [-122.309524, 47.3127104]}}, {"type": "Feature", "properties": {"id": 1780970361, "name": "Big 5 Sporting Goods", "category": "sports", "tags": ["sports"], "sources": ["osm"], "address": "1916 South 320th Street", "stations": [{"stopCode": 68, "lines": "1", "name": "Federal Way Downtown Station", "walkingMeters": 291, "walkingSeconds": 209, "band": 5}]}, "geometry": {"type": "Point", "coordinates": [-122.3085885, 47.3167997]}}, {"type": "Feature", "properties": {"id": 5897068762, "name": "Metro by T-Mobile", "category": "mobile_phone", "tags": ["mobile-phone", "mobile"], "sources": ["osm", "overture"], "website": "https://www.metrobyt-mobile.com/stores/bd/metro-by-t-mobile-federal-way-wa-10221075/?utm_source=facebook&utm_medium=lastmile&utm_campaign=35800", "phone": "+12064602658", "address": "1928 S Commons", "stations": [{"stopCode": 68, "lines": "1", "name": "Federal Way Downtown Station", "walkingMeters": 758, "walkingSeconds": 545, "band": 10}]}, "geometry": {"type": "Point", "coordinates": [-122.307389, 47.3134914]}}, {"type": "Feature", "properties": {"id": 161286836, "name": "Verizon", "category": "mobile_phone", "tags": ["mobile-phone", "mobile"], "sources": ["osm", "overture"], "website": "https://www.verizon.com/stores/details/washington/federal-way/federal-way-322745?CMP=soc_m_p_bld_fbk_ot_23_11_dtr", "phone": "+12535291411", "address": "2125 S 320th St", "stations": [{"stopCode": 68, "lines": "1", "name": "Federal Way Downtown Station", "walkingMeters": 731, "walkingSeconds": 526, "band": 10}]}, "geometry": {"type": "Point", "coordinates": [-122.3056985, 47.3147347]}}, {"type": "Feature", "properties": {"id": 5857343930, "name": "DSW", "category": "shoes", "tags": ["shoes", "shoe"], "sources": ["osm", "overture"], "website": "https://stores.dsw.com/usa/wa/federalway/dsw-designer-shoe-warehouse-seatac-village-shopping-center.html?y_source=1_MTY1MTY1MC01NTktbG9jYXRpb24ud2Vic2l0ZQ%3D%3D", "phone": "+12535291857", "address": "1824 South 320th", "hours": "Mo-Sa 10:00-20:00; Su 11:00-19:00", "stations": [{"stopCode": 68, "lines": "1", "name": "Federal Way Downtown Station", "walkingMeters": 204, "walkingSeconds": 147, "band": 5}]}, "geometry": {"type": "Point", "coordinates": [-122.3097315, 47.3167211]}}, {"type": "Feature", "properties": {"id": "32ae9d9b-2d7d-4038-928c-2d70ee9a1766", "name": "Lane Bryant", "category": "clothes", "tags": ["clothes", "womens"], "sources": ["overture"], "website": "https://stores.lanebryant.com/wa/federal-way/2116-s-commons?y_source=1_MTE3NTU2ODAtNTU5LWxvY2F0aW9uLndlYnNpdGU%3D", "phone": "+12537335451", "address": "2116 S Commons", "stations": [{"stopCode": 68, "lines": "1", "name": "Federal Way Downtown Station", "walkingMeters": 728, "walkingSeconds": 524, "band": 10}]}, "geometry": {"type": "Point", "coordinates": [-122.3069305, 47.3136749]}}, {"type": "Feature", "properties": {"id": "2e86caf0-4eae-47b3-bd94-cf46f81ea205", "name": "Carter's", "category": "clothes", "tags": ["clothes"], "sources": ["overture"], "website": "https://www.carters.com", "phone": "(253) 733-7520", "address": "2201 S Commons", "stations": [{"stopCode": 68, "lines": "1", "name": "Federal Way Downtown Station", "walkingMeters": 865, "walkingSeconds": 622, "band": 15}]}, "geometry": {"type": "Point", "coordinates": [-122.3053055, 47.3130608]}}, {"type": "Feature", "properties": {"id": 5897068768, "name": "Kohl's", "category": "department_store", "tags": ["department-store", "department"], "sources": ["osm", "overture"], "website": "https://www.kohls.com/stores/wa/federalway-1455.shtml?utm_source=rio&utm_medium=referral&utm_campaign=facebook", "phone": "+12539410900", "address": "2101 S Commons", "hours": "Mo-Sa 09:00-21:00; Su 09:00-20:00", "stations": [{"stopCode": 68, "lines": "1", "name": "Federal Way Downtown Station", "walkingMeters": 1093, "walkingSeconds": 787, "band": 10}]}, "geometry": {"type": "Point", "coordinates": [-122.3065746, 47.3128301]}}, {"type": "Feature", "properties": {"id": 5897068742, "name": "Bath & Body Works", "category": "cosmetics", "tags": ["cosmetics"], "sources": ["osm"], "stations": [{"stopCode": 68, "lines": "1", "name": "Federal Way Downtown Station", "walkingMeters": 604, "walkingSeconds": 435, "band": 10}]}, "geometry": {"type": "Point", "coordinates": [-122.3089476, 47.3136931]}}, {"type": "Feature", "properties": {"id": 3696218498, "name": "Mary Jane's House of Glass", "category": "cannabis", "tags": ["cannabis", "clinic"], "sources": ["osm", "overture"], "website": "http://www.maryjaneshouseofglass.net", "phone": "+12538391717", "address": "32044 23rd Ave S Suite #10", "stations": [{"stopCode": 68, "lines": "1", "name": "Federal Way Downtown Station", "walkingMeters": 1041, "walkingSeconds": 750, "band": 15}]}, "geometry": {"type": "Point", "coordinates": [-122.3031782, 47.3136952]}}, {"type": "Feature", "properties": {"id": 5897068761, "name": "Famous Footwear", "category": "shoes", "tags": ["shoes"], "sources": ["osm"], "stations": [{"stopCode": 68, "lines": "1", "name": "Federal Way Downtown Station", "walkingMeters": 755, "walkingSeconds": 543, "band": 10}]}, "geometry": {"type": "Point", "coordinates": [-122.3072124, 47.3135099]}}, {"type": "Feature", "properties": {"id": "6c76cfce-75f8-4ca8-ae26-300c30e3f0ff", "name": "Rocket", "category": "convenience", "tags": ["convenience"], "sources": ["overture"], "website": "https://rocketstores.com/", "phone": "+12539415999", "address": "2535 S 320th St", "stations": [{"stopCode": 68, "lines": "1", "name": "Federal Way Downtown Station", "walkingMeters": 1096, "walkingSeconds": 793, "band": 15}]}, "geometry": {"type": "Point", "coordinates": [-122.3004456, 47.3146629]}}, {"type": "Feature", "properties": {"id": 5897068758, "name": "Zumiez", "category": "clothes", "tags": ["clothes"], "sources": ["osm", "overture"], "website": "http://www.zumiez.com/storelocator/store/index/id/736/Federal%20Way/Commons%20at%20Federal%20Way", "phone": "(253) 946-3347", "address": "1940 S Commons", "stations": [{"stopCode": 68, "lines": "1", "name": "Federal Way Downtown Station", "walkingMeters": 628, "walkingSeconds": 452, "band": 10}]}, "geometry": {"type": "Point", "coordinates": [-122.3077394, 47.3136654]}}, {"type": "Feature", "properties": {"id": 5897068724, "name": "Five Star Workwear", "category": "clothes", "tags": ["clothes"], "sources": ["osm"], "stations": [{"stopCode": 68, "lines": "1", "name": "Federal Way Downtown Station", "walkingMeters": 576, "walkingSeconds": 414, "band": 10}]}, "geometry": {"type": "Point", "coordinates": [-122.309781, 47.3136392]}}, {"type": "Feature", "properties": {"id": 5897068733, "name": "Foot Locker", "category": "shoes", "tags": ["shoes", "shoe"], "sources": ["osm", "overture"], "website": "https://stores.footlocker.com/us/wa/federal-way/1927-s-commons.html", "phone": "(253) 941-2742", "address": "1927 S Commons Ste E16", "stations": [{"stopCode": 68, "lines": "1", "name": "Federal Way Downtown Station", "walkingMeters": 985, "walkingSeconds": 709, "band": 10}]}, "geometry": {"type": "Point", "coordinates": [-122.3085979, 47.3132466]}}, {"type": "Feature", "properties": {"id": 5897068734, "name": "Canal St", "category": "clothes", "tags": ["clothes"], "sources": ["osm"], "stations": [{"stopCode": 68, "lines": "1", "name": "Federal Way Downtown Station", "walkingMeters": 985, "walkingSeconds": 709, "band": 10}]}, "geometry": {"type": "Point", "coordinates": [-122.308452, 47.3132497]}}, {"type": "Feature", "properties": {"id": 5897068738, "name": "Michelle Fine Jewelry", "category": "jewelry", "tags": ["jewelry"], "sources": ["osm", "overture"], "phone": "+12538391613", "address": "1928 S Commons B8", "stations": [{"stopCode": 68, "lines": "1", "name": "Federal Way Downtown Station", "walkingMeters": 611, "walkingSeconds": 440, "band": 10}]}, "geometry": {"type": "Point", "coordinates": [-122.3093155, 47.3136993]}}, {"type": "Feature", "properties": {"id": 5897068739, "name": "Champs Sports", "category": "sports", "tags": ["sports"], "sources": ["osm"], "website": "https://stores.champssports.com/wa/federalway/1920-s-commons-14492.html", "stations": [{"stopCode": 68, "lines": "1", "name": "Federal Way Downtown Station", "walkingMeters": 627, "walkingSeconds": 452, "band": 10}]}, "geometry": {"type": "Point", "coordinates": [-122.308475, 47.3136747]}}, {"type": "Feature", "properties": {"id": 5897068741, "name": "Zayra's Fashion", "category": "clothes", "tags": ["clothes"], "sources": ["osm"], "stations": [{"stopCode": 68, "lines": "1", "name": "Federal Way Downtown Station", "walkingMeters": 601, "walkingSeconds": 432, "band": 10}]}, "geometry": {"type": "Point", "coordinates": [-122.3088318, 47.3136962]}}, {"type": "Feature", "properties": {"id": 5897068743, "name": "Hat Stop", "category": "clothes", "tags": ["clothes"], "sources": ["osm"], "stations": [{"stopCode": 68, "lines": "1", "name": "Federal Way Downtown Station", "walkingMeters": 611, "walkingSeconds": 440, "band": 10}]}, "geometry": {"type": "Point", "coordinates": [-122.3090748, 47.3136993]}}, {"type": "Feature", "properties": {"id": 5897068755, "name": "Idola Collection", "category": "jewelry", "tags": ["jewelry"], "sources": ["osm"], "stations": [{"stopCode": 68, "lines": "1", "name": "Federal Way Downtown Station", "walkingMeters": 759, "walkingSeconds": 546, "band": 10}]}, "geometry": {"type": "Point", "coordinates": [-122.307805, 47.3134668]}}, {"type": "Feature", "properties": {"id": "40ef8e97-39ec-4740-ad1c-80d04fffecde", "name": "American Eagle Outfitters", "category": "clothes", "tags": ["clothes"], "sources": ["overture"], "website": "http://www.ae.com", "phone": "(253) 529-1578", "address": "1920 S Commons", "stations": [{"stopCode": 68, "lines": "1", "name": "Federal Way Downtown Station", "walkingMeters": 985, "walkingSeconds": 709, "band": 10}]}, "geometry": {"type": "Point", "coordinates": [-122.3083344, 47.313385]}}, {"type": "Feature", "properties": {"id": 85422642, "name": "My Goods Market", "category": "convenience", "tags": ["convenience"], "sources": ["osm"], "address": "2535 South 320th Street", "stations": [{"stopCode": 68, "lines": "1", "name": "Federal Way Downtown Station", "walkingMeters": 1108, "walkingSeconds": 802, "band": 15}]}, "geometry": {"type": "Point", "coordinates": [-122.3001983, 47.3145297]}}, {"type": "Feature", "properties": {"id": "03ea2d68-bc8a-4f4b-b110-116510ef1cd8", "name": "Kay Jewelers", "category": "jewelry", "tags": ["jewelry"], "sources": ["overture"], "website": "http://www.kay.com/", "phone": "2538396232", "address": "1936 S Commons The Commons At Federal Way", "stations": [{"stopCode": 68, "lines": "1", "name": "Federal Way Downtown Station", "walkingMeters": 754, "walkingSeconds": 542, "band": 10}]}, "geometry": {"type": "Point", "coordinates": [-122.3069458, 47.3135185]}}, {"type": "Feature", "properties": {"id": "e21b0fbf-e4e3-4993-bbc8-b28b07ebea28", "name": "At&t Store", "category": "mobile_phone", "tags": ["mobile-phone", "mobile"], "sources": ["overture"], "website": "https://www.att.com", "phone": "12535290448", "address": "2420 S 320th St", "stations": [{"stopCode": 68, "lines": "1", "name": "Federal Way Downtown Station", "walkingMeters": 973, "walkingSeconds": 699, "band": 15}]}, "geometry": {"type": "Point", "coordinates": [-122.3019867, 47.3158493]}}, {"type": "Feature", "properties": {"id": "f7cb95ec-ddda-4d54-8159-0095fdff6e0c", "name": "Sears", "category": "department_store", "tags": ["department-store", "department"], "sources": ["overture"], "website": "https://www.sears.com/stores/washington/federal-way/0001099.html", "phone": "2535298200", "address": "1701 S Commons", "stations": [{"stopCode": 68, "lines": "1", "name": "Federal Way Downtown Station", "walkingMeters": 983, "walkingSeconds": 708, "band": 15}]}, "geometry": {"type": "Point", "coordinates": [-122.3086853, 47.312748]}}, {"type": "Feature", "properties": {"id": "b018e4e9-3fe3-49e5-bdc8-fa863ff7a966", "name": "New WORLD Market", "category": "supermarket", "tags": ["supermarket"], "sources": ["overture"], "phone": "+12066537754", "address": "2200 S 320th St", "stations": [{"stopCode": 68, "lines": "1", "name": "Federal Way Downtown Station", "walkingMeters": 708, "walkingSeconds": 509, "band": 10}]}, "geometry": {"type": "Point", "coordinates": [-122.304657, 47.3169479]}}, {"type": "Feature", "properties": {"id": "d8abfc4d-1f1d-439f-a8c3-2cb3a5a9978a", "name": "Amazon Fresh", "category": "supermarket", "tags": ["supermarket"], "sources": ["overture"], "website": "amazonfresh.com", "phone": "18002500668", "address": "1701 S Commons", "stations": [{"stopCode": 68, "lines": "1", "name": "Federal Way Downtown Station", "walkingMeters": 892, "walkingSeconds": 666, "band": 15}]}, "geometry": {"type": "Point", "coordinates": [-122.3051834, 47.3129082]}}, {"type": "Feature", "properties": {"id": "6c2f9fa5-d737-4a9d-9692-0472becf13aa", "name": "Style Central", "category": "clothes", "tags": ["clothes"], "sources": ["overture"], "phone": "+12067854459", "address": "1907 S Commons", "stations": [{"stopCode": 68, "lines": "1", "name": "Federal Way Downtown Station", "walkingMeters": 591, "walkingSeconds": 441, "band": 10}]}, "geometry": {"type": "Point", "coordinates": [-122.3093262, 47.3133316]}}, {"type": "Feature", "properties": {"id": "d0e47f77-b826-44c0-a791-e1cefa82e0a2", "name": "Go! Calendars & Games", "category": "toys", "tags": ["toys"], "sources": ["overture"], "website": "http://www.goretailgroup.com/", "phone": "2539410544", "address": "1928 S Commons Spc B-30", "stations": [{"stopCode": 68, "lines": "1", "name": "Federal Way Downtown Station", "walkingMeters": 616, "walkingSeconds": 443, "band": 10}]}, "geometry": {"type": "Point", "coordinates": [-122.3086166, 47.3137169]}}, {"type": "Feature", "properties": {"id": "61d6328e-dbfd-45ba-b325-5fd02332a458", "name": "Positive Vibes", "category": "clothes", "tags": ["clothes", "womens"], "sources": ["overture"], "website": "http://positivevibesonline1111.com", "phone": "+12535297280", "address": "1928 S Commons", "stations": [{"stopCode": 68, "lines": "1", "name": "Federal Way Downtown Station", "walkingMeters": 602, "walkingSeconds": 434, "band": 10}]}, "geometry": {"type": "Point", "coordinates": [-122.308609, 47.3137207]}}, {"type": "Feature", "properties": {"id": "73797f94-01c9-4e99-b48c-f4543c4b00b6", "name": "Kika's Fashion", "category": "clothes", "tags": ["clothes", "womens"], "sources": ["overture"], "phone": "+12535291920", "address": "1928 S Commons B16", "stations": [{"stopCode": 68, "lines": "1", "name": "Federal Way Downtown Station", "walkingMeters": 576, "walkingSeconds": 430, "band": 10}]}, "geometry": {"type": "Point", "coordinates": [-122.3088379, 47.3136444]}}, {"type": "Feature", "properties": {"id": "73c6cdbf-20fa-42a1-87a3-b53c0c11cb93", "name": "Hickory Farms Holiday Market", "category": "gift", "tags": ["gift"], "sources": ["overture"], "website": "http://www.hickoryfarms.com/", "phone": "2532933098", "address": "1928 S Commons, The Commons at Federal Way", "stations": [{"stopCode": 68, "lines": "1", "name": "Federal Way Downtown Station", "walkingMeters": 985, "walkingSeconds": 709, "band": 15}]}, "geometry": {"type": "Point", "coordinates": [-122.3082275, 47.3131752]}}, {"type": "Feature", "properties": {"id": "5fac379e-20c5-4f0d-8ec3-0ec5634c4410", "name": "Cellaxs Phone Repair Experts", "category": "mobile_phone", "tags": ["mobile-phone", "mobile"], "sources": ["overture"], "website": "https://cellaxs.com/locations/cellaxs-phone-repair-commons-mall-federal-way-washington/", "phone": "+12532013742", "address": "1928 S Commons", "stations": [{"stopCode": 68, "lines": "1", "name": "Federal Way Downtown Station", "walkingMeters": 625, "walkingSeconds": 450, "band": 10}]}, "geometry": {"type": "Point", "coordinates": [-122.3082657, 47.3134766]}}, {"type": "Feature", "properties": {"id": "34ca57df-5329-4807-a0f8-0602d2b7a551", "name": "Things Remembered", "category": "gift", "tags": ["gift"], "sources": ["overture"], "website": "http://locations.thingsremembered.com/federal-way-wa-98003", "phone": "2539463454", "address": "1828 S Commons", "stations": [{"stopCode": 68, "lines": "1", "name": "Federal Way Downtown Station", "walkingMeters": 606, "walkingSeconds": 437, "band": 10}]}, "geometry": {"type": "Point", "coordinates": [-122.3081894, 47.3140869]}}, {"type": "Feature", "properties": {"id": "01e88a98-fdfc-4408-bf30-20900261eeac", "name": "Catherines", "category": "clothes", "tags": ["clothes", "womens"], "sources": ["overture"], "website": "https://stores.catherines.com/wa/federalway/plus-size-clothing-federalway-wa-5570.html", "phone": "2537335446", "address": "2114 S Commons Ste C1", "stations": [{"stopCode": 68, "lines": "1", "name": "Federal Way Downtown Station", "walkingMeters": 971, "walkingSeconds": 699, "band": 15}]}, "geometry": {"type": "Point", "coordinates": [-122.3080139, 47.312294]}}, {"type": "Feature", "properties": {"id": "14046e90-1d09-4888-ba8b-0f9fb3bf8342", "name": "Phone Factory Sales & Service", "category": "mobile_phone", "tags": ["mobile-phone", "mobile"], "sources": ["overture"], "website": "http://www.phonefactoryusa.com/", "phone": "+12065793935", "address": "2016 S 320th St Ste o", "stations": [{"stopCode": 68, "lines": "1", "name": "Federal Way Downtown Station", "walkingMeters": 546, "walkingSeconds": 393, "band": 10}]}, "geometry": {"type": "Point", "coordinates": [-122.3067856, 47.3164101]}}, {"type": "Feature", "properties": {"id": "e3fc400e-6781-478b-9416-25fa764cc368", "name": "Coin & Jewelry Palace", "category": "jewelry", "tags": ["jewelry"], "sources": ["overture"], "phone": "+12538394936", "address": "2016 S 320th St Ste D", "stations": [{"stopCode": 68, "lines": "1", "name": "Federal Way Downtown Station", "walkingMeters": 488, "walkingSeconds": 364, "band": 10}]}, "geometry": {"type": "Point", "coordinates": [-122.3070602, 47.316597]}}, {"type": "Feature", "properties": {"id": "28e936ba-4fbe-4ad7-b31b-fc48b566c17d", "name": "American Best Food Corp", "category": "supermarket", "tags": ["supermarket"], "sources": ["overture"], "website": "https://www.afcfoodconcepts.com", "address": "2012 S 320th St", "stations": [{"stopCode": 68, "lines": "1", "name": "Federal Way Downtown Station", "walkingMeters": 476, "walkingSeconds": 355, "band": 5}]}, "geometry": {"type": "Point", "coordinates": [-122.3071747, 47.3166389]}}, {"type": "Feature", "properties": {"id": "5cc6c085-8bfc-49f5-a034-9611b584aabf", "name": "Cvs Pharmacy", "category": "pharmacy", "tags": ["pharmacy"], "sources": ["overture"], "website": "https://www.cvs.com", "phone": "12537337521", "address": "2201 S Commons", "stations": [{"stopCode": 68, "lines": "1", "name": "Federal Way Downtown Station", "walkingMeters": 1130, "walkingSeconds": 813, "band": 15}]}, "geometry": {"type": "Point", "coordinates": [-122.3052521, 47.3130417]}}, {"type": "Feature", "properties": {"id": 5902899187, "name": "Indigo Urgent Care", "category": "clinic", "tags": ["clinic", "wheelchair-accessible"], "sources": ["osm"], "website": "https://www.indigohealth.com/", "phone": "+1-253-652-7215", "hours": "Mo-Su 08:00-20:00", "stations": [{"stopCode": 68, "lines": "1", "name": "Federal Way Downtown Station", "walkingMeters": 1110, "walkingSeconds": 798, "band": 15}]}, "geometry": {"type": "Point", "coordinates": [-122.3005964, 47.3163565]}}, {"type": "Feature", "properties": {"id": "5b339d81-4615-4e22-8d04-736c77746e4b", "name": "Mary Bridge Children's - Federal Way Clinic", "category": "hospital", "tags": ["hospital"], "sources": ["overture"], "website": "https://www.marybridge.org/locations/federal-way-clinic/", "address": "31861 Gateway Center Blvd S", "stations": [{"stopCode": 68, "lines": "1", "name": "Federal Way Downtown Station", "walkingMeters": 1143, "walkingSeconds": 822, "band": 15}]}, "geometry": {"type": "Point", "coordinates": [-122.3004913, 47.3163185]}}, {"type": "Feature", "properties": {"id": "95af2c6c-7494-4e4e-bd6f-64c945ffaed0", "name": "Indigo Urgent Care - Federal Way", "category": "clinic", "tags": ["clinic", "medical"], "sources": ["overture"], "website": "https://www.indigohealth.com/locations/urgent-care-federal-way/", "phone": "+12536527215", "address": "31861 Gateway Center Blvd S", "stations": [{"stopCode": 68, "lines": "1", "name": "Federal Way Downtown Station", "walkingMeters": 1143, "walkingSeconds": 822, "band": 15}]}, "geometry": {"type": "Point", "coordinates": [-122.3003845, 47.3165627]}}, {"type": "Feature", "properties": {"id": 42391092, "name": "Qualstar Credit Union", "category": "bank", "tags": ["bank"], "sources": ["osm"], "address": "1825 South 316th Street", "stations": [{"stopCode": 68, "lines": "1", "name": "Federal Way Downtown Station", "walkingMeters": 570, "walkingSeconds": 410, "band": 10}]}, "geometry": {"type": "Point", "coordinates": [-122.3099446, 47.3184825]}}, {"type": "Feature", "properties": {"id": "4db0946d-ad0c-4708-97d5-fabb3bf47f9a", "name": "WaFd Bank", "category": "bank", "tags": ["bank", "credit", "union"], "sources": ["overture"], "website": "https://www.wafdbank.com/locations/washington/federal-way?utm_source=ExtNet&utm_medium=yext", "phone": "2539413805", "address": "2020 320th Street, Suite A", "stations": [{"stopCode": 68, "lines": "1", "name": "Federal Way Downtown Station", "walkingMeters": 524, "walkingSeconds": 377, "band": 10}]}, "geometry": {"type": "Point", "coordinates": [-122.3070908, 47.3160934]}}, {"type": "Feature", "properties": {"id": 42238015, "name": "Columbia Bank", "category": "bank", "tags": ["bank"], "sources": ["osm"], "address": "1900 South 320th Street", "stations": [{"stopCode": 68, "lines": "1", "name": "Federal Way Downtown Station", "walkingMeters": 365, "walkingSeconds": 263, "band": 5}]}, "geometry": {"type": "Point", "coordinates": [-122.3091091, 47.3154845]}}, {"type": "Feature", "properties": {"id": "11f2e267-7e27-43e6-9b6e-c752c5c65824", "name": "Bank of America ATM", "category": "bank", "tags": ["bank", "credit", "union"], "sources": ["overture"], "phone": "8004426680", "address": "31515 20th Ave S", "stations": [{"stopCode": 68, "lines": "1", "name": "Federal Way Downtown Station", "walkingMeters": 522, "walkingSeconds": 377, "band": 10}]}, "geometry": {"type": "Point", "coordinates": [-122.3081131, 47.3189278]}}, {"type": "Feature", "properties": {"id": "533e0877-993d-4d4c-a6e9-fbe4c22aaf17", "name": "Bank of America ATM", "category": "bank", "tags": ["bank", "credit", "union"], "sources": ["overture"], "website": "https://locators.bankofamerica.com/wa/federalway/atm-federal-way-105489.html", "phone": "8444018500", "address": "1928 S Commons", "stations": [{"stopCode": 68, "lines": "1", "name": "Federal Way Downtown Station", "walkingMeters": 588, "walkingSeconds": 423, "band": 10}]}, "geometry": {"type": "Point", "coordinates": [-122.3096619, 47.3138542]}}, {"type": "Feature", "properties": {"id": "a56b6b0c-3140-497a-bad2-10a65effd390", "name": "Platform Wealth", "category": "bank", "tags": ["bank", "credit", "union"], "sources": ["overture"], "website": "https://www.platformwealthllc.com/", "phone": "2536001233", "address": "2505 S 320th St Ste 105", "stations": [{"stopCode": 68, "lines": "1", "name": "Federal Way Downtown Station", "walkingMeters": 1092, "walkingSeconds": 787, "band": 15}]}, "geometry": {"type": "Point", "coordinates": [-122.3009338, 47.3143883]}}, {"type": "Feature", "properties": {"id": 4459902596, "name": "Expand Yoga - Federal Way", "category": "fitness_centre", "tags": ["fitness-centre", "yoga"], "sources": ["osm"], "website": "https://www.expandyoga.com/", "phone": "+1-253-886-7820", "address": "31839 Gateway Center Boulevard South", "stations": [{"stopCode": 68, "lines": "1", "name": "Federal Way Downtown Station", "walkingMeters": 1191, "walkingSeconds": 856, "band": 15}]}, "geometry": {"type": "Point", "coordinates": [-122.3003617, 47.3168634]}}, {"type": "Feature", "properties": {"id": "02b83015-878a-4b6d-91b3-862d20ffb4aa", "name": "Hotworx", "category": "fitness_centre", "tags": ["fitness-centre", "gym"], "sources": ["overture"], "website": "https://facebook.com/HOTWORXFederalWay", "phone": "+12532143537", "address": "2016 S 320th St", "stations": [{"stopCode": 68, "lines": "1", "name": "Federal Way Downtown Station", "walkingMeters": 537, "walkingSeconds": 386, "band": 10}]}, "geometry": {"type": "Point", "coordinates": [-122.3068161, 47.3166885]}}, {"type": "Feature", "properties": {"id": "1fa6c584-f981-4ef9-b9cc-a586d56e16b0", "name": "Curves", "category": "fitness_centre", "tags": ["fitness-centre", "gym"], "sources": ["overture"], "website": "https://www.curves.com/FederalWayWA", "phone": "+12536617701", "address": "1900 S Commons", "stations": [{"stopCode": 68, "lines": "1", "name": "Federal Way Downtown Station", "walkingMeters": 609, "walkingSeconds": 439, "band": 10}]}, "geometry": {"type": "Point", "coordinates": [-122.3080139, 47.3137016]}}, {"type": "Feature", "properties": {"id": "f990d64c-3976-4e8d-a81e-47cef2eb6784", "name": "Expand Yoga", "category": "fitness_centre", "tags": ["fitness-centre", "yoga", "studio"], "sources": ["overture"], "website": "http://www.expandyoga.com/", "phone": "+12538867820", "address": "31839 Gateway Center Blvd S", "stations": [{"stopCode": 68, "lines": "1", "name": "Federal Way Downtown Station", "walkingMeters": 1150, "walkingSeconds": 858, "band": 15}]}, "geometry": {"type": "Point", "coordinates": [-122.3002701, 47.3168526]}}, {"type": "Feature", "properties": {"id": "7f6f95a4-5e33-4b8e-9b8f-d85fae7ce5b2", "name": "Hot Yoga - Federal Way", "category": "fitness_centre", "tags": ["fitness-centre", "yoga", "studio"], "sources": ["overture"], "website": "https://hotyogainc.com", "phone": "+12535280880", "address": "31839 Gateway Center Blvd S", "stations": [{"stopCode": 68, "lines": "1", "name": "Federal Way Downtown Station", "walkingMeters": 1162, "walkingSeconds": 867, "band": 15}]}, "geometry": {"type": "Point", "coordinates": [-122.3001404, 47.3169212]}}]}