{"type": "FeatureCollection", "features": [{"type": "Feature", "properties": {"id": "105c8a54-62ab-4003-8b15-8fce1fa6e212", "name": "Starbucks", "category": "cafe", "tags": ["cafe", "coffee"], "sources": ["overture"], "website": "https://www.starbucks.com/store-locator/store/18811/", "phone": "2064869700", "address": "4800 Sand Point Way NE"}, "geometry": {"type": "Point", "coordinates": [-122.2819824, 47.6628418]}}, {"type": "Feature", "properties": {"id": 2464020556, "name": "Toshi's Teriyaki", "category": "cafe", "tags": ["cafe", "teriyaki", "restaurant", "japanese", "asian"], "sources": ["osm", "overture"], "website": "https://toshi-s-teriyaki-the-original.hub.biz", "phone": "+12065241174", "address": "3715 NE 45th St"}, "geometry": {"type": "Point", "coordinates": [-122.2876503, 47.6608237]}}, {"type": "Feature", "properties": {"id": "6076bca2-5b0b-412c-b5a0-cf6d410f10eb", "name": "El Camion", "category": "fast_food", "tags": ["fast-food", "food", "truck", "mexican", "taco"], "sources": ["overture"], "website": "http://www.elcamionseattle.com", "phone": "+12067790244", "address": "4529 Sand Point Way NE"}, "geometry": {"type": "Point", "coordinates": [-122.287323, 47.6615677]}}, {"type": "Feature", "properties": {"id": 2461869487, "name": "Great State Burger - Laurelhurst", "category": "restaurant", "tags": ["restaurant", "burger"], "sources": ["osm"], "website": "https://greatstateburger.com", "phone": "+1-206-775-8990", "address": "3600 Northeast 45th Street", "hours": "Mo-Fr 11:00-21:00; Sa-Su 09:30-21:00"}, "geometry": {"type": "Point", "coordinates": [-122.2886113, 47.6613226]}}, {"type": "Feature", "properties": {"id": 2461869619, "name": "Yummy Caf\u00e9", "category": "restaurant", "tags": ["restaurant", "chinese", "asian"], "sources": ["osm", "overture"], "website": "http://www.yummycaferestaurant.com", "phone": "+12065280570", "address": "4008 NE 55th St"}, "geometry": {"type": "Point", "coordinates": [-122.2842517, 47.6686261]}}, {"type": "Feature", "properties": {"id": 2461869746, "name": "El Cami\u00f3n Laurelhurst Truck", "category": "restaurant", "tags": ["restaurant", "mexican", "outdoor-seating", "takeaway", "breakfast", "lunch", "dinner"], "sources": ["osm"], "website": "https://www.elcamionseattle.com/laurelhurst-truck-on-sand-point-way/", "address": "4529 Sand Point Way Northeast", "hours": "Mo-Su 11:00-23:00"}, "geometry": {"type": "Point", "coordinates": [-122.287362, 47.6615573]}}, {"type": "Feature", "properties": {"id": 2464020512, "name": "Varlamos Pizzeria", "category": "restaurant", "tags": ["restaurant", "pizza", "italian"], "sources": ["osm", "overture"], "website": "http://varlamospizza.com/", "phone": "+12065228515", "address": "3617 NE 45th St"}, "geometry": {"type": "Point", "coordinates": [-122.2884327, 47.6609824]}}, {"type": "Feature", "properties": {"id": 2464020565, "name": "Marlai Fine Thai Cuisine", "category": "restaurant", "tags": ["restaurant", "thai"], "sources": ["osm"], "website": "http://marlaithai.com", "address": "3719 Northeast 45th Street"}, "geometry": {"type": "Point", "coordinates": [-122.287366, 47.6611288]}}, {"type": "Feature", "properties": {"id": "a25b9603-0d6f-4d2c-a1ac-7283db79c4a9", "name": "Great State Burger", "category": "restaurant", "tags": ["restaurant", "burger", "american"], "sources": ["overture"], "website": "http://www.greatstateburger.com/", "phone": "+12067758990", "address": "3600 NE 45th St"}, "geometry": {"type": "Point", "coordinates": [-122.2886581, 47.6612701]}}, {"type": "Feature", "properties": {"id": 12732353901, "name": "Maharaja Cuisine of India", "category": "restaurant", "tags": ["restaurant", "indian"], "sources": ["osm"], "website": "https://seattlemaharajacuisine.com", "address": "3701 Northeast 45th Street", "hours": "Su-Fr 11:00-00:45; Sa 11:00-12:00"}, "geometry": {"type": "Point", "coordinates": [-122.288044, 47.661033]}}, {"type": "Feature", "properties": {"id": 5777079153, "name": "Burke-Gilman Brewing Company", "category": "pub", "tags": ["pub", "wheelchair-accessible", "bar", "brewery"], "sources": ["osm", "overture"], "website": "http://www.burkegilmanbrewing.com/", "phone": "+12062680220", "address": "3626 NE 45th St #102", "hours": "Mo-Th 14:00-22:00; Fr,Sa 12:00-23:00; Su 12:00-22:00"}, "geometry": {"type": "Point", "coordinates": [-122.2881595, 47.6614079]}}, {"type": "Feature", "properties": {"id": 7816073684, "name": "BARlamos", "category": "bar", "tags": ["bar"], "sources": ["osm"], "website": "http://varlamospizza.com"}, "geometry": {"type": "Point", "coordinates": [-122.2883733, 47.6609842]}}, {"type": "Feature", "properties": {"id": "afa4659a-0db4-4eab-aeb0-19e0fb80b962", "name": "Can Am Pizza Two For One", "category": "restaurant", "tags": ["restaurant"], "sources": ["overture"], "address": "3600 NE 45th St"}, "geometry": {"type": "Point", "coordinates": [-122.2889328, 47.6613121]}}, {"type": "Feature", "properties": {"id": "ff4dd4c4-de1e-452f-97fc-4219192fcf60", "name": "Violet Sweet Shoppe", "category": "bakery", "tags": ["bakery"], "sources": ["overture"], "website": "http://violetsweetshoppe.com", "phone": "(206) 523-3711", "address": "3612 NE 45th St"}, "geometry": {"type": "Point", "coordinates": [-122.2889252, 47.6612549]}}, {"type": "Feature", "properties": {"id": "aa843b07-6483-45bb-9e98-0692a69cd6c5", "name": "Union Bay Cafe", "category": "restaurant", "tags": ["restaurant"], "sources": ["overture"], "website": "http://unionbaycafe.com/", "phone": "(206) 527-8364", "address": "3515 NE 45th St"}, "geometry": {"type": "Point", "coordinates": [-122.2894897, 47.6608963]}}, {"type": "Feature", "properties": {"id": "103f41c0-8079-46e2-9119-2bba053bcd34", "name": "Enotria", "category": "restaurant", "tags": ["restaurant", "italian"], "sources": ["overture"], "website": "http://www.enotriaseattle.com/", "phone": "(206) 527-5039", "address": "3515 NE 45th St"}, "geometry": {"type": "Point", "coordinates": [-122.2894897, 47.6608963]}}, {"type": "Feature", "properties": {"id": "b9a50e44-1290-4d8b-8863-7188f06ea10d", "name": "Chlo\u00e9", "category": "restaurant", "tags": ["restaurant", "french"], "sources": ["overture"], "website": "http://www.chloebistrot.com", "phone": "(206) 257-0286", "address": "3515 NE 45th St"}, "geometry": {"type": "Point", "coordinates": [-122.289505, 47.6609535]}}, {"type": "Feature", "properties": {"id": "0c1d1e41-1cf5-43a5-9193-a52ae167af0c", "name": "Marlai Thai Cuisine", "category": "restaurant", "tags": ["restaurant", "thai"], "sources": ["overture"], "website": "https://marlaithai.com", "phone": "12065233200", "address": "3719 NE 45th St"}, "geometry": {"type": "Point", "coordinates": [-122.288002, 47.6609726]}}, {"type": "Feature", "properties": {"id": "7180f7d9-e375-406e-86ac-fed931553853", "name": "Jak's Grill", "category": "restaurant", "tags": ["restaurant", "steakhouse"], "sources": ["overture"], "website": "http://jaksgrill.com/laurelhurst/", "phone": "2065584453", "address": "3701 NE 45th St"}, "geometry": {"type": "Point", "coordinates": [-122.2880478, 47.6610336]}}, {"type": "Feature", "properties": {"id": "24263c3b-934d-4988-94b3-90384de2bbe3", "name": "Trou Down Restaurant Iii Inc", "category": "restaurant", "tags": ["restaurant"], "sources": ["overture"], "address": "3701 NE 45th St"}, "geometry": {"type": "Point", "coordinates": [-122.2880707, 47.6609993]}}, {"type": "Feature", "properties": {"id": 3211770282, "name": "Sundial", "category": "artwork", "tags": ["artwork"], "sources": ["osm"]}, "geometry": {"type": "Point", "coordinates": [-122.2818, 47.667267]}}, {"type": "Feature", "properties": {"id": 3211770283, "name": "Duck Windvane", "category": "artwork", "tags": ["artwork"], "sources": ["osm"], "address": "5201 Sand Point Place Northeast"}, "geometry": {"type": "Point", "coordinates": [-122.2813, 47.6673]}}, {"type": "Feature", "properties": {"id": 13838864945, "name": "Story Pole", "category": "artwork", "tags": ["artwork"], "sources": ["osm"]}, "geometry": {"type": "Point", "coordinates": [-122.2837522, 47.6628554]}}, {"type": "Feature", "properties": {"id": 50536576, "name": "Pathways Park", "category": "park", "tags": ["park"], "sources": ["osm"], "website": "https://www.seattle.gov/parks/allparks/pathways-park"}, "geometry": {"type": "Point", "coordinates": [-122.2827083, 47.6665495]}}, {"type": "Feature", "properties": {"id": "6426fdeb-b728-40f2-961f-54313adb965d", "name": "Pathways Park", "category": "playground", "tags": ["playground"], "sources": ["overture"], "address": "5201 Sand Point Way NE"}, "geometry": {"type": "Point", "coordinates": [-122.2816391, 47.6673126]}}, {"type": "Feature", "properties": {"id": 1154044671, "name": "Treuman Katz Sculpture Garden", "category": "garden", "tags": ["garden"], "sources": ["osm"]}, "geometry": {"type": "Point", "coordinates": [-122.2813576, 47.6614813]}}, {"type": "Feature", "properties": {"id": "d04331bb-1816-49b5-9f2b-8a8a0a747b15", "name": "Bryant Elementary Playground", "category": "park", "tags": ["park"], "sources": ["overture"], "address": "Bryant Elementary Playground"}, "geometry": {"type": "Point", "coordinates": [-122.2843933, 47.6644173]}}, {"type": "Feature", "properties": {"id": "233ade17-1bbc-4ad9-8d14-e7bf5d513be3", "name": "Burke-Gilman Playground Park", "category": "playground", "tags": ["playground"], "sources": ["overture"], "website": "http://www.seattle.gov/parks/find/parks/burke-gilman-playground-park", "phone": "2066844075", "address": "5201 Sand Point Way NE"}, "geometry": {"type": "Point", "coordinates": [-122.282959, 47.6665993]}}, {"type": "Feature", "properties": {"id": "1c13314e-43c5-4983-bbbd-413c261d2069", "name": "Burke-Gilman Playground Park", "category": "playground", "tags": ["playground"], "sources": ["overture"], "website": "http://seattle.gov/parks/park_detail.asp?ID=496", "phone": "(206) 684-4075", "address": "5201 Sand Point Pl NE"}, "geometry": {"type": "Point", "coordinates": [-122.2815704, 47.6676216]}}, {"type": "Feature", "properties": {"id": 160549407, "name": "Metropolitan Market", "category": "supermarket", "tags": ["supermarket"], "sources": ["osm"], "address": "5250 40th Avenue Northeast", "hours": "06:00-23:00"}, "geometry": {"type": "Point", "coordinates": [-122.2836232, 47.6681856]}}, {"type": "Feature", "properties": {"id": "dfb73546-f18d-4ab9-9de5-a9c45d2271c8", "name": "glassybaby university village", "category": "gift", "tags": ["gift"], "sources": ["overture"], "website": "http://www.glassybaby.com/stores/university-village-seattle-wa", "phone": "2062744683", "address": "2627 NE Village Ln"}, "geometry": {"type": "Point", "coordinates": [-122.2807159, 47.6604004]}}, {"type": "Feature", "properties": {"id": "83945ede-92f4-4b00-9224-f24f2d913777", "name": "Children's Gift Shop", "category": "gift", "tags": ["gift"], "sources": ["overture"], "website": "http://seattlechildrens.org", "phone": "(206) 987-2238", "address": "4800 Sand Point Way NE"}, "geometry": {"type": "Point", "coordinates": [-122.2827759, 47.6626434]}}, {"type": "Feature", "properties": {"id": 12673618668, "name": "Forest Pharmacy", "category": "pharmacy", "tags": ["pharmacy", "wheelchair-accessible"], "sources": ["osm"], "address": "4800 Sand Point Way Northeast", "hours": "Mo-Su 07:00-19:00"}, "geometry": {"type": "Point", "coordinates": [-122.2836332, 47.6627739]}}, {"type": "Feature", "properties": {"id": "8b7e5746-fc17-4604-8186-600da18cce00", "name": "Seattle Children's Hospital", "category": "hospital", "tags": ["hospital"], "sources": ["overture"], "website": "http://www.seattlechildrens.org", "phone": "+12069872000", "address": "4800 Sand Point Way NE"}, "geometry": {"type": "Point", "coordinates": [-122.2823868, 47.6625862]}}, {"type": "Feature", "properties": {"id": "93f4b38f-fc8e-4ccc-b076-0f15df3e6d56", "name": "Seattle Children's Fetal Care and Treatment Center", "category": "clinic", "tags": ["clinic", "medical"], "sources": ["overture"], "website": "https://www.seattlechildrens.org/clinics/fetal-care-and-treatment-center", "phone": "+12069875629", "address": "4540 Sand Point Way NE Suite 320 Building 1"}, "geometry": {"type": "Point", "coordinates": [-122.2857056, 47.6619186]}}, {"type": "Feature", "properties": {"id": "729a6440-2f32-4a92-8bb8-785986902c1c", "name": "Seattle Children's Prenatal Diagnosis and Treatment Program", "category": "hospital", "tags": ["hospital"], "sources": ["overture"], "website": "https://www.seattlechildrens.org/clinics-programs/prenatal-diagnosis-and-treatment", "phone": "(206) 987-5629", "address": "4540 Sand Point Way NE"}, "geometry": {"type": "Point", "coordinates": [-122.2856369, 47.6617317]}}, {"type": "Feature", "properties": {"id": "bddb317b-ae1a-4fa5-b971-ad087d771fa4", "name": "Seattle Children's Gastroenterology and Hepatology", "category": "clinic", "tags": ["clinic", "medical"], "sources": ["overture"], "website": "https://www.seattlechildrens.org/clinics/gastroenterology-hepatology/", "phone": "2069872521", "address": "4800 Sand Point Way NE"}, "geometry": {"type": "Point", "coordinates": [-122.2818909, 47.662899]}}, {"type": "Feature", "properties": {"id": "98daa811-0b72-45f6-bd4e-2235b32bbf69", "name": "Seattle Children's Ocean Pharmacy", "category": "pharmacy", "tags": ["pharmacy"], "sources": ["overture"], "website": "https://seattlechildrens.org/clinics/pharmacy/", "phone": "2069872138", "address": "4500 40th Ave NE"}, "geometry": {"type": "Point", "coordinates": [-122.2809143, 47.6621857]}}, {"type": "Feature", "properties": {"id": "eaf18d82-8ba0-456f-88ae-e7b9e1c6580a", "name": "Seattle Children's Cancer Care Unit", "category": "clinic", "tags": ["clinic", "medical"], "sources": ["overture"], "website": "https://www.seattlechildrens.org/clinics", "phone": "+12069872106", "address": "4800 Sand Point Way NE"}, "geometry": {"type": "Point", "coordinates": [-122.2819901, 47.6624222]}}, {"type": "Feature", "properties": {"id": "c326b6c1-e280-490f-a87b-9c7f43d65a1a", "name": "Seattle Children's Hospital - Rehab Unit", "category": "hospital", "tags": ["hospital"], "sources": ["overture"], "website": "https://www.seattlechildrens.org/clinics/rehabilitation-medicine/inpatient-rehabilitation", "phone": "(206) 987-2114", "address": "4800 Sand Point Way NE, Seattle, WA 98105"}, "geometry": {"type": "Point", "coordinates": [-122.2839279, 47.6627579]}}, {"type": "Feature", "properties": {"id": "672328e6-9c0d-4ed5-ab40-090e70321aa2", "name": "Seattle Children's Neuroscience Center", "category": "hospital", "tags": ["hospital"], "sources": ["overture"], "website": "https://www.seattlechildrens.org/clinics/neurosciences/", "phone": "2069872016", "address": "4800 Sand Point Way NE"}, "geometry": {"type": "Point", "coordinates": [-122.2822342, 47.6626205]}}, {"type": "Feature", "properties": {"id": "4f43612f-ed82-46b0-8fe6-7a5dac3be178", "name": "Seattle Children's Craniofacial Center", "category": "hospital", "tags": ["hospital"], "sources": ["overture"], "website": "https://www.seattlechildrens.org/clinics/craniofacial/", "phone": "+12069872208", "address": "4800 Sand Point Way NE"}, "geometry": {"type": "Point", "coordinates": [-122.2823944, 47.6625862]}}, {"type": "Feature", "properties": {"id": "7ceced8d-5b0c-4f17-af06-fbcd7cbfbde2", "name": "Seattle Children's Nephrology", "category": "clinic", "tags": ["clinic", "medical"], "sources": ["overture"], "website": "http://www.seattlechildrens.org/clinics-programs/nephrology/", "phone": "2069872524", "address": "4800 Sand Point Way NE"}, "geometry": {"type": "Point", "coordinates": [-122.2824326, 47.6626778]}}, {"type": "Feature", "properties": {"id": "a75b9b80-9c07-40cf-bb20-8933ded603a6", "name": "Seattle Children's Heart Center", "category": "hospital", "tags": ["hospital"], "sources": ["overture"], "phone": "+12069872515", "address": "4800 Sand Point Way NE"}, "geometry": {"type": "Point", "coordinates": [-122.2825623, 47.6630135]}}, {"type": "Feature", "properties": {"id": "31a985fc-8823-46a1-81f7-64085ae82a88", "name": "Wells Fargo", "category": "bank", "tags": ["bank", "credit", "union"], "sources": ["overture"], "phone": "2065231911", "address": "4568 Sand Point Way NE"}, "geometry": {"type": "Point", "coordinates": [-122.2853622, 47.6624641]}}, {"type": "Feature", "properties": {"id": "bff88592-019c-4cf0-b3d1-54ee6e881cf1", "name": "U.S. Bank ATM", "category": "bank", "tags": ["bank", "credit", "union"], "sources": ["overture"], "website": "http://www.usbank.com/locations", "phone": "8008722657", "address": "5250 40th Ave NE"}, "geometry": {"type": "Point", "coordinates": [-122.2848358, 47.6682739]}}, {"type": "Feature", "properties": {"id": "ef09e3f0-6199-45d7-9b12-8fbf9d1ff52e", "name": "Fruition Yoga and Wellness", "category": "fitness_centre", "tags": ["fitness-centre", "yoga", "studio"], "sources": ["overture"], "website": "http://fruitionyoga.com/?ml=1#1lA8Yy", "phone": "(206) 522-5080", "address": "3513 NE 45th Street"}, "geometry": {"type": "Point", "coordinates": [-122.2898254, 47.6609268]}}, {"type": "Feature", "properties": {"id": "3df23efa-7ec3-4449-9a02-676aa628417d", "name": "The Seattle Gym", "category": "fitness_centre", "tags": ["fitness-centre", "gym"], "sources": ["overture"], "website": "http://www.theseattlegym.com/", "phone": "2065249246", "address": "3811 NE 45th St"}, "geometry": {"type": "Point", "coordinates": [-122.2869034, 47.6612968]}}, {"type": "Feature", "properties": {"id": "a8af9dff-a79b-451d-adb5-36fd10f02b43", "name": "Om Town yoga", "category": "fitness_centre", "tags": ["fitness-centre", "yoga", "studio"], "sources": ["overture"], "website": "http://www.omtownyoga.com", "phone": "(206) 706-2656", "address": "5500 35th Ave NE"}, "geometry": {"type": "Point", "coordinates": [-122.2899857, 47.6687317]}}]}