{"type": "FeatureCollection", "features": [{"type": "Feature", "properties": {"id": "839d519d-538d-4f52-8565-0fc6ab7d5504", "name": "Subway", "category": "restaurant", "tags": ["restaurant", "sandwich"], "sources": ["overture"], "website": "https://www.subway.com", "phone": "12066228604", "address": "2727 4th Ave S", "stations": [{"stopCode": 55, "lines": "1", "name": "SODO Station", "walkingMeters": 676, "walkingSeconds": 504, "band": 10}, {"stopCode": 54, "lines": "1", "name": "Stadium Station", "walkingMeters": 802, "walkingSeconds": 599, "band": 10}]}, "geometry": {"type": "Point", "coordinates": [-122.328743, 47.5856628]}}, {"type": "Feature", "properties": {"id": 98568688, "name": "McDonald's", "category": "fast_food", "tags": ["fast-food", "burger", "takeaway", "drive-through", "wifi", "fast", "food", "american"], "sources": ["osm", "overture"], "website": "https://www.mcdonalds.com/us/en-us/location/wa/seattle/2401-4th-ave-s/10755.html?cid=RF%3AYXT%3ARoN%3A%3AClicks%3Fcid%3DRF%3AYXT%3AFB%3A%3AClicks", "phone": "+12066822083", "address": "2401 4th Ave S", "hours": "07:00-23:00", "stations": [{"stopCode": 55, "lines": "1", "name": "SODO Station", "walkingMeters": 513, "walkingSeconds": 369, "band": 5}, {"stopCode": 54, "lines": "1", "name": "Stadium Station", "walkingMeters": 1532, "walkingSeconds": 1102, "band": 15}]}, "geometry": {"type": "Point", "coordinates": [-122.3295524, 47.5814509]}}, {"type": "Feature", "properties": {"id": 3097680437, "name": "Deli Seoul", "category": "fast_food", "tags": ["fast-food", "sandwich"], "sources": ["osm"], "address": "2445 4th Avenue South", "hours": "Mo-Sa 04:00-16:00, Su 06:00-13:00", "stations": [{"stopCode": 55, "lines": "1", "name": "SODO Station", "walkingMeters": 368, "walkingSeconds": 264, "band": 5}]}, "geometry": {"type": "Point", "coordinates": [-122.3297037, 47.5806293]}}, {"type": "Feature", "properties": {"id": 3097681431, "name": "Taco Bell", "category": "fast_food", "tags": ["fast-food", "tex-mex", "takeaway"], "sources": ["osm"], "website": "https://locations.tacobell.com/wa/seattle/2201-4th-avenue-south.html", "phone": "+1-206-621-1602", "address": "2201 4th Avenue South", "hours": "10:30-22:00", "stations": [{"stopCode": 55, "lines": "1", "name": "SODO Station", "walkingMeters": 762, "walkingSeconds": 548, "band": 10}, {"stopCode": 54, "lines": "1", "name": "Stadium Station", "walkingMeters": 1271, "walkingSeconds": 915, "band": 15}]}, "geometry": {"type": "Point", "coordinates": [-122.3294758, 47.5838409]}}, {"type": "Feature", "properties": {"id": 3097686529, "name": "KFC", "category": "fast_food", "tags": ["fast-food", "chicken", "takeaway", "fast", "food"], "sources": ["osm", "overture"], "website": "https://locations.kfc.com/wa/seattle/2201-4th-avenue-south", "phone": "+12066211602", "address": "2201 4th Avenue South", "stations": [{"stopCode": 55, "lines": "1", "name": "SODO Station", "walkingMeters": 754, "walkingSeconds": 543, "band": 10}, {"stopCode": 54, "lines": "1", "name": "Stadium Station", "walkingMeters": 1263, "walkingSeconds": 909, "band": 15}]}, "geometry": {"type": "Point", "coordinates": [-122.3295802, 47.5838387]}}, {"type": "Feature", "properties": {"id": 4455865389, "name": "Holgate Deli", "category": "cafe", "tags": ["cafe"], "sources": ["osm"], "stations": [{"stopCode": 55, "lines": "1", "name": "SODO Station", "walkingMeters": 1039, "walkingSeconds": 749, "band": 15}, {"stopCode": 54, "lines": "1", "name": "Stadium Station", "walkingMeters": 1072, "walkingSeconds": 772, "band": 15}, {"stopCode": 56, "lines": "1", "name": "Beacon Hill Station", "walkingMeters": 1491, "walkingSeconds": 1072, "band": 15}]}, "geometry": {"type": "Point", "coordinates": [-122.3219516, 47.5869487]}}, {"type": "Feature", "properties": {"id": 5695200790, "name": "Pho City", "category": "fast_food", "tags": ["fast-food", "vietnamese", "restaurant", "soup"], "sources": ["osm", "overture"], "website": "http://www.theflooringcity.com", "phone": "+12066287075", "address": "2445 4th Ave S #108", "stations": [{"stopCode": 55, "lines": "1", "name": "SODO Station", "walkingMeters": 369, "walkingSeconds": 265, "band": 5}]}, "geometry": {"type": "Point", "coordinates": [-122.3296747, 47.580393]}}, {"type": "Feature", "properties": {"id": 5695200792, "name": "Dona Queen", "category": "cafe", "tags": ["cafe", "donut"], "sources": ["osm"], "phone": "+1-206-622-5127", "address": "2445 4th Avenue South", "hours": "Mo-Sa 04:00-16:00, Su 06:00-13:00", "stations": [{"stopCode": 55, "lines": "1", "name": "SODO Station", "walkingMeters": 360, "walkingSeconds": 258, "band": 5}]}, "geometry": {"type": "Point", "coordinates": [-122.3296934, 47.5805575]}}, {"type": "Feature", "properties": {"id": 9953660117, "name": "Aliberto's Mexican Food", "category": "restaurant", "tags": ["restaurant", "mexican"], "sources": ["osm"], "hours": "24/7", "stations": [{"stopCode": 55, "lines": "1", "name": "SODO Station", "walkingMeters": 396, "walkingSeconds": 285, "band": 5}, {"stopCode": 54, "lines": "1", "name": "Stadium Station", "walkingMeters": 1576, "walkingSeconds": 1135, "band": 15}]}, "geometry": {"type": "Point", "coordinates": [-122.3295451, 47.5810264]}}, {"type": "Feature", "properties": {"id": 13984245404, "name": "Derby", "category": "restaurant", "tags": ["restaurant", "american", "outdoor-seating", "has-bar", "air-conditioned"], "sources": ["osm", "overture"], "website": "https://derbyrestaurants.com/", "phone": "+12064664949", "address": "2233 6th Ave S", "stations": [{"stopCode": 55, "lines": "1", "name": "SODO Station", "walkingMeters": 539, "walkingSeconds": 388, "band": 5}, {"stopCode": 54, "lines": "1", "name": "Stadium Station", "walkingMeters": 1298, "walkingSeconds": 937, "band": 15}]}, "geometry": {"type": "Point", "coordinates": [-122.3266266, 47.5827525]}}, {"type": "Feature", "properties": {"id": 226194430, "name": "Jack in the Box", "category": "fast_food", "tags": ["fast-food", "burger", "takeaway", "drive-through", "fast", "food"], "sources": ["osm", "overture"], "website": "https://www.jackinthebox.com", "phone": "+12066289028", "address": "1907 4th Ave S", "hours": "24/7", "stations": [{"stopCode": 55, "lines": "1", "name": "SODO Station", "walkingMeters": 795, "walkingSeconds": 572, "band": 10}, {"stopCode": 54, "lines": "1", "name": "Stadium Station", "walkingMeters": 1048, "walkingSeconds": 754, "band": 10}]}, "geometry": {"type": "Point", "coordinates": [-122.3295037, 47.5856909]}}, {"type": "Feature", "properties": {"id": 98568695, "name": "Aliberto's Jr", "category": "restaurant", "tags": ["restaurant", "mexican", "takeaway", "vegetarian"], "sources": ["osm", "overture"], "website": "https://alibertosjrs.com/ave-seattle", "phone": "(206) 588-0101", "address": "2425 4th Ave S", "stations": [{"stopCode": 55, "lines": "1", "name": "SODO Station", "walkingMeters": 396, "walkingSeconds": 284, "band": 5}, {"stopCode": 54, "lines": "1", "name": "Stadium Station", "walkingMeters": 1576, "walkingSeconds": 1135, "band": 15}]}, "geometry": {"type": "Point", "coordinates": [-122.3295429, 47.5810199]}}, {"type": "Feature", "properties": {"id": "f089d926-d3ba-4c5f-ba6d-08c33230af45", "name": "Arby's", "category": "fast_food", "tags": ["fast-food", "fast", "food"], "sources": ["overture"], "website": "https://locations.arbys.com/us/wa/seattle/2425-4th-ave-s.html", "phone": "2062647918", "address": "2425 4th Ave S", "stations": [{"stopCode": 55, "lines": "1", "name": "SODO Station", "walkingMeters": 427, "walkingSeconds": 307, "band": 5}, {"stopCode": 54, "lines": "1", "name": "Stadium Station", "walkingMeters": 1596, "walkingSeconds": 1149, "band": 15}]}, "geometry": {"type": "Point", "coordinates": [-122.329567, 47.5810127]}}, {"type": "Feature", "properties": {"id": "71ce4d45-0652-423c-8e2c-c1ba9449440f", "name": "Bucha Belly", "category": "bar", "tags": ["bar", "brewery"], "sources": ["overture"], "website": "https://www.bucha-belly.com", "phone": "14254148530", "address": "420 S Massachusetts St", "stations": [{"stopCode": 54, "lines": "1", "name": "Stadium Station", "walkingMeters": 383, "walkingSeconds": 286, "band": 10}, {"stopCode": 55, "lines": "1", "name": "SODO Station", "walkingMeters": 1082, "walkingSeconds": 807, "band": 15}, {"stopCode": 53, "lines": "1,2", "name": "International District Station", "walkingMeters": 1418, "walkingSeconds": 1058, "band": 15}]}, "geometry": {"type": "Point", "coordinates": [-122.3281631, 47.5885429]}}, {"type": "Feature", "properties": {"id": "d5eae99c-7d99-4017-acbc-743423b7236f", "name": "Diablo Food Truckz", "category": "fast_food", "tags": ["fast-food", "food", "truck"], "sources": ["overture"], "phone": "+12062760237", "address": "1741 4th Ave S", "stations": [{"stopCode": 55, "lines": "1", "name": "SODO Station", "walkingMeters": 790, "walkingSeconds": 568, "band": 10}, {"stopCode": 54, "lines": "1", "name": "Stadium Station", "walkingMeters": 930, "walkingSeconds": 669, "band": 10}]}, "geometry": {"type": "Point", "coordinates": [-122.3295593, 47.5868492]}}, {"type": "Feature", "properties": {"id": "dc09a727-7058-4ee1-b7b7-277b8581126b", "name": "Seattle's Best Teriyaki and Pho", "category": "restaurant", "tags": ["restaurant", "vietnamese", "japanese", "asian"], "sources": ["overture"], "website": "https://seattlebestteriyaki.com/products/items", "phone": "+12066283190", "address": "2445 4th Ave S #109", "stations": [{"stopCode": 55, "lines": "1", "name": "SODO Station", "walkingMeters": 373, "walkingSeconds": 268, "band": 5}]}, "geometry": {"type": "Point", "coordinates": [-122.3298416, 47.5804253]}}, {"type": "Feature", "properties": {"id": "e3937725-2653-454a-bf8d-f73808abcee1", "name": "Inter City Delivery Service", "category": "restaurant", "tags": ["restaurant"], "sources": ["overture"], "website": "https://intercitydeliveryservice.com", "address": "2326 Airport Way S", "stations": [{"stopCode": 55, "lines": "1", "name": "SODO Station", "walkingMeters": 678, "walkingSeconds": 506, "band": 15}]}, "geometry": {"type": "Point", "coordinates": [-122.320694, 47.5823288]}}, {"type": "Feature", "properties": {"id": "c99b8913-efa8-4cba-aba8-44c3010b9312", "name": "Esmb Seattle Llc.dba Derby", "category": "restaurant", "tags": ["restaurant"], "sources": ["overture"], "phone": "+12065880030", "address": "2233 6th Ave S", "stations": [{"stopCode": 55, "lines": "1", "name": "SODO Station", "walkingMeters": 247, "walkingSeconds": 184, "band": 5}, {"stopCode": 54, "lines": "1", "name": "Stadium Station", "walkingMeters": 1213, "walkingSeconds": 905, "band": 15}]}, "geometry": {"type": "Point", "coordinates": [-122.3267365, 47.5827255]}}, {"type": "Feature", "properties": {"id": "4b7b1ff1-a522-499f-9082-82e8cbf1a2d1", "name": "Coffee Catcher Llc", "category": "cafe", "tags": ["cafe", "coffee"], "sources": ["overture"], "website": "http://www.thecoffeecatcher.com", "phone": "2064341578", "address": "2400 6th Ave S  Ste 260", "stations": [{"stopCode": 55, "lines": "1", "name": "SODO Station", "walkingMeters": 199, "walkingSeconds": 149, "band": 5}, {"stopCode": 54, "lines": "1", "name": "Stadium Station", "walkingMeters": 1434, "walkingSeconds": 1070, "band": 15}]}, "geometry": {"type": "Point", "coordinates": [-122.3253632, 47.5812607]}}, {"type": "Feature", "properties": {"id": "dfe5228d-7a40-4753-99a5-6eb0fc4aa5bc", "name": "Conduit Coffee Company", "category": "cafe", "tags": ["cafe", "coffee"], "sources": ["overture"], "website": "http://www.conduitcoffee.com/", "phone": "+12064566536", "address": "2000 Airport Wy S", "stations": [{"stopCode": 55, "lines": "1", "name": "SODO Station", "walkingMeters": 1085, "walkingSeconds": 782, "band": 15}, {"stopCode": 54, "lines": "1", "name": "Stadium Station", "walkingMeters": 1198, "walkingSeconds": 862, "band": 15}]}, "geometry": {"type": "Point", "coordinates": [-122.3209763, 47.5853767]}}, {"type": "Feature", "properties": {"id": "d3e3ab8d-4fa3-4793-ba84-3b698c07a6b6", "name": "Starbucks Coffee Company (starbucks Corporation)", "category": "restaurant", "tags": ["restaurant"], "sources": ["overture"], "address": "2203 Airport Way S", "stations": [{"stopCode": 55, "lines": "1", "name": "SODO Station", "walkingMeters": 495, "walkingSeconds": 369, "band": 10}]}, "geometry": {"type": "Point", "coordinates": [-122.3231201, 47.5829277]}}, {"type": "Feature", "properties": {"id": 3211770085, "name": "Copper", "category": "artwork", "tags": ["artwork"], "sources": ["osm"], "address": "2300 Airport Way South", "stations": [{"stopCode": 55, "lines": "1", "name": "SODO Station", "walkingMeters": 661, "walkingSeconds": 475, "band": 10}]}, "geometry": {"type": "Point", "coordinates": [-122.3236, 47.5822]}}, {"type": "Feature", "properties": {"id": 9332865135, "name": "F\u00f6rf\u00e4der", "category": "artwork", "tags": ["artwork"], "sources": ["osm"], "stations": [{"stopCode": 55, "lines": "1", "name": "SODO Station", "walkingMeters": 791, "walkingSeconds": 569, "band": 10}, {"stopCode": 54, "lines": "1", "name": "Stadium Station", "walkingMeters": 932, "walkingSeconds": 670, "band": 10}]}, "geometry": {"type": "Point", "coordinates": [-122.3295027, 47.5867783]}}, {"type": "Feature", "properties": {"id": 12100097673, "name": "Made in USA", "category": "artwork", "tags": ["artwork"], "sources": ["osm"], "stations": [{"stopCode": 55, "lines": "1", "name": "SODO Station", "walkingMeters": 106, "walkingSeconds": 76, "band": 5}, {"stopCode": 54, "lines": "1", "name": "Stadium Station", "walkingMeters": 1506, "walkingSeconds": 1084, "band": 15}]}, "geometry": {"type": "Point", "coordinates": [-122.3273036, 47.580138]}}, {"type": "Feature", "properties": {"id": 12113160723, "name": "I'll Be There Soon", "category": "artwork", "tags": ["artwork"], "sources": ["osm"], "website": "https://sodotrack.com/artists/georgia-hill/", "stations": [{"stopCode": 55, "lines": "1", "name": "SODO Station", "walkingMeters": 648, "walkingSeconds": 467, "band": 10}, {"stopCode": 54, "lines": "1", "name": "Stadium Station", "walkingMeters": 860, "walkingSeconds": 619, "band": 10}]}, "geometry": {"type": "Point", "coordinates": [-122.327752, 47.5867181]}}, {"type": "Feature", "properties": {"id": 12377717995, "name": "Then Out Came the Sun", "category": "artwork", "tags": ["artwork"], "sources": ["osm"], "stations": [{"stopCode": 55, "lines": "1", "name": "SODO Station", "walkingMeters": 661, "walkingSeconds": 476, "band": 10}, {"stopCode": 54, "lines": "1", "name": "Stadium Station", "walkingMeters": 742, "walkingSeconds": 534, "band": 10}]}, "geometry": {"type": "Point", "coordinates": [-122.3272856, 47.5869404]}}, {"type": "Feature", "properties": {"id": 12854477477, "name": "RE-PC Computer Museum", "category": "museum", "tags": ["museum"], "sources": ["osm"], "stations": [{"stopCode": 54, "lines": "1", "name": "Stadium Station", "walkingMeters": 546, "walkingSeconds": 393, "band": 5}, {"stopCode": 55, "lines": "1", "name": "SODO Station", "walkingMeters": 858, "walkingSeconds": 618, "band": 15}]}, "geometry": {"type": "Point", "coordinates": [-122.3267139, 47.5886384]}}, {"type": "Feature", "properties": {"id": "ae115b31-9d1e-4448-bd20-875d039e916e", "name": "Inca -", "category": "museum", "tags": ["museum"], "sources": ["overture"], "website": "incainstitute.org", "address": "1900 Airport Way S", "stations": [{"stopCode": 54, "lines": "1", "name": "Stadium Station", "walkingMeters": 929, "walkingSeconds": 693, "band": 15}, {"stopCode": 55, "lines": "1", "name": "SODO Station", "walkingMeters": 978, "walkingSeconds": 730, "band": 15}, {"stopCode": 56, "lines": "1", "name": "Beacon Hill Station", "walkingMeters": 1357, "walkingSeconds": 1013, "band": 15}]}, "geometry": {"type": "Point", "coordinates": [-122.3209305, 47.5862503]}}, {"type": "Feature", "properties": {"id": "79063f50-ad4c-4baf-8083-be37decfd03b", "name": "MOKEDO", "category": "gallery", "tags": ["gallery", "art"], "sources": ["overture"], "website": "http://www.mokedo.org/", "phone": "+12063836951", "address": "1762 Airport Wy S", "stations": [{"stopCode": 54, "lines": "1", "name": "Stadium Station", "walkingMeters": 892, "walkingSeconds": 666, "band": 15}, {"stopCode": 55, "lines": "1", "name": "SODO Station", "walkingMeters": 1024, "walkingSeconds": 764, "band": 15}, {"stopCode": 56, "lines": "1", "name": "Beacon Hill Station", "walkingMeters": 1394, "walkingSeconds": 1040, "band": 15}]}, "geometry": {"type": "Point", "coordinates": [-122.3208694, 47.5866318]}}, {"type": "Feature", "properties": {"id": "5709dc7e-547b-4289-9360-6609dcd850dc", "name": "Tunnel Beach Kauai", "category": "park", "tags": ["park"], "sources": ["overture"], "address": "Tunnel Beach Kauai", "stations": [{"stopCode": 55, "lines": "1", "name": "SODO Station", "walkingMeters": 657, "walkingSeconds": 473, "band": 10}, {"stopCode": 54, "lines": "1", "name": "Stadium Station", "walkingMeters": 955, "walkingSeconds": 688, "band": 10}]}, "geometry": {"type": "Point", "coordinates": [-122.3278427, 47.5851364]}}, {"type": "Feature", "properties": {"id": "ff0d76a3-ebbc-4f54-ac8d-d9f3c33dd988", "name": "Grocery Outlet", "category": "variety_store", "tags": ["variety-store", "discount"], "sources": ["overture"], "website": "http://www.groceryoutlet.com/", "phone": "2068126622", "address": "1702 4th Ave S", "stations": [{"stopCode": 54, "lines": "1", "name": "Stadium Station", "walkingMeters": 767, "walkingSeconds": 552, "band": 10}, {"stopCode": 55, "lines": "1", "name": "SODO Station", "walkingMeters": 893, "walkingSeconds": 642, "band": 10}, {"stopCode": 53, "lines": "1,2", "name": "International District Station", "walkingMeters": 1289, "walkingSeconds": 928, "band": 15}]}, "geometry": {"type": "Point", "coordinates": [-122.3286514, 47.5879288]}}, {"type": "Feature", "properties": {"id": 226194497, "name": "Food Mart", "category": "convenience", "tags": ["convenience"], "sources": ["osm"], "phone": "+1-206-623-4294", "address": "2461 4th Avenue South", "hours": "24/7", "stations": [{"stopCode": 55, "lines": "1", "name": "SODO Station", "walkingMeters": 324, "walkingSeconds": 233, "band": 5}]}, "geometry": {"type": "Point", "coordinates": [-122.3295381, 47.580162]}}, {"type": "Feature", "properties": {"id": 226194047, "name": "ampm", "category": "convenience", "tags": ["convenience"], "sources": ["osm", "overture"], "website": "https://www.ampm.com/", "phone": "+12066242697", "address": "2200 4th Ave S", "stations": [{"stopCode": 55, "lines": "1", "name": "SODO Station", "walkingMeters": 666, "walkingSeconds": 479, "band": 10}, {"stopCode": 54, "lines": "1", "name": "Stadium Station", "walkingMeters": 1288, "walkingSeconds": 927, "band": 15}]}, "geometry": {"type": "Point", "coordinates": [-122.3286636, 47.5835701]}}, {"type": "Feature", "properties": {"id": 2351574760, "name": "The Outdoor Emporium", "category": "outdoor", "tags": ["outdoor"], "sources": ["osm"], "website": "https://sportco.com/", "phone": "+1-206-624-6550", "address": "1701 4th Avenue South", "hours": "Mo-Sa 09:30-18:00; Su 09:30-16:00", "stations": [{"stopCode": 54, "lines": "1", "name": "Stadium Station", "walkingMeters": 770, "walkingSeconds": 554, "band": 10}, {"stopCode": 55, "lines": "1", "name": "SODO Station", "walkingMeters": 958, "walkingSeconds": 689, "band": 15}, {"stopCode": 53, "lines": "1,2", "name": "International District Station", "walkingMeters": 1279, "walkingSeconds": 928, "band": 15}]}, "geometry": {"type": "Point", "coordinates": [-122.3295307, 47.588009]}}, {"type": "Feature", "properties": {"id": "895e664f-6809-4779-94aa-a27d29c0ef02", "name": "Eileen Fisher", "category": "clothes", "tags": ["clothes", "womens"], "sources": ["overture"], "website": "https://www.eileenfisher.com", "phone": "+12064534034", "address": "624 S Lander St Ste 20", "stations": [{"stopCode": 55, "lines": "1", "name": "SODO Station", "walkingMeters": 248, "walkingSeconds": 185, "band": 5}]}, "geometry": {"type": "Point", "coordinates": [-122.3252945, 47.5800972]}}, {"type": "Feature", "properties": {"id": 226306317, "name": "Dockside Cannabis", "category": "cannabis", "tags": ["cannabis", "clinic"], "sources": ["osm", "overture"], "website": "http://docksidecannabis.com/", "phone": "+12063505366", "address": "1728 4th Ave S", "stations": [{"stopCode": 54, "lines": "1", "name": "Stadium Station", "walkingMeters": 820, "walkingSeconds": 594, "band": 10}, {"stopCode": 55, "lines": "1", "name": "SODO Station", "walkingMeters": 849, "walkingSeconds": 615, "band": 10}]}, "geometry": {"type": "Point", "coordinates": [-122.3286356, 47.5873216]}}, {"type": "Feature", "properties": {"id": 10570877710, "name": "Hazel Knits", "category": "gift", "tags": ["gift"], "sources": ["osm"], "stations": [{"stopCode": 55, "lines": "1", "name": "SODO Station", "walkingMeters": 1082, "walkingSeconds": 780, "band": 15}, {"stopCode": 54, "lines": "1", "name": "Stadium Station", "walkingMeters": 1195, "walkingSeconds": 860, "band": 15}]}, "geometry": {"type": "Point", "coordinates": [-122.3211503, 47.5854397]}}, {"type": "Feature", "properties": {"id": 226194467, "name": "Diego Pellicer", "category": "cannabis", "tags": ["cannabis"], "sources": ["osm"], "website": "https://wa.diego-pellicer.com/", "phone": "+1-206-624-0070", "address": "2215 4th Avenue South", "stations": [{"stopCode": 55, "lines": "1", "name": "SODO Station", "walkingMeters": 673, "walkingSeconds": 484, "band": 10}, {"stopCode": 54, "lines": "1", "name": "Stadium Station", "walkingMeters": 1303, "walkingSeconds": 938, "band": 15}]}, "geometry": {"type": "Point", "coordinates": [-122.3295712, 47.5834624]}}, {"type": "Feature", "properties": {"id": "4a4e4b3e-8aa3-4bdc-ab5d-0a35900f2320", "name": "New Standard Building Materials", "category": "hardware", "tags": ["hardware"], "sources": ["overture"], "website": "https://www.nsbmseattle.com/", "phone": "+12065895322", "address": "1702 4th Ave S", "stations": [{"stopCode": 54, "lines": "1", "name": "Stadium Station", "walkingMeters": 801, "walkingSeconds": 576, "band": 10}, {"stopCode": 55, "lines": "1", "name": "SODO Station", "walkingMeters": 1008, "walkingSeconds": 725, "band": 10}]}, "geometry": {"type": "Point", "coordinates": [-122.3284912, 47.5878601]}}, {"type": "Feature", "properties": {"id": "9c7db707-c57d-4b42-af71-1f1b268ca6c9", "name": "Star Rentals", "category": "doityourself", "tags": ["doityourself", "building", "supply"], "sources": ["overture"], "website": "http://www.starrentals.com/", "phone": "2066227880", "address": "1943 4th Ave S", "stations": [{"stopCode": 55, "lines": "1", "name": "SODO Station", "walkingMeters": 843, "walkingSeconds": 606, "band": 10}, {"stopCode": 54, "lines": "1", "name": "Stadium Station", "walkingMeters": 1095, "walkingSeconds": 788, "band": 10}]}, "geometry": {"type": "Point", "coordinates": [-122.3296509, 47.5851669]}}, {"type": "Feature", "properties": {"id": "7e5597a9-161d-4ade-b89d-1060dd297e22", "name": "Zips Cannabis Recreational Dispensary Seattle", "category": "cannabis", "tags": ["cannabis"], "sources": ["overture"], "website": "https://www.zipscannabis.com", "phone": "12066240070", "address": "2215 4th Ave S", "stations": [{"stopCode": 55, "lines": "1", "name": "SODO Station", "walkingMeters": 645, "walkingSeconds": 464, "band": 10}, {"stopCode": 54, "lines": "1", "name": "Stadium Station", "walkingMeters": 1256, "walkingSeconds": 904, "band": 15}]}, "geometry": {"type": "Point", "coordinates": [-122.3294754, 47.5834656]}}, {"type": "Feature", "properties": {"id": "16c51bb7-e4a5-484c-a639-487f6f2a5461", "name": "Diego Pellicer Worldwide", "category": "cannabis", "tags": ["cannabis"], "sources": ["overture"], "website": "https://www.diego-pellicer.com", "phone": "5169003799", "address": "2215 4th Ave S", "stations": [{"stopCode": 55, "lines": "1", "name": "SODO Station", "walkingMeters": 401, "walkingSeconds": 299, "band": 10}, {"stopCode": 54, "lines": "1", "name": "Stadium Station", "walkingMeters": 1127, "walkingSeconds": 841, "band": 15}]}, "geometry": {"type": "Point", "coordinates": [-122.3294754, 47.5834656]}}, {"type": "Feature", "properties": {"id": "ef8d0268-a740-4717-9d8b-247091a660ae", "name": "Keystone Windows & Doors Inc", "category": "furniture", "tags": ["furniture"], "sources": ["overture"], "website": "http://www.keystonewindows.com", "phone": "4255761930", "address": "2215 4th Ave S", "stations": [{"stopCode": 55, "lines": "1", "name": "SODO Station", "walkingMeters": 673, "walkingSeconds": 484, "band": 10}, {"stopCode": 54, "lines": "1", "name": "Stadium Station", "walkingMeters": 1303, "walkingSeconds": 938, "band": 15}]}, "geometry": {"type": "Point", "coordinates": [-122.3294754, 47.5834656]}}, {"type": "Feature", "properties": {"id": "13a978dd-8cc2-431e-8048-7011384b9c95", "name": "Recess", "category": "shoes", "tags": ["shoes", "shoe"], "sources": ["overture"], "phone": "12067295099", "address": "2445 4th Ave S  Ste 102", "stations": [{"stopCode": 55, "lines": "1", "name": "SODO Station", "walkingMeters": 239, "walkingSeconds": 178, "band": 5}]}, "geometry": {"type": "Point", "coordinates": [-122.3296432, 47.5804214]}}, {"type": "Feature", "properties": {"id": "5b5f0454-b167-41ab-b1dd-635c1d01fc7c", "name": "Pebble Tile Mosaics", "category": "doityourself", "tags": ["doityourself", "building", "supply"], "sources": ["overture"], "website": "http://www.pebbletilemosaics.com", "phone": "(206) 838-5666", "address": "19050 13th Pl S # 102", "stations": [{"stopCode": 55, "lines": "1", "name": "SODO Station", "walkingMeters": 308, "walkingSeconds": 221, "band": 5}, {"stopCode": 54, "lines": "1", "name": "Stadium Station", "walkingMeters": 1512, "walkingSeconds": 1090, "band": 15}]}, "geometry": {"type": "Point", "coordinates": [-122.3262558, 47.5807381]}}, {"type": "Feature", "properties": {"id": "507f3d20-6f74-4408-bbda-b40e191a6414", "name": "Moe's Home Collection", "category": "furniture", "tags": ["furniture"], "sources": ["overture"], "website": "http://www.moeshome.com", "phone": "(206) 405-4411", "address": "1926 6th Ave S", "stations": [{"stopCode": 55, "lines": "1", "name": "SODO Station", "walkingMeters": 796, "walkingSeconds": 573, "band": 10}, {"stopCode": 54, "lines": "1", "name": "Stadium Station", "walkingMeters": 1025, "walkingSeconds": 738, "band": 10}]}, "geometry": {"type": "Point", "coordinates": [-122.3256912, 47.5851021]}}, {"type": "Feature", "properties": {"id": "1b8168f8-95e9-4b16-bf2d-484255b427af", "name": "Stellar Industrial Supply", "category": "hardware", "tags": ["hardware"], "sources": ["overture"], "website": "http://www.stellarindustrial.com", "phone": "(206) 768-1800", "stations": [{"stopCode": 55, "lines": "1", "name": "SODO Station", "walkingMeters": 982, "walkingSeconds": 706, "band": 15}]}, "geometry": {"type": "Point", "coordinates": [-122.3204727, 47.5833282]}}, {"type": "Feature", "properties": {"id": "bf0ed82c-be91-47f6-b86b-7c08e78e0d32", "name": "Tai Foong USA", "category": "supermarket", "tags": ["supermarket"], "sources": ["overture"], "website": "http://www.northernchef.com/", "phone": "+12065159688", "address": "2450 6th Ave S #300", "stations": [{"stopCode": 55, "lines": "1", "name": "SODO Station", "walkingMeters": 161, "walkingSeconds": 120, "band": 5}, {"stopCode": 54, "lines": "1", "name": "Stadium Station", "walkingMeters": 1519, "walkingSeconds": 1134, "band": 15}]}, "geometry": {"type": "Point", "coordinates": [-122.3258743, 47.5806351]}}, {"type": "Feature", "properties": {"id": "c3d78966-9f8b-4b57-bfee-1d6e5c106610", "name": "Dewalt-Porter Cable-Delta Factory Service", "category": "hardware", "tags": ["hardware"], "sources": ["overture"], "website": "http://dewalt.com", "phone": "+12067632010", "address": "2100 Airport Way S", "stations": [{"stopCode": 55, "lines": "1", "name": "SODO Station", "walkingMeters": 1082, "walkingSeconds": 778, "band": 15}, {"stopCode": 54, "lines": "1", "name": "Stadium Station", "walkingMeters": 1483, "walkingSeconds": 1068, "band": 15}]}, "geometry": {"type": "Point", "coordinates": [-122.3209229, 47.584198]}}, {"type": "Feature", "properties": {"id": "a364b836-ddfb-47f0-a5c2-5a92b039d908", "name": "Northwest Wood Design", "category": "furniture", "tags": ["furniture"], "sources": ["overture"], "website": "http://northwestwooddesign.com/", "phone": "+12064994408", "address": "1762 Airport Wy S", "stations": [{"stopCode": 54, "lines": "1", "name": "Stadium Station", "walkingMeters": 891, "walkingSeconds": 665, "band": 15}, {"stopCode": 55, "lines": "1", "name": "SODO Station", "walkingMeters": 1027, "walkingSeconds": 766, "band": 15}, {"stopCode": 56, "lines": "1", "name": "Beacon Hill Station", "walkingMeters": 1396, "walkingSeconds": 1042, "band": 15}]}, "geometry": {"type": "Point", "coordinates": [-122.3208618, 47.5866508]}}, {"type": "Feature", "properties": {"id": 2351574786, "name": "QualStar Credit Union", "category": "bank", "tags": ["bank"], "sources": ["osm"], "address": "1731 4th Avenue South", "stations": [{"stopCode": 55, "lines": "1", "name": "SODO Station", "walkingMeters": 827, "walkingSeconds": 596, "band": 10}, {"stopCode": 54, "lines": "1", "name": "Stadium Station", "walkingMeters": 857, "walkingSeconds": 616, "band": 10}]}, "geometry": {"type": "Point", "coordinates": [-122.3293447, 47.5871807]}}, {"type": "Feature", "properties": {"id": "8b7bf98b-bd7b-48ef-84b0-a0ff7822e1c3", "name": "Wells Fargo", "category": "bank", "tags": ["bank", "credit", "union"], "sources": ["overture"], "phone": "2062871725", "address": "1763 4th Ave S", "stations": [{"stopCode": 55, "lines": "1", "name": "SODO Station", "walkingMeters": 737, "walkingSeconds": 531, "band": 10}, {"stopCode": 54, "lines": "1", "name": "Stadium Station", "walkingMeters": 922, "walkingSeconds": 663, "band": 10}]}, "geometry": {"type": "Point", "coordinates": [-122.3290787, 47.5864677]}}, {"type": "Feature", "properties": {"id": 98568679, "name": "Terminal Finance Station Seattle Post Office", "category": "post_office", "tags": ["post-office"], "sources": ["osm"], "phone": "+1-206-652-2467", "address": "2420 4th Avenue South", "hours": "Mo-Fr 08:30-17:30", "stations": [{"stopCode": 55, "lines": "1", "name": "SODO Station", "walkingMeters": 451, "walkingSeconds": 324, "band": 5}, {"stopCode": 54, "lines": "1", "name": "Stadium Station", "walkingMeters": 1528, "walkingSeconds": 1100, "band": 15}]}, "geometry": {"type": "Point", "coordinates": [-122.3283829, 47.5815651]}}, {"type": "Feature", "properties": {"id": "930948dc-3502-4ced-9a67-0d279a3f1452", "name": "United States Postal Service", "category": "post_office", "tags": ["post-office", "office"], "sources": ["overture"], "website": "http://www.usps.com", "phone": "+18002758777", "address": "2460 4th Ave S", "stations": [{"stopCode": 55, "lines": "1", "name": "SODO Station", "walkingMeters": 432, "walkingSeconds": 311, "band": 5}, {"stopCode": 54, "lines": "1", "name": "Stadium Station", "walkingMeters": 1510, "walkingSeconds": 1087, "band": 15}]}, "geometry": {"type": "Point", "coordinates": [-122.3284302, 47.5814705]}}, {"type": "Feature", "properties": {"id": "22d67911-7ffa-40ab-b658-d18a7827fe92", "name": "FedEx ShipSite", "category": "post_office", "tags": ["post-office", "office"], "sources": ["overture"], "website": "https://local.fedex.com/en-us/wa/seattle/00j6f", "address": "1751 Airport Way S", "stations": [{"stopCode": 54, "lines": "1", "name": "Stadium Station", "walkingMeters": 795, "walkingSeconds": 593, "band": 10}, {"stopCode": 55, "lines": "1", "name": "SODO Station", "walkingMeters": 901, "walkingSeconds": 672, "band": 15}, {"stopCode": 56, "lines": "1", "name": "Beacon Hill Station", "walkingMeters": 1507, "walkingSeconds": 1125, "band": 15}]}, "geometry": {"type": "Point", "coordinates": [-122.3227844, 47.5864754]}}, {"type": "Feature", "properties": {"id": "9dad75a7-8bdf-4deb-bc4f-c1ac3051315b", "name": "Term Station Post Office", "category": "post_office", "tags": ["post-office", "office"], "sources": ["overture"], "website": "https://tools.usps.com/find-location.htm?location=1440179", "phone": "+12066522467", "address": "2420 4th Ave S", "stations": [{"stopCode": 55, "lines": "1", "name": "SODO Station", "walkingMeters": 438, "walkingSeconds": 315, "band": 5}, {"stopCode": 54, "lines": "1", "name": "Stadium Station", "walkingMeters": 1516, "walkingSeconds": 1091, "band": 15}]}, "geometry": {"type": "Point", "coordinates": [-122.3282852, 47.5813789]}}, {"type": "Feature", "properties": {"id": 11882656388, "name": "Yoga Rama", "category": "fitness_centre", "tags": ["fitness-centre", "yoga"], "sources": ["osm"], "address": "2445 4th Avenue South", "stations": [{"stopCode": 55, "lines": "1", "name": "SODO Station", "walkingMeters": 320, "walkingSeconds": 230, "band": 5}]}, "geometry": {"type": "Point", "coordinates": [-122.3294217, 47.5803922]}}, {"type": "Feature", "properties": {"id": 12373079737, "name": "RCF Barbell Sodo", "category": "fitness_centre", "tags": ["fitness-centre", "weightlifting", "olympic-weightlifting", "strength-training", "fitness"], "sources": ["osm"], "website": "https://www.rcfbarbellclub.com/", "address": "2227 4th Avenue South", "hours": "24/7", "stations": [{"stopCode": 55, "lines": "1", "name": "SODO Station", "walkingMeters": 619, "walkingSeconds": 446, "band": 10}, {"stopCode": 54, "lines": "1", "name": "Stadium Station", "walkingMeters": 1312, "walkingSeconds": 944, "band": 15}]}, "geometry": {"type": "Point", "coordinates": [-122.3293527, 47.5830754]}}]}