{"type": "FeatureCollection", "features": [{"type": "Feature", "properties": {"id": 1692547404, "name": "Gates", "category": "artwork", "tags": ["artwork"], "sources": ["osm"]}, "geometry": {"type": "Point", "coordinates": [-122.2944272, 47.6402129]}}, {"type": "Feature", "properties": {"id": 8667126594, "name": "Rollback Bench", "category": "artwork", "tags": ["artwork"], "sources": ["osm"], "stations": [{"stopCode": 48, "lines": "1,2", "name": "University of Washington Station", "walkingMeters": 436, "walkingSeconds": 316, "band": 5}]}, "geometry": {"type": "Point", "coordinates": [-122.2997276, 47.6478851]}}, {"type": "Feature", "properties": {"id": 392852793, "name": "Oak Family", "category": "garden", "tags": ["garden"], "sources": ["osm"]}, "geometry": {"type": "Point", "coordinates": [-122.2956251, 47.6402353]}}, {"type": "Feature", "properties": {"id": 392858011, "name": "Lindens", "category": "garden", "tags": ["garden"], "sources": ["osm"]}, "geometry": {"type": "Point", "coordinates": [-122.2946943, 47.6414784]}}, {"type": "Feature", "properties": {"id": "fda69dde-baad-4622-9ed0-eaecb2498149", "name": "Arboretum Waterfront Trail", "category": "park", "tags": ["park"], "sources": ["overture"], "website": "www.seattletimes.com/life/outdoors/arboretum-waterfront-trail", "phone": "+12066844075", "address": "Arboretum Waterfront Trail", "stations": [{"stopCode": 48, "lines": "1,2", "name": "University of Washington Station", "walkingMeters": 919, "walkingSeconds": 686, "band": 15}]}, "geometry": {"type": "Point", "coordinates": [-122.2959595, 47.6462364]}}, {"type": "Feature", "properties": {"id": "6f99466a-4876-43a5-80aa-a1d7bc3812b5", "name": "Duck and Ball Island", "category": "park", "tags": ["park"], "sources": ["overture"], "address": "Foster Point Trail"}, "geometry": {"type": "Point", "coordinates": [-122.2935867, 47.6423569]}}, {"type": "Feature", "properties": {"id": "41d3d3d1-c5c2-4fa6-a656-7a4533ac9eba", "name": "Foster Island (Washington Park)", "category": "park", "tags": ["park"], "sources": ["overture"], "address": "2300 Arboretum Dr E"}, "geometry": {"type": "Point", "coordinates": [-122.2911987, 47.6434898]}}]}