{"type": "FeatureCollection", "features": [{"type": "Feature", "properties": {"id": "3e5c5bdf-06bd-45fb-b30a-c76e2cebe2d7", "name": "Clear Sight Northwest, Ps", "category": "restaurant", "tags": ["restaurant"], "sources": ["overture"], "address": "19400 108th Ave SE"}, "geometry": {"type": "Point", "coordinates": [-122.1965866, 47.4286919]}}, {"type": "Feature", "properties": {"id": 481120121, "name": "Villa Real Trail", "category": "park", "tags": ["park"], "sources": ["osm"]}, "geometry": {"type": "Point", "coordinates": [-122.1926519, 47.4209437]}}, {"type": "Feature", "properties": {"id": "d5d348d4-8065-425c-b115-4b3305270f41", "name": "Global Plumbing", "category": "doityourself", "tags": ["doityourself", "building", "supply"], "sources": ["overture"], "website": "http://www.globalplumbingllc.com/cgi-sys/suspendedpage.cgi", "phone": "(253) 850-1984", "address": "20216 108th Ave SE"}, "geometry": {"type": "Point", "coordinates": [-122.1965103, 47.4209328]}}]}