{"type": "FeatureCollection", "features": [{"type": "Feature", "properties": {"id": "7f4a1449-89d4-4956-b1d5-fa63ccdcf8fe", "name": "Garagiste", "category": "wine", "tags": ["wine", "winery"], "sources": ["overture"], "website": "http://www.garagiste.com/", "phone": "+18882640053", "address": "720 SW 34th St"}, "geometry": {"type": "Point", "coordinates": [-122.2263718, 47.4513588]}}, {"type": "Feature", "properties": {"id": "f230102a-79cc-44c8-a775-b2bfd9376b6d", "name": "Global Furniture Group", "category": "furniture", "tags": ["furniture"], "sources": ["overture"], "website": "http://www.globalfurnituregroup.com", "phone": "+14252919282", "address": "820 SW 34th St building w7 suite a"}, "geometry": {"type": "Point", "coordinates": [-122.2291031, 47.4511681]}}, {"type": "Feature", "properties": {"id": "51a30b19-7c5b-496c-925b-877464c7b433", "name": "Hardwoods", "category": "doityourself", "tags": ["doityourself", "building", "supply"], "sources": ["overture"], "website": "http://www.hardwoods-inc.com/", "phone": "+14252511213", "address": "2700 Lind Ave SW #100"}, "geometry": {"type": "Point", "coordinates": [-122.2226791, 47.4546509]}}, {"type": "Feature", "properties": {"id": "086acea8-2361-4ea5-b16c-d209c33ae59c", "name": "Providence Infusion And Pharmacy Services", "category": "hospital", "tags": ["hospital"], "sources": ["overture"], "website": "https://providence-washington.jobs", "phone": "4256874458", "address": "2201 Lind Ave Sw  Ste 130"}, "geometry": {"type": "Point", "coordinates": [-122.2249603, 47.4599495]}}, {"type": "Feature", "properties": {"id": 4137628201, "name": "Leading Edge Kickboxing", "category": "sports_centre", "tags": ["sports-centre"], "sources": ["osm"]}, "geometry": {"type": "Point", "coordinates": [-122.2280034, 47.4503049]}}]}