{"type": "FeatureCollection", "features": [{"type": "Feature", "properties": {"id": 688101307, "name": "Peet's Coffee", "category": "cafe", "tags": ["cafe", "coffee-shop", "takeaway", "wheelchair-accessible", "coffee"], "sources": ["osm", "overture"], "website": "http://www.peets.com", "address": "17801 International Blvd"}, "geometry": {"type": "Point", "coordinates": [-122.3018596, 47.4389255]}}, {"type": "Feature", "properties": {"id": 4357010075, "name": "Delta Sky Club", "category": "bar", "tags": ["bar"], "sources": ["osm"]}, "geometry": {"type": "Point", "coordinates": [-122.302259, 47.4389567]}}, {"type": "Feature", "properties": {"id": 4357010076, "name": "British Airways Terraces Lounge", "category": "bar", "tags": ["bar"], "sources": ["osm"]}, "geometry": {"type": "Point", "coordinates": [-122.3025601, 47.4388996]}}, {"type": "Feature", "properties": {"id": 688101301, "name": "Smith Cove Bar & Kitchen", "category": "restaurant", "tags": ["restaurant", "seafood", "wheelchair-accessible", "brewery"], "sources": ["osm"]}, "geometry": {"type": "Point", "coordinates": [-122.3021614, 47.4388324]}}, {"type": "Feature", "properties": {"id": 688101305, "name": "Moe's Indian Kitchen", "category": "fast_food", "tags": ["fast-food", "indian", "wheelchair-accessible"], "sources": ["osm"]}, "geometry": {"type": "Point", "coordinates": [-122.3017986, 47.438885]}}, {"type": "Feature", "properties": {"id": 688101306, "name": "Greedy Cow Burger", "category": "fast_food", "tags": ["fast-food", "burger", "wheelchair-accessible", "restaurant"], "sources": ["osm", "overture"]}, "geometry": {"type": "Point", "coordinates": [-122.3017751, 47.4388403]}}, {"type": "Feature", "properties": {"id": "0f40ebd3-084a-45f6-97da-f02dcd074d9c", "name": "Kenai Fjords National Park", "category": "park", "tags": ["park", "national"], "sources": ["overture"]}, "geometry": {"type": "Point", "coordinates": [-122.3032455, 47.4389229]}}, {"type": "Feature", "properties": {"id": 688101303, "name": "Hudson", "category": "convenience", "tags": ["convenience", "wheelchair-accessible"], "sources": ["osm"], "hours": "Mo-Su 05:30-01:00"}, "geometry": {"type": "Point", "coordinates": [-122.3023237, 47.4387923]}}, {"type": "Feature", "properties": {"id": 688101300, "name": "Dufry Duty Free", "category": "gift", "tags": ["gift"], "sources": ["osm"], "hours": "PH,Mo-Su 05:30-01:00"}, "geometry": {"type": "Point", "coordinates": [-122.302573, 47.4385598]}}, {"type": "Feature", "properties": {"id": "eea22ec7-7107-4ec7-a6a7-27e97885f795", "name": "Caf\u00c3\u00a9 Nordstrom", "category": "clothes", "tags": ["clothes"], "sources": ["overture"], "website": "http://shop.nordstrom.com/c/nordstrom-restaurants", "phone": "(206) 628-1610", "address": "500 Pine St"}, "geometry": {"type": "Point", "coordinates": [-122.3020401, 47.4388046]}}]}