{"type": "FeatureCollection", "features": [{"type": "Feature", "properties": {"id": 2791810961, "name": "Starbucks", "category": "cafe", "tags": ["cafe", "coffee-shop", "takeaway"], "sources": ["osm"], "website": "https://www.starbucks.com/store-locator/store/6356/fred-meyer-redondo-215-25250-pacific-highway-south-kent-wa-980326539-us", "phone": "+1-253-946-7400", "address": "25250 Pacific Highway South"}, "geometry": {"type": "Point", "coordinates": [-122.2986082, 47.3745673]}}, {"type": "Feature", "properties": {"id": 4307558409, "name": "Circo Circo!", "category": "restaurant", "tags": ["restaurant", "mexican"], "sources": ["osm"], "address": "25440 Pacific Highway South"}, "geometry": {"type": "Point", "coordinates": [-122.2998436, 47.373063]}}, {"type": "Feature", "properties": {"id": 4379348995, "name": "Tres Hermanos", "category": "restaurant", "tags": ["restaurant"], "sources": ["osm"]}, "geometry": {"type": "Point", "coordinates": [-122.2993153, 47.3782542]}}, {"type": "Feature", "properties": {"id": 4379387590, "name": "Robin Hood Pizza", "category": "restaurant", "tags": ["restaurant", "pizza"], "sources": ["osm"]}, "geometry": {"type": "Point", "coordinates": [-122.2997573, 47.3776798]}}, {"type": "Feature", "properties": {"id": 5254972923, "name": "Lang Viet WA", "category": "restaurant", "tags": ["restaurant", "vietnamese", "child-friendly", "has-bar"], "sources": ["osm"], "website": "https://langvietwa.com", "phone": "+1-206-212-6374", "address": "25250 Pacific Highway South", "hours": "Su-Mo,We-Sa 10:30-21:00"}, "geometry": {"type": "Point", "coordinates": [-122.298684, 47.3736702]}}, {"type": "Feature", "properties": {"id": 5257024407, "name": "Maui Thai", "category": "restaurant", "tags": ["restaurant", "thai"], "sources": ["osm"]}, "geometry": {"type": "Point", "coordinates": [-122.2988337, 47.3775095]}}, {"type": "Feature", "properties": {"id": 6412104185, "name": "Sushinola", "category": "restaurant", "tags": ["restaurant", "mexican", "sushi", "japanese", "seafood"], "sources": ["osm", "overture"], "website": "http://sushinolasushiymariscos.com/", "phone": "+12064292938", "address": "24817 Pacific Hwy S"}, "geometry": {"type": "Point", "coordinates": [-122.2992896, 47.3783509]}}, {"type": "Feature", "properties": {"id": 649862689, "name": "Lady Bug Espresso", "category": "cafe", "tags": ["cafe", "coffee-shop", "coffee"], "sources": ["osm", "overture"], "website": "https://ladybugbikiniespresso.com", "phone": "+12064874668", "address": "24816 Pacific Hwy S"}, "geometry": {"type": "Point", "coordinates": [-122.2982001, 47.3789062]}}, {"type": "Feature", "properties": {"id": "b49a37ee-cb7f-4594-9b60-b41f4cef474d", "name": "Starbucks Coffee Company", "category": "cafe", "tags": ["cafe", "coffee"], "sources": ["overture"], "website": "http://www.starbucks.com/", "phone": "+12539467400", "address": "25250 Pacific Hwy S"}, "geometry": {"type": "Point", "coordinates": [-122.2986526, 47.3746071]}}, {"type": "Feature", "properties": {"id": "f5ad39b5-614a-4394-9185-c18991779667", "name": "Pho Luu", "category": "restaurant", "tags": ["restaurant", "vietnamese"], "sources": ["overture"], "website": "http://www.pholuu.com", "phone": "12065922596", "address": "25250 Pacific Hwy S  Ste C113"}, "geometry": {"type": "Point", "coordinates": [-122.2982635, 47.3741798]}}, {"type": "Feature", "properties": {"id": "7474369b-0e6c-46ff-b30c-bb755961779c", "name": "Gorkha Durbar", "category": "restaurant", "tags": ["restaurant", "asian", "pan"], "sources": ["overture"], "website": "http://www.gorkhadurbarseattle.com/", "phone": "2065926954", "address": "25250 Pacific Highway S"}, "geometry": {"type": "Point", "coordinates": [-122.298645, 47.3741226]}}, {"type": "Feature", "properties": {"id": "1381f770-181b-4ebc-8657-aace4b206b4a", "name": "Lang Viet", "category": "restaurant", "tags": ["restaurant", "vietnamese", "asian"], "sources": ["overture"], "website": "https://www.langvietwa.com/", "phone": "+12062126374", "address": "25250 Pacific Hwy S Ste C113"}, "geometry": {"type": "Point", "coordinates": [-122.2987213, 47.373703]}}, {"type": "Feature", "properties": {"id": "711980f5-5a3f-4e9a-b3b3-8cb6f4412698", "name": "Pacific Thai Cuisine", "category": "restaurant", "tags": ["restaurant", "thai"], "sources": ["overture"], "website": "https://pacificthaitogo.com", "phone": "2539461515", "address": "25006 Pacific Hwy S"}, "geometry": {"type": "Point", "coordinates": [-122.2981567, 47.3773842]}}, {"type": "Feature", "properties": {"id": "46d72bd3-e843-4436-aa7c-42e2032cdfa4", "name": "DAO Thai Street Food", "category": "restaurant", "tags": ["restaurant", "thai", "asian"], "sources": ["overture"], "website": "http://www.daothaistreetfood.com/", "phone": "+12539461515", "address": "25006 Pacific Hwy S"}, "geometry": {"type": "Point", "coordinates": [-122.2988892, 47.3774796]}}, {"type": "Feature", "properties": {"id": "80d5927d-3560-42f3-97fa-d267f7686099", "name": "Robin Hood Pizza (Kent)", "category": "restaurant", "tags": ["restaurant", "pizza", "italian"], "sources": ["overture"], "website": "http://robinhoodpizza.com/index.html", "phone": "+12062498805", "address": "24823 Pacific Hwy S"}, "geometry": {"type": "Point", "coordinates": [-122.299614, 47.3776932]}}, {"type": "Feature", "properties": {"id": "7ee541ec-414f-4243-8333-f885a6bf9d07", "name": "Appian Way Apartments", "category": "attraction", "tags": ["attraction", "landmark", "historical", "building"], "sources": ["overture"], "website": "https://www.mercyhousing.org/northwest/appian-way", "phone": "+12539415026", "address": "25818 26th Pl S"}, "geometry": {"type": "Point", "coordinates": [-122.2988129, 47.3701096]}}, {"type": "Feature", "properties": {"id": "7008ab44-630c-4cc1-aa44-efbaa42b00c5", "name": "Extended Stay America", "category": "hotel", "tags": ["hotel"], "sources": ["overture"], "website": "http://www.extendedstayhotels.com/contact/default.html", "phone": "+12538391049", "address": "25104 Pacific Hwy S"}, "geometry": {"type": "Point", "coordinates": [-122.2977295, 47.3764496]}}, {"type": "Feature", "properties": {"id": 523556020, "name": "Crossland Economy Studios - Seattle/Kent/Des Moines", "category": "hotel", "tags": ["hotel"], "sources": ["osm", "overture"], "phone": "+18773983633", "address": "25104 Pacific Hwy S"}, "geometry": {"type": "Point", "coordinates": [-122.2979031, 47.3763494]}}, {"type": "Feature", "properties": {"id": "a890f9dc-aac9-454d-a655-0de3b7009cea", "name": "Sunset Motel", "category": "motel", "tags": ["motel"], "sources": ["overture"], "website": "http://www.recklesskelly.com/", "phone": "+12539417111", "address": "25006 Pacific Hwy S"}, "geometry": {"type": "Point", "coordinates": [-122.2987671, 47.3773193]}}, {"type": "Feature", "properties": {"id": 157164715, "name": "Fred Meyer", "category": "supermarket", "tags": ["supermarket"], "sources": ["osm", "overture"], "website": "https://www.fredmeyer.com/stores/grocery/wa/kent/redondo/701/00215?cid=loc_70100215_fb", "phone": "+12539467400", "address": "25250 Pacific Hwy S", "hours": "Mo-Su 06:00-22:00"}, "geometry": {"type": "Point", "coordinates": [-122.2981181, 47.3742226]}}, {"type": "Feature", "properties": {"id": 274472492, "name": "T-Mobile", "category": "mobile_phone", "tags": ["mobile-phone"], "sources": ["osm"], "website": "https://www.t-mobile.com/stores/bd/t-mobile-kent-wa-98032-2427", "address": "25246 Pacific Highway South"}, "geometry": {"type": "Point", "coordinates": [-122.2999801, 47.3750613]}}, {"type": "Feature", "properties": {"id": 660564723, "name": "Petco", "category": "pet", "tags": ["pet"], "sources": ["osm", "overture"], "website": "https://stores.petco.com/wa/kent/pet-supplies-kent-wa-1292.html", "phone": "+12062127005", "address": "25444 Pacific Hwy S Ste A", "hours": "Mo-Sa 09:00-20:00; Su 10:00-19:00"}, "geometry": {"type": "Point", "coordinates": [-122.298541, 47.3729443]}}, {"type": "Feature", "properties": {"id": 4379348191, "name": "Metro by T-Mobile", "category": "mobile_phone", "tags": ["mobile-phone", "mobile"], "sources": ["osm", "overture"], "website": "https://www.metrobyt-mobile.com/stores/bd/metro-by-t-mobile-kent-wa-10292456/", "phone": "2064292114", "address": "24823 Pacific Hwy S"}, "geometry": {"type": "Point", "coordinates": [-122.299597, 47.3777399]}}, {"type": "Feature", "properties": {"id": 4379371290, "name": "Smoke", "category": "tobacco", "tags": ["tobacco"], "sources": ["osm"]}, "geometry": {"type": "Point", "coordinates": [-122.2995203, 47.3781937]}}, {"type": "Feature", "properties": {"id": "3ffa4c87-727c-4ac9-b1d5-0a64a79648d3", "name": "Fred Meyer Jewelers", "category": "jewelry", "tags": ["jewelry"], "sources": ["overture"], "website": "https://www.fredmeyerjewelers.com", "phone": "12539467415", "address": "25250 Pacific Hwy S"}, "geometry": {"type": "Point", "coordinates": [-122.2982635, 47.3741798]}}, {"type": "Feature", "properties": {"id": 305368580, "name": "Del*Rio Supermarkets", "category": "supermarket", "tags": ["supermarket"], "sources": ["osm", "overture"], "phone": "+12066537420", "address": "24811 Pacific Hwy S", "hours": "Su-Sa 08:00-21:00"}, "geometry": {"type": "Point", "coordinates": [-122.299255, 47.3788197]}}, {"type": "Feature", "properties": {"id": "88215ef9-db90-4f1c-ae80-78a2cfd851ee", "name": "Lifesafer Ignition Interlock", "category": "clothes", "tags": ["clothes"], "sources": ["overture"], "website": "https://www.lifesafer.com/locations/Washington/Kent/5726", "phone": "2536933399", "address": "24820 Pacific Highway S"}, "geometry": {"type": "Point", "coordinates": [-122.2983627, 47.3789444]}}, {"type": "Feature", "properties": {"id": "62b542ba-241f-4515-89cf-f869dcdd728e", "name": "Sherwin-Williams", "category": "hardware", "tags": ["hardware"], "sources": ["overture"], "website": "https://www.sherwin-williams.com/store-locator/paint-store/kent/wa/708968", "phone": "+12068786196", "address": "25444 Pacific Hwy S"}, "geometry": {"type": "Point", "coordinates": [-122.2988129, 47.372921]}}, {"type": "Feature", "properties": {"id": "19bb489f-ff28-4c1c-814d-739c2a261eb5", "name": "Cricket Wireless Authorized Retailer", "category": "mobile_phone", "tags": ["mobile-phone", "mobile"], "sources": ["overture"], "website": "https://www.att.com", "phone": "+19512452533", "address": "25250 Pacific Hwy S"}, "geometry": {"type": "Point", "coordinates": [-122.2982635, 47.3741798]}}, {"type": "Feature", "properties": {"id": "fa533066-f96b-4b02-928e-3efc528cd297", "name": "T-Mobile Authorized Retailer", "category": "mobile_phone", "tags": ["mobile-phone", "mobile"], "sources": ["overture"], "website": "https://www.t-mobile.com/stores/bd/t-mobile-kent-wa-98032-2427?utm_source=facebook&utm_medium=lastmile&utm_campaign=2427", "phone": "+12532205500", "address": "25246 Pacific Hwy S Ste 106"}, "geometry": {"type": "Point", "coordinates": [-122.2998734, 47.3749504]}}, {"type": "Feature", "properties": {"id": "a1193f53-a489-41ac-b7db-260228b4906c", "name": "Luckyangie", "category": "clothes", "tags": ["clothes", "womens"], "sources": ["overture"], "phone": "+12065367571", "address": "24860 Pacific Hwy S Ste 102"}, "geometry": {"type": "Point", "coordinates": [-122.2985077, 47.3776665]}}, {"type": "Feature", "properties": {"id": "6668782d-6233-4871-a096-03c1517f44e3", "name": "786 International Halal Market", "category": "supermarket", "tags": ["supermarket"], "sources": ["overture"], "phone": "+12062498320", "address": "24823 Pacific Hwy S"}, "geometry": {"type": "Point", "coordinates": [-122.2995453, 47.3779411]}}, {"type": "Feature", "properties": {"id": 2791810924, "name": "BECU", "category": "bank", "tags": ["bank", "wheelchair-accessible"], "sources": ["osm"], "hours": "Mo-Fr 09:00-18:00; Sa 09:00-13:00; Su off"}, "geometry": {"type": "Point", "coordinates": [-122.298616, 47.3741405]}}]}