{"type": "FeatureCollection", "features": [{"type": "Feature", "properties": {"id": 4714567556, "name": "Subway", "category": "fast_food", "tags": ["fast-food", "sandwich", "takeaway", "restaurant"], "sources": ["osm", "overture"], "website": "https://www.subway.com", "phone": "12538544470", "address": "4798 Auburn Way N  Ste 102", "hours": "Mo-Fr 09:00-20:00; Sa-Su 10:00-16:00"}, "geometry": {"type": "Point", "coordinates": [-122.2256662, 47.3504585]}}, {"type": "Feature", "properties": {"id": 4461362462, "name": "Daisy Mae's Cafe", "category": "cafe", "tags": ["cafe", "coffee-shop"], "sources": ["osm"]}, "geometry": {"type": "Point", "coordinates": [-122.2286091, 47.3535255]}}, {"type": "Feature", "properties": {"id": 4718691140, "name": "The Food Atlas", "category": "cafe", "tags": ["cafe", "coffee-shop"], "sources": ["osm"]}, "geometry": {"type": "Point", "coordinates": [-122.2285827, 47.3534544]}}, {"type": "Feature", "properties": {"id": 646130632, "name": "Kona Kaen Thai", "category": "restaurant", "tags": ["restaurant", "thai"], "sources": ["osm"], "address": "5001 Auburn Way North"}, "geometry": {"type": "Point", "coordinates": [-122.2281371, 47.3516892]}}, {"type": "Feature", "properties": {"id": "cae09688-4aba-4066-bcb0-283905ccaf26", "name": "Charity's T'boli Brew Cafe", "category": "cafe", "tags": ["cafe", "coffee"], "sources": ["overture"], "address": "5148 Auburn Way N"}, "geometry": {"type": "Point", "coordinates": [-122.2285309, 47.3534698]}}, {"type": "Feature", "properties": {"id": "42be92b5-e2d3-41a1-be05-9a9303484fa8", "name": "Koffie Bean", "category": "cafe", "tags": ["cafe", "coffee"], "sources": ["overture"], "website": "http://www.thekoffiebean.com/", "phone": "+12062900385", "address": "5148 Auburn Wy N"}, "geometry": {"type": "Point", "coordinates": [-122.2285614, 47.3535271]}}, {"type": "Feature", "properties": {"id": "e47cf387-c18c-42cd-ad5e-2efa35aeb72a", "name": "Grab A Pizza", "category": "restaurant", "tags": ["restaurant", "pizza"], "sources": ["overture"], "phone": "+12535202505", "address": "5148 Auburn Wy N"}, "geometry": {"type": "Point", "coordinates": [-122.2285461, 47.3534851]}}, {"type": "Feature", "properties": {"id": "8b48ec2f-d057-40cb-ae4c-abacefbad365", "name": "Sky's Kitchen", "category": "restaurant", "tags": ["restaurant", "greek", "pizza"], "sources": ["overture"], "website": "http://Www.skysgreekkitchen.com/", "phone": "+12538540301", "address": "5148 Auburn Way N"}, "geometry": {"type": "Point", "coordinates": [-122.2284698, 47.3534279]}}, {"type": "Feature", "properties": {"id": 646130642, "name": "ExtraMile", "category": "convenience", "tags": ["convenience"], "sources": ["osm"]}, "geometry": {"type": "Point", "coordinates": [-122.2284991, 47.3534654]}}, {"type": "Feature", "properties": {"id": 5613005255, "name": "Dance Trends", "category": "clothes", "tags": ["clothes"], "sources": ["osm"]}, "geometry": {"type": "Point", "coordinates": [-122.2257472, 47.3504587]}}, {"type": "Feature", "properties": {"id": 654415942, "name": "Euro Food & Deli", "category": "convenience", "tags": ["convenience", "deli", "delicatessen", "european"], "sources": ["osm", "overture"], "phone": "+12532778944", "address": "113 49th St NW"}, "geometry": {"type": "Point", "coordinates": [-122.2278945, 47.3514847]}}, {"type": "Feature", "properties": {"id": "dc03e99e-ada4-48a5-a1d6-fc2001364a56", "name": "DanceTrendz", "category": "shoes", "tags": ["shoes", "shoe"], "sources": ["overture"], "website": "http://dancetrendzwa.com", "phone": "(206) 922-7878", "address": "4798 Auburn Way N, Suite 101"}, "geometry": {"type": "Point", "coordinates": [-122.2257156, 47.3504944]}}, {"type": "Feature", "properties": {"id": 5613005254, "name": "Commencement Bank - Loan Center", "category": "bank", "tags": ["bank"], "sources": ["osm"], "hours": "Mo-Fr 08:00-17:00"}, "geometry": {"type": "Point", "coordinates": [-122.2255853, 47.3504583]}}]}