{"type": "FeatureCollection", "features": [{"type": "Feature", "properties": {"id": 2860419308, "name": "Subway", "category": "fast_food", "tags": ["fast-food", "sandwich", "takeaway", "wheelchair-accessible", "vegetarian", "restaurant"], "sources": ["osm", "overture"], "website": "https://restaurants.subway.com/united-states/wa/renton/800-s-grady-way", "phone": "+14259178601", "address": "800 S Grady Way", "hours": "Mo-Sa 08:00-21:00; Su 09:00-21:00"}, "geometry": {"type": "Point", "coordinates": [-122.2087856, 47.4735578]}}, {"type": "Feature", "properties": {"id": 1716949621, "name": "Common Ground Coffee & Cupcakes", "category": "cafe", "tags": ["cafe", "indoor-seating", "wheelchair-accessible", "vegetarian", "wifi"], "sources": ["osm"], "address": "900 South 3rd Street", "hours": "Mo-Fr 08:30-16:30; Sa,Su 09:00-17:00"}, "geometry": {"type": "Point", "coordinates": [-122.2052884, 47.4797754]}}, {"type": "Feature", "properties": {"id": 2316701811, "name": "Pho Asia", "category": "restaurant", "tags": ["restaurant", "vietnamese", "noodles", "bubble-tea", "indoor-seating", "takeaway", "wheelchair-accessible", "vegetarian"], "sources": ["osm"], "website": "https://www.phoasiarenton.com/", "phone": "+1-425-204-9991", "address": "801 South 3rd Street", "hours": "Mo-Sa 10:00-24:00; Su 10:00-21:00"}, "geometry": {"type": "Point", "coordinates": [-122.206486, 47.4795746]}}, {"type": "Feature", "properties": {"id": 2317824957, "name": "Naan-N-Curry", "category": "restaurant", "tags": ["restaurant", "indian", "takeaway", "pakistani"], "sources": ["osm", "overture"], "website": "http://www.naanncurry.com/", "phone": "+14252716226", "address": "709 S 3rd St", "hours": "Mo off; Tu-Th 11:30-20:00; Fr 11:30-21:00; Sa 12:00-21:00; Su 12:00-20:00"}, "geometry": {"type": "Point", "coordinates": [-122.2073592, 47.4795759]}}, {"type": "Feature", "properties": {"id": 2380701894, "name": "8 Bit Arcade", "category": "bar", "tags": ["bar", "outdoor-seating", "indoor-seating", "wheelchair-accessible"], "sources": ["osm"], "address": "916 South 3rd Street", "hours": "Mo-Fr 16:00-02:00; Sa-Su 12:00-02:00"}, "geometry": {"type": "Point", "coordinates": [-122.204959, 47.4797705]}}, {"type": "Feature", "properties": {"id": 2380701903, "name": "Liberty Cafe", "category": "cafe", "tags": ["cafe", "american"], "sources": ["osm", "overture"], "website": "http://maps.google.com/maps/place?hl=en&sugexp=ldymls&xhr=t&cp=30&wrapid=tljp1297410403764018&um=1&ie=UTF-8&q=Liberty+Cafe+Renton+Washington&fb=1&gl=us&hq=Liberty+Cafe&hnear=Renton", "phone": "+15616549677", "address": "926 S 3rd St", "hours": "Mo off; Tu-Su 10:00-17:00"}, "geometry": {"type": "Point", "coordinates": [-122.2044445, 47.4797698]}}, {"type": "Feature", "properties": {"id": 2380769893, "name": "Blossom Vegetarian", "category": "restaurant", "tags": ["restaurant", "vietnamese", "reservations", "wheelchair-accessible", "vegetarian", "vegan", "asian"], "sources": ["osm", "overture"], "website": "http://blossomrenton.com/", "phone": "+14259027456", "address": "305 Burnett Ave S", "hours": "11:00-21:00"}, "geometry": {"type": "Point", "coordinates": [-122.2083195, 47.4793716]}}, {"type": "Feature", "properties": {"id": 2380769907, "name": "Smoking Monkey Pizza", "category": "restaurant", "tags": ["restaurant", "pizza", "indoor-seating", "takeaway", "delivery", "wheelchair-accessible", "air-conditioned", "italian"], "sources": ["osm", "overture"], "website": "http://www.smokingmonkeypizza.com/", "phone": "+14252917560", "address": "613 S 3rd St", "hours": "Su-Th 11:00-20:30; Fr,Sa 11:00-21:30"}, "geometry": {"type": "Point", "coordinates": [-122.2087755, 47.4796093]}}, {"type": "Feature", "properties": {"id": 6136490305, "name": "Premier Meat Pies", "category": "restaurant", "tags": ["restaurant", "american", "chicken", "indoor-seating", "bakery", "british"], "sources": ["osm", "overture"], "website": "https://premiermeatpies.com/", "phone": "+14255726802", "address": "919 S 3rd St"}, "geometry": {"type": "Point", "coordinates": [-122.2044245, 47.4795621]}}, {"type": "Feature", "properties": {"id": 8481451817, "name": "Boon Boona Coffee", "category": "cafe", "tags": ["cafe", "outdoor-seating", "indoor-seating", "coffee"], "sources": ["osm", "overture"], "website": "http://www.boonboonacoffee.com", "phone": "+14254968618", "address": "724 S 3rd St", "hours": "Mo-Su 08:00-17:00"}, "geometry": {"type": "Point", "coordinates": [-122.206888, 47.4797859]}}, {"type": "Feature", "properties": {"id": 4238312682, "name": "SipStop", "category": "cafe", "tags": ["cafe", "bubble-tea"], "sources": ["osm"], "address": "327 Williams Avenue South"}, "geometry": {"type": "Point", "coordinates": [-122.2068083, 47.4787316]}}, {"type": "Feature", "properties": {"id": 4238373795, "name": "Wild Ginger Teriyaki", "category": "restaurant", "tags": ["restaurant", "asian", "japanese", "chinese"], "sources": ["osm", "overture"], "website": "https://www.wildgingerteriyaki.com", "phone": "+14252279089", "address": "305 Burnett Ave S", "hours": "Mo-Fr 11:00-21:00; Sa 11:00-20:00"}, "geometry": {"type": "Point", "coordinates": [-122.2083213, 47.4794763]}}, {"type": "Feature", "properties": {"id": 4238376589, "name": "Salty Blue", "category": "fast_food", "tags": ["fast-food", "burger", "fish-and-chips"], "sources": ["osm"], "address": "601 South 3rd Street", "hours": "Mo-Th 11:00-19:00; Fr-Sa 11:00-20:00; Su off"}, "geometry": {"type": "Point", "coordinates": [-122.2092927, 47.4794478]}}, {"type": "Feature", "properties": {"id": 4238382737, "name": "Uncle Mo's Snappy Inn", "category": "pub", "tags": ["pub"], "sources": ["osm"], "address": "321 Williams Avenue South"}, "geometry": {"type": "Point", "coordinates": [-122.2067981, 47.4788649]}}, {"type": "Feature", "properties": {"id": 4238401093, "name": "Cedar River BBQ", "category": "restaurant", "tags": ["restaurant", "barbecue", "indoor-seating", "american"], "sources": ["osm", "overture"], "website": "https://twitter.com/CedarRiverSmoke", "phone": "+14252554820", "address": "304 Wells Ave S", "hours": "Mo-Th 11:00-20:00; Fr,Sa 11:00-21:00; Su 12:00-20:00"}, "geometry": {"type": "Point", "coordinates": [-122.2053, 47.4794483]}}, {"type": "Feature", "properties": {"id": 4238431293, "name": "Taqueria & Gym", "category": "restaurant", "tags": ["restaurant", "mexican", "wheelchair-accessible"], "sources": ["osm"], "address": "900 South 3rd Street", "hours": "Mo-Sa 10:00-19:00; Su off"}, "geometry": {"type": "Point", "coordinates": [-122.2052036, 47.4797731]}}, {"type": "Feature", "properties": {"id": 4238435989, "name": "The Local 907 Pub & Eatery", "category": "restaurant", "tags": ["restaurant", "indoor-seating"], "sources": ["osm"], "address": "907 South 3rd Street", "hours": "Mo-Fr 11:00-02:00; Sa-Su 10:00-02:00"}, "geometry": {"type": "Point", "coordinates": [-122.205005, 47.4795838]}}, {"type": "Feature", "properties": {"id": 6136490217, "name": "Bindaas", "category": "restaurant", "tags": ["restaurant", "indian"], "sources": ["osm"], "website": "https://www.bindaasrenton.com", "address": "811 South 3rd Street"}, "geometry": {"type": "Point", "coordinates": [-122.2059006, 47.4795762]}}, {"type": "Feature", "properties": {"id": 9657136318, "name": "Puget Sound Cider Company", "category": "bar", "tags": ["bar", "wine", "winery"], "sources": ["osm", "overture"], "website": "https://www.shopantiques4u.com/puget-sound-cider-co", "phone": "+14252917987", "address": "924 S 3rd St"}, "geometry": {"type": "Point", "coordinates": [-122.2045975, 47.4797947]}}, {"type": "Feature", "properties": {"id": 9661919817, "name": "Rain City Market", "category": "restaurant", "tags": ["restaurant", "indoor-seating", "convenience"], "sources": ["osm", "overture"], "website": "https://raincitymarket.com/", "phone": "+14259703340", "address": "700 S 3rd St"}, "geometry": {"type": "Point", "coordinates": [-122.2076945, 47.4798089]}}, {"type": "Feature", "properties": {"id": 9661920018, "name": "The Owl Room", "category": "bar", "tags": ["bar"], "sources": ["osm"], "address": "808 South 3rd Street"}, "geometry": {"type": "Point", "coordinates": [-122.2062867, 47.4797909]}}, {"type": "Feature", "properties": {"id": 10074209817, "name": "Rice N Curry", "category": "restaurant", "tags": ["restaurant", "indian", "asian"], "sources": ["osm", "overture"], "website": "http://ricencurry.net/", "phone": "+14252645570", "address": "601 S 3rd St"}, "geometry": {"type": "Point", "coordinates": [-122.2091624, 47.4794401]}}, {"type": "Feature", "properties": {"id": 12793584775, "name": "Drum Roll Wine", "category": "bar", "tags": ["bar", "wine", "winery"], "sources": ["osm", "overture"], "website": "http://www.drumrollwine.com/", "phone": "+14252215650", "address": "911 S 3rd St"}, "geometry": {"type": "Point", "coordinates": [-122.2046903, 47.4795575]}}, {"type": "Feature", "properties": {"id": 68648968, "name": "Jaguar Mexican Restaurant", "category": "restaurant", "tags": ["restaurant", "mexican", "latin-american"], "sources": ["osm", "overture"], "website": "https://linktr.ee/moralesla76", "phone": "+14252553043", "address": "306 Williams Ave S", "hours": "Tu-Su 09:00-21:00; Mo off"}, "geometry": {"type": "Point", "coordinates": [-122.2063731, 47.4794036]}}, {"type": "Feature", "properties": {"id": 396476890, "name": "Whistle Stop Ale House", "category": "restaurant", "tags": ["restaurant", "american", "pub", "bar-and-grill"], "sources": ["osm", "overture"], "website": "http://www.whistlestopalehouse.com", "phone": "+14252773039", "address": "809 S 4th St", "hours": "Mo-Th 11:00-21:00; Fr 11:00-22:00; Sa 09:00-22:00; Su 09:00-21:00"}, "geometry": {"type": "Point", "coordinates": [-122.2062477, 47.4780062]}}, {"type": "Feature", "properties": {"id": 410971631, "name": "Melrose Grill", "category": "restaurant", "tags": ["restaurant", "steak-house", "historic", "indoor-seating"], "sources": ["osm"], "website": "https://www.melrosegrill.com", "phone": "+1-425-254-0759", "address": "819 Houser Way South", "hours": "Mo-Th 17:00-21:00; Fr 17:00-22:00; Sa 16:00-22:00; Su 16:00-21:00"}, "geometry": {"type": "Point", "coordinates": [-122.2056529, 47.4787711]}}, {"type": "Feature", "properties": {"id": 410971634, "name": "Burnett Restaurant & Lounge", "category": "restaurant", "tags": ["restaurant"], "sources": ["osm"], "phone": "+1-425-271-8240", "address": "340 Burnett Avenue South"}, "geometry": {"type": "Point", "coordinates": [-122.2076153, 47.4784424]}}, {"type": "Feature", "properties": {"id": 410971636, "name": "Red House", "category": "restaurant", "tags": ["restaurant", "american"], "sources": ["osm", "overture"], "website": "http://www.redhouserenton.com/", "phone": "+14252262666", "address": "410 Burnett Ave S"}, "geometry": {"type": "Point", "coordinates": [-122.2076136, 47.4777556]}}, {"type": "Feature", "properties": {"id": 424401653, "name": "Rubattino's Restaurant", "category": "restaurant", "tags": ["restaurant", "indoor-seating", "vegetarian", "diner", "breakfast-and-brunch", "american"], "sources": ["osm", "overture"], "website": "http://www.rubattinos.com/", "phone": "+14255726834", "address": "808 S 3rd St", "hours": "Mo-Su 08:00-14:00"}, "geometry": {"type": "Point", "coordinates": [-122.2062831, 47.479904]}}, {"type": "Feature", "properties": {"id": 424401655, "name": "DeLancey's on 3rd", "category": "bar", "tags": ["bar"], "sources": ["osm"], "address": "810 South 3rd Street"}, "geometry": {"type": "Point", "coordinates": [-122.2061248, 47.4798959]}}, {"type": "Feature", "properties": {"id": 654879804, "name": "Marianna Ristorante", "category": "restaurant", "tags": ["restaurant", "pizza", "outdoor-seating", "indoor-seating", "italian"], "sources": ["osm", "overture"], "website": "https://www.mariannarenton.com/", "phone": "+14259616517", "address": "310 Wells Ave S", "hours": "Mo-Fr 11:00-22:00; Sa-Su 14:00-22:00"}, "geometry": {"type": "Point", "coordinates": [-122.2052068, 47.4792765]}}, {"type": "Feature", "properties": {"id": 654879834, "name": "Ocha Thai Restaurant", "category": "restaurant", "tags": ["restaurant", "thai"], "sources": ["osm"], "address": "317 Main Avenue South"}, "geometry": {"type": "Point", "coordinates": [-122.204589, 47.4789795]}}, {"type": "Feature", "properties": {"id": "d99320b4-793f-4b96-9d21-17b04c9f55d9", "name": "Burnett's Pub", "category": "pub", "tags": ["pub", "bar-and-grill"], "sources": ["overture"], "website": "http://www.burnettstationisyourhome.com", "phone": "+14259703913", "address": "340 Burnett Ave S"}, "geometry": {"type": "Point", "coordinates": [-122.2077408, 47.4784203]}}, {"type": "Feature", "properties": {"id": "fd1efe00-deb9-4a47-a55a-e85fa5ae3671", "name": "FIT BAR Superfood Cafe", "category": "cafe", "tags": ["cafe", "health-food"], "sources": ["overture"], "website": "http://www.fitbarcafe.com/", "phone": "+12063714078", "address": "332 Burnett Ave S"}, "geometry": {"type": "Point", "coordinates": [-122.2077332, 47.4786186]}}, {"type": "Feature", "properties": {"id": "8cfbfb26-7a5f-4320-a1dd-fbaf1ad64f67", "name": "Blossom Awesome Inc", "category": "restaurant", "tags": ["restaurant"], "sources": ["overture"], "address": "305 Burnett Ave S Ste A"}, "geometry": {"type": "Point", "coordinates": [-122.2085037, 47.4793892]}}, {"type": "Feature", "properties": {"id": "c5c018c6-611c-4940-8898-6faab5ff1067", "name": "Wing Szn - Renton", "category": "restaurant", "tags": ["restaurant", "wings", "chicken"], "sources": ["overture"], "website": "https://www.solidbearinglubricants.com", "phone": "+14252430313", "address": "613 S 3rd St Ste B"}, "geometry": {"type": "Point", "coordinates": [-122.2088547, 47.4794617]}}, {"type": "Feature", "properties": {"id": "07e5c07e-17a7-4894-99ca-28dd54d4eeaa", "name": "Burger Town", "category": "restaurant", "tags": ["restaurant", "burger", "fish-and-chips"], "sources": ["overture"], "phone": "4256639189", "address": "601 S 3rd St"}, "geometry": {"type": "Point", "coordinates": [-122.209198, 47.4794579]}}, {"type": "Feature", "properties": {"id": "6955c8f0-036c-4c62-b61a-cdbfcd5f0ffa", "name": "Salty Blue Fish & Chips", "category": "restaurant", "tags": ["restaurant", "fish-and-chips", "fish", "chips", "seafood", "australian"], "sources": ["overture"], "website": "http://www.saltyblueseattle.com/", "phone": "+14252645592", "address": "601 S 3rd St Ste D"}, "geometry": {"type": "Point", "coordinates": [-122.2092743, 47.479538]}}, {"type": "Feature", "properties": {"id": "9b57af8e-800c-4e0c-986f-ec54c7a20606", "name": "Heaven Sent Fried Chicken", "category": "restaurant", "tags": ["restaurant", "chicken"], "sources": ["overture"], "website": "http://heavensentfriedchicken.com", "phone": "(425) 917-3000", "address": "509B S 3rd St"}, "geometry": {"type": "Point", "coordinates": [-122.2099228, 47.4795876]}}, {"type": "Feature", "properties": {"id": "89ab42e4-4657-4fd7-95e2-8221ac7ee724", "name": "A Fire Inside Wood Fired Pizza", "category": "restaurant", "tags": ["restaurant", "pizza", "american"], "sources": ["overture"], "website": "http://afireinsidepizza.com/", "phone": "+12069925387", "address": "SE 168th St & 126th Ave SE, 16804"}, "geometry": {"type": "Point", "coordinates": [-122.2094879, 47.4717026]}}, {"type": "Feature", "properties": {"id": "0170bfcb-e13b-4567-9940-702542640ee9", "name": "K.C. Deez BBQ", "category": "restaurant", "tags": ["restaurant", "barbecue"], "sources": ["overture"], "website": "http://www.kcdeezllc.com", "phone": "(206) 251-1179", "address": "707 S Grady Way"}, "geometry": {"type": "Point", "coordinates": [-122.2092667, 47.4718094]}}, {"type": "Feature", "properties": {"id": "a9ee460d-8928-4a58-97cd-e37ef5a44157", "name": "Crisp Creperie", "category": "fast_food", "tags": ["fast-food", "food", "truck"], "sources": ["overture"], "website": "http://www.crispseattle.com", "phone": "(206) 395-5139"}, "geometry": {"type": "Point", "coordinates": [-122.2058029, 47.4701653]}}, {"type": "Feature", "properties": {"id": "16eb36ce-0a0e-4283-a9f1-fa4cb54a333d", "name": "City Scenes Cafe", "category": "cafe", "tags": ["cafe"], "sources": ["overture"], "website": "http://rentonwa.gov", "phone": "+14252898306", "address": "1055 S Grady Way 3rd floor"}, "geometry": {"type": "Point", "coordinates": [-122.2049255, 47.4747467]}}, {"type": "Feature", "properties": {"id": "ecfcbcf7-0332-42a4-bb57-f87eb1420bc5", "name": "Elixir Restaurant & Lounge", "category": "restaurant", "tags": ["restaurant"], "sources": ["overture"], "website": "elixirrenton.com", "address": "310 Wells Ave S"}, "geometry": {"type": "Point", "coordinates": [-122.2035294, 47.4794159]}}, {"type": "Feature", "properties": {"id": "de18ce5f-5d4f-4f18-b223-834e9d1d865a", "name": "Vino Corporation", "category": "restaurant", "tags": ["restaurant"], "sources": ["overture"], "address": "310 Wells Ave S"}, "geometry": {"type": "Point", "coordinates": [-122.2035294, 47.4794159]}}, {"type": "Feature", "properties": {"id": "fadb38fa-4aec-4890-bbe7-44a369e5332a", "name": "Ocha Thai Kitchen and Bar", "category": "restaurant", "tags": ["restaurant", "thai", "asian"], "sources": ["overture"], "website": "http://www.o-chathai.com", "phone": "+14255244661", "address": "317 Main Ave S"}, "geometry": {"type": "Point", "coordinates": [-122.2043991, 47.478981]}}, {"type": "Feature", "properties": {"id": "b7e8a86c-3f85-42ed-83f5-a022f7cf09d0", "name": "Viet Fusion Catering Llc", "category": "restaurant", "tags": ["restaurant"], "sources": ["overture"], "address": "317 Main Ave S"}, "geometry": {"type": "Point", "coordinates": [-122.2045898, 47.4789734]}}, {"type": "Feature", "properties": {"id": "c6793775-16ab-4b26-9020-92179f213cac", "name": "Shuga Jazz Bistro", "category": "restaurant", "tags": ["restaurant", "southern"], "sources": ["overture"], "website": "http://shugajazzbistro.com", "phone": "(425) 274-3074", "address": "317 Main Ave S"}, "geometry": {"type": "Point", "coordinates": [-122.2046738, 47.479023]}}, {"type": "Feature", "properties": {"id": "96d0f05a-14dd-428f-81d4-9f7f06a2bc87", "name": "Dionisio's Grill", "category": "restaurant", "tags": ["restaurant", "asian"], "sources": ["overture"], "website": "http://dionisiosgrill.com", "phone": "(425) 291-7778", "address": "317 Main Ave S"}, "geometry": {"type": "Point", "coordinates": [-122.205246, 47.4793549]}}, {"type": "Feature", "properties": {"id": "89debffc-cc5a-49b9-affc-2c985450b23b", "name": "Common Ground Cupcakes", "category": "cafe", "tags": ["cafe"], "sources": ["overture"], "website": "http://m.facebook.com/commongroundcupcakes", "phone": "+14252351717", "address": "900 S 3rd St # A"}, "geometry": {"type": "Point", "coordinates": [-122.2052536, 47.479763]}}, {"type": "Feature", "properties": {"id": "d77734f9-e842-4691-8b8f-b46fea70dff4", "name": "Yummy Juan's", "category": "restaurant", "tags": ["restaurant", "mexican"], "sources": ["overture"], "website": "http://www.yummyjuans.com", "phone": "(425) 276-5579", "address": "900 S 3rd St"}, "geometry": {"type": "Point", "coordinates": [-122.2052002, 47.4798508]}}, {"type": "Feature", "properties": {"id": "d4c79b43-45cd-4ee0-ba93-c3fc919c0949", "name": "The Local 907", "category": "bar", "tags": ["bar"], "sources": ["overture"], "website": "https://imenupro.com/+214-2h", "phone": "+14252552511", "address": "907 S 3rd St"}, "geometry": {"type": "Point", "coordinates": [-122.2049866, 47.4796143]}}, {"type": "Feature", "properties": {"id": "3c9b7273-b821-4a50-a95c-a95cd77872ea", "name": "La Hacienda", "category": "restaurant", "tags": ["restaurant", "mexican", "latin-american"], "sources": ["overture"], "website": "http://lahacienda.com/", "phone": "+14252280882", "address": "811 S 3rd St"}, "geometry": {"type": "Point", "coordinates": [-122.2059021, 47.4795647]}}, {"type": "Feature", "properties": {"id": "59299929-e61f-4234-a9cf-60ec882e5ff5", "name": "Macadons", "category": "bakery", "tags": ["bakery"], "sources": ["overture"], "website": "http://www.macadons.com/", "phone": "+12063595882", "address": "826 S 3rd St"}, "geometry": {"type": "Point", "coordinates": [-122.2055664, 47.4798088]}}, {"type": "Feature", "properties": {"id": "cab1cd28-342d-41f2-9e69-698a66762b39", "name": "The Melrose Grill", "category": "restaurant", "tags": ["restaurant", "steakhouse", "american", "bar-and-grill"], "sources": ["overture"], "website": "https://www.melrosegrill.com/", "phone": "+14252540759", "address": "819 Houser Way S"}, "geometry": {"type": "Point", "coordinates": [-122.205574, 47.478817]}}, {"type": "Feature", "properties": {"id": "06f44075-fbdb-4616-8ca2-5c1aff8d4918", "name": "Bindaas Indian Restaurant Sports Bar & Dukaan", "category": "restaurant", "tags": ["restaurant", "indian"], "sources": ["overture"], "website": "http://www.BindaasRenton.com/", "phone": "+14255287133", "address": "811 S 3rd St"}, "geometry": {"type": "Point", "coordinates": [-122.2059097, 47.4794846]}}, {"type": "Feature", "properties": {"id": "ccb9183a-3256-4dd0-b094-3d3ccaa12b9a", "name": "Archivaldo 701 Mexican Restaurant & Bar", "category": "restaurant", "tags": ["restaurant", "mexican", "latin-american"], "sources": ["overture"], "website": "https://archivaldo701.com/", "phone": "+14252280882", "address": "811 S 3rd St"}, "geometry": {"type": "Point", "coordinates": [-122.2059097, 47.4794655]}}, {"type": "Feature", "properties": {"id": "84f5d560-6c7a-4213-b77c-6e0908ff8b61", "name": "Uncle Mo's Bar and Grill", "category": "restaurant", "tags": ["restaurant", "bar-and-grill", "bar", "grill"], "sources": ["overture"], "phone": "+14259173130", "address": "321 Williams Ave S"}, "geometry": {"type": "Point", "coordinates": [-122.2068253, 47.4788704]}}, {"type": "Feature", "properties": {"id": "b69fbe4f-cd50-44e0-aee7-08dc343b8f3d", "name": "Go Deli", "category": "restaurant", "tags": ["restaurant", "sandwich"], "sources": ["overture"], "website": "http://www.go-deli.com", "phone": "(425) 255-0620", "address": "306 Williams Ave S"}, "geometry": {"type": "Point", "coordinates": [-122.2066727, 47.4793739]}}, {"type": "Feature", "properties": {"id": "f5775ca9-159b-4f10-a7b8-f6ee25105fd9", "name": "Pho Asia Noodle House", "category": "restaurant", "tags": ["restaurant", "vietnamese", "asian"], "sources": ["overture"], "website": "https://www.phoasiarenton.com/", "phone": "+14252049991", "address": "801 S 3rd St"}, "geometry": {"type": "Point", "coordinates": [-122.2063599, 47.4795761]}}, {"type": "Feature", "properties": {"id": 4386228289, "name": "Donkey Run Away From The Mines", "category": "artwork", "tags": ["artwork"], "sources": ["osm"]}, "geometry": {"type": "Point", "coordinates": [-122.2069419, 47.4783253]}}, {"type": "Feature", "properties": {"id": 6824312085, "name": "Erasmus the Dragon", "category": "artwork", "tags": ["artwork"], "sources": ["osm"], "website": "https://rentondowntown.com/dragon/"}, "geometry": {"type": "Point", "coordinates": [-122.205566, 47.4797851]}}, {"type": "Feature", "properties": {"id": 11349624260, "name": "Equi", "category": "artwork", "tags": ["artwork"], "sources": ["osm"]}, "geometry": {"type": "Point", "coordinates": [-122.208678, 47.4739831]}}, {"type": "Feature", "properties": {"id": "15d22242-c0e8-4d8b-aea5-f066ea463281", "name": "Metropolitan Collection Apartments", "category": "attraction", "tags": ["attraction", "landmark", "historical", "building"], "sources": ["overture"], "website": "http://www.metropolitanisyourhome.com/", "phone": "+14255521497", "address": "339 Burnett Ave S"}, "geometry": {"type": "Point", "coordinates": [-122.2083588, 47.4785347]}}, {"type": "Feature", "properties": {"id": "86ea01a5-0f6d-4571-98c1-e97db5795591", "name": "Liberty Square Apartments", "category": "attraction", "tags": ["attraction", "landmark", "historical", "building"], "sources": ["overture"], "website": "http://www.liveatlibertysquare.com", "phone": "+14252770290", "address": "417 Williams Ave S"}, "geometry": {"type": "Point", "coordinates": [-122.2068405, 47.4769554]}}, {"type": "Feature", "properties": {"id": 422104782, "name": "Veterans Memorial Park", "category": "park", "tags": ["park"], "sources": ["osm", "overture"], "website": "http://rentonwa.gov/living/default.aspx?id=1402", "phone": "+14254306600", "address": "1000 S 3rd St"}, "geometry": {"type": "Point", "coordinates": [-122.2036961, 47.4799044]}}, {"type": "Feature", "properties": {"id": 68648950, "name": "Tonkin Park", "category": "park", "tags": ["park"], "sources": ["osm", "overture"], "website": "http://rentonwa.gov", "address": "399 Williams Ave S"}, "geometry": {"type": "Point", "coordinates": [-122.2070958, 47.4783364]}}, {"type": "Feature", "properties": {"id": "3f898ff3-da8d-4696-9558-ed52603dfdc4", "name": "Liberty Park", "category": "park", "tags": ["park"], "sources": ["overture"], "website": "http://libertytwp.org", "phone": "+14254306400", "address": "1055 S Grady Way"}, "geometry": {"type": "Point", "coordinates": [-122.2049789, 47.4745369]}}, {"type": "Feature", "properties": {"id": 74845544, "name": "Park Piazza", "category": "park", "tags": ["park"], "sources": ["osm"]}, "geometry": {"type": "Point", "coordinates": [-122.2085565, 47.4799634]}}, {"type": "Feature", "properties": {"id": 74845545, "name": "Gateway Park", "category": "park", "tags": ["park"], "sources": ["osm"]}, "geometry": {"type": "Point", "coordinates": [-122.2094766, 47.4799555]}}, {"type": "Feature", "properties": {"id": 396477971, "name": "Legacy Square", "category": "park", "tags": ["park"], "sources": ["osm"]}, "geometry": {"type": "Point", "coordinates": [-122.2099671, 47.4799968]}}, {"type": "Feature", "properties": {"id": "a2384a5b-6e72-4a72-93eb-6cb28af698fe", "name": "Burnett Linear Park", "category": "park", "tags": ["park"], "sources": ["overture"], "website": "https://rentonwa.gov/living/default.aspx?id=2330", "phone": "+14254306400", "address": "502 Burnett Ave S"}, "geometry": {"type": "Point", "coordinates": [-122.208107, 47.4761505]}}, {"type": "Feature", "properties": {"id": 614653011, "name": "Historic Renton Hill", "category": "park", "tags": ["park"], "sources": ["osm"]}, "geometry": {"type": "Point", "coordinates": [-122.2025314, 47.4795086]}}, {"type": "Feature", "properties": {"id": "29a63263-64c2-44b6-b278-bdf3d7672fc1", "name": "Coulon Park Boat Launc", "category": "park", "tags": ["park"], "sources": ["overture"], "phone": "+14254306887", "address": "1055 S Grady Way"}, "geometry": {"type": "Point", "coordinates": [-122.204895, 47.4745941]}}, {"type": "Feature", "properties": {"id": "dde71fe9-aa92-445f-877b-242d6162e201", "name": "Western Hotel", "category": "hotel", "tags": ["hotel"], "sources": ["overture"], "website": "http://www.bestwestern.com/", "phone": "+14252275433", "address": "818 S 3rd St"}, "geometry": {"type": "Point", "coordinates": [-122.2059021, 47.4798241]}}, {"type": "Feature", "properties": {"id": 2318731975, "name": "Apparition Books", "category": "books", "tags": ["books", "wheelchair-accessible"], "sources": ["osm", "overture"], "phone": "+14252712811", "address": "814 S 3rd St", "hours": "Mo-Su 10:00-18:00"}, "geometry": {"type": "Point", "coordinates": [-122.205988, 47.4797949]}}, {"type": "Feature", "properties": {"id": 2380701889, "name": "Sparkle Gifts & Whatnots", "category": "gift", "tags": ["gift"], "sources": ["osm"], "address": "824 South 3rd Street", "hours": "Mo-Sa 11:00-18:00; Su 12:00-17:00"}, "geometry": {"type": "Point", "coordinates": [-122.205758, 47.4797959]}}, {"type": "Feature", "properties": {"id": 4238431292, "name": "Antiques 4U", "category": "furniture", "tags": ["furniture"], "sources": ["osm"], "address": "924 South 3rd Street", "hours": "Mo-Tu off; We-Th 11:00-17:00; Fr-Sa 11:00-18:00; Su 12:00-16:00"}, "geometry": {"type": "Point", "coordinates": [-122.204596, 47.4797699]}}, {"type": "Feature", "properties": {"id": 4238440589, "name": "Urban Sprouts", "category": "gift", "tags": ["gift"], "sources": ["osm"], "hours": "10:00-18:00"}, "geometry": {"type": "Point", "coordinates": [-122.2070556, 47.4797922]}}, {"type": "Feature", "properties": {"id": 9661919819, "name": "Esme & Elodie", "category": "clothes", "tags": ["clothes"], "sources": ["osm"], "address": "700 South 3rd Street"}, "geometry": {"type": "Point", "coordinates": [-122.2073164, 47.4798016]}}, {"type": "Feature", "properties": {"id": 140420719, "name": "The Home Depot", "category": "doityourself", "tags": ["doityourself", "wifi", "home", "improvement"], "sources": ["osm", "overture"], "website": "https://www.homedepot.com/l/Renton/WA/Renton/98057/4054", "phone": "4255723400", "address": "901 S Grady Way", "hours": "Mo-Sa 06:00-22:00; Su 07:00-20:00"}, "geometry": {"type": "Point", "coordinates": [-122.2057945, 47.4730538]}}, {"type": "Feature", "properties": {"id": 203296197, "name": "Hungry Bear Market", "category": "convenience", "tags": ["convenience"], "sources": ["osm", "overture"], "website": "https://www.brownbear.com/locations/800-s-grady-way-renton-wa-98057-32", "phone": "4259170264", "address": "800 S Grady Way", "hours": "Mo-Fr 05:00-22:00; Sa,Su 06:00-22:00"}, "geometry": {"type": "Point", "coordinates": [-122.2086567, 47.4735591]}}, {"type": "Feature", "properties": {"id": 654850570, "name": "Modern to Vintage Furniture", "category": "furniture", "tags": ["furniture"], "sources": ["osm"], "address": "407 Williams Avenue South"}, "geometry": {"type": "Point", "coordinates": [-122.2070547, 47.4778825]}}, {"type": "Feature", "properties": {"id": "8d7a5c29-08c5-4af1-8ba5-1192efed4250", "name": "Spirit of Washington Dinner Train", "category": "alcohol", "tags": ["alcohol"], "sources": ["overture"], "website": "http://www.spiritofwashingtondinnertrain.com", "phone": "+14252277245", "address": "625 S 4th St"}, "geometry": {"type": "Point", "coordinates": [-122.2087479, 47.4780235]}}, {"type": "Feature", "properties": {"id": "723e5d17-488b-4e43-adc3-21fcad3e846a", "name": "Ping Ping Llc", "category": "supermarket", "tags": ["supermarket"], "sources": ["overture"], "address": "613 S 3rd St Ste B"}, "geometry": {"type": "Point", "coordinates": [-122.2088547, 47.4794617]}}, {"type": "Feature", "properties": {"id": "10230f57-c3e6-49ce-9117-e6b44f262e05", "name": "Happy Delusions", "category": "gift", "tags": ["gift"], "sources": ["overture"], "website": "happydelusions.wordpress.com", "phone": "4252556078", "address": "924 S 3rd St"}, "geometry": {"type": "Point", "coordinates": [-122.2045822, 47.4798203]}}, {"type": "Feature", "properties": {"id": "df674877-1d11-43d1-bc7b-596d2b78e05e", "name": "Garland Jewelers", "category": "jewelry", "tags": ["jewelry"], "sources": ["overture"], "phone": "4252555101", "address": "814 S 3rd St"}, "geometry": {"type": "Point", "coordinates": [-122.2060013, 47.4798279]}}, {"type": "Feature", "properties": {"id": "d04d81d0-25d5-4a50-b86e-8ae0bc2dfdd9", "name": "Ginger's Klosett", "category": "clothes", "tags": ["clothes", "womens"], "sources": ["overture"], "phone": "14252548700", "address": "825 S 3rd St"}, "geometry": {"type": "Point", "coordinates": [-122.2056808, 47.4795227]}}, {"type": "Feature", "properties": {"id": "3304b000-f429-4df8-b2fc-afdda266df23", "name": "SipStop Caf\u00e9", "category": "supermarket", "tags": ["supermarket"], "sources": ["overture"], "website": "http://www.sipstopmarket.com/", "phone": "+12066595951", "address": "327 Williams Ave S"}, "geometry": {"type": "Point", "coordinates": [-122.2067795, 47.4787102]}}, {"type": "Feature", "properties": {"id": "3b09e1e2-e1eb-41ce-bb55-b14e3d82820c", "name": "Genoa Healthcare", "category": "pharmacy", "tags": ["pharmacy"], "sources": ["overture"], "website": "https://www.genoahealthcare.com/", "phone": "8005191139", "address": "707 S Grady Way Ste 700"}, "geometry": {"type": "Point", "coordinates": [-122.2093964, 47.4717979]}}, {"type": "Feature", "properties": {"id": "149b7626-6a0c-4ba2-82b1-ddb40ca5e261", "name": "Titanium Healthcare", "category": "clinic", "tags": ["clinic", "medical"], "sources": ["overture"], "website": "https://tihealthcare.com/", "phone": "2069263890", "address": "707 S Grady Way Ste 600"}, "geometry": {"type": "Point", "coordinates": [-122.2097626, 47.4724274]}}, {"type": "Feature", "properties": {"id": 2380769908, "name": "QualStar Credit Union", "category": "bank", "tags": ["bank", "wheelchair-accessible"], "sources": ["osm"], "address": "617 South 3rd Street", "hours": "Mo-Th 09:00-17:00; Fr 09:30-18:00"}, "geometry": {"type": "Point", "coordinates": [-122.20838, 47.4795738]}}, {"type": "Feature", "properties": {"id": 2318741733, "name": "Bank of America", "category": "bank", "tags": ["bank", "wheelchair-accessible"], "sources": ["osm"], "website": "https://locators.bankofamerica.com/wa/renton/financial-centers-renton-8730.html", "address": "300 Burnett Ave S", "hours": "Mo-Fr 10:00-18:00; Sa 10:00-13:00"}, "geometry": {"type": "Point", "coordinates": [-122.2076563, 47.4795677]}}, {"type": "Feature", "properties": {"id": 68648971, "name": "United States Post Office - Downtown Renton", "category": "post_office", "tags": ["post-office", "wheelchair-accessible"], "sources": ["osm"], "phone": "+1-800-275-8777", "address": "314 Williams Avenue South", "hours": "Mo-Fr 09:00-17:00"}, "geometry": {"type": "Point", "coordinates": [-122.2060467, 47.479082]}}, {"type": "Feature", "properties": {"id": 9661919818, "name": "Spotlight Dance Center", "category": "fitness_centre", "tags": ["fitness-centre", "wheelchair-accessible"], "sources": ["osm"], "address": "700 South 3rd Street"}, "geometry": {"type": "Point", "coordinates": [-122.2075241, 47.4797952]}}, {"type": "Feature", "properties": {"id": 10675042942, "name": "Vigor Ground", "category": "fitness_centre", "tags": ["fitness-centre"], "sources": ["osm"], "address": "332 Burnett Avenue South", "hours": "08:00-15:30"}, "geometry": {"type": "Point", "coordinates": [-122.2077507, 47.4786394]}}, {"type": "Feature", "properties": {"id": 654879827, "name": "APT Health & Fitness", "category": "fitness_centre", "tags": ["fitness-centre", "gym"], "sources": ["osm", "overture"], "website": "https://www.apthfitness.com", "phone": "+12067439871", "address": "319 Main Ave S", "hours": "\"Based on class appointments found on website schedule\""}, "geometry": {"type": "Point", "coordinates": [-122.2045016, 47.4788347]}}, {"type": "Feature", "properties": {"id": "2077fddf-14b5-4535-bee9-e9b9e377358f", "name": "Ascendance Pole & Aerial Arts", "category": "fitness_centre", "tags": ["fitness-centre", "fitness", "trainer"], "sources": ["overture"], "website": "http://www.ascendancestudios.org/", "phone": "+14252562246", "address": "724 S 3rd St A"}, "geometry": {"type": "Point", "coordinates": [-122.2071762, 47.4797287]}}, {"type": "Feature", "properties": {"id": "124ec6c6-32c6-4ec4-938b-565147470d83", "name": "DexaFit Renton", "category": "fitness_centre", "tags": ["fitness-centre", "fitness", "trainer"], "sources": ["overture"], "website": "https://bodysciencecoach.com/", "phone": "+12062680700", "address": "Inside Vigor Ground Fitness, 332 Burnett Ave S"}, "geometry": {"type": "Point", "coordinates": [-122.2075958, 47.4786148]}}, {"type": "Feature", "properties": {"id": "f945629d-f0af-459b-a791-322605267200", "name": "Vigor Ground Fitness and Performance", "category": "fitness_centre", "tags": ["fitness-centre", "gym"], "sources": ["overture"], "website": "http://www.vigorgroundfitness.com/", "phone": "+14252765721", "address": "332 Burnett Ave S"}, "geometry": {"type": "Point", "coordinates": [-122.2078171, 47.4786491]}}, {"type": "Feature", "properties": {"id": "45f80be0-f046-4af9-a239-3a95b7039d9e", "name": "D3 Battlerope Bootcamp", "category": "fitness_centre", "tags": ["fitness-centre", "gym"], "sources": ["overture"], "website": "http://d3crossfit.com", "phone": "+18553656333", "address": "900 S Grady Way"}, "geometry": {"type": "Point", "coordinates": [-122.2062607, 47.4747925]}}]}