{"type": "FeatureCollection", "features": [{"type": "Feature", "properties": {"id": 10049415152, "name": "Dino's Grill", "category": "restaurant", "tags": ["restaurant"], "sources": ["osm"]}, "geometry": {"type": "Point", "coordinates": [-122.2903103, 47.4738263]}}, {"type": "Feature", "properties": {"id": "984af380-9ade-479b-a4ac-676e53b53ef4", "name": "Glacier Site", "category": "park", "tags": ["park"], "sources": ["overture"], "address": "Glacier High School, 2450 S 142nd St"}, "geometry": {"type": "Point", "coordinates": [-122.2984619, 47.4779549]}}, {"type": "Feature", "properties": {"id": 10049415156, "name": "Nasrulaah", "category": "deli", "tags": ["deli", "halal"], "sources": ["osm"]}, "geometry": {"type": "Point", "coordinates": [-122.2900221, 47.4737422]}}]}