{"type": "FeatureCollection", "features": [{"type": "Feature", "properties": {"id": 1152583705, "name": "School garden", "category": "garden", "tags": ["garden"], "sources": ["osm"]}, "geometry": {"type": "Point", "coordinates": [-122.2763341, 47.3444859]}}, {"type": "Feature", "properties": {"id": "dbfbbdbb-045d-4f75-8d89-f6e00984e30f", "name": "Circle K", "category": "convenience", "tags": ["convenience"], "sources": ["overture"], "website": "http://www.circlek.com", "phone": "(253) 941-8166", "address": "5011 S 288th St"}, "geometry": {"type": "Point", "coordinates": [-122.2714767, 47.3429794]}}, {"type": "Feature", "properties": {"id": 276294795, "name": "Rocket", "category": "convenience", "tags": ["convenience"], "sources": ["osm"], "address": "5011 South 288th Street"}, "geometry": {"type": "Point", "coordinates": [-122.2713855, 47.3429761]}}, {"type": "Feature", "properties": {"id": "f78863b5-c6fa-491a-bc6b-1b2316b86056", "name": "A Paint Master", "category": "doityourself", "tags": ["doityourself", "building", "supply"], "sources": ["overture"], "website": "http://www.thepaintmastersinc.com", "phone": "(253) 859-2006", "address": "4401 S 282nd St"}, "geometry": {"type": "Point", "coordinates": [-122.2789764, 47.3477325]}}]}