{"type": "FeatureCollection", "features": [{"type": "Feature", "properties": {"id": "62be4b35-4aef-439a-8c3a-1cc201e2b83b", "name": "Auburn \u2013 North Auburn", "category": "fast_food", "tags": ["fast-food", "fast", "food"], "sources": ["overture"], "website": "https://tacotimenw.com/find-us/auburn-north-auburn/", "address": "5 14th Street NE Auburn, WA 98002"}, "geometry": {"type": "Point", "coordinates": [-122.2307129, 47.3201485]}}, {"type": "Feature", "properties": {"id": 521549925, "name": "Red Lion Inn & Suites - Auburn/Seattle", "category": "hotel", "tags": ["hotel", "resort"], "sources": ["osm", "overture"], "website": "https://www.redlion.com/red-lion-inn-suites/wa/auburn/red-lion-inn-suites-auburn-seattle", "phone": "2537359600", "address": "9 14th St NW"}, "geometry": {"type": "Point", "coordinates": [-122.2308987, 47.3204888]}}, {"type": "Feature", "properties": {"id": "d0c58f7b-2c10-4a91-86db-a879cef1fa2a", "name": "Auburn Travelodge Inn and Suites", "category": "hotel", "tags": ["hotel"], "sources": ["overture"], "website": "https://www.wyndhamhotels.com/travelodge/auburn-washington/auburn-travelodge-inn-and-suites/overview?CID=LC:TL::BING:RIO:National:14392&iata=00065402", "phone": "2538337171", "address": "9 16th St NW"}, "geometry": {"type": "Point", "coordinates": [-122.2313309, 47.3237152]}}, {"type": "Feature", "properties": {"id": "502b9128-48d6-4fa4-9907-8ddc55b97ce4", "name": "Clarion Inn Auburn Seattle", "category": "hotel", "tags": ["hotel", "resort"], "sources": ["overture"], "website": "https://www.choicehotels.com/washington/auburn/clarion-hotels/wa327?source=gyxt", "phone": "2538337171", "address": "9 16th St NW"}, "geometry": {"type": "Point", "coordinates": [-122.2314224, 47.3235397]}}, {"type": "Feature", "properties": {"id": "8ca5fcda-75a6-4711-9215-4fb1e8ecd0d4", "name": "Garner Hotel Auburn - Seattle by IHG", "category": "hotel", "tags": ["hotel"], "sources": ["overture"], "website": "http://www.ihg.com/garner-hotels/hotels/us/en/pigeon-forge/tyspk/hoteldetail", "phone": "+12537359600", "address": "9 14th St NW"}, "geometry": {"type": "Point", "coordinates": [-122.2307892, 47.3204918]}}, {"type": "Feature", "properties": {"id": 6313090697, "name": "Contract Hardware", "category": "hardware", "tags": ["hardware"], "sources": ["osm"]}, "geometry": {"type": "Point", "coordinates": [-122.2316941, 47.3266211]}}, {"type": "Feature", "properties": {"id": "cf3cf28f-b2b1-4855-9b4d-a63389a8da78", "name": "Vetrotech Usa", "category": "doityourself", "tags": ["doityourself", "building", "supply"], "sources": ["overture"], "website": "vetrotechusa.com", "phone": "18888039533", "address": "2108 B St NW"}, "geometry": {"type": "Point", "coordinates": [-122.2311554, 47.3257294]}}]}