{"type": "FeatureCollection", "features": [{"type": "Feature", "properties": {"id": 4882323808, "name": "Monarca Express", "category": "fast_food", "tags": ["fast-food", "mexican", "outdoor-seating", "takeaway"], "sources": ["osm"], "hours": "Mo-Su 09:30-21:00"}, "geometry": {"type": "Point", "coordinates": [-122.3062734, 47.6919977]}}, {"type": "Feature", "properties": {"id": 7965331048, "name": "Prayathai Cuisine", "category": "restaurant", "tags": ["restaurant", "thai", "indoor-seating"], "sources": ["osm"]}, "geometry": {"type": "Point", "coordinates": [-122.3058238, 47.6935146]}}, {"type": "Feature", "properties": {"id": 221154982, "name": "The Shanty Tavern", "category": "pub", "tags": ["pub"], "sources": ["osm"], "address": "9002 Lake City Way Northeast"}, "geometry": {"type": "Point", "coordinates": [-122.3050738, 47.6940527]}}, {"type": "Feature", "properties": {"id": 348780585, "name": "The Growler Guys", "category": "bar", "tags": ["bar", "american", "wifi", "beer"], "sources": ["osm", "overture"], "website": "https://www.thegrowlerguys.com/locations/seattle-northeast/", "phone": "+12065222337", "address": "8500 Lake City Way NE", "hours": "Mo-Su 11:00-24:00"}, "geometry": {"type": "Point", "coordinates": [-122.3072867, 47.6906036]}}, {"type": "Feature", "properties": {"id": "354a03af-1454-4e48-8bb9-961ae8486eb8", "name": "Phayathai Cuisine", "category": "restaurant", "tags": ["restaurant", "thai", "asian"], "sources": ["overture"], "website": "https://www.phayathaicuisine.com/", "phone": "+12067292295", "address": "8917 Lake City Way NE"}, "geometry": {"type": "Point", "coordinates": [-122.3058853, 47.6934929]}}, {"type": "Feature", "properties": {"id": "86cfc39a-aa8a-4b2d-bc6d-e24cfdbd3539", "name": "Chamoyadas la poblanita", "category": "restaurant", "tags": ["restaurant", "mexican", "latin-american"], "sources": ["overture"], "website": "http://www.mailersupplies.com/", "phone": "+12532269178", "address": "23311 pacific hwy s"}, "geometry": {"type": "Point", "coordinates": [-122.306633, 47.6917992]}}, {"type": "Feature", "properties": {"id": "a3f33985-260c-4658-9759-b8e20ba94a43", "name": "Taqueria Monarca", "category": "fast_food", "tags": ["fast-food", "food", "truck"], "sources": ["overture"], "website": "http://www.mailersupplies.com", "phone": "(206) 931-7220", "address": "8721 Lake City Way NE"}, "geometry": {"type": "Point", "coordinates": [-122.3065796, 47.6917839]}}, {"type": "Feature", "properties": {"id": "7b058d0e-19d7-4326-b275-ece4e619d82b", "name": "Seattle Art Fabrikk", "category": "gallery", "tags": ["gallery", "art"], "sources": ["overture"], "website": "https://bit.ly/SAFAB", "phone": "+12067244411", "address": "8500 20th Ave NE"}, "geometry": {"type": "Point", "coordinates": [-122.3065186, 47.6904488]}}, {"type": "Feature", "properties": {"id": "3b234b9b-64bc-4247-9cbb-fdea0ddc1c5b", "name": "Ravenna Woods Condominiums", "category": "attraction", "tags": ["attraction", "landmark", "historical", "building"], "sources": ["overture"], "website": "http://ravennawoodscondos.org/", "phone": "+12064073705", "address": "2300 NE 89th St"}, "geometry": {"type": "Point", "coordinates": [-122.3032684, 47.6935005]}}, {"type": "Feature", "properties": {"id": 60517403, "name": "Sacajawea Playground", "category": "park", "tags": ["park", "playground"], "sources": ["osm", "overture"], "website": "http://seattle.gov/parks/park_detail.asp?ID=394", "phone": "+12066844075", "address": "1726 NE 94th St"}, "geometry": {"type": "Point", "coordinates": [-122.3081702, 47.6972042]}}, {"type": "Feature", "properties": {"id": 221201690, "name": "Shell", "category": "convenience", "tags": ["convenience"], "sources": ["osm"], "address": "2003 Northeast 88th Street"}, "geometry": {"type": "Point", "coordinates": [-122.3066136, 47.6919594]}}, {"type": "Feature", "properties": {"id": "91f4c2db-9780-4f0e-a006-518ab1afdf8a", "name": "Traditional Spirit Products", "category": "supermarket", "tags": ["supermarket"], "sources": ["overture"], "address": "8315 Lake City Way NE"}, "geometry": {"type": "Point", "coordinates": [-122.3087692, 47.6901245]}}]}