{"type": "FeatureCollection", "features": [{"type": "Feature", "properties": {"id": 1725980830, "name": "Voula's Offshore Cafe", "category": "restaurant", "tags": ["restaurant", "american", "takeaway", "wheelchair-accessible", "cafe"], "sources": ["osm", "overture"], "website": "http://voulasoffshore.com", "phone": "+12066340183", "address": "658 NE Northlake Way", "hours": "Mo-Fr 06:00-15:00; Sa-Su 08:00-14:00", "stations": [{"stopCode": 47, "lines": "1,2", "name": "U District Station", "walkingMeters": 1101, "walkingSeconds": 792, "band": 15}]}, "geometry": {"type": "Point", "coordinates": [-122.321519, 47.6546633]}}, {"type": "Feature", "properties": {"id": 434934368, "name": "Ivar's Fish Bar", "category": "fast_food", "tags": ["fast-food", "fish-and-chips"], "sources": ["osm"], "website": "https://www.ivars.com/locations/seafood-bars", "phone": "+1-206-632-7223", "address": "401 Northeast Northlake Way", "hours": "Su-Th 11:00-21:00; Fr-Sa 11:00-22:00", "stations": [{"stopCode": 47, "lines": "1,2", "name": "U District Station", "walkingMeters": 1324, "walkingSeconds": 952, "band": 15}]}, "geometry": {"type": "Point", "coordinates": [-122.3239153, 47.6537633]}}, {"type": "Feature", "properties": {"id": 6981138333, "name": "Johnny Mo\u2019s", "category": "restaurant", "tags": ["restaurant", "pizza"], "sources": ["osm"], "website": "https://www.johnnymos.com", "address": "3272 Fuhrman Avenue East", "hours": "Mo-Su 12:00-21:00", "stations": [{"stopCode": 47, "lines": "1,2", "name": "U District Station", "walkingMeters": 1267, "walkingSeconds": 912, "band": 15}]}, "geometry": {"type": "Point", "coordinates": [-122.3209399, 47.6514669]}}, {"type": "Feature", "properties": {"id": 7613541514, "name": "Le Fournil", "category": "cafe", "tags": ["cafe", "french"], "sources": ["osm"], "website": "https://le-fournil.com", "address": "3230 Eastlake Avenue East", "hours": "Mo-Sa 07:00-16:00; Su 08:00-15:00"}, "geometry": {"type": "Point", "coordinates": [-122.321595, 47.6508914]}}, {"type": "Feature", "properties": {"id": 12064026669, "name": "Gasworks Brewing", "category": "bar", "tags": ["bar", "brewery"], "sources": ["osm", "overture"], "website": "https://www.gasworksbrewing.com/", "address": "2441 N Northlake Way"}, "geometry": {"type": "Point", "coordinates": [-122.3294682, 47.6514871]}}, {"type": "Feature", "properties": {"id": 13014701852, "name": "The Wayland Mill", "category": "restaurant", "tags": ["restaurant", "american", "japanese", "outdoor-seating"], "sources": ["osm", "overture"], "website": "https://www.thewaylandmill.com", "address": "3800 Latona Ave NE", "hours": "We-Sa 08:00-20:00; Su-Tu 08:00-15:00", "stations": [{"stopCode": 47, "lines": "1,2", "name": "U District Station", "walkingMeters": 1364, "walkingSeconds": 983, "band": 15}]}, "geometry": {"type": "Point", "coordinates": [-122.3254001, 47.6545936]}}, {"type": "Feature", "properties": {"id": 195830693, "name": "Ivar's Salmon House", "category": "restaurant", "tags": ["restaurant", "seafood", "outdoor-seating", "wheelchair-accessible", "scandinavian", "american"], "sources": ["osm", "overture"], "website": "https://www.ivars.com/locations/salmon-house", "phone": "+12066320767", "address": "401 NE Northlake Way", "hours": "Mo-Su 11:00-22:00", "stations": [{"stopCode": 47, "lines": "1,2", "name": "U District Station", "walkingMeters": 1338, "walkingSeconds": 963, "band": 15}]}, "geometry": {"type": "Point", "coordinates": [-122.3240269, 47.6535704]}}, {"type": "Feature", "properties": {"id": 326804798, "name": "Westward", "category": "restaurant", "tags": ["restaurant", "seafood", "outdoor-seating", "takeaway", "wheelchair-accessible", "mediterranean"], "sources": ["osm", "overture"], "website": "http://www.westwardseattle.com/", "phone": "+12065528215", "address": "2501 N Northlake Way", "hours": "Mo-Th 16:00-21:00; Fr 12:00-21:00; Sa-Su 10:00-21:00"}, "geometry": {"type": "Point", "coordinates": [-122.3288156, 47.651748]}}, {"type": "Feature", "properties": {"id": 1066844097, "name": "Bowriders Grill", "category": "restaurant", "tags": ["restaurant", "american", "outdoor-seating", "takeaway"], "sources": ["osm", "overture"], "website": "http://www.bowridersgrill.com/", "phone": "+12065562451", "address": "101 NE Northlake Way"}, "geometry": {"type": "Point", "coordinates": [-122.3284972, 47.6516262]}}, {"type": "Feature", "properties": {"id": "09b0e747-ca0e-4f1d-b88a-b0e9561e6561", "name": "Sebi's Bistro", "category": "restaurant", "tags": ["restaurant", "pizza"], "sources": ["overture"], "phone": "+12064202199", "address": "3242 Eastlake Ave E", "stations": [{"stopCode": 47, "lines": "1,2", "name": "U District Station", "walkingMeters": 1294, "walkingSeconds": 931, "band": 15}]}, "geometry": {"type": "Point", "coordinates": [-122.3212433, 47.6512413]}}, {"type": "Feature", "properties": {"id": "2bee57d5-b5d5-4c8a-864f-0650efbd76eb", "name": "Vegan Cakes by JennyMac", "category": "restaurant", "tags": ["restaurant", "vegan", "vegetarian"], "sources": ["overture"], "phone": "2534952149", "address": "4230 2nd Ave NE"}, "geometry": {"type": "Point", "coordinates": [-122.326973, 47.6586647]}}, {"type": "Feature", "properties": {"id": "c18c1b9d-aaa1-4edf-b505-ed5690578f03", "name": "International Education Washington", "category": "restaurant", "tags": ["restaurant"], "sources": ["overture"], "website": "http://www.internationaledwa.org", "phone": "14156060233", "address": "4057 5th Ave NE", "stations": [{"stopCode": 47, "lines": "1,2", "name": "U District Station", "walkingMeters": 1046, "walkingSeconds": 781, "band": 15}]}, "geometry": {"type": "Point", "coordinates": [-122.3240509, 47.6575241]}}, {"type": "Feature", "properties": {"id": "442416bf-640e-4fd9-84f2-63b53851fae6", "name": "Cherry Blossoms at University of Washington", "category": "cafe", "tags": ["cafe", "coffee"], "sources": ["overture"], "address": "674 NE 40th St", "stations": [{"stopCode": 47, "lines": "1,2", "name": "U District Station", "walkingMeters": 901, "walkingSeconds": 672, "band": 10}]}, "geometry": {"type": "Point", "coordinates": [-122.3212509, 47.6563225]}}, {"type": "Feature", "properties": {"id": "6f83b237-715e-4395-aa67-c251894240c7", "name": "Johnny Mo's Pizzeria", "category": "restaurant", "tags": ["restaurant", "pizza", "italian"], "sources": ["overture"], "website": "http://www.johnnymos.com/", "phone": "+12068226272", "address": "3272 Fuhrman Ave E Ste 100", "stations": [{"stopCode": 47, "lines": "1,2", "name": "U District Station", "walkingMeters": 1272, "walkingSeconds": 916, "band": 15}]}, "geometry": {"type": "Point", "coordinates": [-122.320961, 47.6514053]}}, {"type": "Feature", "properties": {"id": "7e90a4f3-fbd8-4a64-aefb-3ba1cff05aeb", "name": "Center House Deli", "category": "restaurant", "tags": ["restaurant"], "sources": ["overture"], "address": "3242 Eastlake Ave E", "stations": [{"stopCode": 47, "lines": "1,2", "name": "U District Station", "walkingMeters": 1481, "walkingSeconds": 1105, "band": 15}]}, "geometry": {"type": "Point", "coordinates": [-122.3212433, 47.6512413]}}, {"type": "Feature", "properties": {"id": "48dbac41-c540-4af1-ad73-3eaed24b6b2a", "name": "Romio's Pizza & Sports Bar", "category": "restaurant", "tags": ["restaurant", "italian"], "sources": ["overture"], "website": "http://www.shipcanalgrill.com", "phone": "(206) 588-8885", "address": "3218 Eastlake Ave E"}, "geometry": {"type": "Point", "coordinates": [-122.3217239, 47.6505928]}}, {"type": "Feature", "properties": {"id": "988439c5-716a-4617-b3a1-e7258ad2b84f", "name": "Le Fournil French Bakery and Catering", "category": "bakery", "tags": ["bakery"], "sources": ["overture"], "website": "http://le-fournil.com/", "phone": "+12063286523", "address": "3230 Eastlake Ave E"}, "geometry": {"type": "Point", "coordinates": [-122.32164, 47.6508751]}}, {"type": "Feature", "properties": {"id": "0919c6df-5e5c-4c9a-a6cf-73fde00b2c2e", "name": "Romios Pizza and Pasta", "category": "restaurant", "tags": ["restaurant", "pizza"], "sources": ["overture"], "website": "http://www.borsalinos.com/", "phone": "2063234444", "address": "3242 Eastlake Ave E", "stations": [{"stopCode": 47, "lines": "1,2", "name": "U District Station", "walkingMeters": 1303, "walkingSeconds": 940, "band": 15}]}, "geometry": {"type": "Point", "coordinates": [-122.3215179, 47.6512794]}}, {"type": "Feature", "properties": {"id": "3b428bad-5625-498b-9a92-766c4f0b183f", "name": "Ship Canal Grill", "category": "restaurant", "tags": ["restaurant", "american"], "sources": ["overture"], "website": "http://shipcanalgrill.com", "phone": "(206) 588-8885", "address": "3218 Eastlake Ave E"}, "geometry": {"type": "Point", "coordinates": [-122.3220291, 47.65065]}}, {"type": "Feature", "properties": {"id": "0a0bccb5-bc1d-4adf-bb31-3f7817a47058", "name": "Pop Pop Pizza & Wine", "category": "restaurant", "tags": ["restaurant", "pizza"], "sources": ["overture"], "website": "https://poppoppizza.com", "address": "660 NE Northlake Way", "stations": [{"stopCode": 47, "lines": "1,2", "name": "U District Station", "walkingMeters": 1090, "walkingSeconds": 785, "band": 15}]}, "geometry": {"type": "Point", "coordinates": [-122.321373, 47.6546593]}}, {"type": "Feature", "properties": {"id": "0014cb56-480d-4b2d-ac05-6e7236b95b32", "name": "Northlake Tavern & Pizza House", "category": "restaurant", "tags": ["restaurant", "pizza"], "sources": ["overture"], "website": "http://www.northlaketavern.com/", "phone": "2066335317", "address": "660 NE Northlake Way", "stations": [{"stopCode": 47, "lines": "1,2", "name": "U District Station", "walkingMeters": 1090, "walkingSeconds": 785, "band": 15}]}, "geometry": {"type": "Point", "coordinates": [-122.321373, 47.6547279]}}, {"type": "Feature", "properties": {"id": "269f2fbd-1f64-49e4-888e-5bce29754dd8", "name": "Whalemaker Lounge", "category": "restaurant", "tags": ["restaurant", "american"], "sources": ["overture"], "website": "http://www.ivars.com/locations/salmon-house", "phone": "+12066320767", "address": "401 NE Northlake Way", "stations": [{"stopCode": 47, "lines": "1,2", "name": "U District Station", "walkingMeters": 1337, "walkingSeconds": 962, "band": 15}]}, "geometry": {"type": "Point", "coordinates": [-122.3237991, 47.6534576]}}, {"type": "Feature", "properties": {"id": "40aa8249-700f-440d-b157-89edf08ccdb6", "name": "Swiss Water Decaffeinated Coffee Company Usa, Inc.", "category": "cafe", "tags": ["cafe", "coffee"], "sources": ["overture"], "website": "http://www.swisswater.com", "phone": "18665646449", "address": "205 Ne Northlake Way  Ste 220"}, "geometry": {"type": "Point", "coordinates": [-122.3264084, 47.6534767]}}, {"type": "Feature", "properties": {"id": "9b10ee1b-f645-4e07-85c4-d330d6b2cb71", "name": "S3 Maritime", "category": "restaurant", "tags": ["restaurant", "seafood"], "sources": ["overture"], "website": "http://www.s3maritime.com", "phone": "+12064204894", "address": "901 Fairview Ave N"}, "geometry": {"type": "Point", "coordinates": [-122.3272629, 47.6528397]}}, {"type": "Feature", "properties": {"id": "c6d79072-a790-4aa1-937d-0cad0ce5f01e", "name": "Cj Partners Llc", "category": "restaurant", "tags": ["restaurant"], "sources": ["overture"], "address": "3147 Fairview Ave E Ste 300"}, "geometry": {"type": "Point", "coordinates": [-122.3237686, 47.6503372]}}, {"type": "Feature", "properties": {"id": 3211770154, "name": "Waterway 15", "category": "artwork", "tags": ["artwork", "park", "gallery", "art"], "sources": ["osm", "overture"], "website": "http://www.seattle.gov/arts", "phone": "+12066847171", "address": "303-399 NE Northlake Way", "stations": [{"stopCode": 47, "lines": "1,2", "name": "U District Station", "walkingMeters": 1399, "walkingSeconds": 1015, "band": 15}]}, "geometry": {"type": "Point", "coordinates": [-122.3245889, 47.6535654]}}, {"type": "Feature", "properties": {"id": 237316121, "name": "MV Skansonia", "category": "attraction", "tags": ["attraction"], "sources": ["osm"]}, "geometry": {"type": "Point", "coordinates": [-122.3262714, 47.6527715]}}, {"type": "Feature", "properties": {"id": "8be0b6cd-0553-4d05-8f34-387ae1cb7d16", "name": "Gasworks Gallery", "category": "gallery", "tags": ["gallery", "art"], "sources": ["overture"], "website": "http://www.gasworksgallery.com", "phone": "(206) 632-6442", "address": "3815 4th Ave NE", "stations": [{"stopCode": 47, "lines": "1,2", "name": "U District Station", "walkingMeters": 1421, "walkingSeconds": 1022, "band": 15}]}, "geometry": {"type": "Point", "coordinates": [-122.3250351, 47.6542892]}}, {"type": "Feature", "properties": {"id": "5ee92003-804e-40a1-a907-877dc21f8d5b", "name": "Lakeview Commons", "category": "attraction", "tags": ["attraction", "landmark", "historical", "building"], "sources": ["overture"], "website": "https://www.pacificcrestre.com/", "address": "201 NE 40th St"}, "geometry": {"type": "Point", "coordinates": [-122.3266068, 47.6554642]}}, {"type": "Feature", "properties": {"id": "8c26220d-40da-47df-857e-2ea6e8c9973f", "name": "Studio 7 Apartments", "category": "attraction", "tags": ["attraction", "landmark", "historical", "building"], "sources": ["overture"], "website": "https://www.studio7apartments.com/", "phone": "+12066228600", "address": "4029 7th Ave NE", "stations": [{"stopCode": 47, "lines": "1,2", "name": "U District Station", "walkingMeters": 1036, "walkingSeconds": 745, "band": 10}]}, "geometry": {"type": "Point", "coordinates": [-122.3212128, 47.6565361]}}, {"type": "Feature", "properties": {"id": "c1de309f-8643-4e2c-90c6-1d4e4ddf0a0a", "name": "Viola Apartments", "category": "attraction", "tags": ["attraction", "landmark", "historical", "building"], "sources": ["overture"], "website": "http://www.violaseattle.com/", "phone": "+12068803925", "address": "4048 7th Ave NE", "stations": [{"stopCode": 47, "lines": "1,2", "name": "U District Station", "walkingMeters": 846, "walkingSeconds": 609, "band": 10}]}, "geometry": {"type": "Point", "coordinates": [-122.3205185, 47.6569901]}}, {"type": "Feature", "properties": {"id": "f3bd6be5-25e8-4ed6-aefb-2259502db6cf", "name": "Apex Apartments", "category": "attraction", "tags": ["attraction", "landmark", "historical", "building"], "sources": ["overture"], "website": "http://www.theapexapartments.com", "phone": "+12065231219", "address": "Apex Apartments, 4233 7th Ave NE", "stations": [{"stopCode": 47, "lines": "1,2", "name": "U District Station", "walkingMeters": 712, "walkingSeconds": 531, "band": 10}]}, "geometry": {"type": "Point", "coordinates": [-122.3210373, 47.6586876]}}, {"type": "Feature", "properties": {"id": "e99e4991-3da8-47fb-8fc7-6fe05cff962e", "name": "Robin's Nest Apartments", "category": "attraction", "tags": ["attraction", "landmark", "historical", "building"], "sources": ["overture"], "website": "https://www.robinsnestseattle.com/", "phone": "+12068231333", "address": "3272 Fuhrman Ave E Ste 100", "stations": [{"stopCode": 47, "lines": "1,2", "name": "U District Station", "walkingMeters": 1274, "walkingSeconds": 917, "band": 15}]}, "geometry": {"type": "Point", "coordinates": [-122.3209534, 47.6513863]}}, {"type": "Feature", "properties": {"id": "30e40444-adb7-4af3-88fb-eda1a81fc166", "name": "Union Bay Lofts", "category": "attraction", "tags": ["attraction", "landmark", "historical", "building"], "sources": ["overture"], "website": "http://www.unionbaylofts.com/", "phone": "+12067351933", "address": "3218 Eastlake Ave E"}, "geometry": {"type": "Point", "coordinates": [-122.3216629, 47.6505203]}}, {"type": "Feature", "properties": {"id": "7160626d-bd88-414b-951c-e0c1b1c622e0", "name": "Chihuly Boathouse", "category": "gallery", "tags": ["gallery", "art", "american"], "sources": ["overture"], "website": "https://www.chihuly.com", "phone": "+12066328707", "address": "509 NE Northlake Way", "stations": [{"stopCode": 47, "lines": "1,2", "name": "U District Station", "walkingMeters": 1312, "walkingSeconds": 944, "band": 15}]}, "geometry": {"type": "Point", "coordinates": [-122.3231049, 47.6539307]}}, {"type": "Feature", "properties": {"id": "d5e6209d-7172-420e-b7ab-b23aa22e7f87", "name": "Charles Douglas Gilding Studio", "category": "gallery", "tags": ["gallery", "art"], "sources": ["overture"], "website": "http://www.gildingstudio.com/", "phone": "+12067958376", "address": "3815 4th Ave NE", "stations": [{"stopCode": 47, "lines": "1,2", "name": "U District Station", "walkingMeters": 1420, "walkingSeconds": 1022, "band": 15}]}, "geometry": {"type": "Point", "coordinates": [-122.3250351, 47.6542854]}}, {"type": "Feature", "properties": {"id": "4746715f-4e58-4583-a00f-e9bcd1e8bac8", "name": "Pacific Properties", "category": "attraction", "tags": ["attraction", "landmark", "historical", "building"], "sources": ["overture"], "website": "http://www.pacific-apartments.com/", "phone": "+12064987700", "address": "3915 2nd Ave NE"}, "geometry": {"type": "Point", "coordinates": [-122.326973, 47.6548424]}}, {"type": "Feature", "properties": {"id": 12908403, "name": "North Passage Point Park", "category": "park", "tags": ["park"], "sources": ["osm"], "website": "https://seattle.gov/parks/find/parks/north-passage-point", "stations": [{"stopCode": 47, "lines": "1,2", "name": "U District Station", "walkingMeters": 1198, "walkingSeconds": 862, "band": 15}]}, "geometry": {"type": "Point", "coordinates": [-122.3223636, 47.6540211]}}, {"type": "Feature", "properties": {"id": 13513921, "name": "South Passage Point Park", "category": "park", "tags": ["park"], "sources": ["osm", "overture"], "website": "https://www.seattle.gov", "phone": "12066844075", "address": "3320 Fuhrman Ave E", "stations": [{"stopCode": 47, "lines": "1,2", "name": "U District Station", "walkingMeters": 1368, "walkingSeconds": 985, "band": 15}]}, "geometry": {"type": "Point", "coordinates": [-122.322531, 47.6521336]}}, {"type": "Feature", "properties": {"id": 49100266, "name": "Wallingford Triangle Park", "category": "park", "tags": ["park"], "sources": ["osm"]}, "geometry": {"type": "Point", "coordinates": [-122.3288643, 47.6528839]}}, {"type": "Feature", "properties": {"id": 56241424, "name": "Good Turn Park", "category": "park", "tags": ["park"], "sources": ["osm"]}, "geometry": {"type": "Point", "coordinates": [-122.3236381, 47.6506337]}}, {"type": "Feature", "properties": {"id": 160544280, "name": "Northlake Park", "category": "park", "tags": ["park"], "sources": ["osm"], "website": "https://www.seattle.gov/parks/allparks/northlake-park", "stations": [{"stopCode": 47, "lines": "1,2", "name": "U District Station", "walkingMeters": 1066, "walkingSeconds": 767, "band": 15}]}, "geometry": {"type": "Point", "coordinates": [-122.3208967, 47.6543794]}}, {"type": "Feature", "properties": {"id": 346947703, "name": "Public Waterway 17", "category": "park", "tags": ["park"], "sources": ["osm"]}, "geometry": {"type": "Point", "coordinates": [-122.3291189, 47.6515554]}}, {"type": "Feature", "properties": {"id": "b92b1872-4f4e-4e04-b787-19af1c214a73", "name": "Burke-Gilman Trail", "category": "park", "tags": ["park"], "sources": ["overture"], "website": "http://www.seattle.gov/parks/burkegilman/bgtrail.htm", "phone": "(206) 684-4075", "address": "60th Place NE and Bothell Way to 8 NW in Ballard", "stations": [{"stopCode": 47, "lines": "1,2", "name": "U District Station", "walkingMeters": 979, "walkingSeconds": 704, "band": 10}]}, "geometry": {"type": "Point", "coordinates": [-122.32061, 47.6555824]}}, {"type": "Feature", "properties": {"id": "7b0898ae-fece-43ed-82c2-319c3972e9e8", "name": "U-District P-Patch", "category": "park", "tags": ["park"], "sources": ["overture"], "website": "https://students.washington.edu/uwseed/ppatch", "address": "4009 8th Ave NE", "stations": [{"stopCode": 47, "lines": "1,2", "name": "U District Station", "walkingMeters": 894, "walkingSeconds": 643, "band": 10}]}, "geometry": {"type": "Point", "coordinates": [-122.3202057, 47.6561203]}}, {"type": "Feature", "properties": {"id": 7613541515, "name": "The Flower Lady", "category": "florist", "tags": ["florist"], "sources": ["osm"]}, "geometry": {"type": "Point", "coordinates": [-122.3216543, 47.6508055]}}, {"type": "Feature", "properties": {"id": 238213605, "name": "Dunn Lumber", "category": "doityourself", "tags": ["doityourself", "hardware"], "sources": ["osm", "overture"], "website": "http://dunndiy.com/", "phone": "+12066322129", "address": "3801 Latona Ave NE", "hours": "Mo-Su 07:00-18:00"}, "geometry": {"type": "Point", "coordinates": [-122.3263186, 47.6542284]}}, {"type": "Feature", "properties": {"id": "f97cf309-c5e5-4e55-895b-c256fc30aff4", "name": "Blue Dog Bakery, LLC", "category": "pet", "tags": ["pet"], "sources": ["overture"], "website": "http://www.bluedogbakery.com/", "phone": "2063236958", "address": "3302 Fuhrman Ave E", "stations": [{"stopCode": 47, "lines": "1,2", "name": "U District Station", "walkingMeters": 1443, "walkingSeconds": 1077, "band": 15}]}, "geometry": {"type": "Point", "coordinates": [-122.3216629, 47.6517067]}}, {"type": "Feature", "properties": {"id": "da42702d-da68-4caa-94fb-c54aca3060f0", "name": "Brain Injury Medicine of Seattle", "category": "clinic", "tags": ["clinic", "medical"], "sources": ["overture"], "website": "https://bimseattle.com/", "phone": "+12068618200", "address": "3221 Eastlake Ave E Ste 120", "stations": [{"stopCode": 47, "lines": "1,2", "name": "U District Station", "walkingMeters": 1518, "walkingSeconds": 1133, "band": 15}]}, "geometry": {"type": "Point", "coordinates": [-122.3219376, 47.6512108]}}, {"type": "Feature", "properties": {"id": "fd61ff69-a3a3-42d3-818c-27185085da4d", "name": "Sound Capital Group LLC", "category": "bank", "tags": ["bank", "credit", "union"], "sources": ["overture"], "website": "http://www.soundcapitalgroup.com/", "phone": "8558015445", "address": "200 NE Pacific St Ste 100"}, "geometry": {"type": "Point", "coordinates": [-122.3262634, 47.6548958]}}, {"type": "Feature", "properties": {"id": 3374360814, "name": "George Pocock Memorial Rowing Center", "category": "sports_centre", "tags": ["sports-centre", "rowing"], "sources": ["osm"], "address": "3320 Fuhrman Avenue East", "stations": [{"stopCode": 47, "lines": "1,2", "name": "U District Station", "walkingMeters": 1337, "walkingSeconds": 962, "band": 15}]}, "geometry": {"type": "Point", "coordinates": [-122.3218728, 47.652023]}}]}