{"type": "FeatureCollection", "features": [{"type": "Feature", "properties": {"id": 1735351310, "name": "Pub at Third Place Books", "category": "pub", "tags": ["pub", "wheelchair-accessible"], "sources": ["osm"], "address": "6504 20th Avenue Northeast", "hours": "Mo-Sa 16:00-22:00; Su 16:00-21:00", "stations": [{"stopCode": 46, "lines": "1,2", "name": "Roosevelt Station", "walkingMeters": 808, "walkingSeconds": 580, "band": 10}]}, "geometry": {"type": "Point", "coordinates": [-122.3063181, 47.6758864]}}, {"type": "Feature", "properties": {"id": 1735351311, "name": "Cafe Arta", "category": "cafe", "tags": ["cafe", "wheelchair-accessible"], "sources": ["osm"], "address": "6504 20th Avenue Northeast", "stations": [{"stopCode": 46, "lines": "1,2", "name": "Roosevelt Station", "walkingMeters": 799, "walkingSeconds": 574, "band": 10}]}, "geometry": {"type": "Point", "coordinates": [-122.3064262, 47.6758876]}}, {"type": "Feature", "properties": {"id": 2462325006, "name": "Zeeks Pizza - Ravenna", "category": "restaurant", "tags": ["restaurant", "pizza"], "sources": ["osm"], "website": "https://zeekspizza.com/", "address": "2108 Northeast 65th Street", "hours": "Mo-Su 11:00-22:00", "stations": [{"stopCode": 46, "lines": "1,2", "name": "Roosevelt Station", "walkingMeters": 924, "walkingSeconds": 664, "band": 15}]}, "geometry": {"type": "Point", "coordinates": [-122.3047966, 47.6759104]}}, {"type": "Feature", "properties": {"id": 2462325035, "name": "Sushi & Bowl", "category": "restaurant", "tags": ["restaurant"], "sources": ["osm"], "address": "2118 Northeast 65th Street", "hours": "Fr,Sa 11:30-14:00, We-Su 16:00-19:30", "stations": [{"stopCode": 46, "lines": "1,2", "name": "Roosevelt Station", "walkingMeters": 962, "walkingSeconds": 691, "band": 15}]}, "geometry": {"type": "Point", "coordinates": [-122.304299, 47.675906]}}, {"type": "Feature", "properties": {"id": 2462325039, "name": "Food with Roots", "category": "restaurant", "tags": ["restaurant"], "sources": ["osm"], "address": "2120 Northeast 65th Street", "stations": [{"stopCode": 46, "lines": "1,2", "name": "Roosevelt Station", "walkingMeters": 970, "walkingSeconds": 696, "band": 15}]}, "geometry": {"type": "Point", "coordinates": [-122.3041959, 47.6759053]}}, {"type": "Feature", "properties": {"id": 2462325043, "name": "Seattle Samosa", "category": "restaurant", "tags": ["restaurant", "indian", "vegetarian", "vegan"], "sources": ["osm", "overture"], "website": "https://www.seattlesamosa.com/s/stories/top-5-must-try-samosa-flavors-in-seattle-a-culinary-journey-with-seattle-samosa-3", "phone": "+18337266721", "address": "2122 NE 65th St", "hours": "Tu-Th,Su 11:00-20:00; Fr,Sa 11:00-21:00", "stations": [{"stopCode": 46, "lines": "1,2", "name": "Roosevelt Station", "walkingMeters": 977, "walkingSeconds": 702, "band": 15}]}, "geometry": {"type": "Point", "coordinates": [-122.304101, 47.6759086]}}, {"type": "Feature", "properties": {"id": 2462325124, "name": "Harissa", "category": "restaurant", "tags": ["restaurant", "mediterranean"], "sources": ["osm"], "website": "https://harissaofseattle.com/", "address": "2255 Northeast 65th Street", "hours": "Su-Th 16:00-22:00, Fr,Sa 16:00-01:00", "stations": [{"stopCode": 46, "lines": "1,2", "name": "Roosevelt Station", "walkingMeters": 1029, "walkingSeconds": 741, "band": 15}]}, "geometry": {"type": "Point", "coordinates": [-122.30341, 47.6756728]}}, {"type": "Feature", "properties": {"id": 2462325264, "name": "Wataru", "category": "restaurant", "tags": ["restaurant", "sushi", "japanese", "asian"], "sources": ["osm", "overture"], "website": "https://www.wataruseattle.com/", "phone": "+12065252073", "address": "2400 NE 65th St", "hours": "We-Su 19:30-21:30", "stations": [{"stopCode": 46, "lines": "1,2", "name": "Roosevelt Station", "walkingMeters": 1180, "walkingSeconds": 849, "band": 15}]}, "geometry": {"type": "Point", "coordinates": [-122.3014961, 47.6759647]}}, {"type": "Feature", "properties": {"id": 2462325274, "name": "Kricket Club", "category": "restaurant", "tags": ["restaurant", "indian"], "sources": ["osm", "overture"], "website": "https://www.kricketclub.com", "phone": "12065563176", "address": "2404 NE 65th St", "stations": [{"stopCode": 46, "lines": "1,2", "name": "Roosevelt Station", "walkingMeters": 1184, "walkingSeconds": 852, "band": 15}]}, "geometry": {"type": "Point", "coordinates": [-122.3013838, 47.6758846]}}, {"type": "Feature", "properties": {"id": 2921326840, "name": "Bagel Oasis", "category": "cafe", "tags": ["cafe", "bagel", "vegetarian", "bakery", "american"], "sources": ["osm", "overture"], "website": "http://www.seattlebageloasis.com/", "phone": "+12065260525", "address": "2112 NE 65th St", "stations": [{"stopCode": 46, "lines": "1,2", "name": "Roosevelt Station", "walkingMeters": 952, "walkingSeconds": 683, "band": 15}]}, "geometry": {"type": "Point", "coordinates": [-122.3045813, 47.6758993]}}, {"type": "Feature", "properties": {"id": 2921333902, "name": "Isarn Thai Soul Kitchen", "category": "restaurant", "tags": ["restaurant", "thai", "asian"], "sources": ["osm", "overture"], "website": "http://isarnkitchen.com/", "phone": "+12069132993", "address": "2316 NE 65th St", "hours": "Mo-Su 11:00-21:00", "stations": [{"stopCode": 46, "lines": "1,2", "name": "Roosevelt Station", "walkingMeters": 1129, "walkingSeconds": 812, "band": 15}]}, "geometry": {"type": "Point", "coordinates": [-122.3020897, 47.6758953]}}, {"type": "Feature", "properties": {"id": 2921334001, "name": "Muddy Waters Coffee Company", "category": "cafe", "tags": ["cafe", "coffee-shop", "takeaway"], "sources": ["osm"], "hours": "Mo-Fr 06:00-18:30; Sa 07:00-18:00; Su 07:00-17:00", "stations": [{"stopCode": 46, "lines": "1,2", "name": "Roosevelt Station", "walkingMeters": 1071, "walkingSeconds": 771, "band": 15}]}, "geometry": {"type": "Point", "coordinates": [-122.3029051, 47.6758758]}}, {"type": "Feature", "properties": {"id": "2302ad86-fd8b-4f58-a75b-203c6a0b3992", "name": "Zeeks Pizza", "category": "restaurant", "tags": ["restaurant", "pizza"], "sources": ["overture"], "website": "https://zeekspizza.com/locations/", "phone": "+12067034003", "address": "2108 NE 65th St", "stations": [{"stopCode": 46, "lines": "1,2", "name": "Roosevelt Station", "walkingMeters": 928, "walkingSeconds": 666, "band": 15}]}, "geometry": {"type": "Point", "coordinates": [-122.3047485, 47.675869]}}, {"type": "Feature", "properties": {"id": "dfe3f083-765c-48c6-84c5-dbf26af3c570", "name": "Honey Bear Bakery Ravenna", "category": "bakery", "tags": ["bakery"], "sources": ["overture"], "website": "http://ravennathirdplace.com", "phone": "(206) 525-2790", "address": "6504 20th Ave NE", "stations": [{"stopCode": 46, "lines": "1,2", "name": "Roosevelt Station", "walkingMeters": 812, "walkingSeconds": 583, "band": 10}]}, "geometry": {"type": "Point", "coordinates": [-122.3064041, 47.6760483]}}, {"type": "Feature", "properties": {"id": "de872e8a-7bfe-49ab-b09d-ed319a8441b2", "name": "Integrative Nourishment", "category": "restaurant", "tags": ["restaurant"], "sources": ["overture"], "website": "http://www.integrative-nourishment.com", "phone": "(206) 683-8753", "address": "6329 20th Ave NE # 98115-6909", "stations": [{"stopCode": 46, "lines": "1,2", "name": "Roosevelt Station", "walkingMeters": 769, "walkingSeconds": 552, "band": 10}]}, "geometry": {"type": "Point", "coordinates": [-122.3068466, 47.6757088]}}, {"type": "Feature", "properties": {"id": "3f58514d-88cd-472a-bedd-8e96c63760ed", "name": "Cafe Arta & Pub", "category": "pub", "tags": ["pub", "bar-and-grill"], "sources": ["overture"], "website": "http://cafearta.com/", "phone": "+12065255701", "address": "6504 20th Ave NE", "stations": [{"stopCode": 46, "lines": "1,2", "name": "Roosevelt Station", "walkingMeters": 804, "walkingSeconds": 578, "band": 10}]}, "geometry": {"type": "Point", "coordinates": [-122.3063583, 47.6759224]}}, {"type": "Feature", "properties": {"id": "eb7c6ec9-5979-403f-8f62-cbe11c3dc9c2", "name": "Sugar Bummm", "category": "bakery", "tags": ["bakery"], "sources": ["overture"], "phone": "+12065225194", "address": "2207 NE 65th St", "stations": [{"stopCode": 46, "lines": "1,2", "name": "Roosevelt Station", "walkingMeters": 1158, "walkingSeconds": 864, "band": 15}]}, "geometry": {"type": "Point", "coordinates": [-122.3041534, 47.6757126]}}, {"type": "Feature", "properties": {"id": "d203a409-2685-4332-b840-862182e8a7ba", "name": "Junebaby", "category": "restaurant", "tags": ["restaurant", "southern"], "sources": ["overture"], "website": "https://www.junebabyseattle.com", "phone": "12062574470", "address": "2122 NE 65th St", "stations": [{"stopCode": 46, "lines": "1,2", "name": "Roosevelt Station", "walkingMeters": 971, "walkingSeconds": 697, "band": 15}]}, "geometry": {"type": "Point", "coordinates": [-122.3041153, 47.6759071]}}, {"type": "Feature", "properties": {"id": "b786d62c-f07c-4f7d-b876-575c05643a49", "name": "Lucinda Grain Bar", "category": "restaurant", "tags": ["restaurant", "southern"], "sources": ["overture"], "website": "https://www.lucindaseattle.com", "phone": "(206) 457-8180", "address": "2120 NE 65th St", "stations": [{"stopCode": 46, "lines": "1,2", "name": "Roosevelt Station", "walkingMeters": 967, "walkingSeconds": 694, "band": 15}]}, "geometry": {"type": "Point", "coordinates": [-122.3042297, 47.6759682]}}, {"type": "Feature", "properties": {"id": "41c7bb68-b677-42a3-a98a-4b961ca43651", "name": "SideBar", "category": "bar", "tags": ["bar", "wine", "cajun-and-creole"], "sources": ["overture"], "website": "http://www.sidebarseattle.com/", "phone": "2062574470", "address": "2120 NE 65th St", "stations": [{"stopCode": 46, "lines": "1,2", "name": "Roosevelt Station", "walkingMeters": 967, "walkingSeconds": 694, "band": 15}]}, "geometry": {"type": "Point", "coordinates": [-122.3042297, 47.6759644]}}, {"type": "Feature", "properties": {"id": "2157bd56-1996-4929-9902-d27a4a89d804", "name": "Curry Lab Sapporo", "category": "restaurant", "tags": ["restaurant", "japanese"], "sources": ["overture"], "phone": "+12067691052", "address": "2118 NE 65th St", "stations": [{"stopCode": 46, "lines": "1,2", "name": "Roosevelt Station", "walkingMeters": 1146, "walkingSeconds": 855, "band": 15}]}, "geometry": {"type": "Point", "coordinates": [-122.304245, 47.6759529]}}, {"type": "Feature", "properties": {"id": "48a43141-6784-4f96-acb3-70920ea01a3f", "name": "Osaka Restaurant", "category": "restaurant", "tags": ["restaurant", "sushi"], "sources": ["overture"], "website": "http://www.osakalasvegas.com", "phone": "(206) 525-5512", "address": "2122 NE 65th St", "stations": [{"stopCode": 46, "lines": "1,2", "name": "Roosevelt Station", "walkingMeters": 960, "walkingSeconds": 690, "band": 15}]}, "geometry": {"type": "Point", "coordinates": [-122.3043213, 47.6759377]}}, {"type": "Feature", "properties": {"id": "dfd91f77-9dd8-414b-9eea-9906672cb447", "name": "Sod House Bakery", "category": "bakery", "tags": ["bakery"], "sources": ["overture"], "website": "https://sodhousebakery.com", "phone": "12065223000", "address": "2114 NE 65th St", "stations": [{"stopCode": 46, "lines": "1,2", "name": "Roosevelt Station", "walkingMeters": 930, "walkingSeconds": 668, "band": 15}]}, "geometry": {"type": "Point", "coordinates": [-122.3044128, 47.6759071]}}, {"type": "Feature", "properties": {"id": "58dc8c8e-8a22-4386-8bb1-da2413e06ab4", "name": "Zary Bakery", "category": "bakery", "tags": ["bakery"], "sources": ["overture"], "website": "https://www.zarybakery.com", "phone": "+12064369090", "address": "2114 NE 65th St", "stations": [{"stopCode": 46, "lines": "1,2", "name": "Roosevelt Station", "walkingMeters": 957, "walkingSeconds": 687, "band": 15}]}, "geometry": {"type": "Point", "coordinates": [-122.3043747, 47.6759605]}}, {"type": "Feature", "properties": {"id": "6e80906b-9d68-49c7-8979-367b1a634879", "name": "Harissa Mediterranean Cuisine", "category": "restaurant", "tags": ["restaurant", "mediterranean", "middle-eastern"], "sources": ["overture"], "website": "http://www.harissaofseattle.com/", "phone": "+12065880650", "address": "2255 NE 65th St", "stations": [{"stopCode": 46, "lines": "1,2", "name": "Roosevelt Station", "walkingMeters": 1023, "walkingSeconds": 736, "band": 15}]}, "geometry": {"type": "Point", "coordinates": [-122.3034897, 47.675705]}}, {"type": "Feature", "properties": {"id": "7cf1a04a-3886-4944-ba28-e99fbfcc8c33", "name": "Royalty Hookah Lounge", "category": "bar", "tags": ["bar", "hookah"], "sources": ["overture"], "website": "https://royalty-hookah-lounge.business.site", "phone": "+12066594193", "address": "2253 NE 65th St", "stations": [{"stopCode": 46, "lines": "1,2", "name": "Roosevelt Station", "walkingMeters": 1015, "walkingSeconds": 731, "band": 15}]}, "geometry": {"type": "Point", "coordinates": [-122.3035965, 47.6756973]}}, {"type": "Feature", "properties": {"id": "a54eea72-1f8f-418b-9176-87ec27373d37", "name": "Muddy Waters Coffee Co", "category": "cafe", "tags": ["cafe", "coffee"], "sources": ["overture"], "website": "http://www.agr.wa.gov", "phone": "+12067297587", "address": "2258 NE 65th St", "stations": [{"stopCode": 46, "lines": "1,2", "name": "Roosevelt Station", "walkingMeters": 1233, "walkingSeconds": 920, "band": 15}]}, "geometry": {"type": "Point", "coordinates": [-122.3033524, 47.6759071]}}, {"type": "Feature", "properties": {"id": "67087a47-ff5b-42d7-8183-f6f69c32fc5b", "name": "Bai Pai Restaraunt", "category": "restaurant", "tags": ["restaurant", "thai"], "sources": ["overture"], "website": "http://baipairestaurant.com", "phone": "(206) 527-4800", "address": "2316 NE 65th St", "stations": [{"stopCode": 46, "lines": "1,2", "name": "Roosevelt Station", "walkingMeters": 1153, "walkingSeconds": 830, "band": 15}]}, "geometry": {"type": "Point", "coordinates": [-122.3017654, 47.6758575]}}, {"type": "Feature", "properties": {"id": "4e8f0e16-9770-4203-947e-b16e37d05cb5", "name": "Mama Grande's Cafe", "category": "cafe", "tags": ["cafe", "breakfast-and-brunch"], "sources": ["overture"], "website": "https://www.mamagrandescafe.com/#menu", "phone": "+12068415460", "address": "2300 NE 65th St", "stations": [{"stopCode": 46, "lines": "1,2", "name": "Roosevelt Station", "walkingMeters": 1318, "walkingSeconds": 984, "band": 15}]}, "geometry": {"type": "Point", "coordinates": [-122.3024673, 47.6759377]}}, {"type": "Feature", "properties": {"id": "60ef3642-f19e-4cd5-94bc-c4d8012f4ca0", "name": "Ravenna Varsity Restaurant", "category": "cafe", "tags": ["cafe", "coffee", "breakfast-and-brunch"], "sources": ["overture"], "website": "http://www.ravennavarsity.com/", "phone": "2065252701", "address": "2300 NE 65th St", "stations": [{"stopCode": 46, "lines": "1,2", "name": "Roosevelt Station", "walkingMeters": 1081, "walkingSeconds": 778, "band": 15}]}, "geometry": {"type": "Point", "coordinates": [-122.3024521, 47.6759644]}}, {"type": "Feature", "properties": {"id": "529a6e88-6e16-4938-8f4d-771c1013f49e", "name": "Salare", "category": "restaurant", "tags": ["restaurant", "american"], "sources": ["overture"], "website": "http://salarerestaurant.com", "phone": "(206) 556-2192", "address": "2404 NE 65th St", "stations": [{"stopCode": 46, "lines": "1,2", "name": "Roosevelt Station", "walkingMeters": 1186, "walkingSeconds": 854, "band": 15}]}, "geometry": {"type": "Point", "coordinates": [-122.3013458, 47.675869]}}, {"type": "Feature", "properties": {"id": 3211770301, "name": "Playground Artwork", "category": "artwork", "tags": ["artwork"], "sources": ["osm"], "stations": [{"stopCode": 46, "lines": "1,2", "name": "Roosevelt Station", "walkingMeters": 997, "walkingSeconds": 716, "band": 15}]}, "geometry": {"type": "Point", "coordinates": [-122.30495, 47.6767]}}, {"type": "Feature", "properties": {"id": 3211770302, "name": "Playground", "category": "artwork", "tags": ["artwork"], "sources": ["osm"], "stations": [{"stopCode": 46, "lines": "1,2", "name": "Roosevelt Station", "walkingMeters": 1002, "walkingSeconds": 720, "band": 15}]}, "geometry": {"type": "Point", "coordinates": [-122.30495, 47.67675]}}, {"type": "Feature", "properties": {"id": 8403581149, "name": "The Ravenna Troll Booth", "category": "attraction", "tags": ["attraction", "wheelchair-accessible"], "sources": ["osm"], "website": "https://www.ravennatrollbooth.com/", "hours": "24/7", "stations": [{"stopCode": 46, "lines": "1,2", "name": "Roosevelt Station", "walkingMeters": 1029, "walkingSeconds": 777, "band": 15}]}, "geometry": {"type": "Point", "coordinates": [-122.3095815, 47.6705809]}}, {"type": "Feature", "properties": {"id": 60193646, "name": "Ravenna-Eckstein Park", "category": "park", "tags": ["park"], "sources": ["osm", "overture"], "website": "https://www.seattle.gov", "phone": "12066844075", "address": "6535 Ravenna Ave NE", "stations": [{"stopCode": 46, "lines": "1,2", "name": "Roosevelt Station", "walkingMeters": 994, "walkingSeconds": 714, "band": 15}]}, "geometry": {"type": "Point", "coordinates": [-122.3050133, 47.6769289]}}, {"type": "Feature", "properties": {"id": 307654911, "name": "Park Home Circle", "category": "park", "tags": ["park"], "sources": ["osm"], "website": "https://www.seattle.gov/parks/allparks/park-home-circle"}, "geometry": {"type": "Point", "coordinates": [-122.3054724, 47.6700425]}}, {"type": "Feature", "properties": {"id": 914794463, "name": "Circle Park", "category": "garden", "tags": ["garden"], "sources": ["osm"], "stations": [{"stopCode": 46, "lines": "1,2", "name": "Roosevelt Station", "walkingMeters": 669, "walkingSeconds": 481, "band": 10}]}, "geometry": {"type": "Point", "coordinates": [-122.3096948, 47.6746932]}}, {"type": "Feature", "properties": {"id": "4e23dc01-ed09-4ce3-b7c0-c813958c3e9e", "name": "Ravenna Ravine", "category": "park", "tags": ["park"], "sources": ["overture"], "website": "www.seattle.gov/parks/find/parks/ravenna-ravine", "phone": "+12066844075", "address": "6215 24th Ave NE", "stations": [{"stopCode": 46, "lines": "1,2", "name": "Roosevelt Station", "walkingMeters": 874, "walkingSeconds": 652, "band": 10}]}, "geometry": {"type": "Point", "coordinates": [-122.3091202, 47.6726913]}}, {"type": "Feature", "properties": {"id": 2462326415, "name": "McCarthy & Schiering", "category": "wine", "tags": ["wine"], "sources": ["osm"], "address": "6500 Ravenna Avenue Northeast", "hours": "Tu-Sa 11:00-18:00", "stations": [{"stopCode": 46, "lines": "1,2", "name": "Roosevelt Station", "walkingMeters": 1009, "walkingSeconds": 726, "band": 15}]}, "geometry": {"type": "Point", "coordinates": [-122.3036559, 47.6758939]}}, {"type": "Feature", "properties": {"id": 6551306789, "name": "Third Place Books", "category": "books", "tags": ["books", "wheelchair-accessible"], "sources": ["osm"], "website": "https://www.thirdplacebooks.com/ravenna", "phone": "+1-206-525-2347", "address": "6504 20th Avenue Northeast", "hours": "Mo-Su 09:00-21:00", "stations": [{"stopCode": 46, "lines": "1,2", "name": "Roosevelt Station", "walkingMeters": 829, "walkingSeconds": 595, "band": 10}]}, "geometry": {"type": "Point", "coordinates": [-122.3064252, 47.6761978]}}, {"type": "Feature", "properties": {"id": "c5cfa6f1-273e-4cef-bf87-e943c133af88", "name": "Third Place Books Ravenna", "category": "books", "tags": ["books"], "sources": ["overture"], "website": "https://www.thirdplacebooks.com/", "phone": "+12065252347", "address": "6504 20th Ave NE", "stations": [{"stopCode": 46, "lines": "1,2", "name": "Roosevelt Station", "walkingMeters": 812, "walkingSeconds": 583, "band": 10}]}, "geometry": {"type": "Point", "coordinates": [-122.3064575, 47.6760406]}}, {"type": "Feature", "properties": {"id": "0bb41274-30fa-48c0-b1c4-8d40ec5e7064", "name": "McCarthy and Schiering Wine Merchants", "category": "alcohol", "tags": ["alcohol"], "sources": ["overture"], "website": "http://mccarthyandschiering.com/", "phone": "+12065249500", "address": "6500 Ravenna Ave NE", "stations": [{"stopCode": 46, "lines": "1,2", "name": "Roosevelt Station", "walkingMeters": 1009, "walkingSeconds": 726, "band": 15}]}, "geometry": {"type": "Point", "coordinates": [-122.3037491, 47.6759071]}}, {"type": "Feature", "properties": {"id": "2396b0b8-0de6-4413-9257-2a082d7a7c08", "name": "Green Buddha Patient Network", "category": "clinic", "tags": ["clinic", "medical"], "sources": ["overture"], "website": "http://www.greenbuddha.ws", "phone": "(206) 297-9640", "address": "2253 NE 65th St", "stations": [{"stopCode": 46, "lines": "1,2", "name": "Roosevelt Station", "walkingMeters": 1017, "walkingSeconds": 732, "band": 15}]}, "geometry": {"type": "Point", "coordinates": [-122.303566, 47.6756172]}}, {"type": "Feature", "properties": {"id": "45261a77-659c-4ec6-828d-18fe8ef46538", "name": "Community Fitness", "category": "fitness_centre", "tags": ["fitness-centre", "gym"], "sources": ["overture"], "website": "https://www.theshedcommunityfitness.com.au", "phone": "+12065233363", "address": "2113 NE 65th St", "stations": [{"stopCode": 46, "lines": "1,2", "name": "Roosevelt Station", "walkingMeters": 931, "walkingSeconds": 670, "band": 15}]}, "geometry": {"type": "Point", "coordinates": [-122.3047256, 47.6756477]}}, {"type": "Feature", "properties": {"id": 2462325069, "name": "Vitality Pilates", "category": "fitness_centre", "tags": ["fitness-centre", "pilates", "studio"], "sources": ["osm", "overture"], "website": "https://vitalitypilates.com", "phone": "12062976263", "address": "2201 NE 65th St", "stations": [{"stopCode": 46, "lines": "1,2", "name": "Roosevelt Station", "walkingMeters": 971, "walkingSeconds": 700, "band": 15}]}, "geometry": {"type": "Point", "coordinates": [-122.3042756, 47.6756717]}}, {"type": "Feature", "properties": {"id": 2921332501, "name": "Collegiate Elites Sports Training", "category": "fitness_centre", "tags": ["fitness-centre"], "sources": ["osm"], "hours": "\"by appointment\"", "stations": [{"stopCode": 46, "lines": "1,2", "name": "Roosevelt Station", "walkingMeters": 1021, "walkingSeconds": 735, "band": 15}]}, "geometry": {"type": "Point", "coordinates": [-122.303639, 47.6760167]}}, {"type": "Feature", "properties": {"id": 220924931, "name": "The Center for Yoga", "category": "fitness_centre", "tags": ["fitness-centre", "yoga"], "sources": ["osm"], "address": "2261 Northeast 65th Street", "hours": "\"open on|y at scheduled class times\"", "stations": [{"stopCode": 46, "lines": "1,2", "name": "Roosevelt Station", "walkingMeters": 1046, "walkingSeconds": 753, "band": 15}]}, "geometry": {"type": "Point", "coordinates": [-122.3031886, 47.6755817]}}, {"type": "Feature", "properties": {"id": "3e850d4e-eb69-4066-ae2b-8a7a042b5a0e", "name": "Elizabeth Rogers Pilates & Physical Therapy, PLLC", "category": "fitness_centre", "tags": ["fitness-centre", "pilates", "studio"], "sources": ["overture"], "website": "https://elizabethrogerspt.com/", "phone": "2065357356", "address": "2201 NE 65th St", "stations": [{"stopCode": 46, "lines": "1,2", "name": "Roosevelt Station", "walkingMeters": 1152, "walkingSeconds": 860, "band": 15}]}, "geometry": {"type": "Point", "coordinates": [-122.3042221, 47.6756592]}}, {"type": "Feature", "properties": {"id": "eaef0519-446f-473d-8c23-5d896affe766", "name": "The Center For Yoga of Seattle", "category": "fitness_centre", "tags": ["fitness-centre", "yoga", "studio"], "sources": ["overture"], "website": "http://www.yogaseattle.com/", "phone": "+12065269642", "address": "2261 NE 65th St", "stations": [{"stopCode": 46, "lines": "1,2", "name": "Roosevelt Station", "walkingMeters": 1045, "walkingSeconds": 752, "band": 15}]}, "geometry": {"type": "Point", "coordinates": [-122.3031921, 47.6756706]}}]}