{"type": "FeatureCollection", "features": [{"type": "Feature", "properties": {"id": 622448195, "name": "Birrieria Tijuana", "category": "restaurant", "tags": ["restaurant", "mexican", "taco"], "sources": ["osm", "overture"], "phone": "12067510031", "address": "12803 Ambaum Blvd Sw  # 2"}, "geometry": {"type": "Point", "coordinates": [-122.3503366, 47.4882114]}}, {"type": "Feature", "properties": {"id": 13886248701, "name": "Carnitas Mr. Porky Taqueria", "category": "restaurant", "tags": ["restaurant"], "sources": ["osm"], "address": "12803 Ambaum Boulevard Southwest"}, "geometry": {"type": "Point", "coordinates": [-122.3503357, 47.4882111]}}, {"type": "Feature", "properties": {"id": 622448194, "name": "Boss Drive-In", "category": "restaurant", "tags": ["restaurant", "burger"], "sources": ["osm"], "phone": "+1-360-844-3335", "address": "12825 Ambaum Boulevard Southwest", "hours": "Mo-Su 11:00-23:00"}, "geometry": {"type": "Point", "coordinates": [-122.3503028, 47.4875941]}}, {"type": "Feature", "properties": {"id": "e134c477-7740-4033-8684-f35fd1e94b58", "name": "Carnitas Mr Porky", "category": "restaurant", "tags": ["restaurant", "mexican"], "sources": ["overture"], "website": "http://carnitasmrporky.com", "phone": "(206) 402-3576", "address": "12803 Ambaum Blvd SW"}, "geometry": {"type": "Point", "coordinates": [-122.3502655, 47.4882278]}}, {"type": "Feature", "properties": {"id": "823cbe9a-766a-48fe-b826-056c8cbe6f84", "name": "Fiesta Del Mar", "category": "restaurant", "tags": ["restaurant", "mexican"], "sources": ["overture"], "website": "http://www.b-townblog.com/2011/06/28/b-town-biz-fiesta-del-mar-restaurant-opening-soon-in-former-twiggs-spot", "phone": "(206) 466-5251", "address": "12803 Ambaum Boulevard Southwest, Burien\t112 ft"}, "geometry": {"type": "Point", "coordinates": [-122.3503494, 47.4881401]}}, {"type": "Feature", "properties": {"id": "8bb34e26-bd43-48f6-9eae-cbc2bd6044ec", "name": "Queensview Apartments", "category": "attraction", "tags": ["attraction", "landmark", "historical", "building"], "sources": ["overture"], "phone": "+12064310465", "address": "13011 12th Ave SW"}, "geometry": {"type": "Point", "coordinates": [-122.3503265, 47.4864197]}}, {"type": "Feature", "properties": {"id": 166425178, "name": "Jacob Ambaum Park", "category": "park", "tags": ["park"], "sources": ["osm", "overture"], "website": "http://www.burienwa.gov/Facilities/Facility/Details/Jacob-Ambaum-Park-9", "phone": "+12069883700", "address": "12621 Ambaum Blvd SW"}, "geometry": {"type": "Point", "coordinates": [-122.3506243, 47.4893903]}}, {"type": "Feature", "properties": {"id": 645475795, "name": "Food Mart", "category": "convenience", "tags": ["convenience"], "sources": ["osm"], "address": "12609 Ambaum Boulevard Southwest"}, "geometry": {"type": "Point", "coordinates": [-122.3504852, 47.4899449]}}, {"type": "Feature", "properties": {"id": 621417900, "name": "Shell", "category": "convenience", "tags": ["convenience", "wheelchair-accessible"], "sources": ["osm"], "phone": "+1-206-241-4691", "address": "12653 Ambaum Boulevard Southwest", "hours": "24/7"}, "geometry": {"type": "Point", "coordinates": [-122.3507359, 47.4887167]}}, {"type": "Feature", "properties": {"id": "0cb3b62d-f0e4-4626-bb0e-66047d4d3442", "name": "Ambaum Grocery", "category": "supermarket", "tags": ["supermarket"], "sources": ["overture"], "website": "http://76.com", "phone": "+12062430684", "address": "12609 Ambaum Blvd SW"}, "geometry": {"type": "Point", "coordinates": [-122.3504791, 47.4899483]}}]}