{"type": "FeatureCollection", "features": [{"type": "Feature", "properties": {"id": "0a753dda-9441-4d82-afd6-96b14dc4c084", "name": "Terrace Olympus Apartments", "category": "attraction", "tags": ["attraction", "landmark", "historical", "building"], "sources": ["overture"], "website": "https://terrace-olympus-apartments.hub.biz/", "phone": "+12535207393", "address": "308 Summit Ave N #21"}, "geometry": {"type": "Point", "coordinates": [-122.2172852, 47.3835793]}}, {"type": "Feature", "properties": {"id": "939ba62a-65dc-482e-9e03-be9930e40392", "name": "Sun Vista Apartments", "category": "attraction", "tags": ["attraction", "landmark", "historical", "building"], "sources": ["overture"], "website": "https://www.rent.com", "phone": "+12068531230", "address": "1255 Weiland St"}, "geometry": {"type": "Point", "coordinates": [-122.2176437, 47.381176]}}, {"type": "Feature", "properties": {"id": "ca2d1a66-c7c9-435f-a8e4-346ba748076f", "name": "Kent Highland Apartments", "category": "attraction", "tags": ["attraction", "landmark", "historical", "building"], "sources": ["overture"], "phone": "+12064078257", "address": "1245 Weiland St"}, "geometry": {"type": "Point", "coordinates": [-122.2182922, 47.3811989]}}, {"type": "Feature", "properties": {"id": 360427852, "name": "Walnut Grove Park", "category": "park", "tags": ["park"], "sources": ["osm"], "website": "https://www.kentwa.gov/departments/kent-parks/parks-places/parks-trails/walnut-grove-park", "address": "24144 94th Avenue South", "hours": "dawn-dusk"}, "geometry": {"type": "Point", "coordinates": [-122.214965, 47.3855232]}}]}