{"type": "FeatureCollection", "features": [{"type": "Feature", "properties": {"id": 418996963, "name": "BJ's", "category": "restaurant", "tags": ["restaurant", "american", "takeaway"], "sources": ["osm"], "website": "https://www.bjsrestaurants.com/locations/wa/redmond", "phone": "+1-425-376-1560", "address": "7211 166th Avenue Northeast", "hours": "Su-Th 11:00-23:00, Fr,Sa 11:00-24:00", "stations": [{"stopCode": 65, "lines": "2", "name": "Downtown Redmond Station", "walkingMeters": 755, "walkingSeconds": 550, "band": 10}]}, "geometry": {"type": "Point", "coordinates": [-122.11986, 47.6687603]}}, {"type": "Feature", "properties": {"id": 11216616300, "name": "Sharetea", "category": "cafe", "tags": ["cafe", "bubble-tea", "outdoor-seating", "takeaway"], "sources": ["osm"], "website": "https://1992sharetea.com", "address": "7325 166th Avenue Northeast", "hours": "Sa 11:00-21:00; Su 11:00-20:00; Fr 12:00-21:00; Mo-Th 12:00-20:00", "stations": [{"stopCode": 65, "lines": "2", "name": "Downtown Redmond Station", "walkingMeters": 661, "walkingSeconds": 482, "band": 10}]}, "geometry": {"type": "Point", "coordinates": [-122.1192968, 47.6699673]}}, {"type": "Feature", "properties": {"id": 4789555216, "name": "jaShn", "category": "restaurant", "tags": ["restaurant", "indian", "outdoor-seating", "reservations", "vegetarian", "child-friendly", "has-bar", "air-conditioned", "middle-eastern"], "sources": ["osm", "overture"], "phone": "+14255224776", "address": "7325 166th Ave NE", "hours": "Mo-Fr 12:00-15:00,17:00-22:00; Sa 12:00-23:00; Su 12:00-22:00", "stations": [{"stopCode": 65, "lines": "2", "name": "Downtown Redmond Station", "walkingMeters": 663, "walkingSeconds": 483, "band": 10}]}, "geometry": {"type": "Point", "coordinates": [-122.1199641, 47.6696955]}}, {"type": "Feature", "properties": {"id": 4852385321, "name": "Bear Creek Coffee Co.", "category": "cafe", "tags": ["cafe", "coffee-shop"], "sources": ["osm"], "stations": [{"stopCode": 64, "lines": "2", "name": "Marymoor Village Station", "walkingMeters": 489, "walkingSeconds": 371, "band": 5}]}, "geometry": {"type": "Point", "coordinates": [-122.1185772, 47.6604327]}}, {"type": "Feature", "properties": {"id": 12004787970, "name": "Mayuri Bakery & Cafe", "category": "cafe", "tags": ["cafe", "indian"], "sources": ["osm"], "stations": [{"stopCode": 65, "lines": "2", "name": "Downtown Redmond Station", "walkingMeters": 914, "walkingSeconds": 663, "band": 15}]}, "geometry": {"type": "Point", "coordinates": [-122.1158052, 47.6694244]}}, {"type": "Feature", "properties": {"id": "1e5dfe8a-24af-4da5-9f2f-37a9905bebcc", "name": "BJ's Restaurant & Brewhouse", "category": "restaurant", "tags": ["restaurant", "bar-and-grill", "bar", "grill", "american"], "sources": ["overture"], "website": "https://www.bjsrestaurants.com/locations/wa/redmond", "phone": "+14253761560", "address": "7211 166th Ave. NE", "stations": [{"stopCode": 65, "lines": "2", "name": "Downtown Redmond Station", "walkingMeters": 745, "walkingSeconds": 542, "band": 10}]}, "geometry": {"type": "Point", "coordinates": [-122.1198654, 47.6688843]}}, {"type": "Feature", "properties": {"id": "ba4c22e3-ac31-4914-a1d4-dcebe6c4423e", "name": "Matts' Rotisserie and Oyster Lounge", "category": "restaurant", "tags": ["restaurant", "steakhouse", "seafood", "american"], "sources": ["overture"], "website": "http://www.mattsrotisserie.com/", "phone": "+14253760909", "address": "16551 NE 74th St", "stations": [{"stopCode": 65, "lines": "2", "name": "Downtown Redmond Station", "walkingMeters": 672, "walkingSeconds": 490, "band": 10}]}, "geometry": {"type": "Point", "coordinates": [-122.1198349, 47.6697006]}}, {"type": "Feature", "properties": {"id": "bd82b2af-2ff4-4fb2-8d6f-1a08573831f3", "name": "Lunchbox Lab", "category": "fast_food", "tags": ["fast-food", "fast", "food"], "sources": ["overture"], "website": "http://lunchboxlaboratory.com", "phone": "+14253071634", "address": "7325 166th Ave NE", "stations": [{"stopCode": 65, "lines": "2", "name": "Downtown Redmond Station", "walkingMeters": 690, "walkingSeconds": 515, "band": 10}]}, "geometry": {"type": "Point", "coordinates": [-122.1195908, 47.6699638]}}, {"type": "Feature", "properties": {"id": "da5bf054-4f02-4cca-8d80-2997f619cef1", "name": "Just Wing It", "category": "restaurant", "tags": ["restaurant", "wings", "chicken"], "sources": ["overture"], "website": "https://justsingit.com", "address": "7325 166th Ave NE", "stations": [{"stopCode": 65, "lines": "2", "name": "Downtown Redmond Station", "walkingMeters": 690, "walkingSeconds": 515, "band": 10}]}, "geometry": {"type": "Point", "coordinates": [-122.1195908, 47.6699638]}}, {"type": "Feature", "properties": {"id": "ec5d48a0-c2e0-430f-8fb8-c71a04b5cc90", "name": "Restaurants Northwest Inc", "category": "restaurant", "tags": ["restaurant"], "sources": ["overture"], "address": "7325 166th Ave Ne Ste F210", "stations": [{"stopCode": 65, "lines": "2", "name": "Downtown Redmond Station", "walkingMeters": 690, "walkingSeconds": 515, "band": 10}]}, "geometry": {"type": "Point", "coordinates": [-122.1195908, 47.6699638]}}, {"type": "Feature", "properties": {"id": "dc8dcadb-a64f-4855-b494-67ad0687855c", "name": "Desert Fire", "category": "restaurant", "tags": ["restaurant", "mexican"], "sources": ["overture"], "website": "http://www.desertfiremex.com/", "phone": "(425) 895-1500", "address": "7211 166th Ave NE", "stations": [{"stopCode": 65, "lines": "2", "name": "Downtown Redmond Station", "walkingMeters": 790, "walkingSeconds": 575, "band": 10}]}, "geometry": {"type": "Point", "coordinates": [-122.1194763, 47.6688194]}}, {"type": "Feature", "properties": {"id": 10833066015, "name": "Owl Post", "category": "artwork", "tags": ["artwork"], "sources": ["osm"], "stations": [{"stopCode": 64, "lines": "2", "name": "Marymoor Village Station", "walkingMeters": 493, "walkingSeconds": 354, "band": 10}]}, "geometry": {"type": "Point", "coordinates": [-122.1149737, 47.6603465]}}, {"type": "Feature", "properties": {"id": 10855390108, "name": "Condor", "category": "artwork", "tags": ["artwork"], "sources": ["osm"], "stations": [{"stopCode": 64, "lines": "2", "name": "Marymoor Village Station", "walkingMeters": 780, "walkingSeconds": 561, "band": 5}]}, "geometry": {"type": "Point", "coordinates": [-122.11636, 47.6648819]}}, {"type": "Feature", "properties": {"id": "d2ff8a9a-4b31-42c9-8e18-dafd3638a430", "name": "Watershed Park", "category": "park", "tags": ["park"], "sources": ["overture"], "website": "http://www.kirklandwa.gov/depart/parks/Parks_and_Open_Spaces/Online_Parks_Guide/Parks_and_Trails_Map_Section_F-14__Watershed_Park_.htm", "address": "108th Ave NE", "stations": [{"stopCode": 64, "lines": "2", "name": "Marymoor Village Station", "walkingMeters": 414, "walkingSeconds": 309, "band": 10}]}, "geometry": {"type": "Point", "coordinates": [-122.1198883, 47.6645699]}}, {"type": "Feature", "properties": {"id": "fc6bb793-4ae8-4a1c-b2a4-e75b9cd9e24e", "name": "Merrymoor Park, Redmond", "category": "park", "tags": ["park"], "sources": ["overture"], "address": "161st Ave NE"}, "geometry": {"type": "Point", "coordinates": [-122.1139145, 47.6658554]}}, {"type": "Feature", "properties": {"id": 11688737389, "name": "T-Mobile", "category": "mobile_phone", "tags": ["mobile-phone", "mobile"], "sources": ["osm", "overture"], "website": "https://www.t-mobile.com/stores/bd/t-mobile-redmond-wa-98052-7886?utm_source=facebook&utm_medium=lastmile&utm_campaign=7886", "phone": "+14255569589", "address": "7325 166th Ave NE F133", "hours": "Mo-Sa 10:00-21:00; Su 11:00-19:00", "stations": [{"stopCode": 65, "lines": "2", "name": "Downtown Redmond Station", "walkingMeters": 678, "walkingSeconds": 494, "band": 10}]}, "geometry": {"type": "Point", "coordinates": [-122.1191061, 47.6698756]}}, {"type": "Feature", "properties": {"id": 1250622148, "name": "Petco", "category": "pet", "tags": ["pet"], "sources": ["osm", "overture"], "website": "https://stores.petco.com/wa/redmond/pet-supplies-redmond-wa-1218.html", "phone": "+14258613907", "address": "7215 170th Ave NE Ste 115", "hours": "Tu-Sa 09:00-19:00; Su,Mo 10:00-18:00", "stations": [{"stopCode": 65, "lines": "2", "name": "Downtown Redmond Station", "walkingMeters": 1019, "walkingSeconds": 739, "band": 15}]}, "geometry": {"type": "Point", "coordinates": [-122.115693, 47.6686871]}}, {"type": "Feature", "properties": {"id": 1250628758, "name": "Mayuri International Foods", "category": "supermarket", "tags": ["supermarket", "indian"], "sources": ["osm"], "website": "https://mayuriseattle.com/grocery", "phone": "+1-425-869-6197", "address": "7225 170th Avenue Northeast", "hours": "Su-Th 10:00-21:00; Fr-Sa 10:00-22:00", "stations": [{"stopCode": 65, "lines": "2", "name": "Downtown Redmond Station", "walkingMeters": 932, "walkingSeconds": 677, "band": 15}]}, "geometry": {"type": "Point", "coordinates": [-122.115837, 47.6693409]}}, {"type": "Feature", "properties": {"id": 12688719112, "name": "Big 5 Sporting Goods", "category": "sports", "tags": ["sports"], "sources": ["osm"], "phone": "+1-425-376-1811", "address": "7214 170th Avenue Northeast", "stations": [{"stopCode": 65, "lines": "2", "name": "Downtown Redmond Station", "walkingMeters": 1158, "walkingSeconds": 839, "band": 15}]}, "geometry": {"type": "Point", "coordinates": [-122.1134162, 47.6685843]}}, {"type": "Feature", "properties": {"id": 427473503, "name": "Wash Spot", "category": "pet", "tags": ["pet"], "sources": ["osm"], "hours": "Mo-Fr 10:00-18:00; Sa-Su 10:30-18:00", "stations": [{"stopCode": 64, "lines": "2", "name": "Marymoor Village Station", "walkingMeters": 325, "walkingSeconds": 234, "band": 5}]}, "geometry": {"type": "Point", "coordinates": [-122.1181512, 47.6603841]}}, {"type": "Feature", "properties": {"id": "e6aa6f10-baf4-4dc6-87a3-4ec58c34d08c", "name": "Aaron Brothers Art & Framing", "category": "art", "tags": ["art", "supply"], "sources": ["overture"], "phone": "4255580353", "address": "7221 170th Ave NE", "stations": [{"stopCode": 65, "lines": "2", "name": "Downtown Redmond Station", "walkingMeters": 1046, "walkingSeconds": 758, "band": 15}]}, "geometry": {"type": "Point", "coordinates": [-122.1155319, 47.6686287]}}, {"type": "Feature", "properties": {"id": "bbb39cc2-7b1b-40f8-8c92-68e2c46141f1", "name": "Lucy Activewear", "category": "clothes", "tags": ["clothes", "womens"], "sources": ["overture"], "website": "https://www.vfc.com", "phone": "+14255589170", "address": "7325 166th Ave Ne Ste F112", "stations": [{"stopCode": 65, "lines": "2", "name": "Downtown Redmond Station", "walkingMeters": 690, "walkingSeconds": 515, "band": 10}]}, "geometry": {"type": "Point", "coordinates": [-122.1195908, 47.6699638]}}, {"type": "Feature", "properties": {"id": "cdde8eaf-5ad6-4774-8fcf-f95511b75cc4", "name": "Louie Permelia", "category": "clothes", "tags": ["clothes", "womens"], "sources": ["overture"], "phone": "4258698621", "address": "7325 166th Ave Ne  Ste F105", "stations": [{"stopCode": 65, "lines": "2", "name": "Downtown Redmond Station", "walkingMeters": 690, "walkingSeconds": 515, "band": 10}]}, "geometry": {"type": "Point", "coordinates": [-122.1195908, 47.6699638]}}, {"type": "Feature", "properties": {"id": "c6f250e6-d52e-44fb-a55b-014381a0062c", "name": "Market Street Shoes", "category": "shoes", "tags": ["shoes", "shoe"], "sources": ["overture"], "website": "https://www.mspc.ca", "phone": "+14254068195", "address": "7325 166th Ave Ne Ste F115", "stations": [{"stopCode": 65, "lines": "2", "name": "Downtown Redmond Station", "walkingMeters": 690, "walkingSeconds": 515, "band": 10}]}, "geometry": {"type": "Point", "coordinates": [-122.1195908, 47.6699638]}}, {"type": "Feature", "properties": {"id": "9167fded-2ce7-45d9-9677-f15c793f3e89", "name": "Wolverine World Wide", "category": "shoes", "tags": ["shoes", "shoe"], "sources": ["overture"], "website": "https://www.wolverineworldwide.com", "phone": "(425) 376-1811", "address": "7214 170th Ave NE", "stations": [{"stopCode": 65, "lines": "2", "name": "Downtown Redmond Station", "walkingMeters": 1190, "walkingSeconds": 862, "band": 15}]}, "geometry": {"type": "Point", "coordinates": [-122.1138916, 47.6685486]}}, {"type": "Feature", "properties": {"id": "4de34f4e-46bc-4054-94b1-dbdb04fc480b", "name": "Mayuri Foods Redmond Town Center", "category": "supermarket", "tags": ["supermarket"], "sources": ["overture"], "website": "https://mayuriseattle.com", "phone": "14258696197", "address": "7225 170th Ave Ne  Ste 101", "stations": [{"stopCode": 65, "lines": "2", "name": "Downtown Redmond Station", "walkingMeters": 965, "walkingSeconds": 700, "band": 15}]}, "geometry": {"type": "Point", "coordinates": [-122.1159058, 47.6690254]}}, {"type": "Feature", "properties": {"id": "e66d0d2c-fe31-4f8a-af63-3808d864af91", "name": "Bartell Drugs", "category": "pharmacy", "tags": ["pharmacy"], "sources": ["overture"], "phone": "14258958323", "address": "7370 170th Ave NE", "stations": [{"stopCode": 65, "lines": "2", "name": "Downtown Redmond Station", "walkingMeters": 1038, "walkingSeconds": 752, "band": 15}]}, "geometry": {"type": "Point", "coordinates": [-122.1125183, 47.6697159]}}, {"type": "Feature", "properties": {"id": 31928123, "name": "24 Hour Fitness", "category": "fitness_centre", "tags": ["fitness-centre", "gym"], "sources": ["osm", "overture"], "website": "https://www.24hourfitness.com/", "phone": "+14256411111", "address": "7320 170th Ave NE", "stations": [{"stopCode": 65, "lines": "2", "name": "Downtown Redmond Station", "walkingMeters": 1316, "walkingSeconds": 952, "band": 15}]}, "geometry": {"type": "Point", "coordinates": [-122.1123841, 47.6689886]}}, {"type": "Feature", "properties": {"id": 65067141, "name": "Marymoor Climbing Wall", "category": "sports_centre", "tags": ["sports-centre", "climbing"], "sources": ["osm"], "stations": [{"stopCode": 64, "lines": "2", "name": "Marymoor Village Station", "walkingMeters": 748, "walkingSeconds": 538, "band": 15}]}, "geometry": {"type": "Point", "coordinates": [-122.1114699, 47.6643112]}}, {"type": "Feature", "properties": {"id": "c61ca56c-c85c-4029-b699-61c036c5401b", "name": "Akt", "category": "fitness_centre", "tags": ["fitness-centre", "gym"], "sources": ["overture"], "website": "https://www.theakt.com", "phone": "14259688132", "address": "7325 166th Ave Ne  Ste F-252", "stations": [{"stopCode": 65, "lines": "2", "name": "Downtown Redmond Station", "walkingMeters": 651, "walkingSeconds": 474, "band": 10}]}, "geometry": {"type": "Point", "coordinates": [-122.1195908, 47.6699638]}}]}