{"type": "FeatureCollection", "features": [{"type": "Feature", "properties": {"id": 459768173, "name": "Starbucks", "category": "cafe", "tags": ["cafe", "coffee-shop", "takeaway", "wheelchair-accessible", "coffee"], "sources": ["osm", "overture"], "website": "https://www.starbucks.com/store-locator/store/1008728/", "phone": "+12067822478", "address": "8301 Aurora Ave N"}, "geometry": {"type": "Point", "coordinates": [-122.3449954, 47.6894536]}}, {"type": "Feature", "properties": {"id": 427307160, "name": "Beth's Cafe", "category": "restaurant", "tags": ["restaurant", "american", "breakfast-and-brunch", "breakfast", "brunch"], "sources": ["osm", "overture"], "website": "https://www.bethscafe.com/", "phone": "12064081466", "address": "7311 Aurora Ave N", "hours": "Tu-Fr 07:00-14:00;Sa-Su 07:00-15:00"}, "geometry": {"type": "Point", "coordinates": [-122.344708, 47.6821453]}}, {"type": "Feature", "properties": {"id": 2463140029, "name": "Pho Than Brothers", "category": "restaurant", "tags": ["restaurant", "rice-noodle", "vietnamese", "asian", "noodles"], "sources": ["osm", "overture"], "website": "http://www.thanbrothers.com", "phone": "+12065275973", "address": "7800 Aurora Ave N"}, "geometry": {"type": "Point", "coordinates": [-122.34428, 47.685651]}}, {"type": "Feature", "properties": {"id": 2328649847, "name": "\u00dcber", "category": "pub", "tags": ["pub"], "sources": ["osm"], "website": "https://www.uberbier.com/", "address": "7521 Aurora Avenue North"}, "geometry": {"type": "Point", "coordinates": [-122.344687, 47.6838372]}}, {"type": "Feature", "properties": {"id": 2328649878, "name": "Always", "category": "restaurant", "tags": ["restaurant", "thai"], "sources": ["osm"], "website": "https://www.always-thai.com/", "address": "7617 Aurora Avenue North", "hours": "Tu-Th 11:00-20:00; Fr,Sa 11:00-21:00; Mo off"}, "geometry": {"type": "Point", "coordinates": [-122.3447119, 47.684568]}}, {"type": "Feature", "properties": {"id": 2328649918, "name": "Sunrise Restaurant", "category": "restaurant", "tags": ["restaurant", "breakfast", "wheelchair-accessible", "breakfast-and-brunch", "brunch"], "sources": ["osm", "overture"], "website": "https://www.clover.com/online-ordering/sunrise-breakfast-restau-seattle", "phone": "+12064535112", "address": "7821 Aurora Ave N", "hours": "07:00-21:30"}, "geometry": {"type": "Point", "coordinates": [-122.3447261, 47.6861192]}}, {"type": "Feature", "properties": {"id": 2463139908, "name": "Chuan BBQ", "category": "restaurant", "tags": ["restaurant", "asian"], "sources": ["osm"], "website": "https://www.thanbrothers.com/", "address": "7714 Aurora Avenue North"}, "geometry": {"type": "Point", "coordinates": [-122.3442855, 47.6853042]}}, {"type": "Feature", "properties": {"id": 7965227907, "name": "The Wick", "category": "cafe", "tags": ["cafe", "coffee-shop", "coffee"], "sources": ["osm", "overture"], "website": "http://www.thewickmoto.com/", "phone": "+12067832323", "address": "7409 Aurora Ave N", "hours": "Tu-Fr 08:00-15:00; Sa 09:00-16:00"}, "geometry": {"type": "Point", "coordinates": [-122.3446988, 47.6831148]}}, {"type": "Feature", "properties": {"id": 11060614076, "name": "Top Dead Center", "category": "cafe", "tags": ["cafe", "coffee-shop"], "sources": ["osm"], "website": "https://www.topdeadcenterseattle.com", "address": "7701 Aurora Avenue North"}, "geometry": {"type": "Point", "coordinates": [-122.3448078, 47.6849234]}}, {"type": "Feature", "properties": {"id": 13257236401, "name": "Zax Eat 'N Three", "category": "restaurant", "tags": ["restaurant", "barbecue", "southern", "comfort-food", "american"], "sources": ["osm", "overture"], "website": "http://www.zaxeatnthree.com", "phone": "+12063494507", "address": "7815 Aurora Ave N"}, "geometry": {"type": "Point", "coordinates": [-122.3447152, 47.6859697]}}, {"type": "Feature", "properties": {"id": "b8a0733b-e9ba-44de-9b3b-720ec619c596", "name": "Thai 2 Go", "category": "restaurant", "tags": ["restaurant", "thai", "asian"], "sources": ["overture"], "website": "http://www.Thai-2GO.com/", "phone": "+12064023923", "address": "7617 Aurora Ave N"}, "geometry": {"type": "Point", "coordinates": [-122.3448639, 47.6845474]}}, {"type": "Feature", "properties": {"id": "4ad26927-829a-4ef5-b250-1fd913fcadb8", "name": "Eddie's Pan Asian Restaurant", "category": "restaurant", "tags": ["restaurant", "thai"], "sources": ["overture"], "website": "http://www.eddies1989panasian.com", "phone": "(206) 706-4569", "address": "7821 Aurora Ave N"}, "geometry": {"type": "Point", "coordinates": [-122.3448181, 47.6860161]}}, {"type": "Feature", "properties": {"id": "b42be83d-dad2-48b8-b8ce-8acd75dfb43b", "name": "Hangry Panda", "category": "restaurant", "tags": ["restaurant", "asian"], "sources": ["overture"], "website": "https://hangrypandaseattle.square.site", "phone": "(866) 842-6479", "address": "7815 Aurora Ave N"}, "geometry": {"type": "Point", "coordinates": [-122.3448181, 47.6860161]}}, {"type": "Feature", "properties": {"id": "064613c6-2581-40ff-925d-990d375da6c5", "name": "Flavor Lao Bowl", "category": "restaurant", "tags": ["restaurant", "asian", "chinese"], "sources": ["overture"], "website": "https://www.flavorlaobowl.com", "phone": "+12064533401", "address": "7821 Aurora Ave N"}, "geometry": {"type": "Point", "coordinates": [-122.3447876, 47.6860199]}}, {"type": "Feature", "properties": {"id": "2c1f84da-f13d-4fc0-8869-d9eccb8b10cc", "name": "Top Dead Center, Seattle", "category": "cafe", "tags": ["cafe", "coffee"], "sources": ["overture"], "website": "https://www.instagram.com/tdc_seattle/", "phone": "+18325431019", "address": "7701 Aurora Ave N"}, "geometry": {"type": "Point", "coordinates": [-122.3448181, 47.6849136]}}, {"type": "Feature", "properties": {"id": "c36cfa84-1f63-4864-9e4f-f9a149ffae7c", "name": "Backfire Moto", "category": "bar", "tags": ["bar"], "sources": ["overture"], "website": "http://backfiremoto.com", "phone": "12067019411", "address": "7701 Aurora Ave N"}, "geometry": {"type": "Point", "coordinates": [-122.3448486, 47.6849022]}}, {"type": "Feature", "properties": {"id": "54066b63-3080-4dcf-a3a5-8c619be1d4cd", "name": "PIK N MOVE INDIAN FLAVORS", "category": "restaurant", "tags": ["restaurant"], "sources": ["overture"], "phone": "2064925900", "address": "7617 Aurora Ave N"}, "geometry": {"type": "Point", "coordinates": [-122.3448715, 47.6845474]}}, {"type": "Feature", "properties": {"id": "49113176-53e7-4b54-a800-173c77993f23", "name": "Madmix", "category": "restaurant", "tags": ["restaurant"], "sources": ["overture"], "phone": "2064533392", "address": "7617 Aurora Ave N"}, "geometry": {"type": "Point", "coordinates": [-122.3448486, 47.6845627]}}, {"type": "Feature", "properties": {"id": "937ab95c-3380-4b1f-a5cc-27706f8920f3", "name": "\u00dcber Tavern", "category": "bar", "tags": ["bar"], "sources": ["overture"], "website": "http://www.uberbier.com/", "phone": "+12067822337", "address": "7517 Aurora Ave N"}, "geometry": {"type": "Point", "coordinates": [-122.3448868, 47.6838226]}}, {"type": "Feature", "properties": {"id": "a0bf981e-44c3-407f-bdee-8f4091c9382b", "name": "Duck Island Ale House", "category": "pub", "tags": ["pub", "wings", "fast-food"], "sources": ["overture"], "website": "http://www.duckislandalehouse.com/", "phone": "2067833360", "address": "7317 Aurora Ave N"}, "geometry": {"type": "Point", "coordinates": [-122.344841, 47.6822548]}}, {"type": "Feature", "properties": {"id": "6d495aed-71bc-4794-b020-3cb411a0e360", "name": "Olde 99 Pub", "category": "pub", "tags": ["pub"], "sources": ["overture"], "website": "https://www.trip.com/seattle/things-to-do/olde-99-pub", "phone": "(206) 687-7047", "address": "7305 Aurora Ave N"}, "geometry": {"type": "Point", "coordinates": [-122.3447647, 47.6820145]}}, {"type": "Feature", "properties": {"id": "8c9300a2-f5f9-46ea-9464-2609c650ecf2", "name": "El Naranjo", "category": "restaurant", "tags": ["restaurant", "mexican", "taco"], "sources": ["overture"], "website": "https://m.facebook.com/El-Naranjo-444804412382415", "phone": "+12538806439", "address": "7200 Aurora Ave N"}, "geometry": {"type": "Point", "coordinates": [-122.3439255, 47.6816864]}}, {"type": "Feature", "properties": {"id": "86f7936f-14da-4f5b-a331-56246c9f9096", "name": "St. Andrews Pub", "category": "bar", "tags": ["bar", "sports"], "sources": ["overture"], "website": "http://standrewsbarandgrill.com", "phone": "+12062571734", "address": "7406 Aurora Ave N"}, "geometry": {"type": "Point", "coordinates": [-122.3443222, 47.6832047]}}, {"type": "Feature", "properties": {"id": "dcf21f8b-3b85-4f0e-ab51-dfcd57b08af6", "name": "Chuan BBQ and Karaoke Lounge", "category": "restaurant", "tags": ["restaurant", "barbecue", "chinese", "asian"], "sources": ["overture"], "website": "http://chuan-bbq.business.site/", "phone": "+12064540389", "address": "7714 Aurora Ave N"}, "geometry": {"type": "Point", "coordinates": [-122.3442612, 47.6852875]}}, {"type": "Feature", "properties": {"id": "44153afd-1f3f-4788-a3ca-825162a731e7", "name": "Greenlake Wines + Wine Bar", "category": "bar", "tags": ["bar", "wine"], "sources": ["overture"], "website": "http://greenlakewines.com", "phone": "(206) 524-6909", "address": "1400 N 80th St"}, "geometry": {"type": "Point", "coordinates": [-122.3400955, 47.6871338]}}, {"type": "Feature", "properties": {"id": "1b47cda4-a4a9-4759-9cdc-e00f109ec4dd", "name": "Rialto Pasta Bar and Grill", "category": "restaurant", "tags": ["restaurant"], "sources": ["overture"], "website": "http://rialtopastabar.com/", "phone": "(206) 522-6635", "address": "1400 N 80th St"}, "geometry": {"type": "Point", "coordinates": [-122.3400116, 47.6871109]}}, {"type": "Feature", "properties": {"id": "cdf71f1f-0a39-4ca9-add0-ece579a5c7db", "name": "CREW Apartments", "category": "attraction", "tags": ["attraction", "landmark", "historical", "building"], "sources": ["overture"], "website": "https://www.liveatcrew.com/", "phone": "+12064202399", "address": "8228 Green Lake Dr N"}, "geometry": {"type": "Point", "coordinates": [-122.3437271, 47.688797]}}, {"type": "Feature", "properties": {"id": 224048774, "name": "Everspring Inn", "category": "hotel", "tags": ["hotel", "motel"], "sources": ["osm", "overture"], "website": "https://everspringinn.com", "phone": "12067891888", "address": "8201 Aurora Ave N"}, "geometry": {"type": "Point", "coordinates": [-122.3449132, 47.6886101]}}, {"type": "Feature", "properties": {"id": 222583086, "name": "7-Eleven", "category": "convenience", "tags": ["convenience"], "sources": ["osm", "overture"], "website": "https://www.7-eleven.com/", "phone": "+12065253918", "address": "7314 Aurora Ave N", "hours": "24/7"}, "geometry": {"type": "Point", "coordinates": [-122.3440186, 47.682626]}}, {"type": "Feature", "properties": {"id": 222583069, "name": "Food Mart", "category": "convenience", "tags": ["convenience"], "sources": ["osm"], "address": "7200 Aurora Avenue North"}, "geometry": {"type": "Point", "coordinates": [-122.3439785, 47.6817845]}}, {"type": "Feature", "properties": {"id": 2463140090, "name": "Dollar Tree", "category": "variety_store", "tags": ["variety-store", "discount"], "sources": ["osm", "overture"], "website": "https://locations.dollartree.com/wa/seattle/7816-aurora-ave-n", "phone": "+15095874120", "address": "7816 Aurora Ave N.", "hours": "Mo-Sa 08:00-19:00; Su 09:00-19:00"}, "geometry": {"type": "Point", "coordinates": [-122.3442491, 47.6860452]}}, {"type": "Feature", "properties": {"id": 2328649910, "name": "Mendoza's Mexican Mercado", "category": "convenience", "tags": ["convenience"], "sources": ["osm"], "website": "https://www.mendozasmexicanmercado.com/home", "phone": "+1-206-245-1089", "address": "7811 Aurora Avenue North", "hours": "Mo-Sa 08:00-20:00; Su off"}, "geometry": {"type": "Point", "coordinates": [-122.3447087, 47.6859]}}, {"type": "Feature", "properties": {"id": 2328649917, "name": "Continental Spices and Halal Meats", "category": "convenience", "tags": ["convenience"], "sources": ["osm"], "address": "7819 Aurora Avenue North", "hours": "Mo-Sa 11:00-21:00; Su 12:00-21:00"}, "geometry": {"type": "Point", "coordinates": [-122.3447208, 47.686064]}}, {"type": "Feature", "properties": {"id": 35964541, "name": "PCC", "category": "supermarket", "tags": ["supermarket", "wheelchair-accessible"], "sources": ["osm"], "website": "https://www.pccmarkets.com/stores/greenlake/", "address": "7504 Aurora Avenue North", "hours": "Mo-Su,PH 06:00-23:00"}, "geometry": {"type": "Point", "coordinates": [-122.3441164, 47.6835509]}}, {"type": "Feature", "properties": {"id": 222581844, "name": "Black Market Skateboards & Records", "category": "sports", "tags": ["sports", "skateboard"], "sources": ["osm"], "website": "https://www.blackmarketskates.com/", "address": "8114 Aurora Avenue North"}, "geometry": {"type": "Point", "coordinates": [-122.3441462, 47.6881527]}}, {"type": "Feature", "properties": {"id": 478541673, "name": "Green Lake Vape N Smoke", "category": "tobacco", "tags": ["tobacco"], "sources": ["osm"], "website": "https://greenlake-smoke-n-vape.webnode.page/", "address": "8012 Aurora Avenue North"}, "geometry": {"type": "Point", "coordinates": [-122.3441162, 47.6873794]}}, {"type": "Feature", "properties": {"id": "7a1939db-a891-4fa8-99a7-847a513e90db", "name": "Mallory Paint Store", "category": "hardware", "tags": ["hardware"], "sources": ["overture"], "website": "http://mallorypaint.com/", "phone": "+12065232000", "address": "1106 N 80th St"}, "geometry": {"type": "Point", "coordinates": [-122.3441238, 47.6871414]}}, {"type": "Feature", "properties": {"id": "63d7c790-398d-4dd7-bf07-73c2780e7e9e", "name": "Greenlake Vapor", "category": "tobacco", "tags": ["tobacco"], "sources": ["overture"], "phone": "2065250381", "address": "7216 Aurora Ave N"}, "geometry": {"type": "Point", "coordinates": [-122.344162, 47.6820335]}}, {"type": "Feature", "properties": {"id": "6d293d29-a2a9-4657-a9f3-d2df8d4dc894", "name": "Pcc Community Markets - Green Lake Aurora Co-op", "category": "supermarket", "tags": ["supermarket"], "sources": ["overture"], "website": "https://www.pccmarkets.com", "phone": "12065253586", "address": "7504 Aurora Ave N"}, "geometry": {"type": "Point", "coordinates": [-122.3436127, 47.6834106]}}, {"type": "Feature", "properties": {"id": "8dcc0e6b-90cd-47ef-8b0a-056a97c06c05", "name": "The Purple Store", "category": "gift", "tags": ["gift"], "sources": ["overture"], "website": "http://www.thepurplestore.com ", "phone": "(206) 801-1599", "address": "7616 Aurora Ave N"}, "geometry": {"type": "Point", "coordinates": [-122.3440628, 47.6846237]}}, {"type": "Feature", "properties": {"id": "f359db79-2d56-472b-bf5f-7a5cddd0ca3e", "name": "Of The Earth", "category": "art", "tags": ["art", "supply"], "sources": ["overture"], "website": "http://www.oftheearth.org/", "phone": "2064627022", "address": "7706 Aurora Ave N"}, "geometry": {"type": "Point", "coordinates": [-122.3440933, 47.6850433]}}, {"type": "Feature", "properties": {"id": "994a7c94-1364-45c6-98dc-f402e400bd33", "name": "Benjamin Moore", "category": "hardware", "tags": ["hardware"], "sources": ["overture"], "website": "https://www.benjaminmoore.com/en-us", "phone": "+12065232000", "address": "1106 N 80TH ST"}, "geometry": {"type": "Point", "coordinates": [-122.3441467, 47.6871986]}}, {"type": "Feature", "properties": {"id": 2463139566, "name": "& Fitness", "category": "fitness_centre", "tags": ["fitness-centre", "fitness", "yoga", "wheelchair-accessible"], "sources": ["osm"], "website": "https://www.ampersandfitnessgym.com/green-lake-gym-seattle", "phone": "+1-206-462-4308", "address": "7400 Aurora Avenue North", "hours": "24/7"}, "geometry": {"type": "Point", "coordinates": [-122.3442474, 47.6830269]}}, {"type": "Feature", "properties": {"id": 2463139818, "name": "Tenzan Aikido", "category": "fitness_centre", "tags": ["fitness-centre"], "sources": ["osm"], "website": "https://tenzanaikido.com/", "address": "7700 Aurora Avenue North"}, "geometry": {"type": "Point", "coordinates": [-122.34426, 47.6848677]}}, {"type": "Feature", "properties": {"id": "f21fcc26-e3cb-4e60-a73a-3b910119a1fb", "name": "Ampersand Fitness", "category": "fitness_centre", "tags": ["fitness-centre", "gym"], "sources": ["overture"], "website": "https://www.ampersandfitnessgym.com", "phone": "(206) 462-4308", "address": "7400 Aurora Ave N, Seattle, WA 98103"}, "geometry": {"type": "Point", "coordinates": [-122.3442612, 47.6830215]}}, {"type": "Feature", "properties": {"id": "836b8e11-5a69-4efc-9e91-c0ae4e040225", "name": "Ianfitness", "category": "fitness_centre", "tags": ["fitness-centre", "fitness", "trainer"], "sources": ["overture"], "website": "https://www.ianfitness.com", "phone": "12063490242", "address": "7400 Aurora Ave N"}, "geometry": {"type": "Point", "coordinates": [-122.344101, 47.6831436]}}, {"type": "Feature", "properties": {"id": "1e56c792-a30a-4ab1-bfb8-9b936c842b64", "name": "ACP Crossfit", "category": "fitness_centre", "tags": ["fitness-centre", "gym"], "sources": ["overture"], "website": "http://www.acpcrossfit.com", "phone": "(206) 432-9658", "address": "7622 Aurora Ave N"}, "geometry": {"type": "Point", "coordinates": [-122.3441544, 47.6845818]}}, {"type": "Feature", "properties": {"id": "ea0d18c2-ed0c-406f-bead-aca3e762a800", "name": "Sri Janani Yoga", "category": "fitness_centre", "tags": ["fitness-centre", "yoga", "studio"], "sources": ["overture"], "website": "http://www.srijananiyoga.com/", "phone": "+12068502407", "address": "7700 Aurora Ave N"}, "geometry": {"type": "Point", "coordinates": [-122.3441391, 47.6848984]}}, {"type": "Feature", "properties": {"id": "3c1d6b88-3ace-4233-bee7-ef9c5f004e94", "name": "Bodies In Balance", "category": "fitness_centre", "tags": ["fitness-centre", "pilates", "studio"], "sources": ["overture"], "website": "https://bodiesinbalancepilates.com", "phone": "+12067835919", "address": "8117 Stone Ave N"}, "geometry": {"type": "Point", "coordinates": [-122.3420181, 47.6882286]}}, {"type": "Feature", "properties": {"id": "ec60bf5a-9e3c-41c8-870e-d184d7a03d82", "name": "Studiofit", "category": "fitness_centre", "tags": ["fitness-centre", "gym"], "sources": ["overture"], "website": "http://www.studiofitseattle.com", "phone": "+12063491820", "address": "8111 Stone Ave N"}, "geometry": {"type": "Point", "coordinates": [-122.3420258, 47.6880951]}}]}