{"type": "FeatureCollection", "features": [{"type": "Feature", "properties": {"id": 4791072922, "name": "RiverRock Grill & Ale House", "category": "restaurant", "tags": ["restaurant"], "sources": ["osm"], "phone": "+1-425-430-0311"}, "geometry": {"type": "Point", "coordinates": [-122.1618234, 47.4708692]}}, {"type": "Feature", "properties": {"id": "574c392b-9727-4c97-b750-05e0887194d8", "name": "Northwest Restaurant Experience Incorpor", "category": "restaurant", "tags": ["restaurant"], "sources": ["overture"], "address": "4050 Maple Valley Hwy"}, "geometry": {"type": "Point", "coordinates": [-122.1617432, 47.4709435]}}, {"type": "Feature", "properties": {"id": "ef10159f-5acc-4a91-83af-0959735231fa", "name": "River Rock Grill", "category": "restaurant", "tags": ["restaurant", "american", "bar-and-grill"], "sources": ["overture"], "website": "http://www.riverrockgrill.com/", "phone": "+14254300311", "address": "4050 Maple Vly Hwy"}, "geometry": {"type": "Point", "coordinates": [-122.161705, 47.4709511]}}, {"type": "Feature", "properties": {"id": 4853756521, "name": "Maplewood Pro Shop", "category": "sports", "tags": ["sports"], "sources": ["osm"]}, "geometry": {"type": "Point", "coordinates": [-122.1619328, 47.4710302]}}]}