{"type": "FeatureCollection", "features": [{"type": "Feature", "properties": {"id": "2a3f9e1f-1840-488e-a534-84c8ad7a23f5", "name": "Denny's", "category": "restaurant", "tags": ["restaurant", "diner"], "sources": ["overture"], "website": "http://www.dennys.com/", "phone": "2062460476", "address": "5700 Southcenter Blvd"}, "geometry": {"type": "Point", "coordinates": [-122.2608948, 47.4640884]}}, {"type": "Feature", "properties": {"id": "34a453a4-bc1e-463d-bc2b-a395f24aa5fc", "name": "Roseto & Nguyen, Pllc", "category": "restaurant", "tags": ["restaurant"], "sources": ["overture"], "website": "https://smilessouthcenter.com", "address": "15425 53rd Ave S"}, "geometry": {"type": "Point", "coordinates": [-122.2685852, 47.4647942]}}, {"type": "Feature", "properties": {"id": "ece1ea81-5a05-4f5f-bad0-87337bdf746a", "name": "Bahama Breeze", "category": "restaurant", "tags": ["restaurant", "caribbean"], "sources": ["overture"], "website": "https://www.bahamabreeze.com", "phone": "12062414448", "address": "15700 Southcenter Pkwy"}, "geometry": {"type": "Point", "coordinates": [-122.2614746, 47.461174]}}, {"type": "Feature", "properties": {"id": "49a1d8aa-da91-4f73-a6d5-b36f8fd7f995", "name": "Tukwila Garden Apartments", "category": "attraction", "tags": ["attraction", "landmark", "historical", "building"], "sources": ["overture"], "phone": "+13602481811", "address": "15016 Macadam Rd S"}, "geometry": {"type": "Point", "coordinates": [-122.2659302, 47.4684486]}}, {"type": "Feature", "properties": {"id": "396c766f-0cd1-4c52-9ff7-f9f90d0271df", "name": "Southcenter Apartments", "category": "attraction", "tags": ["attraction", "landmark", "historical", "building"], "sources": ["overture"], "phone": "+12062487094", "address": "15044 Macadam Rd S"}, "geometry": {"type": "Point", "coordinates": [-122.2666321, 47.4678459]}}, {"type": "Feature", "properties": {"id": "7fb5f478-a692-458a-9d7e-cba82f37360a", "name": "Foot Locker", "category": "shoes", "tags": ["shoes", "shoe"], "sources": ["overture"], "website": "https://stores.footlocker.com/wa/tukwila/1051-southcenter-mall-7010.html", "phone": "2062443383", "address": "1051 Southcenter Mall"}, "geometry": {"type": "Point", "coordinates": [-122.2678757, 47.4651527]}}, {"type": "Feature", "properties": {"id": "3563a21f-e11b-47fb-8df1-d4be0e5c41ea", "name": "Aspi Associate (opc) Pvt. Ltd.", "category": "supermarket", "tags": ["supermarket"], "sources": ["overture"], "address": "5200 Southcenter Blvd Ste 100"}, "geometry": {"type": "Point", "coordinates": [-122.2685242, 47.4655876]}}, {"type": "Feature", "properties": {"id": "1b64ea30-8c26-43ef-918b-5c98c929d1a3", "name": "Apollo Healthcare Supply", "category": "pharmacy", "tags": ["pharmacy"], "sources": ["overture"], "phone": "2062440009", "address": "5200 Southcenter Blvd  Ste 200"}, "geometry": {"type": "Point", "coordinates": [-122.2685242, 47.4655876]}}, {"type": "Feature", "properties": {"id": 4560930143, "name": "Gesa Credit Union", "category": "bank", "tags": ["bank"], "sources": ["osm"], "website": "https://www.gesa.com/", "phone": "+1-206-628-4010", "address": "5200 Southcenter Boulevard", "hours": "Mo-Fr 09:00-17:00"}, "geometry": {"type": "Point", "coordinates": [-122.268511, 47.4656799]}}, {"type": "Feature", "properties": {"id": "95b59f66-2f96-4fe7-98ae-8cfa12e0da5e", "name": "USPS Air mail transplex. Seatac airport", "category": "post_office", "tags": ["post-office", "office"], "sources": ["overture"], "website": "https://www.usps.com", "phone": "(206) 768-4312", "address": "5200 Southcenter Blvd"}, "geometry": {"type": "Point", "coordinates": [-122.2685776, 47.4655838]}}]}