{"type": "FeatureCollection", "features": [{"type": "Feature", "properties": {"id": 71070182, "name": "Tasty Szechuan", "category": "restaurant", "tags": ["restaurant", "chinese"], "sources": ["osm"], "website": "https://www.ordertogo.com/restaurants/tastysichuan/mesh", "address": "707 148th Avenue Northeast"}, "geometry": {"type": "Point", "coordinates": [-122.1437272, 47.6162774]}}, {"type": "Feature", "properties": {"id": 71070185, "name": "Best Wok", "category": "restaurant", "tags": ["restaurant", "chinese", "indoor-seating", "wheelchair-accessible", "vegetarian"], "sources": ["osm"], "address": "19 148th Avenue Northeast", "hours": "Mo-Th 11:30-21:45; Fr,Sa 11:30-22:45; Su 12:00-21:45"}, "geometry": {"type": "Point", "coordinates": [-122.1435783, 47.6102996]}}, {"type": "Feature", "properties": {"id": "82efc3fb-3754-49f6-bf67-1b6f5475765b", "name": "Foodshion", "category": "restaurant", "tags": ["restaurant", "asian"], "sources": ["overture"], "website": "http://www.foodshion.net", "phone": "(425) 505-2270", "address": "707 148th Ave NE"}, "geometry": {"type": "Point", "coordinates": [-122.1436996, 47.6162529]}}, {"type": "Feature", "properties": {"id": "9529024d-d876-470f-9e8f-1a253ed21384", "name": "Best Wok Restaurant", "category": "restaurant", "tags": ["restaurant", "chinese", "asian"], "sources": ["overture"], "website": "http://www.bestwokchineserestaurant.com/", "phone": "+14257477031", "address": "19 148th Ave NE"}, "geometry": {"type": "Point", "coordinates": [-122.1434784, 47.6102943]}}, {"type": "Feature", "properties": {"id": "862d79f9-03ec-46c3-bd66-4b1b308152e7", "name": "Highland Village Apartments", "category": "attraction", "tags": ["attraction", "landmark", "historical", "building"], "sources": ["overture"], "website": "http://www.highlandvillageapts.com", "phone": "+14255909313", "address": "14526 NE 7th Pl #7"}, "geometry": {"type": "Point", "coordinates": [-122.146347, 47.6166]}}, {"type": "Feature", "properties": {"id": "c6540bb1-a951-44dd-85a4-c688cdf150c9", "name": "Pinewood Village Apartment Homes", "category": "attraction", "tags": ["attraction", "landmark", "historical", "building"], "sources": ["overture"], "website": "https://pinewoodvillageapartments.com", "phone": "+14256434143", "address": "14911 NE 1st Pl"}, "geometry": {"type": "Point", "coordinates": [-122.1409988, 47.6111794]}}, {"type": "Feature", "properties": {"id": 71070179, "name": "7-Eleven", "category": "convenience", "tags": ["convenience", "delivery", "wheelchair-accessible"], "sources": ["osm", "overture"], "website": "https://www.7-eleven.com/", "phone": "+14257467564", "address": "15 148th Ave NE", "hours": "24/7"}, "geometry": {"type": "Point", "coordinates": [-122.1435881, 47.6101132]}}, {"type": "Feature", "properties": {"id": 326037270, "name": "Snack Shop", "category": "convenience", "tags": ["convenience"], "sources": ["osm"], "address": "14801 Northeast 8th Street"}, "geometry": {"type": "Point", "coordinates": [-122.1425774, 47.6167193]}}, {"type": "Feature", "properties": {"id": 484987657, "name": "Planned Parenthood", "category": "clinic", "tags": ["clinic"], "sources": ["osm"], "website": "https://www.plannedparenthood.org/health-center/washington/bellevue/98007/eastside-bellevue-health-center-4151-91810", "phone": "+1-800-769-0045", "address": "14730 Northeast 8th Street", "hours": "Mo-Tu 08:00-16:00; We-Th 10:00-18:00; Fr 08:30-16:30"}, "geometry": {"type": "Point", "coordinates": [-122.1442163, 47.6177452]}}, {"type": "Feature", "properties": {"id": "0db54400-ce1d-45d0-88dc-9c9f8da6e800", "name": "Cascadia Wellness Clinic", "category": "clinic", "tags": ["clinic", "medical"], "sources": ["overture"], "website": "https://www.cascadiawellness.com", "phone": "(425) 250-3095", "address": "2320 130th Ave NE Ste 130"}, "geometry": {"type": "Point", "coordinates": [-122.1448517, 47.6177025]}}, {"type": "Feature", "properties": {"id": 453418834, "name": "Bellevue Aquatic Center", "category": "sports_centre", "tags": ["sports-centre", "swimming", "swimming-pool", "pool"], "sources": ["osm", "overture"], "website": "http://www.bellevuewa.gov/aquatic_center.htm", "phone": "+14254524444", "address": "601 143rd Ave NE"}, "geometry": {"type": "Point", "coordinates": [-122.1497428, 47.6157509]}}]}