{"type": "FeatureCollection", "features": [{"type": "Feature", "properties": {"id": 652153957, "name": "Taco Time", "category": "fast_food", "tags": ["fast-food", "mexican", "takeaway", "drive-through", "vegetarian", "wifi", "restaurant", "taco"], "sources": ["osm", "overture"], "website": "https://order.tacotimenw.com/menu/tukwila-seatac", "phone": "+12069958430", "address": "15037 Tukwila International Blvd", "stations": [{"stopCode": 63, "lines": "1", "name": "Tukwila International Blvd Station", "walkingMeters": 565, "walkingSeconds": 408, "band": 10}]}, "geometry": {"type": "Point", "coordinates": [-122.2882395, 47.4675168]}}, {"type": "Feature", "properties": {"id": 205724257, "name": "McDonald's", "category": "fast_food", "tags": ["fast-food", "burger", "takeaway", "drive-through", "wheelchair-accessible", "air-conditioned", "wifi", "fast", "food"], "sources": ["osm", "overture"], "website": "https://www.mcdonalds.com/us/en-us/location/wa/tukwila/15210-pacific-hwy-w/472.html?cid=RF%3AYXT%3ARoN%3A%3AClicks%3Fcid%3DRF%3AYXT%3AFB%3A%3AClicks", "phone": "+12062411177", "address": "15210 Pacific Hwy W", "hours": "07:00-20:00", "stations": [{"stopCode": 63, "lines": "1", "name": "Tukwila International Blvd Station", "walkingMeters": 410, "walkingSeconds": 296, "band": 5}]}, "geometry": {"type": "Point", "coordinates": [-122.2877506, 47.4663442]}}, {"type": "Feature", "properties": {"id": "97032afe-8f7f-4274-b5ef-bf0670d73aed", "name": "Taco Bell", "category": "fast_food", "tags": ["fast-food", "fast", "food"], "sources": ["overture"], "website": "https://www.tacobell.com", "phone": "(206) 246-5158", "address": "15036 Tukwila International Blvd", "stations": [{"stopCode": 63, "lines": "1", "name": "Tukwila International Blvd Station", "walkingMeters": 544, "walkingSeconds": 406, "band": 10}]}, "geometry": {"type": "Point", "coordinates": [-122.2871475, 47.4677505]}}, {"type": "Feature", "properties": {"id": 652154124, "name": "KFC", "category": "fast_food", "tags": ["fast-food", "chicken", "takeaway", "drive-through", "fast", "food"], "sources": ["osm", "overture"], "website": "https://locations.kfc.com/wa/tukwila/15036-tukwila-international-blvd", "phone": "+12062465158", "address": "15036 Tukwila International Blvd", "stations": [{"stopCode": 63, "lines": "1", "name": "Tukwila International Blvd Station", "walkingMeters": 592, "walkingSeconds": 426, "band": 10}]}, "geometry": {"type": "Point", "coordinates": [-122.2870793, 47.4677679]}}, {"type": "Feature", "properties": {"id": 3699266625, "name": "Abay Ethiopia Restaurant", "category": "restaurant", "tags": ["restaurant", "ethiopian"], "sources": ["osm"], "phone": "+1-206-743-8924", "address": "14855 Tukwila International Boulevard", "stations": [{"stopCode": 63, "lines": "1", "name": "Tukwila International Blvd Station", "walkingMeters": 718, "walkingSeconds": 518, "band": 10}]}, "geometry": {"type": "Point", "coordinates": [-122.287258, 47.4690734]}}, {"type": "Feature", "properties": {"id": 652154144, "name": "Wendy's", "category": "fast_food", "tags": ["fast-food", "burger", "takeaway", "drive-through", "fast", "food", "american"], "sources": ["osm", "overture"], "website": "https://locations.wendys.com/united-states/wa/tukwila/15010-pacific-hwy-south", "phone": "+12062481748", "address": "15010 Pacific Hwy South", "hours": "09:00-22:00", "stations": [{"stopCode": 63, "lines": "1", "name": "Tukwila International Blvd Station", "walkingMeters": 657, "walkingSeconds": 473, "band": 10}]}, "geometry": {"type": "Point", "coordinates": [-122.2868591, 47.4683887]}}, {"type": "Feature", "properties": {"id": "2e5a2314-bd87-4003-8a06-e19c3a679154", "name": "Taqueria El 5 de Mayo", "category": "restaurant", "tags": ["restaurant", "mexican", "seafood"], "sources": ["overture"], "website": "https://www.taqueriael5demayo.com/", "phone": "+12069454506", "stations": [{"stopCode": 63, "lines": "1", "name": "Tukwila International Blvd Station", "walkingMeters": 80, "walkingSeconds": 57, "band": 5}]}, "geometry": {"type": "Point", "coordinates": [-122.2887268, 47.4641571]}}, {"type": "Feature", "properties": {"id": 10049415158, "name": "Kappa Espresso", "category": "cafe", "tags": ["cafe", "coffee"], "sources": ["osm", "overture"], "phone": "+12069069615", "address": "15061 Military Rd S", "stations": [{"stopCode": 63, "lines": "1", "name": "Tukwila International Blvd Station", "walkingMeters": 523, "walkingSeconds": 381, "band": 10}]}, "geometry": {"type": "Point", "coordinates": [-122.2890988, 47.4671874]}}, {"type": "Feature", "properties": {"id": 11483995316, "name": "Zain Restaurant, Bakery And Deli", "category": "restaurant", "tags": ["restaurant", "halal"], "sources": ["osm"], "stations": [{"stopCode": 63, "lines": "1", "name": "Tukwila International Blvd Station", "walkingMeters": 602, "walkingSeconds": 437, "band": 10}]}, "geometry": {"type": "Point", "coordinates": [-122.2894955, 47.467772]}}, {"type": "Feature", "properties": {"id": 870909761, "name": "The Pancake Chef", "category": "restaurant", "tags": ["restaurant", "pancake", "wheelchair-accessible", "vegetarian"], "sources": ["osm", "overture"], "website": "https://thepancakechef.net", "phone": "12064319411", "address": "15215 Military Rd S", "hours": "Mo-Fr 06:00-14:00; Sa-Su 06:00-15:00", "stations": [{"stopCode": 63, "lines": "1", "name": "Tukwila International Blvd Station", "walkingMeters": 471, "walkingSeconds": 341, "band": 5}]}, "geometry": {"type": "Point", "coordinates": [-122.2892982, 47.4665484]}}, {"type": "Feature", "properties": {"id": "12c69100-eb53-44f6-b58f-d42be8f4b229", "name": "Taqueria El Rinconsito", "category": "restaurant", "tags": ["restaurant", "mexican"], "sources": ["overture"], "website": "http://www.elrinconsito.com/", "phone": "2068352900", "address": "15245 International Blvd", "stations": [{"stopCode": 63, "lines": "1", "name": "Tukwila International Blvd Station", "walkingMeters": 367, "walkingSeconds": 266, "band": 5}]}, "geometry": {"type": "Point", "coordinates": [-122.2891693, 47.4659042]}}, {"type": "Feature", "properties": {"id": "0ac7406c-deb4-42a0-9661-dde67181d38c", "name": "Pabla Punjabi Palace", "category": "restaurant", "tags": ["restaurant", "indian"], "sources": ["overture"], "website": "http://www.pablaindiancuisine", "phone": "(206) 623-0580", "address": "15245 International Blvd", "stations": [{"stopCode": 63, "lines": "1", "name": "Tukwila International Blvd Station", "walkingMeters": 396, "walkingSeconds": 287, "band": 5}]}, "geometry": {"type": "Point", "coordinates": [-122.2895508, 47.4657249]}}, {"type": "Feature", "properties": {"id": "f2cd08bc-b200-41a9-b876-074f52be6d8d", "name": "China Pavillion", "category": "restaurant", "tags": ["restaurant", "chinese", "asian"], "sources": ["overture"], "website": "http://star.com", "phone": "+12062448450", "address": "14855 Tukwila International Blvd", "stations": [{"stopCode": 63, "lines": "1", "name": "Tukwila International Blvd Station", "walkingMeters": 716, "walkingSeconds": 516, "band": 10}]}, "geometry": {"type": "Point", "coordinates": [-122.2873077, 47.469059]}}, {"type": "Feature", "properties": {"id": "557901f7-9ff6-422a-ac40-c287721303cb", "name": "Dubai Cafeteria & Expresso", "category": "cafe", "tags": ["cafe"], "sources": ["overture"], "website": "https://dubaicafeteriaexpresso.restaurants-us.com", "phone": "(206) 695-2238", "address": "14857 Tukwila International Blvd", "stations": [{"stopCode": 63, "lines": "1", "name": "Tukwila International Blvd Station", "walkingMeters": 716, "walkingSeconds": 516, "band": 10}]}, "geometry": {"type": "Point", "coordinates": [-122.2873077, 47.4690628]}}, {"type": "Feature", "properties": {"id": "4e897587-b472-4300-85e4-f1dd8f92da75", "name": "Al dunya restaurant and cafe", "category": "restaurant", "tags": ["restaurant"], "sources": ["overture"], "website": "http://Www.Aldunya.com/", "phone": "+12067438924", "address": "14855 Tukwila International Blvd", "stations": [{"stopCode": 63, "lines": "1", "name": "Tukwila International Blvd Station", "walkingMeters": 713, "walkingSeconds": 514, "band": 10}]}, "geometry": {"type": "Point", "coordinates": [-122.2873001, 47.4690285]}}, {"type": "Feature", "properties": {"id": "ce9ed222-d8c1-4edb-bdb0-d454b2e7b0ce", "name": "Pupuseria Caba\u00f1as", "category": "restaurant", "tags": ["restaurant", "salvadoran", "latin-american"], "sources": ["overture"], "phone": "+12065828896", "address": "Tukwila Intl Blvd & S 152nd St", "stations": [{"stopCode": 63, "lines": "1", "name": "Tukwila International Blvd Station", "walkingMeters": 524, "walkingSeconds": 378, "band": 10}]}, "geometry": {"type": "Point", "coordinates": [-122.2872849, 47.4673462]}}, {"type": "Feature", "properties": {"id": "cfe3f192-992c-4a81-8846-d19d65b58b8e", "name": "Tukwila \u2013 International Blvd.", "category": "fast_food", "tags": ["fast-food", "fast", "food"], "sources": ["overture"], "website": "https://tacotimenw.com/find-us/tukwila-seatac/", "address": "15037 Tukwila Intl. Blvd. Tukwila, WA 98188", "stations": [{"stopCode": 63, "lines": "1", "name": "Tukwila International Blvd Station", "walkingMeters": 519, "walkingSeconds": 387, "band": 10}]}, "geometry": {"type": "Point", "coordinates": [-122.2884293, 47.4676056]}}, {"type": "Feature", "properties": {"id": "b4d796d6-8df7-4ae4-8e56-da93ea5db297", "name": "Marwa", "category": "restaurant", "tags": ["restaurant", "african"], "sources": ["overture"], "website": "https://marwa-restaurant.hub.biz", "phone": "(206) 248-3104", "address": "15035 Tukwila International Blvd", "stations": [{"stopCode": 63, "lines": "1", "name": "Tukwila International Blvd Station", "walkingMeters": 595, "walkingSeconds": 432, "band": 10}]}, "geometry": {"type": "Point", "coordinates": [-122.2885818, 47.4679184]}}, {"type": "Feature", "properties": {"id": "6bff377b-5eb3-47a5-a96f-8434cf763b87", "name": "Comwell Co", "category": "restaurant", "tags": ["restaurant"], "sources": ["overture"], "address": "15210 Tukwila International Blvd", "stations": [{"stopCode": 63, "lines": "1", "name": "Tukwila International Blvd Station", "walkingMeters": 332, "walkingSeconds": 248, "band": 5}]}, "geometry": {"type": "Point", "coordinates": [-122.2876816, 47.4663162]}}, {"type": "Feature", "properties": {"id": 8602701520, "name": "Soundings", "category": "artwork", "tags": ["artwork"], "sources": ["osm"], "stations": [{"stopCode": 63, "lines": "1", "name": "Tukwila International Blvd Station", "walkingMeters": 332, "walkingSeconds": 239, "band": 5}]}, "geometry": {"type": "Point", "coordinates": [-122.2879945, 47.4642095]}}, {"type": "Feature", "properties": {"id": 12100097674, "name": "A Molecule of the Region", "category": "artwork", "tags": ["artwork"], "sources": ["osm"], "stations": [{"stopCode": 63, "lines": "1", "name": "Tukwila International Blvd Station", "walkingMeters": 54, "walkingSeconds": 39, "band": 5}]}, "geometry": {"type": "Point", "coordinates": [-122.2884901, 47.4643133]}}, {"type": "Feature", "properties": {"id": 12100097675, "name": "A Drop of Sustenance", "category": "artwork", "tags": ["artwork"], "sources": ["osm"], "stations": [{"stopCode": 63, "lines": "1", "name": "Tukwila International Blvd Station", "walkingMeters": 87, "walkingSeconds": 62, "band": 5}]}, "geometry": {"type": "Point", "coordinates": [-122.2886141, 47.4641355]}}, {"type": "Feature", "properties": {"id": "8056bea8-f941-429b-9b1e-27e2e9b94a6a", "name": "Seasons Apartments", "category": "attraction", "tags": ["attraction", "landmark", "historical", "building"], "sources": ["overture"], "website": "https://www.iconre.org/", "phone": "+14259993930", "address": "3721 S 152nd St", "stations": [{"stopCode": 63, "lines": "1", "name": "Tukwila International Blvd Station", "walkingMeters": 681, "walkingSeconds": 491, "band": 10}]}, "geometry": {"type": "Point", "coordinates": [-122.2853165, 47.4666824]}}, {"type": "Feature", "properties": {"id": "94de9925-1c5b-47bf-aeb9-a7660eaeb4cd", "name": "The Villages at South Station Apartments", "category": "attraction", "tags": ["attraction", "landmark", "historical", "building"], "sources": ["overture"], "website": "https://home.securityproperties.com/thevillages/", "phone": "+12064319216", "address": "3724 S 154th Ln", "stations": [{"stopCode": 63, "lines": "1", "name": "Tukwila International Blvd Station", "walkingMeters": 359, "walkingSeconds": 258, "band": 5}]}, "geometry": {"type": "Point", "coordinates": [-122.2861023, 47.4648781]}}, {"type": "Feature", "properties": {"id": "d509484e-a7e5-44b0-a287-903849999b3c", "name": "Ambassador Gardens Apartments", "category": "attraction", "tags": ["attraction", "landmark", "historical", "building"], "sources": ["overture"], "phone": "+12062466123", "address": "3700 Southcenter Blvd", "stations": [{"stopCode": 63, "lines": "1", "name": "Tukwila International Blvd Station", "walkingMeters": 529, "walkingSeconds": 381, "band": 5}]}, "geometry": {"type": "Point", "coordinates": [-122.2862015, 47.4656601]}}, {"type": "Feature", "properties": {"id": "9597f123-d680-4f70-8a51-b835686f935c", "name": "Avalon Apartments", "category": "attraction", "tags": ["attraction", "landmark", "historical", "building"], "sources": ["overture"], "phone": "+12062422598", "address": "3469 S 152nd St", "stations": [{"stopCode": 63, "lines": "1", "name": "Tukwila International Blvd Station", "walkingMeters": 576, "walkingSeconds": 415, "band": 5}]}, "geometry": {"type": "Point", "coordinates": [-122.2869186, 47.4665871]}}, {"type": "Feature", "properties": {"id": "d9518685-e7f1-4a67-bd7b-320b6d7b6cef", "name": "Cielo Apartments", "category": "attraction", "tags": ["attraction", "landmark", "historical", "building"], "sources": ["overture"], "website": "https://www.iconre.org/cielo", "phone": "+18553072195", "address": "15830 39th Pl S"}, "geometry": {"type": "Point", "coordinates": [-122.2844238, 47.4607162]}}, {"type": "Feature", "properties": {"id": "1be2c869-1604-4833-9955-36f079afaf08", "name": "Travelodge Sea-Tac Airport North", "category": "hotel", "tags": ["hotel"], "sources": ["overture"], "website": "http://www.travelodge.com/hotels/washington/seattle/travelodge-sea-tac-airport-north/hotel-overview?reg=Local-_-all-_-TL-_-all&cid=IP_Local&wid=local&iata=00065402", "phone": "2062421777", "address": "14845 Tukwila International Blvd", "stations": [{"stopCode": 63, "lines": "1", "name": "Tukwila International Blvd Station", "walkingMeters": 710, "walkingSeconds": 512, "band": 10}]}, "geometry": {"type": "Point", "coordinates": [-122.2869339, 47.4690742]}}, {"type": "Feature", "properties": {"id": "d65d5e1f-43f3-41e8-b5c8-d1ffd454a40c", "name": "Knights Inn Tukwila", "category": "hotel", "tags": ["hotel", "resort"], "sources": ["overture"], "website": "https://www.knightsinn.com/Tukwila-WA", "phone": "2062446464", "address": "14110 Pacific Highway S", "stations": [{"stopCode": 63, "lines": "1", "name": "Tukwila International Blvd Station", "walkingMeters": 464, "walkingSeconds": 336, "band": 5}]}, "geometry": {"type": "Point", "coordinates": [-122.2879486, 47.4669647]}}, {"type": "Feature", "properties": {"id": 652153969, "name": "Food Mart", "category": "convenience", "tags": ["convenience"], "sources": ["osm"], "stations": [{"stopCode": 63, "lines": "1", "name": "Tukwila International Blvd Station", "walkingMeters": 510, "walkingSeconds": 367, "band": 10}]}, "geometry": {"type": "Point", "coordinates": [-122.2872885, 47.4672113]}}, {"type": "Feature", "properties": {"id": 205724258, "name": "ampm", "category": "convenience", "tags": ["convenience"], "sources": ["osm", "overture"], "website": "https://www.ampm.com/", "phone": "+12062420545", "address": "15252 Tukwila International Blvd", "stations": [{"stopCode": 63, "lines": "1", "name": "Tukwila International Blvd Station", "walkingMeters": 355, "walkingSeconds": 256, "band": 5}]}, "geometry": {"type": "Point", "coordinates": [-122.28798, 47.4656513]}}, {"type": "Feature", "properties": {"id": 3699265927, "name": "Stop-Buy Grocery and Deli", "category": "convenience", "tags": ["convenience"], "sources": ["osm"], "address": "14857 Tukwila International Boulevard", "stations": [{"stopCode": 63, "lines": "1", "name": "Tukwila International Blvd Station", "walkingMeters": 701, "walkingSeconds": 505, "band": 10}]}, "geometry": {"type": "Point", "coordinates": [-122.2873211, 47.4689444]}}, {"type": "Feature", "properties": {"id": 6081391018, "name": "Tabarak", "category": "convenience", "tags": ["convenience"], "sources": ["osm"], "address": "15213 Military Road South", "stations": [{"stopCode": 63, "lines": "1", "name": "Tukwila International Blvd Station", "walkingMeters": 458, "walkingSeconds": 332, "band": 5}]}, "geometry": {"type": "Point", "coordinates": [-122.2890341, 47.4665387]}}, {"type": "Feature", "properties": {"id": 6081391021, "name": "Mana Market", "category": "convenience", "tags": ["convenience", "supermarket"], "sources": ["osm", "overture"], "phone": "+12062420702", "address": "15205 Military Rd S", "stations": [{"stopCode": 63, "lines": "1", "name": "Tukwila International Blvd Station", "walkingMeters": 481, "walkingSeconds": 348, "band": 5}]}, "geometry": {"type": "Point", "coordinates": [-122.2890392, 47.466741]}}, {"type": "Feature", "properties": {"id": 10049415154, "name": "NW Halal", "category": "convenience", "tags": ["convenience", "halal"], "sources": ["osm"], "stations": [{"stopCode": 63, "lines": "1", "name": "Tukwila International Blvd Station", "walkingMeters": 549, "walkingSeconds": 399, "band": 10}]}, "geometry": {"type": "Point", "coordinates": [-122.2893246, 47.4674938]}}, {"type": "Feature", "properties": {"id": "3d49e86d-16fe-482f-b6ac-08dfa2d4bd1d", "name": "City Grocery Wholesale & Retail Inc", "category": "supermarket", "tags": ["supermarket"], "sources": ["overture"], "phone": "12062614419", "address": "14818 Tukwila International Blvd  Ste 100", "stations": [{"stopCode": 63, "lines": "1", "name": "Tukwila International Blvd Station", "walkingMeters": 876, "walkingSeconds": 654, "band": 10}]}, "geometry": {"type": "Point", "coordinates": [-122.2854919, 47.4698524]}}, {"type": "Feature", "properties": {"id": "57a1da2b-bdda-41f7-ba7f-d728dd7960a5", "name": "Riverton Heights", "category": "convenience", "tags": ["convenience"], "sources": ["overture"], "website": "http://kcha.org", "phone": "+12062436446", "address": "15015 Tukwila International Blvd", "stations": [{"stopCode": 63, "lines": "1", "name": "Tukwila International Blvd Station", "walkingMeters": 602, "walkingSeconds": 434, "band": 10}]}, "geometry": {"type": "Point", "coordinates": [-122.2878799, 47.468132]}}, {"type": "Feature", "properties": {"id": "38fa3e41-0429-4cde-b38b-3bfffe1e722a", "name": "Tawakal Mini Mart Corp", "category": "supermarket", "tags": ["supermarket"], "sources": ["overture"], "address": "15035 Military Rd S", "stations": [{"stopCode": 63, "lines": "1", "name": "Tukwila International Blvd Station", "walkingMeters": 554, "walkingSeconds": 413, "band": 10}]}, "geometry": {"type": "Point", "coordinates": [-122.2894669, 47.4677315]}}, {"type": "Feature", "properties": {"id": "219e61e9-18ff-4cae-90d2-f68c515b1fb0", "name": "Tabarak Minimarket & Halal", "category": "supermarket", "tags": ["supermarket"], "sources": ["overture"], "phone": "+12062460507", "address": "15213 Military Rd S", "stations": [{"stopCode": 63, "lines": "1", "name": "Tukwila International Blvd Station", "walkingMeters": 464, "walkingSeconds": 336, "band": 5}]}, "geometry": {"type": "Point", "coordinates": [-122.2888718, 47.4665298]}}, {"type": "Feature", "properties": {"id": "aebf3724-19be-4adc-9f94-62ed5294d753", "name": "Bakaro Mall", "category": "supermarket", "tags": ["supermarket"], "sources": ["overture"], "website": "https://bakaro-mall.hub.biz", "phone": "(206) 246-2865", "address": "15245 International Blvd", "stations": [{"stopCode": 63, "lines": "1", "name": "Tukwila International Blvd Station", "walkingMeters": 401, "walkingSeconds": 290, "band": 5}]}, "geometry": {"type": "Point", "coordinates": [-122.2896194, 47.4657478]}}, {"type": "Feature", "properties": {"id": "ecc30e51-2d32-4cac-8230-8864178bad6d", "name": "Tukwila Station Pharmacy", "category": "pharmacy", "tags": ["pharmacy"], "sources": ["overture"], "website": "https://thestationspharmacy.com/", "phone": "+12063883807", "address": "15320 33rd Ave S Ste 222", "stations": [{"stopCode": 63, "lines": "1", "name": "Tukwila International Blvd Station", "walkingMeters": 404, "walkingSeconds": 291, "band": 5}]}, "geometry": {"type": "Point", "coordinates": [-122.2897186, 47.4657478]}}, {"type": "Feature", "properties": {"id": 205724262, "name": "KeyBank", "category": "bank", "tags": ["bank"], "sources": ["osm"], "address": "3434 South 152nd Street", "stations": [{"stopCode": 63, "lines": "1", "name": "Tukwila International Blvd Station", "walkingMeters": 515, "walkingSeconds": 372, "band": 10}]}, "geometry": {"type": "Point", "coordinates": [-122.288455, 47.4671634]}}]}