{"type": "FeatureCollection", "features": [{"type": "Feature", "properties": {"id": 293835831, "name": "The Herbfarm", "category": "restaurant", "tags": ["restaurant", "american", "european"], "sources": ["osm", "overture"], "website": "http://www.theherbfarm.com/", "phone": "+14254855300", "address": "14590 NE 145th St"}, "geometry": {"type": "Point", "coordinates": [-122.147451, 47.7331995]}}, {"type": "Feature", "properties": {"id": 293835832, "name": "Barking Frog", "category": "restaurant", "tags": ["restaurant", "american", "french", "seafood", "regional", "reservations"], "sources": ["osm", "overture"], "website": "https://www.barkingfrogrestaurant.com/", "phone": "+14254242999", "address": "14580 NE 145th St"}, "geometry": {"type": "Point", "coordinates": [-122.1474339, 47.733569]}}, {"type": "Feature", "properties": {"id": 293835921, "name": "Purple Cafe and Wine Bar - Woodinville", "category": "restaurant", "tags": ["restaurant", "american"], "sources": ["osm"], "website": "https://www.purplecafe.com/purple-woodinville/", "phone": "+1-425-483-7129", "hours": "Mo-Th 11:00-21:00; Fr 11:00-22:00; Sa 10:00-22:00; Su 10:00-16:00"}, "geometry": {"type": "Point", "coordinates": [-122.1420281, 47.7316091]}}, {"type": "Feature", "properties": {"id": 293835973, "name": "Heritage Restaurant|Bar", "category": "restaurant", "tags": ["restaurant", "american", "meat", "seafood"], "sources": ["osm"], "phone": "+1-425-419-4760", "address": "14450 Woodinville Redmond Road Northeast"}, "geometry": {"type": "Point", "coordinates": [-122.1409412, 47.7324083]}}, {"type": "Feature", "properties": {"id": 2447402598, "name": "Hal's Sports Bar", "category": "pub", "tags": ["pub", "burger", "american", "chicken", "taco", "shuffleboard", "outdoor-seating", "takeaway", "delivery"], "sources": ["osm"], "website": "https://www.halssportsbar.com", "phone": "+1-425-286-8408", "address": "14481 Redmond-Woodinville Road NE", "hours": "Mo-Th 11:00-22:00; Fr-Sa 11:00-00:00; Su 11:00-22:00"}, "geometry": {"type": "Point", "coordinates": [-122.1419021, 47.7322151]}}, {"type": "Feature", "properties": {"id": 4491042323, "name": "Chateau Espresso", "category": "cafe", "tags": ["cafe", "coffee-shop"], "sources": ["osm"]}, "geometry": {"type": "Point", "coordinates": [-122.1426086, 47.7339469]}}, {"type": "Feature", "properties": {"id": 4491042337, "name": "Good Brewing", "category": "pub", "tags": ["pub", "outdoor-seating", "microbrew"], "sources": ["osm"], "website": "https://goodbrewingco.com/brewpub-food-menu", "address": "14701 148th Avenue Northeast"}, "geometry": {"type": "Point", "coordinates": [-122.142595, 47.7343961]}}, {"type": "Feature", "properties": {"id": 4491062199, "name": "Sora Sushi", "category": "restaurant", "tags": ["restaurant", "sushi", "japanese", "asian"], "sources": ["osm", "overture"], "website": "http://sorasushirestaurant.com/", "phone": "+14254865858", "address": "14471 Woodinville Redmond Rd NE"}, "geometry": {"type": "Point", "coordinates": [-122.1420347, 47.7319417]}}, {"type": "Feature", "properties": {"id": "29dd3f1d-e381-4b59-8e5f-3b7d94af061e", "name": "Pablo y Pablo", "category": "bar", "tags": ["bar", "mexican"], "sources": ["overture"], "website": "https://www.pabloypablo.com/", "phone": "4258927012", "address": "14481 Redmond-Woodinville Rd NE"}, "geometry": {"type": "Point", "coordinates": [-122.1418457, 47.7320938]}}, {"type": "Feature", "properties": {"id": 6373249169, "name": "The Bistro at Hollywood Schoolhouse", "category": "restaurant", "tags": ["restaurant", "american", "outdoor-seating", "wheelchair-accessible"], "sources": ["osm", "overture"], "website": "https://hollywoodschoolhousebistro.com/", "phone": "+14258922575", "address": "14810 NE 145th St", "hours": "We-Th 11:00-20:00; Fr-Sa 11:00-21:00; Su 10:00-16:00"}, "geometry": {"type": "Point", "coordinates": [-122.1414176, 47.7339843]}}, {"type": "Feature", "properties": {"id": 6981184317, "name": "Maryhill Winery", "category": "restaurant", "tags": ["restaurant", "winery", "attraction", "wine"], "sources": ["osm"]}, "geometry": {"type": "Point", "coordinates": [-122.141467, 47.733098]}}, {"type": "Feature", "properties": {"id": 7182782287, "name": "Wheelhouse", "category": "restaurant", "tags": ["restaurant"], "sources": ["osm"]}, "geometry": {"type": "Point", "coordinates": [-122.1497284, 47.7347722]}}, {"type": "Feature", "properties": {"id": 9648986119, "name": "Vivi's", "category": "restaurant", "tags": ["restaurant", "italian"], "sources": ["osm"]}, "geometry": {"type": "Point", "coordinates": [-122.1427072, 47.7330596]}}, {"type": "Feature", "properties": {"id": 11050125701, "name": "The Lounge", "category": "bar", "tags": ["bar"], "sources": ["osm"]}, "geometry": {"type": "Point", "coordinates": [-122.1480749, 47.7336125]}}, {"type": "Feature", "properties": {"id": 13436914703, "name": "Bin 47", "category": "restaurant", "tags": ["restaurant", "regional", "has-bar", "american"], "sources": ["osm", "overture"], "website": "https://thesomm.com/eat-drink/bin-47"}, "geometry": {"type": "Point", "coordinates": [-122.1427345, 47.7308843]}}, {"type": "Feature", "properties": {"id": 27868250, "name": "Vivi Pizzeria", "category": "restaurant", "tags": ["restaurant", "italian"], "sources": ["osm", "overture"], "website": "https://vivipizzeria.com", "phone": "14254080711", "address": "14505 148th Ave NE"}, "geometry": {"type": "Point", "coordinates": [-122.1426095, 47.7331104]}}, {"type": "Feature", "properties": {"id": "461d1c66-e5ab-4a18-a284-9721ed828c4e", "name": "Grounds Coffee Co.", "category": "cafe", "tags": ["cafe", "coffee", "theme"], "sources": ["overture"], "website": "http://chateau-espresso.com", "phone": "+14254833002", "address": "14575 148th Ave NE"}, "geometry": {"type": "Point", "coordinates": [-122.1426086, 47.7339592]}}, {"type": "Feature", "properties": {"id": 1384269955, "name": "Baseball Concession Stand", "category": "fast_food", "tags": ["fast-food"], "sources": ["osm"]}, "geometry": {"type": "Point", "coordinates": [-122.144398, 47.7350819]}}, {"type": "Feature", "properties": {"id": "6c59ef77-d704-4443-9a9a-9ba8e773d941", "name": "Tully's Coffee", "category": "cafe", "tags": ["cafe", "coffee"], "sources": ["overture"], "website": "http://www.tullys.com/", "phone": "4254024937", "address": "14481 Woodinville Redmond Rd NE"}, "geometry": {"type": "Point", "coordinates": [-122.1418457, 47.7320938]}}, {"type": "Feature", "properties": {"id": "2fbbd78c-b436-4895-b787-3b8be70b0f79", "name": "The Cheese Pit", "category": "fast_food", "tags": ["fast-food", "food", "truck"], "sources": ["overture"], "website": "http://www.TheCheesePit.com/", "phone": "+12063002529", "address": "15366 140th Pl NE"}, "geometry": {"type": "Point", "coordinates": [-122.1425476, 47.7398109]}}, {"type": "Feature", "properties": {"id": "30accd1f-f2b6-4dd7-a020-7c4958ebd6ea", "name": "The Restaurant at DeLille Cellars", "category": "restaurant", "tags": ["restaurant", "american"], "sources": ["overture"], "website": "https://delillecellars.com/restaurant", "phone": "+14252052147", "address": "14300 NE 145th St Ste 100"}, "geometry": {"type": "Point", "coordinates": [-122.1498108, 47.7347603]}}, {"type": "Feature", "properties": {"id": "1d3208fd-e4fe-4942-8531-36b052147430", "name": "The Lounge At Delille Cellars", "category": "restaurant", "tags": ["restaurant", "american"], "sources": ["overture"], "website": "https://www.delillecellars.com/the-lounge&cachebuster=1626269912", "phone": "(425) 205-2147", "address": "14300 NE 145th St Ste 100"}, "geometry": {"type": "Point", "coordinates": [-122.1498489, 47.7347832]}}, {"type": "Feature", "properties": {"id": "d907df3d-6ab7-4ae2-a16d-6663e740cba1", "name": "Redhook Ale Brewery", "category": "pub", "tags": ["pub"], "sources": ["overture"], "website": "http://www.redhook.com/", "phone": "4254833232", "address": "14300 NE 145th St"}, "geometry": {"type": "Point", "coordinates": [-122.1490402, 47.7328568]}}, {"type": "Feature", "properties": {"id": "27d08210-3c56-4b97-92f7-a99cca547dfc", "name": "Fireside Lounge", "category": "bar", "tags": ["bar"], "sources": ["overture"], "website": "https://www.willowslodge.com/woodinville-restaurants/fireside-lounge", "phone": "+14254243900", "address": "14580 NE 145th St"}, "geometry": {"type": "Point", "coordinates": [-122.1469955, 47.7335701]}}, {"type": "Feature", "properties": {"id": "20454172-4aa9-445c-92ed-fa52fd343517", "name": "Cougar Crest Winery", "category": "bar", "tags": ["bar", "wine"], "sources": ["overture"], "website": "http://www.cougarcrestwinery.com", "phone": "(425) 806-1700", "address": "14545 148th Ave NE"}, "geometry": {"type": "Point", "coordinates": [-122.1425095, 47.7336922]}}, {"type": "Feature", "properties": {"id": "704b665c-1892-448d-a5ba-641034fdbad2", "name": "Torii Mor Winery", "category": "bar", "tags": ["bar", "wine"], "sources": ["overture"], "website": "https://www.toriimorwinery.com/", "phone": "4259087111", "address": "14525 148th Ave NE Ste 114"}, "geometry": {"type": "Point", "coordinates": [-122.1425018, 47.7336464]}}, {"type": "Feature", "properties": {"id": "8081ec22-4ae8-44dc-bbd3-a3ae707bd6a4", "name": "The Station Pizzeria", "category": "restaurant", "tags": ["restaurant"], "sources": ["overture"], "website": "https://thestationpizzeria.com", "address": "14505 148th Ave NE"}, "geometry": {"type": "Point", "coordinates": [-122.1426544, 47.7330589]}}, {"type": "Feature", "properties": {"id": "ecbd4a73-07ac-4eff-a073-5531a69b2450", "name": "Lauren Ashton Cellars Tasting Room", "category": "bar", "tags": ["bar", "wine"], "sources": ["overture"], "website": "https://www.laurenashtoncellars.com", "phone": "12065048546", "address": "14545 148th Ave Ne  Ste 211"}, "geometry": {"type": "Point", "coordinates": [-122.1427002, 47.7337151]}}, {"type": "Feature", "properties": {"id": "79664b6e-42a5-4f51-8668-0fec6c381fdc", "name": "Good Brewing Hollywood Taproom 21+", "category": "bar", "tags": ["bar", "beer"], "sources": ["overture"], "website": "https://goodbrewingco.com/hollywood-taproom", "phone": "4258771137", "address": "14701 148th Ave NE"}, "geometry": {"type": "Point", "coordinates": [-122.1425934, 47.7343712]}}, {"type": "Feature", "properties": {"id": "1c73ad40-82e6-4237-b5af-38ff5c2cf6e0", "name": "Fish Brewing Taproom", "category": "bar", "tags": ["bar", "brewery"], "sources": ["overture"], "website": "https://www.fishbrewing.com", "phone": "(425) 949-5787", "address": "14701 148th Ave NE"}, "geometry": {"type": "Point", "coordinates": [-122.1426468, 47.7343597]}}, {"type": "Feature", "properties": {"id": "5421c4ab-ebf5-4899-9f62-bb90915045ca", "name": "Top Of The Barrel", "category": "bar", "tags": ["bar", "wine"], "sources": ["overture"], "address": "14701 148th Ave NE"}, "geometry": {"type": "Point", "coordinates": [-122.1427536, 47.7343292]}}, {"type": "Feature", "properties": {"id": "499ef828-7618-4905-bbc7-2050a30c0088", "name": "Apple Farm Village", "category": "bar", "tags": ["bar", "wine"], "sources": ["overture"], "website": "http://www.applefarmvillage.com", "phone": "+12063356727", "address": "14525 148th Ave NE"}, "geometry": {"type": "Point", "coordinates": [-122.1429596, 47.7338066]}}, {"type": "Feature", "properties": {"id": "8cc3578c-b0ba-49b4-b3e3-a346697fde0b", "name": "Purple Caf\u00e9 and Wine Bar", "category": "bar", "tags": ["bar", "wine"], "sources": ["overture"], "website": "http://www.purplecafe.com", "phone": "+14254837129", "address": "14459 Redmond - Woodinville Rd NE"}, "geometry": {"type": "Point", "coordinates": [-122.1419601, 47.7315826]}}, {"type": "Feature", "properties": {"id": "40423a0e-b727-44b1-b29c-70d657b5d976", "name": "Tinte Cellars Tasting Room", "category": "bar", "tags": ["bar", "wine"], "sources": ["overture"], "website": "http://www.williamchurchwinery.com", "phone": "(425) 242-8872", "address": "14455 Woodinville Redmond Rd NE"}, "geometry": {"type": "Point", "coordinates": [-122.1419754, 47.7315483]}}, {"type": "Feature", "properties": {"id": "d0df4238-ec89-40ee-af0f-fd1d7afd4d99", "name": "The Commons", "category": "restaurant", "tags": ["restaurant", "breakfast-and-brunch", "breakfast", "brunch", "comfort-food"], "sources": ["overture"], "website": "http://thecommonscafe.com/", "phone": "4258927012", "address": "14481 Woodinville Redmond Rd NE"}, "geometry": {"type": "Point", "coordinates": [-122.1420593, 47.7323875]}}, {"type": "Feature", "properties": {"id": "aa916657-465e-492f-9804-065b3e49300a", "name": "Mazatlan", "category": "restaurant", "tags": ["restaurant", "mexican"], "sources": ["overture"], "website": "http://www.mazatlanwoodinville.com", "phone": "(425) 483-6633", "address": "14450 Woodinville Redmond Rd NE"}, "geometry": {"type": "Point", "coordinates": [-122.1410217, 47.7325134]}}, {"type": "Feature", "properties": {"id": "41d47e82-2174-4293-9a04-f85b0fdf7cca", "name": "Heritage Restaurant and Bar", "category": "restaurant", "tags": ["restaurant", "bar-and-grill", "bar", "grill", "american"], "sources": ["overture"], "website": "http://heritagewoodinville.com/", "phone": "+14254194760", "address": "14450 Woodinville Redmond Rd NE"}, "geometry": {"type": "Point", "coordinates": [-122.141098, 47.732399]}}, {"type": "Feature", "properties": {"id": 293835897, "name": "Ross Andrew Winery", "category": "attraction", "tags": ["attraction", "winery", "wine"], "sources": ["osm"]}, "geometry": {"type": "Point", "coordinates": [-122.1416027, 47.7330963]}}, {"type": "Feature", "properties": {"id": 1226375605, "name": "Airfield Estates", "category": "attraction", "tags": ["attraction", "winery", "wine"], "sources": ["osm"]}, "geometry": {"type": "Point", "coordinates": [-122.140516, 47.7320061]}}, {"type": "Feature", "properties": {"id": 1226375606, "name": "Alexandria Nicole Winery", "category": "attraction", "tags": ["attraction", "winery", "wine"], "sources": ["osm"]}, "geometry": {"type": "Point", "coordinates": [-122.1417301, 47.7330433]}}, {"type": "Feature", "properties": {"id": 1226375607, "name": "Amavi Cellars", "category": "attraction", "tags": ["attraction", "winery", "wine"], "sources": ["osm"]}, "geometry": {"type": "Point", "coordinates": [-122.1417536, 47.7330917]}}, {"type": "Feature", "properties": {"id": 1226375609, "name": "Brian Carter Cellars", "category": "attraction", "tags": ["attraction", "winery", "wine", "bar"], "sources": ["osm", "overture"], "website": "http://www.briancartercellars.com", "phone": "(425) 806-9463", "address": "14419 Woodinville Redmond Rd NE"}, "geometry": {"type": "Point", "coordinates": [-122.141225, 47.7314587]}}, {"type": "Feature", "properties": {"id": 1226375613, "name": "Dusted Valley Wine Gallery", "category": "attraction", "tags": ["attraction", "winery", "wine"], "sources": ["osm"]}, "geometry": {"type": "Point", "coordinates": [-122.142029, 47.7317845]}}, {"type": "Feature", "properties": {"id": 1226375616, "name": "Goose Ridge Winery", "category": "attraction", "tags": ["attraction", "winery", "wine"], "sources": ["osm"]}, "geometry": {"type": "Point", "coordinates": [-122.14042, 47.7319072]}}, {"type": "Feature", "properties": {"id": 1226375619, "name": "J Bookwalter Winery", "category": "attraction", "tags": ["attraction", "winery", "wheelchair-accessible", "wine"], "sources": ["osm"], "website": "https://www.bookwalterwines.com/", "phone": "+1-425-488-1983", "hours": "Su-Fr 12:00-18:00; Sa 13:00-19:00"}, "geometry": {"type": "Point", "coordinates": [-122.141772, 47.7339614]}}, {"type": "Feature", "properties": {"id": 4491042325, "name": "Obelisco Estates", "category": "attraction", "tags": ["attraction", "wine"], "sources": ["osm"]}, "geometry": {"type": "Point", "coordinates": [-122.1424445, 47.7337195]}}, {"type": "Feature", "properties": {"id": 4491042326, "name": "Guardian Cellars", "category": "attraction", "tags": ["attraction", "wine", "winery"], "sources": ["osm", "overture"], "website": "http://guardiancellars.com/", "phone": "+12067138005", "address": "14525 148th Ave NE"}, "geometry": {"type": "Point", "coordinates": [-122.1424559, 47.7336319]}}, {"type": "Feature", "properties": {"id": 4491042332, "name": "Zebra Cellars", "category": "attraction", "tags": ["attraction", "wine"], "sources": ["osm"]}, "geometry": {"type": "Point", "coordinates": [-122.1426069, 47.7335894]}}, {"type": "Feature", "properties": {"id": 4491062190, "name": "Zebra Cellars", "category": "attraction", "tags": ["attraction", "wine"], "sources": ["osm"]}, "geometry": {"type": "Point", "coordinates": [-122.1408062, 47.7322549]}}, {"type": "Feature", "properties": {"id": 4491042333, "name": "Lauren Ashton Cellars", "category": "attraction", "tags": ["attraction", "wine"], "sources": ["osm"]}, "geometry": {"type": "Point", "coordinates": [-122.1427844, 47.7337054]}}, {"type": "Feature", "properties": {"id": 4491042334, "name": "Tori Mor Winery", "category": "attraction", "tags": ["attraction", "wine"], "sources": ["osm"]}, "geometry": {"type": "Point", "coordinates": [-122.1427241, 47.7336638]}}, {"type": "Feature", "properties": {"id": 4491042339, "name": "Silver Lake Winery", "category": "attraction", "tags": ["attraction", "wine"], "sources": ["osm"]}, "geometry": {"type": "Point", "coordinates": [-122.1430476, 47.734669]}}, {"type": "Feature", "properties": {"id": 4491042340, "name": "Roza Hills Estate Wines", "category": "attraction", "tags": ["attraction", "wine"], "sources": ["osm"]}, "geometry": {"type": "Point", "coordinates": [-122.14252, 47.7345748]}}, {"type": "Feature", "properties": {"id": 4491042341, "name": "Girly Girl Wine & Gifts", "category": "attraction", "tags": ["attraction", "wine"], "sources": ["osm"]}, "geometry": {"type": "Point", "coordinates": [-122.1425216, 47.7346384]}}, {"type": "Feature", "properties": {"id": 4491062191, "name": "Nine Hats", "category": "attraction", "tags": ["attraction", "wine"], "sources": ["osm"]}, "geometry": {"type": "Point", "coordinates": [-122.1407419, 47.7321954]}}, {"type": "Feature", "properties": {"id": 4491062192, "name": "Chandler Reach", "category": "attraction", "tags": ["attraction", "wine"], "sources": ["osm"]}, "geometry": {"type": "Point", "coordinates": [-122.140648, 47.7321575]}}, {"type": "Feature", "properties": {"id": 4491062193, "name": "Jaine Cottage", "category": "attraction", "tags": ["attraction", "air-conditioned", "wifi", "wine", "winery"], "sources": ["osm", "overture"], "website": "http://jaine.co/", "phone": "+14259492277", "address": "14421 Woodinville Redmond Rd NE", "hours": "Th-Mo 12:00-19:00"}, "geometry": {"type": "Point", "coordinates": [-122.141413, 47.7317179]}}, {"type": "Feature", "properties": {"id": 4491062195, "name": "Mark Ryan Winery", "category": "attraction", "tags": ["attraction", "wine", "winery"], "sources": ["osm", "overture"], "website": "http://www.RossAndrewWinery.com", "phone": "(206) 910-7967", "address": "14200 NE 145th St Ste D"}, "geometry": {"type": "Point", "coordinates": [-122.1420288, 47.7320771]}}, {"type": "Feature", "properties": {"id": 4491062196, "name": "Sparkman Cellars", "category": "attraction", "tags": ["attraction", "wine"], "sources": ["osm"]}, "geometry": {"type": "Point", "coordinates": [-122.1420321, 47.7319982]}}, {"type": "Feature", "properties": {"id": 4491062197, "name": "Fidelitas Cellars", "category": "attraction", "tags": ["attraction", "wine"], "sources": ["osm"]}, "geometry": {"type": "Point", "coordinates": [-122.1420305, 47.7318537]}}, {"type": "Feature", "properties": {"id": 4491062198, "name": "aMaurice Cellars", "category": "attraction", "tags": ["attraction", "wine"], "sources": ["osm"]}, "geometry": {"type": "Point", "coordinates": [-122.1420337, 47.7317047]}}, {"type": "Feature", "properties": {"id": 4491062200, "name": "William Church Winery", "category": "attraction", "tags": ["attraction", "wine", "winery"], "sources": ["osm", "overture"], "website": "http://www.williamchurchwinery.com", "phone": "(425) 482-2510", "address": "14455 Woodinville Redmond Rd NE"}, "geometry": {"type": "Point", "coordinates": [-122.1419722, 47.7315212]}}, {"type": "Feature", "properties": {"id": 4491062201, "name": "Lachini Vineyards", "category": "attraction", "tags": ["attraction", "wine", "winery"], "sources": ["osm", "overture"], "website": "https://tintecellars.com/tasting-experiences/private-tasting-reservation-page", "phone": "+14254899917", "address": "14455 Woodinville Redmond Rd NE"}, "geometry": {"type": "Point", "coordinates": [-122.141969, 47.7314599]}}, {"type": "Feature", "properties": {"id": 4661291990, "name": "Patterson Cellars", "category": "attraction", "tags": ["attraction", "wine", "winery"], "sources": ["osm", "overture"], "website": "http://www.pattersoncellars.com", "phone": "+14258922964", "address": "14505 148th Ave NE"}, "geometry": {"type": "Point", "coordinates": [-122.1425518, 47.7330721]}}, {"type": "Feature", "properties": {"id": "6e44d54e-5b18-4749-aa78-6e237bf63d62", "name": "Woodinville Wine Sphincter", "category": "attraction", "tags": ["attraction", "landmark", "historical", "building"], "sources": ["overture"], "address": "14799 NE 145th St"}, "geometry": {"type": "Point", "coordinates": [-122.142189, 47.7327118]}}, {"type": "Feature", "properties": {"id": "46749287-6139-4d99-8616-3c7fd09897f3", "name": "Burke Gilman Trail Woodinville WA", "category": "attraction", "tags": ["attraction", "landmark", "historical", "building"], "sources": ["overture"]}, "geometry": {"type": "Point", "coordinates": [-122.1453476, 47.7331581]}}, {"type": "Feature", "properties": {"id": "9bacb6f2-2783-41cd-9fcd-e00be4335743", "name": "Picket Fence Art Studio", "category": "gallery", "tags": ["gallery", "art"], "sources": ["overture"], "website": "https://www.picketfenceartstudio.com/#/", "phone": "+14254661751", "address": "14700 148th Ave NE"}, "geometry": {"type": "Point", "coordinates": [-122.1418381, 47.7344894]}}, {"type": "Feature", "properties": {"id": 105613756, "name": "Northshore Athletic Fields", "category": "park", "tags": ["park"], "sources": ["osm"], "website": "https://northshoreathleticfields.com", "address": "14600 Northeast 145th Street"}, "geometry": {"type": "Point", "coordinates": [-122.1460104, 47.734583]}}, {"type": "Feature", "properties": {"id": 1460413220, "name": "The Somm", "category": "hotel", "tags": ["hotel"], "sources": ["osm"], "website": "https://thesomm.com"}, "geometry": {"type": "Point", "coordinates": [-122.1422332, 47.7308526]}}, {"type": "Feature", "properties": {"id": "05e46980-a1d4-49a9-8eee-e1b3724a4735", "name": "Intimate Honeymoons", "category": "hotel", "tags": ["hotel", "resort"], "sources": ["overture"], "website": "http://www.intimatehoneymoons.com/", "phone": "4254892800", "address": "14479 Woodinville Redmond Rd NE"}, "geometry": {"type": "Point", "coordinates": [-122.1420059, 47.732193]}}, {"type": "Feature", "properties": {"id": "8cb1769d-994f-4d96-a5a4-4c12daa5fc34", "name": "The SOMM Hotel", "category": "hotel", "tags": ["hotel"], "sources": ["overture"], "website": "https://thesomm.com/", "phone": "+14254937666", "address": "14800 148th Ave NE"}, "geometry": {"type": "Point", "coordinates": [-122.1401443, 47.7313232]}}, {"type": "Feature", "properties": {"id": "4542480f-b431-4f15-84b3-3a7de2ce6d05", "name": "Mark Ryan Winery", "category": "wine", "tags": ["wine", "winery"], "sources": ["overture"], "website": "http://www.markryanwinery.com/", "phone": "+14254817070", "address": "14200 NE 145th St Suite D"}, "geometry": {"type": "Point", "coordinates": [-122.149437, 47.7333679]}}, {"type": "Feature", "properties": {"id": 6399563087, "name": "Sparkman Cellars", "category": "wine", "tags": ["wine", "winery"], "sources": ["osm", "overture"], "website": "http://sparkmancellars.com/", "phone": "+14253981045", "address": "14300 NE 145th St"}, "geometry": {"type": "Point", "coordinates": [-122.1483852, 47.7347179]}}, {"type": "Feature", "properties": {"id": "c611a582-48a1-4f14-8079-f2ac7f058651", "name": "Darby Winery", "category": "wine", "tags": ["wine", "winery"], "sources": ["overture"], "website": "http://www.darbywinery.com", "phone": "+14254080529", "address": "14450 Woodinville Redmond Rd NE"}, "geometry": {"type": "Point", "coordinates": [-122.1407089, 47.7320251]}}, {"type": "Feature", "properties": {"id": 303627675, "name": "DeLille Cellars", "category": "wine", "tags": ["wine", "winery"], "sources": ["osm"], "website": "https://www.delillecellars.com", "phone": "+1-425-489-0544", "address": "14300 NE 145th St."}, "geometry": {"type": "Point", "coordinates": [-122.149421, 47.7345392]}}, {"type": "Feature", "properties": {"id": "b9d830e1-4b5e-469d-b725-83b146d5f6d7", "name": "Delille Cellars", "category": "wine", "tags": ["wine", "winery"], "sources": ["overture"], "website": "https://www.delillecellars.com", "phone": "14254890544", "address": "14300 Ne 145th St  Ste 101"}, "geometry": {"type": "Point", "coordinates": [-122.1481934, 47.7336998]}}, {"type": "Feature", "properties": {"id": 1226375604, "name": "Village Wines", "category": "wine", "tags": ["wine", "bar"], "sources": ["osm", "overture"], "website": "http://www.myvillagewines.com/", "phone": "+14254853536", "address": "14450 Woodinville Redmond Rd NE"}, "geometry": {"type": "Point", "coordinates": [-122.1402996, 47.7318231]}}, {"type": "Feature", "properties": {"id": "08b5d08c-77ee-4453-96e6-3a9472ce5086", "name": "Obelisco", "category": "wine", "tags": ["wine", "winery"], "sources": ["overture"], "website": "http://obelisco.com/", "phone": "+14258922610", "address": "14525 148th Ave NE Ste 121"}, "geometry": {"type": "Point", "coordinates": [-122.1424179, 47.7336807]}}, {"type": "Feature", "properties": {"id": 6791548110, "name": "Gorman Winery", "category": "wine", "tags": ["wine"], "sources": ["osm"]}, "geometry": {"type": "Point", "coordinates": [-122.1424563, 47.7330712]}}, {"type": "Feature", "properties": {"id": 1275946579, "name": "K-Garden", "category": "florist", "tags": ["florist"], "sources": ["osm"], "address": "148th Avenue Northeast"}, "geometry": {"type": "Point", "coordinates": [-122.1423042, 47.737888]}}, {"type": "Feature", "properties": {"id": "75d08df2-e90c-4207-9991-d1524ef92f07", "name": "Delille Cellars Tasting Room", "category": "alcohol", "tags": ["alcohol"], "sources": ["overture"], "website": "https://www.delillecellars.com", "phone": "+14258779472", "address": "14421 Woodinville Redmond Rd NE"}, "geometry": {"type": "Point", "coordinates": [-122.1422501, 47.730999]}}, {"type": "Feature", "properties": {"id": "fe6b33b6-0ec1-4731-a434-dce8c3806d0d", "name": "Milbrandt Vineyards", "category": "wine", "tags": ["wine", "winery"], "sources": ["overture"], "website": "http://milbrandtvineyards.com", "phone": "+14259497660", "address": "14450 Woodinville Redmond Rd NE Ste 101-A"}, "geometry": {"type": "Point", "coordinates": [-122.1408157, 47.7323952]}}, {"type": "Feature", "properties": {"id": "9dfc659b-5813-477a-aa06-90591a42ce23", "name": "Synne Cellars", "category": "wine", "tags": ["wine", "winery"], "sources": ["overture"], "website": "https://www.synnecellars.com/", "phone": "+14252361835", "address": "14810 NE 145th St Ste B"}, "geometry": {"type": "Point", "coordinates": [-122.1417465, 47.7331543]}}, {"type": "Feature", "properties": {"id": "455f6dbb-b8be-470e-a0ec-703a98e58c1c", "name": "Otis Kenyon Wine", "category": "wine", "tags": ["wine", "winery"], "sources": ["overture"], "website": "http://www.otiskenyonwine.com/", "phone": "+14259497865", "address": "14525 148th Ave NE"}, "geometry": {"type": "Point", "coordinates": [-122.1424561, 47.7336578]}}, {"type": "Feature", "properties": {"id": "dc0c8d6f-6474-4a6f-8550-8547fa064055", "name": "Board Track Racer Collective \u2013 Tasting Room", "category": "wine", "tags": ["wine", "winery"], "sources": ["overture"], "website": "http://www.markryanwinery.com/", "phone": "4254817070", "address": "14475 Woodinville Redmond Rd NE"}, "geometry": {"type": "Point", "coordinates": [-122.1421356, 47.7320213]}}, {"type": "Feature", "properties": {"id": "a4a6e59c-a23f-4289-afd1-647418743f70", "name": "Fidelitas Wines", "category": "wine", "tags": ["wine", "winery"], "sources": ["overture"], "website": "http://www.fidelitaswines.com", "phone": "+14255589001", "address": "14467 Woodinville Redmond Rd NE"}, "geometry": {"type": "Point", "coordinates": [-122.1421356, 47.7318268]}}, {"type": "Feature", "properties": {"id": "6fe0afcf-bd02-4568-8e9e-9ecc188c23ca", "name": "Gorman Winery Tasting Room At The Station", "category": "wine", "tags": ["wine", "winery"], "sources": ["overture"], "website": "http://www.gormanwinery.com/", "phone": "+12063510719", "address": "14505 148th Ave NE"}, "geometry": {"type": "Point", "coordinates": [-122.1424713, 47.7330475]}}, {"type": "Feature", "properties": {"id": "a4068378-f9e2-4fa4-89ab-26aa2c346e8e", "name": "425 Cellars", "category": "wine", "tags": ["wine", "winery"], "sources": ["overture"], "website": "https://www.425cellars.com/", "phone": "+14255885218", "address": "14525 148th Ave NE #211"}, "geometry": {"type": "Point", "coordinates": [-122.1427383, 47.7337151]}}, {"type": "Feature", "properties": {"id": "2619aacb-1646-48ef-adb2-2bf508c3abac", "name": "Zerba Cellars Woodinville", "category": "wine", "tags": ["wine", "winery"], "sources": ["overture"], "website": "http://www.ZerbaCellars.com/", "phone": "+14258062749", "address": "14525 148th Ave NE"}, "geometry": {"type": "Point", "coordinates": [-122.1426392, 47.7337685]}}, {"type": "Feature", "properties": {"id": "90286a99-415f-4497-a1e9-3934d283a50a", "name": "Panther Creek Cellars", "category": "wine", "tags": ["wine", "winery"], "sources": ["overture"], "website": "http://www.panthercreekcellars.com", "phone": "(425) 892-2153", "address": "14455"}, "geometry": {"type": "Point", "coordinates": [-122.1421127, 47.731472]}}, {"type": "Feature", "properties": {"id": "3465a28a-4dc7-409c-99d0-2e57d49106dc", "name": "W.T. Vintners Hollywood Bungalow", "category": "wine", "tags": ["wine", "winery"], "sources": ["overture"], "website": "http://www.wtvintners.com", "phone": "(425) 286-6974", "address": "14419 Woodinville Redmond Rd NE"}, "geometry": {"type": "Point", "coordinates": [-122.1413116, 47.7314835]}}, {"type": "Feature", "properties": {"id": "4a8c3466-689c-4852-a31b-acb68dc61a18", "name": "Upchurch Vineyard Tasting Room", "category": "wine", "tags": ["wine", "winery"], "sources": ["overture"], "website": "http://www.upchurchvineyard.com/", "phone": "+14252984923", "address": "14455 Redmond - Woodinville Rd NE Suite A"}, "geometry": {"type": "Point", "coordinates": [-122.141983, 47.7314453]}}, {"type": "Feature", "properties": {"id": "87b0739c-bc4a-469c-ba97-8e202ae164e4", "name": "Sparkman Cellars Tasting Room", "category": "wine", "tags": ["wine", "winery"], "sources": ["overture"], "website": "http://sparkmancellars.com/", "phone": "4253981045", "address": "14473 Woodinville Redmond Rd NE"}, "geometry": {"type": "Point", "coordinates": [-122.1419983, 47.7320137]}}, {"type": "Feature", "properties": {"id": "fc43f4de-971e-41a6-a6db-48a63d5815aa", "name": "Maryhill Tasting Room and Bistro at Hollywood Schoolhouse", "category": "wine", "tags": ["wine", "winery"], "sources": ["overture"], "website": "https://www.maryhillwinery.com/Visit/Woodinville", "phone": "+14254817925", "address": "14810 NE 145th St #A"}, "geometry": {"type": "Point", "coordinates": [-122.1413574, 47.7330894]}}, {"type": "Feature", "properties": {"id": "95f5a849-f3b9-4451-94c5-9461400ba834", "name": "Market Vineyards", "category": "wine", "tags": ["wine", "winery"], "sources": ["overture"], "website": "http://www.marketvineyards.com", "phone": "+14254861171", "address": "14810 NE 145th St Ste A-2"}, "geometry": {"type": "Point", "coordinates": [-122.1413651, 47.7339134]}}, {"type": "Feature", "properties": {"id": "d818cebe-5de1-4f1e-b98f-a5300bc63762", "name": "J. Bookwalter Tasting Studio", "category": "wine", "tags": ["wine", "winery"], "sources": ["overture"], "website": "http://www.bookwalterwines.com/", "phone": "+14254881983", "address": "14810 NE 145th St Bldg. B"}, "geometry": {"type": "Point", "coordinates": [-122.1417389, 47.7339134]}}, {"type": "Feature", "properties": {"id": "7ec17287-cb96-4abd-879b-89f60e1c7588", "name": "Castillo De Feliciana", "category": "wine", "tags": ["wine", "winery"], "sources": ["overture"], "website": "http://castillodefeliciana.com", "phone": "(425) 949-5088", "address": "15114 148th Ave NE"}, "geometry": {"type": "Point", "coordinates": [-122.1415939, 47.7366447]}}, {"type": "Feature", "properties": {"id": "e4cd9bba-1f0c-46f2-adc5-cd896993aced", "name": "Pepper Bridge Winery & Amavi Cellars Woodinville", "category": "wine", "tags": ["wine", "winery"], "sources": ["overture"], "website": "https://www.pepperbridge.com/visit/woodinville/", "phone": "+14254837026", "address": "14810 NE 145th St"}, "geometry": {"type": "Point", "coordinates": [-122.1412048, 47.7339401]}}, {"type": "Feature", "properties": {"id": "9f07a02e-0994-495d-8a6e-940037da33d2", "name": "Long Shadows Tasting Room", "category": "wine", "tags": ["wine", "winery"], "sources": ["overture"], "website": "http://www.longshadows.com", "phone": "+14254081608", "address": "14450 Woodinville Redmond Rd NE"}, "geometry": {"type": "Point", "coordinates": [-122.1408997, 47.7322807]}}, {"type": "Feature", "properties": {"id": "c1a7cf86-6c2a-40de-ad4e-b8db25a1ff1c", "name": "Ryan Patrick Wines", "category": "wine", "tags": ["wine", "winery"], "sources": ["overture"], "website": "http://www.ryanpatrickwines.com", "phone": "+14259497660", "address": "14450 Woodinville Redmond Rd NE Ste 101-A"}, "geometry": {"type": "Point", "coordinates": [-122.1408234, 47.7323952]}}, {"type": "Feature", "properties": {"id": "7779ecf4-3e12-4db8-b42f-11080b603160", "name": "Sleight of Hand Cellars Woodinville", "category": "wine", "tags": ["wine", "winery"], "sources": ["overture"], "website": "https://www.sofhcellars.com/contact", "phone": "4252866080", "address": "14450 Redmond-Woodinville Rd NE Unit 105B"}, "geometry": {"type": "Point", "coordinates": [-122.1405563, 47.7322006]}}, {"type": "Feature", "properties": {"id": "969188b3-4e0d-4d57-9adc-a6b4fbe2f301", "name": "Chandler Reach Woodinville Tasting Room", "category": "wine", "tags": ["wine", "winery"], "sources": ["overture"], "website": "http://www.chandlerreach.com/", "phone": "+14258929999", "address": "14450 Woodinville Redmond Rd NE"}, "geometry": {"type": "Point", "coordinates": [-122.140686, 47.7321167]}}, {"type": "Feature", "properties": {"id": "f63f5919-cb13-4047-9796-31cc86e91f25", "name": "Goose Ridge Woodinville Tasting Room", "category": "wine", "tags": ["wine", "winery"], "sources": ["overture"], "website": "http://gooseridge.com/", "phone": "+14254880200", "address": "14450 Woodinville Redmond Rd NE"}, "geometry": {"type": "Point", "coordinates": [-122.1406326, 47.7320824]}}, {"type": "Feature", "properties": {"id": "93d7866c-33b0-4046-ab28-20bef303d2d5", "name": "Airfield Estates Winery Woodinville Tasting Room", "category": "wine", "tags": ["wine", "winery"], "sources": ["overture"], "website": "http://www.airfieldwines.com", "phone": "+14258771274", "address": "14450 Woodinville Redmond Rd NE"}, "geometry": {"type": "Point", "coordinates": [-122.1405411, 47.7319374]}}, {"type": "Feature", "properties": {"id": "e268045c-c8da-40a9-843d-024cb7d1be75", "name": "Gold Creek Tennis & Sports Club", "category": "sports_centre", "tags": ["sports-centre", "sports", "club", "league"], "sources": ["overture"], "website": "http://www.goldcreektennissports.com", "phone": "(425) 487-1090", "address": "15327 140th Pl NE"}, "geometry": {"type": "Point", "coordinates": [-122.1435471, 47.7394028]}}]}