{"type": "FeatureCollection", "features": [{"type": "Feature", "properties": {"id": 7098326687, "name": "Mi Ranchito", "category": "restaurant", "tags": ["restaurant", "mexican", "latin-american"], "sources": ["osm", "overture"], "website": "https://www.tiendamiranchito.netwaiter.com/seattle/about", "phone": "+12067259582", "address": "7820 Rainier Ave S"}, "geometry": {"type": "Point", "coordinates": [-122.2695829, 47.5320405]}}, {"type": "Feature", "properties": {"id": "5cabc539-4244-4321-b095-e753fb3ca2f7", "name": "Umami Kushi", "category": "bakery", "tags": ["bakery"], "sources": ["overture"], "website": "https://www.umamikushi.com", "phone": "12067231887", "address": "9099 Seward Park Ave S  Ste 2"}, "geometry": {"type": "Point", "coordinates": [-122.2655106, 47.5307121]}}, {"type": "Feature", "properties": {"id": 10852957160, "name": "King Donuts", "category": "fast_food", "tags": ["fast-food", "donut"], "sources": ["osm"], "address": "7820 Rainier Avenue South"}, "geometry": {"type": "Point", "coordinates": [-122.2695273, 47.5319099]}}, {"type": "Feature", "properties": {"id": "30afcc82-77d1-4fc6-bbb6-4de6be23a78e", "name": "Kebena Market", "category": "restaurant", "tags": ["restaurant", "ethiopian", "african"], "sources": ["overture"], "website": "https://www.kebenarestaurant.com/", "phone": "+12062680037", "address": "7636 Rainier Ave S", "stations": [{"stopCode": 60, "lines": "1", "name": "Othello Station", "walkingMeters": 1328, "walkingSeconds": 955, "band": 15}]}, "geometry": {"type": "Point", "coordinates": [-122.2694931, 47.5337143]}}, {"type": "Feature", "properties": {"id": "d459490f-8572-484a-bbc3-425c926361c5", "name": "King Philly Cheesesteaks", "category": "fast_food", "tags": ["fast-food", "fast", "food"], "sources": ["overture"], "phone": "12067222434", "address": "7820 Rainier Ave S  Ste A"}, "geometry": {"type": "Point", "coordinates": [-122.2695923, 47.5320282]}}, {"type": "Feature", "properties": {"id": "8b5d808b-767a-4371-a45e-46fa57c5bd6e", "name": "Tacos Don Toto", "category": "restaurant", "tags": ["restaurant"], "sources": ["overture"], "phone": "+14253069949", "address": "7820 Rainier Ave S"}, "geometry": {"type": "Point", "coordinates": [-122.2695007, 47.532032]}}, {"type": "Feature", "properties": {"id": "282439b2-0687-47f6-96d7-b131d9de310a", "name": "Jacksons Catfish Corner", "category": "restaurant", "tags": ["restaurant", "seafood"], "sources": ["overture"], "website": "http://www.jacksonscatfishcorner.eat24hour.com", "phone": "(206) 323-4330", "address": "7216 Rainier Ave S", "stations": [{"stopCode": 60, "lines": "1", "name": "Othello Station", "walkingMeters": 1027, "walkingSeconds": 738, "band": 15}]}, "geometry": {"type": "Point", "coordinates": [-122.2698364, 47.5378418]}}, {"type": "Feature", "properties": {"id": "d42ca476-fca3-4acf-97d0-d00120bba242", "name": "Paradise Restaurant", "category": "restaurant", "tags": ["restaurant", "african"], "sources": ["overture"], "phone": "+12067309220", "address": "7250 Rainier Ave S", "stations": [{"stopCode": 60, "lines": "1", "name": "Othello Station", "walkingMeters": 1024, "walkingSeconds": 736, "band": 15}]}, "geometry": {"type": "Point", "coordinates": [-122.2699432, 47.5375671]}}, {"type": "Feature", "properties": {"id": "ffbdb378-7761-4752-a67c-330dc345b3f8", "name": "Los Tinos | Mexican Restaurant", "category": "restaurant", "tags": ["restaurant", "mexican"], "sources": ["overture"], "phone": "12067601388", "address": "7300 Rainier Ave S", "stations": [{"stopCode": 60, "lines": "1", "name": "Othello Station", "walkingMeters": 955, "walkingSeconds": 686, "band": 15}]}, "geometry": {"type": "Point", "coordinates": [-122.2698898, 47.5367508]}}, {"type": "Feature", "properties": {"id": "517785d6-2157-4503-abba-ab66ee188586", "name": "La Herradura", "category": "restaurant", "tags": ["restaurant", "mexican", "latin-american"], "sources": ["overture"], "phone": "+12064291643", "address": "7300 Rainier Ave S", "stations": [{"stopCode": 60, "lines": "1", "name": "Othello Station", "walkingMeters": 960, "walkingSeconds": 690, "band": 15}]}, "geometry": {"type": "Point", "coordinates": [-122.2699661, 47.5367241]}}, {"type": "Feature", "properties": {"id": 6997621294, "name": "Mi Ranchito Store and Grocery", "category": "convenience", "tags": ["convenience"], "sources": ["osm"], "phone": "+1-206-725-9582", "address": "7820 Rainier Avenue South", "hours": "Mo-Su 09:00-22:00"}, "geometry": {"type": "Point", "coordinates": [-122.2695819, 47.5319732]}}, {"type": "Feature", "properties": {"id": "656f3328-91a7-4844-a70a-6f4dfc22357d", "name": "Mar's Family Shop", "category": "variety_store", "tags": ["variety-store", "discount"], "sources": ["overture"], "website": "http://www.ebid.net/us/perl/main.cgi?mo=user-store&title=mars-family-shop", "phone": "+12065549846", "address": "7903 Duncan Ave S"}, "geometry": {"type": "Point", "coordinates": [-122.2684708, 47.5314445]}}, {"type": "Feature", "properties": {"id": 7098326388, "name": "Rainier Health & Fitness", "category": "fitness_centre", "tags": ["fitness-centre", "gym"], "sources": ["osm", "overture"], "website": "http://www.rainierhealth.com/", "phone": "+12067250279", "address": "7722 Rainier Ave S", "stations": [{"stopCode": 60, "lines": "1", "name": "Othello Station", "walkingMeters": 1369, "walkingSeconds": 984, "band": 15}]}, "geometry": {"type": "Point", "coordinates": [-122.2696806, 47.532965]}}, {"type": "Feature", "properties": {"id": "65f5ff5f-4dee-45cc-a1ce-645e0b2fdaf2", "name": "RHF CrossFit", "category": "fitness_centre", "tags": ["fitness-centre", "gym"], "sources": ["overture"], "website": "http://rhfcrossfit.com/", "phone": "+12067370054", "address": "7722 Rainier Ave S", "stations": [{"stopCode": 60, "lines": "1", "name": "Othello Station", "walkingMeters": 1368, "walkingSeconds": 984, "band": 15}]}, "geometry": {"type": "Point", "coordinates": [-122.2697601, 47.5329666]}}]}