{"type": "FeatureCollection", "features": [{"type": "Feature", "properties": {"id": 2660559610, "name": "Subway", "category": "fast_food", "tags": ["fast-food", "sandwich", "takeaway", "fast", "food"], "sources": ["osm", "overture"], "website": "http://www.Subway.com/", "phone": "+12062690244", "address": "305 Harrison St Suite 218", "hours": "Mo-Th 10:00-18:00; Fr-Sa 10:00-19:00; Su 10:00-18:00"}, "geometry": {"type": "Point", "coordinates": [-122.3505543, 47.6214432]}}, {"type": "Feature", "properties": {"id": 2316645463, "name": "The Bar at Chihuly Garden & Glass", "category": "restaurant", "tags": ["restaurant"], "sources": ["osm"], "website": "https://www.chihulygardenandglass.com/visit/collections-cafe", "address": "305 Harrison Street", "hours": "10:30-20:00"}, "geometry": {"type": "Point", "coordinates": [-122.3503413, 47.6208727]}}, {"type": "Feature", "properties": {"id": 2356829156, "name": "MOD Pizza", "category": "fast_food", "tags": ["fast-food", "pizza", "takeaway", "restaurant"], "sources": ["osm", "overture"], "website": "https://locations.modpizza.com/usa/wa/seattle/305-harrison-st?utm_source=facebook&utm_medium=yext", "phone": "+12064286315", "address": "Armory, 305 Harrison St #221", "hours": "10:30-22:00"}, "geometry": {"type": "Point", "coordinates": [-122.350654, 47.6211007]}}, {"type": "Feature", "properties": {"id": 2660559609, "name": "Premier Meat Pies", "category": "cafe", "tags": ["cafe", "meat-pie"], "sources": ["osm"]}, "geometry": {"type": "Point", "coordinates": [-122.3505545, 47.6215503]}}, {"type": "Feature", "properties": {"id": 2660559611, "name": "Kabab Mediterranean", "category": "fast_food", "tags": ["fast-food", "mediterranean"], "sources": ["osm"]}, "geometry": {"type": "Point", "coordinates": [-122.350554, 47.6213233]}}, {"type": "Feature", "properties": {"id": 2660559612, "name": "Skillet Counter", "category": "restaurant", "tags": ["restaurant", "american"], "sources": ["osm"], "website": "http://skilletcounter.com", "hours": "Mo-Th,Su 10:00-19:00; Fr-Sa 10:00-20:00"}, "geometry": {"type": "Point", "coordinates": [-122.3505537, 47.6211985]}}, {"type": "Feature", "properties": {"id": "81e6ee11-755d-436c-ba43-fad3ae58f9a1", "name": "Collections Caf\u00e9", "category": "cafe", "tags": ["cafe"], "sources": ["overture"], "website": "http://collectionscafe.com/", "phone": "2067534935", "address": "305 Harrison St"}, "geometry": {"type": "Point", "coordinates": [-122.3504639, 47.6208954]}}, {"type": "Feature", "properties": {"id": "7370909d-2f4b-40bc-92dc-a241481903a0", "name": "Kabab Corner", "category": "restaurant", "tags": ["restaurant", "mediterranean", "middle-eastern"], "sources": ["overture"], "website": "http://www.kababcorner.net/", "phone": "+12064484110", "address": "305 Harrison St"}, "geometry": {"type": "Point", "coordinates": [-122.3505936, 47.6213837]}}, {"type": "Feature", "properties": {"id": 8442509712, "name": "Sonic Bloom", "category": "artwork", "tags": ["artwork"], "sources": ["osm"]}, "geometry": {"type": "Point", "coordinates": [-122.3503016, 47.6200032]}}, {"type": "Feature", "properties": {"id": 4755066, "name": "Seattle Center", "category": "attraction", "tags": ["attraction", "park"], "sources": ["osm"], "website": "https://www.seattlecenter.com/"}, "geometry": {"type": "Point", "coordinates": [-122.3515445, 47.6220035]}}, {"type": "Feature", "properties": {"id": 161587729, "name": "Chihuly Garden and Glass", "category": "museum", "tags": ["museum", "art"], "sources": ["osm", "overture"], "website": "http://www.chihulygardenandglass.com/", "phone": "+12067534940", "address": "305 Harrison St", "hours": "Mo-Su 11:00-18:00; Fr,Sa 11:00-19:00"}, "geometry": {"type": "Point", "coordinates": [-122.3501816, 47.6205353]}}, {"type": "Feature", "properties": {"id": "1efeabf0-e5cf-4591-ad82-d475ffd5623e", "name": "Kreielsheimer Promenade", "category": "attraction", "tags": ["attraction", "landmark", "historical", "building"], "sources": ["overture"], "website": "http://www.mccawhall.com", "phone": "+12067339725", "address": "301 Mercer St"}, "geometry": {"type": "Point", "coordinates": [-122.3503723, 47.6239357]}}, {"type": "Feature", "properties": {"id": 231753245, "name": "The Maxwell Hotel", "category": "hotel", "tags": ["hotel"], "sources": ["osm"], "website": "http://www.themaxwellhotel.com", "address": "300 Roy Street"}, "geometry": {"type": "Point", "coordinates": [-122.3508358, 47.6256651]}}]}