{"type": "FeatureCollection", "features": [{"type": "Feature", "properties": {"id": 12956897186, "name": "Winnie's Ethiopian Coffee and Restaurant", "category": "cafe", "tags": ["cafe", "ethiopian", "takeaway", "delivery", "wheelchair-accessible", "vegetarian", "vegan", "gluten-free", "smoking", "wifi", "1-star", "restaurant", "african"], "sources": ["osm", "overture"], "website": "http://www.winniescafe.com/", "phone": "+12064204871", "address": "11301 Rainier Ave S", "hours": "Mo-Su 08:00-20:00"}, "geometry": {"type": "Point", "coordinates": [-122.2231827, 47.5017225]}}, {"type": "Feature", "properties": {"id": "dc433bc1-dd92-4242-9fe2-5b09f867d571", "name": "The Ugly Mug Coffee House", "category": "restaurant", "tags": ["restaurant"], "sources": ["overture"], "address": "11425 Rainier Ave S"}, "geometry": {"type": "Point", "coordinates": [-122.2214737, 47.5003242]}}, {"type": "Feature", "properties": {"id": "d202167f-91ca-406c-8d3e-bbc2d0dc4a1c", "name": "Lake Thai Cuisine", "category": "restaurant", "tags": ["restaurant", "thai"], "sources": ["overture"], "website": "http://www.lakethai.com", "phone": "(206) 420-1180", "address": "11425 Rainier Ave S"}, "geometry": {"type": "Point", "coordinates": [-122.2213898, 47.5002708]}}, {"type": "Feature", "properties": {"id": "5e4709ba-17ad-4601-9441-d0c3835e7234", "name": "Lakeside Bistro", "category": "restaurant", "tags": ["restaurant", "vietnamese"], "sources": ["overture"], "website": "http://www.lakesidebistroseattle.com", "phone": "(206) 772-6891", "address": "11425 Rainier Ave S"}, "geometry": {"type": "Point", "coordinates": [-122.2214355, 47.500412]}}, {"type": "Feature", "properties": {"id": "a9dced0e-79ab-4611-a8bf-fbcf92a06c65", "name": "Mayas Restaurant", "category": "restaurant", "tags": ["restaurant"], "sources": ["overture"], "website": "https://www.mayasfiestacatering.com", "address": "11401 Rainier Ave S"}, "geometry": {"type": "Point", "coordinates": [-122.2220154, 47.5008202]}}, {"type": "Feature", "properties": {"id": 7098348886, "name": "Cloud Cannabis Co.", "category": "cannabis", "tags": ["cannabis"], "sources": ["osm"]}, "geometry": {"type": "Point", "coordinates": [-122.222007, 47.5009578]}}, {"type": "Feature", "properties": {"id": "c36a8e4a-45f2-40d1-81f5-498c71e3b892", "name": "AISLE 4OUR", "category": "clothes", "tags": ["clothes"], "sources": ["overture"], "website": "http://www.aisle4our.com/", "phone": "+12067081851", "address": "11427 Rainier Ave S"}, "geometry": {"type": "Point", "coordinates": [-122.2213287, 47.5001526]}}, {"type": "Feature", "properties": {"id": "6c9c4f98-22de-4687-aa91-37d599f886b3", "name": "Western Bud", "category": "cannabis", "tags": ["cannabis", "clinic"], "sources": ["overture"], "website": "https://weedmaps.com/dispensaries/western-bud-seattle-wa", "phone": "+12062570663", "address": "11405 Rainier Ave S"}, "geometry": {"type": "Point", "coordinates": [-122.2219696, 47.500946]}}, {"type": "Feature", "properties": {"id": "5bc12881-3b94-476a-8b86-88f223a36ada", "name": "Wow - World of Weed", "category": "cannabis", "tags": ["cannabis"], "sources": ["overture"], "website": "http://www.wowworldofweed.com", "phone": "(206) 330-2175", "address": "11401 Rainier Ave S"}, "geometry": {"type": "Point", "coordinates": [-122.222084, 47.5009155]}}]}