{"type": "FeatureCollection", "features": [{"type": "Feature", "properties": {"id": 321705496, "name": "Crimson Coward", "category": "fast_food", "tags": ["fast-food", "chicken", "restaurant", "american"], "sources": ["osm", "overture"], "website": "http://www.crimsoncoward.com/", "phone": "+14254592370", "address": "2028 148th Ave NE", "stations": [{"stopCode": 62, "lines": "2", "name": "Overlake Village Station", "walkingMeters": 1353, "walkingSeconds": 978, "band": 15}]}, "geometry": {"type": "Point", "coordinates": [-122.141619, 47.6281526]}}, {"type": "Feature", "properties": {"id": 340337966, "name": "Rasoi Indian Restaurant and Bakery", "category": "restaurant", "tags": ["restaurant", "indian", "buffet", "cake", "bakery", "curry", "chaat", "vada-pav", "biryani", "indo-chinese", "tandoor", "indoor-seating", "takeaway", "delivery", "vegetarian"], "sources": ["osm", "overture"], "website": "https://rasoibellevue.com/", "phone": "4256796476", "address": "14339 NE 20th St Ste I", "hours": "Mo-Th 11:00-21:30; Fr-Su 11:30-22:00"}, "geometry": {"type": "Point", "coordinates": [-122.1489543, 47.6271572]}}, {"type": "Feature", "properties": {"id": 340340361, "name": "MonGa Cafe", "category": "cafe", "tags": ["cafe", "taiwanese", "restaurant", "asian"], "sources": ["osm", "overture"], "website": "http://www.mongacafe.com/", "phone": "+14256432295", "address": "14603 NE 20th St"}, "geometry": {"type": "Point", "coordinates": [-122.1448865, 47.6268807]}}, {"type": "Feature", "properties": {"id": 340340742, "name": "Photai", "category": "restaurant", "tags": ["restaurant", "vietnamese", "vegetarian", "vegan"], "sources": ["osm"], "hours": "Mo-Su 10:30-20:30"}, "geometry": {"type": "Point", "coordinates": [-122.144297, 47.6274173]}}, {"type": "Feature", "properties": {"id": 340340743, "name": "Little Garden", "category": "restaurant", "tags": ["restaurant", "chinese", "vegetarian", "vegan"], "sources": ["osm", "overture"], "website": "http://littlegardenchinese.com", "phone": "(425) 644-9038", "address": "14725 NE 20th St"}, "geometry": {"type": "Point", "coordinates": [-122.1437896, 47.6276051]}}, {"type": "Feature", "properties": {"id": 343484718, "name": "Starbucks", "category": "cafe", "tags": ["cafe", "coffee-shop", "indoor-seating", "takeaway", "wheelchair-accessible", "vegetarian", "coffee"], "sources": ["osm", "overture"], "website": "https://www.starbucks.com/store-locator/store/8316/fred-meyer-bellevue-23-2041-148th-ne-bellevue-wa-980073788-us", "phone": "4258658560", "address": "2041 148th Ave NE (Fred Meyer - Bellev, Ue #23)", "hours": "Mo-Su 06:00-21:00", "stations": [{"stopCode": 62, "lines": "2", "name": "Overlake Village Station", "walkingMeters": 1332, "walkingSeconds": 958, "band": 15}]}, "geometry": {"type": "Point", "coordinates": [-122.1441496, 47.6292529]}}, {"type": "Feature", "properties": {"id": "0a35a420-0505-4c55-8313-52bf6ef0d2b0", "name": "Starbucks", "category": "cafe", "tags": ["cafe", "coffee"], "sources": ["overture"], "website": "https://www.starbucks.com/store/11939/", "phone": "(425) 644-7824", "address": "2020 148th Ave NE", "stations": [{"stopCode": 62, "lines": "2", "name": "Overlake Village Station", "walkingMeters": 1318, "walkingSeconds": 953, "band": 15}]}, "geometry": {"type": "Point", "coordinates": [-122.1411133, 47.6281548]}}, {"type": "Feature", "properties": {"id": 347256907, "name": "Sichuan Cuisine", "category": "restaurant", "tags": ["restaurant", "chinese", "asian"], "sources": ["osm", "overture"], "website": "https://sichuan-cuisine.res-menu.com/#google_vignette", "phone": "+14254716383", "address": "2010 148th Ave NE", "stations": [{"stopCode": 62, "lines": "2", "name": "Overlake Village Station", "walkingMeters": 1590, "walkingSeconds": 1143, "band": 15}]}, "geometry": {"type": "Point", "coordinates": [-122.142562, 47.6287352]}}, {"type": "Feature", "properties": {"id": 9742523177, "name": "Taste Of Xi\u2019an", "category": "restaurant", "tags": ["restaurant", "chinese", "wheelchair-accessible", "noodles"], "sources": ["osm", "overture"], "website": "http://www.tasteofxianusa.com/", "phone": "4255858585", "address": "14515 NE 20th St", "hours": "Su-Th 11:00-20:00; Fr-Sa 11:00-21:00"}, "geometry": {"type": "Point", "coordinates": [-122.1465849, 47.6272169]}}, {"type": "Feature", "properties": {"id": 29362154, "name": "IHOP", "category": "restaurant", "tags": ["restaurant", "breakfast", "pancake", "american", "breakfast-and-brunch"], "sources": ["osm", "overture"], "website": "https://restaurants.ihop.com/en-us/wa/bellevue/breakfast-14747-ne-20th-st-638", "phone": "+14257475975", "address": "14747 NE 20th St", "hours": "24/7"}, "geometry": {"type": "Point", "coordinates": [-122.1436819, 47.6271182]}}, {"type": "Feature", "properties": {"id": 9657090552, "name": "Five Guys", "category": "fast_food", "tags": ["fast-food", "burger", "outdoor-seating", "takeaway", "restaurant", "american"], "sources": ["osm", "overture"], "website": "https://restaurants.fiveguys.com/2010-148th-ave-ne", "phone": "+14256438111", "address": "2010 148th Ave. NE #100", "hours": "11:00-21:30", "stations": [{"stopCode": 62, "lines": "2", "name": "Overlake Village Station", "walkingMeters": 1596, "walkingSeconds": 1148, "band": 15}]}, "geometry": {"type": "Point", "coordinates": [-122.142561, 47.628793]}}, {"type": "Feature", "properties": {"id": 3933280523, "name": "Panda Express", "category": "fast_food", "tags": ["fast-food", "chinese", "takeaway", "restaurant", "asian"], "sources": ["osm", "overture"], "website": "http://www.pandaexpress.com", "phone": "+14257477376", "address": "2192 148th Ave NE", "hours": "Mo-Tu 10:00-21:30; We-Fr 10:00-22:00; Sa-Su 10:00-21:30", "stations": [{"stopCode": 62, "lines": "2", "name": "Overlake Village Station", "walkingMeters": 1210, "walkingSeconds": 870, "band": 15}]}, "geometry": {"type": "Point", "coordinates": [-122.1415829, 47.6296695]}}, {"type": "Feature", "properties": {"id": 11986409607, "name": "Timeless Tea", "category": "cafe", "tags": ["cafe", "bubble-tea", "tea", "room"], "sources": ["osm", "overture"], "website": "https://www.timelessteabellevue.com/", "phone": "+14257286666", "address": "14320 NE 20th St"}, "geometry": {"type": "Point", "coordinates": [-122.1493475, 47.6282448]}}, {"type": "Feature", "properties": {"id": 2716358137, "name": "Tang Bar Hot Pot Restaurant", "category": "restaurant", "tags": ["restaurant", "asian"], "sources": ["osm"], "website": "https://seattle.tangbar.us/", "phone": "+1-425-429-6448", "address": "14603 Northeast 20th Street", "hours": "Mo-Su 11:00-21:00"}, "geometry": {"type": "Point", "coordinates": [-122.1446883, 47.6268803]}}, {"type": "Feature", "properties": {"id": 2716358161, "name": "Somisomi", "category": "ice_cream", "tags": ["ice-cream"], "sources": ["osm"]}, "geometry": {"type": "Point", "coordinates": [-122.1441416, 47.6274075]}}, {"type": "Feature", "properties": {"id": 29658559, "name": "Taco Bell", "category": "fast_food", "tags": ["fast-food", "mexican", "indoor-seating", "takeaway", "drive-through", "wheelchair-accessible", "wifi", "fast", "food", "taco"], "sources": ["osm", "overture"], "website": "https://locations.tacobell.com/wa/redmond/1960-148th-avenue-n-e-.html", "phone": "+14256448902", "address": "1960 148th Avenue, N.E.", "hours": "Mo-Su 07:00-22:00"}, "geometry": {"type": "Point", "coordinates": [-122.1427395, 47.6274788]}}, {"type": "Feature", "properties": {"id": 3889622417, "name": "Chaat House", "category": "fast_food", "tags": ["fast-food", "vegetarian", "restaurant", "indian"], "sources": ["osm", "overture"], "website": "https://www.bellevuechaathouse.com/", "phone": "+14256142222", "address": "14725 NE 20th St", "hours": "Mo-Su 11:30-21:45"}, "geometry": {"type": "Point", "coordinates": [-122.143687, 47.6276051]}}, {"type": "Feature", "properties": {"id": 3889813433, "name": "Donburi Station", "category": "restaurant", "tags": ["restaurant", "japanese"], "sources": ["osm"], "website": "https://donburistationbellevue.com/"}, "geometry": {"type": "Point", "coordinates": [-122.1489551, 47.6273198]}}, {"type": "Feature", "properties": {"id": 3899099457, "name": "Tiger Bites", "category": "restaurant", "tags": ["restaurant", "taiwanese", "takeaway", "asian"], "sources": ["osm", "overture"], "website": "http://www.tiger-bites.com/", "phone": "+14252004016", "address": "14701 NE 20th St", "hours": "Mo-We,Fr,Sa 11:00-20:00"}, "geometry": {"type": "Point", "coordinates": [-122.1440156, 47.6274111]}}, {"type": "Feature", "properties": {"id": 3899118617, "name": "85\u00b0C Bakery Cafe", "category": "cafe", "tags": ["cafe", "coffee-shop", "chinese", "takeaway", "bakery"], "sources": ["osm", "overture"], "website": "http://85cbakerycafe.com/", "phone": "+14254344768", "address": "14701 NE 20th St"}, "geometry": {"type": "Point", "coordinates": [-122.1444262, 47.6276109]}}, {"type": "Feature", "properties": {"id": "42ef26cf-1a9b-4437-bbd5-9b9861cb5248", "name": "Pizza Hut Express", "category": "fast_food", "tags": ["fast-food", "fast", "food", "pizza"], "sources": ["overture"], "phone": "4256448902", "address": "1960 148th Ave NE"}, "geometry": {"type": "Point", "coordinates": [-122.142746, 47.6274757]}}, {"type": "Feature", "properties": {"id": 6013559134, "name": "N\u00faodle", "category": "restaurant", "tags": ["restaurant", "chinese", "noodles", "vegetarian", "asian"], "sources": ["osm", "overture"], "website": "https://www.nuodle.love/", "phone": "+14253959999", "address": "14603 NE 20th St #6"}, "geometry": {"type": "Point", "coordinates": [-122.1444793, 47.6268673]}}, {"type": "Feature", "properties": {"id": "147ae2f6-3b43-4740-a744-207b41079f78", "name": "Se\u00f1or Taco", "category": "restaurant", "tags": ["restaurant", "mexican"], "sources": ["overture"], "website": "https://senor-taco.com", "phone": "14257474717", "address": "14339 Ne 20th St  Ste D"}, "geometry": {"type": "Point", "coordinates": [-122.1489334, 47.6273956]}}, {"type": "Feature", "properties": {"id": 13032908203, "name": "Shinya Shokudo", "category": "restaurant", "tags": ["restaurant", "japanese"], "sources": ["osm", "overture"], "website": "https://www.shinyashokudo.us", "phone": "(425) 699-9666", "address": "2020 148th Ave NE", "stations": [{"stopCode": 62, "lines": "2", "name": "Overlake Village Station", "walkingMeters": 1318, "walkingSeconds": 953, "band": 15}]}, "geometry": {"type": "Point", "coordinates": [-122.1411267, 47.6281523]}}, {"type": "Feature", "properties": {"id": 11746004728, "name": "Gyu-Kaku", "category": "restaurant", "tags": ["restaurant", "japanese", "barbecue"], "sources": ["osm"], "website": "https://www.gyu-kaku.com/", "phone": "+1-425-296-8818", "address": "14506 Northeast 20th Street"}, "geometry": {"type": "Point", "coordinates": [-122.1461576, 47.6282941]}}, {"type": "Feature", "properties": {"id": 13032908202, "name": "Miah\u2019s Kitchen", "category": "restaurant", "tags": ["restaurant", "chinese", "asian"], "sources": ["osm", "overture"], "website": "http://miahskitchen.weebly.com/", "phone": "+14256446090", "address": "2022 148th Ave NE #13b", "stations": [{"stopCode": 62, "lines": "2", "name": "Overlake Village Station", "walkingMeters": 1327, "walkingSeconds": 959, "band": 15}]}, "geometry": {"type": "Point", "coordinates": [-122.1412634, 47.628153]}}, {"type": "Feature", "properties": {"id": 13565756501, "name": "Lucky Barbecue & Noodles House", "category": "restaurant", "tags": ["restaurant", "hong-kong", "chinese", "asian", "takeaway", "wheelchair-accessible"], "sources": ["osm"], "website": "https://luckybarbecue.com", "phone": "+1-425-381-2888", "address": "14515 Northeast 20th Street", "hours": "09:00-20:00"}, "geometry": {"type": "Point", "coordinates": [-122.146617, 47.6274143]}}, {"type": "Feature", "properties": {"id": 13565756601, "name": "Hua Xi Rice Ramen", "category": "fast_food", "tags": ["fast-food", "chinese", "noodles", "takeaway", "wheelchair-accessible"], "sources": ["osm"], "website": "https://pos.chowbus.com/online-ordering/store/King-s-Rice-Noodles/15371", "address": "14515 Northeast 20th Street", "hours": "11:00-20:00"}, "geometry": {"type": "Point", "coordinates": [-122.1466098, 47.6274742]}}, {"type": "Feature", "properties": {"id": 13565772401, "name": "Sando by Fuji", "category": "fast_food", "tags": ["fast-food", "sandwich", "japanese", "takeaway", "wheelchair-accessible"], "sources": ["osm"], "address": "14515 Northeast 20th Street"}, "geometry": {"type": "Point", "coordinates": [-122.1464132, 47.6271919]}}, {"type": "Feature", "properties": {"id": 13565772402, "name": "De Zhuang De Hot Pot Mini", "category": "restaurant", "tags": ["restaurant", "hotpot", "chinese", "wheelchair-accessible"], "sources": ["osm"], "website": "https://dezhuanghotpotmini.com", "phone": "+1-425-620-6449", "address": "14515 Northeast 20th Street", "hours": "Mo-Th 11:30-20:30; Fr 11:30-21:00; Sa 11:00-21:00; Su 11:00-20:30"}, "geometry": {"type": "Point", "coordinates": [-122.146713, 47.6274475]}}, {"type": "Feature", "properties": {"id": 13565772501, "name": "King's Rice Noodle", "category": "fast_food", "tags": ["fast-food", "chinese", "noodles", "takeaway", "wheelchair-accessible"], "sources": ["osm"], "phone": "+1-206-310-7505", "address": "14515 Northeast 20th Street", "hours": "11:00-20:00"}, "geometry": {"type": "Point", "coordinates": [-122.1464154, 47.6272619]}}, {"type": "Feature", "properties": {"id": 13565772502, "name": "Lunch on the Plate", "category": "fast_food", "tags": ["fast-food", "taiwanese", "takeaway", "wheelchair-accessible"], "sources": ["osm"], "website": "https://qrcode.chowbus.com/m?code=ZJJfE3", "phone": "+1-206-799-9418", "address": "14515 Northeast 20th Street", "hours": "Mo-Sa 10:30-21:00; Su 10:30-20:00"}, "geometry": {"type": "Point", "coordinates": [-122.1464381, 47.6273113]}}, {"type": "Feature", "properties": {"id": 13565772503, "name": "Cocotree Chef", "category": "fast_food", "tags": ["fast-food", "chinese", "takeaway", "wheelchair-accessible"], "sources": ["osm"], "website": "https://cocotreechefwa.com", "phone": "+1-206-504-4590", "address": "14515 Northeast 20th Street", "hours": "Su-Th 11:00-20:00; Fr-Sa 10:00-20:00"}, "geometry": {"type": "Point", "coordinates": [-122.1465916, 47.6274964]}}, {"type": "Feature", "properties": {"id": 13565772504, "name": "Dough Savor", "category": "fast_food", "tags": ["fast-food", "dim-sum", "chinese", "takeaway", "delivery", "wheelchair-accessible", "vegetarian"], "sources": ["osm"], "website": "https://doughsavor.com", "phone": "+1-206-748-9168", "address": "14515 Northeast 20th Street", "hours": "09:00-20:30"}, "geometry": {"type": "Point", "coordinates": [-122.1464077, 47.6274325]}}, {"type": "Feature", "properties": {"id": 13565772601, "name": "DrinkT", "category": "fast_food", "tags": ["fast-food", "juice", "takeaway", "wheelchair-accessible"], "sources": ["osm"], "phone": "+1-425-585-8585", "address": "14515 Northeast 20th Street", "hours": "Su-Th 11:00-20:00; Fr-Sa 11:00-21:00"}, "geometry": {"type": "Point", "coordinates": [-122.1465326, 47.6272545]}}, {"type": "Feature", "properties": {"id": 13565772602, "name": "Xaio Lu Jiang", "category": "fast_food", "tags": ["fast-food", "chinese", "takeaway", "wheelchair-accessible"], "sources": ["osm"], "phone": "+1-206-966-5666", "address": "14515 Northeast 20th Street", "hours": "10:00-20:30"}, "geometry": {"type": "Point", "coordinates": [-122.1465273, 47.6273107]}}, {"type": "Feature", "properties": {"id": 13565772603, "name": "The Northern Dumplings", "category": "fast_food", "tags": ["fast-food", "chinese", "dumplings", "takeaway", "delivery", "wheelchair-accessible", "vegetarian"], "sources": ["osm"], "website": "https://thenortherndumplingswa.com", "phone": "+1-425-590-9888", "address": "14515 Northeast 20th Street", "hours": "11:00-20:30"}, "geometry": {"type": "Point", "coordinates": [-122.146651, 47.6274972]}}, {"type": "Feature", "properties": {"id": 13565772701, "name": "Boiling Hot Malatang", "category": "fast_food", "tags": ["fast-food", "hotpot", "takeaway", "wheelchair-accessible"], "sources": ["osm"], "address": "14515 Northeast 20th Street", "hours": "11:00-20:30"}, "geometry": {"type": "Point", "coordinates": [-122.1465946, 47.6273168]}}, {"type": "Feature", "properties": {"id": 30491230, "name": "Jack in the Box", "category": "fast_food", "tags": ["fast-food", "burger", "indoor-seating", "takeaway", "drive-through", "air-conditioned", "wifi", "fast", "food"], "sources": ["osm", "overture"], "website": "https://www.jackinthebox.com", "phone": "+14256433388", "address": "1900 148th Ave NE", "hours": "24/7"}, "geometry": {"type": "Point", "coordinates": [-122.1426839, 47.6269956]}}, {"type": "Feature", "properties": {"id": "81ab040e-3c37-405d-b40b-473f1e39085c", "name": "Arbys", "category": "restaurant", "tags": ["restaurant", "sandwich"], "sources": ["overture"], "website": "http://www.arbys.com", "phone": "(425) 562-6648", "address": "14595 Bel Red Rd"}, "geometry": {"type": "Point", "coordinates": [-122.1453781, 47.6254005]}}, {"type": "Feature", "properties": {"id": 1478964894, "name": "Sum Yee Kae Seafood Restaurant", "category": "restaurant", "tags": ["restaurant", "chinese", "dim-sum", "seafood"], "sources": ["osm", "overture"], "website": "http://Sumyeekae.com/", "phone": "+14257388438", "address": "14505 NE 20th St"}, "geometry": {"type": "Point", "coordinates": [-122.1466003, 47.6276274]}}, {"type": "Feature", "properties": {"id": "9264a879-191a-40f5-a79a-acb0e39e8c3b", "name": "Burger and Kabob Hut", "category": "restaurant", "tags": ["restaurant", "burger"], "sources": ["overture"], "website": "https://burger-and-kabob-hut.business.site", "phone": "+14256433985", "address": "14603 NE 20th St"}, "geometry": {"type": "Point", "coordinates": [-122.1448364, 47.6268463]}}, {"type": "Feature", "properties": {"id": "0aea5915-3379-4837-8479-5f479b1585aa", "name": "The Roll Pod", "category": "restaurant", "tags": ["restaurant", "indian"], "sources": ["overture"], "website": "http://www.therollpod.com/", "phone": "+14254498643", "address": "14320 NE 20th St Ste A"}, "geometry": {"type": "Point", "coordinates": [-122.1494751, 47.6282043]}}, {"type": "Feature", "properties": {"id": "b715ef07-86a2-4968-9f87-8daf93ea0116", "name": "Vrindaavan Indian Restaurant And Bakery", "category": "restaurant", "tags": ["restaurant", "indian"], "sources": ["overture"], "website": "http://vrindaavanindianrestaurant.com", "phone": "(425) 679-6476", "address": "14339 NE 20th St Ste I"}, "geometry": {"type": "Point", "coordinates": [-122.1489563, 47.6272926]}}, {"type": "Feature", "properties": {"id": "b44107f8-711e-4036-955b-c4339007d299", "name": "Yeh Yeh's Sandwiches", "category": "restaurant", "tags": ["restaurant", "sandwich"], "sources": ["overture"], "website": "http://www.yehyehs.com/", "phone": "(425) 644-5273", "address": "14339 NE 20th St"}, "geometry": {"type": "Point", "coordinates": [-122.1490097, 47.6274185]}}, {"type": "Feature", "properties": {"id": "36ca8c37-a37d-43e0-b6a6-84b7067879e0", "name": "Donburi Station Bellevue", "category": "restaurant", "tags": ["restaurant", "japanese", "asian"], "sources": ["overture"], "website": "https://donburistationbellevue.com", "phone": "+14254354010", "address": "14339 NE 20th St"}, "geometry": {"type": "Point", "coordinates": [-122.1491241, 47.6274185]}}, {"type": "Feature", "properties": {"id": "29059bac-cda0-4c50-822f-6b200cc05460", "name": "Cafe Ori", "category": "restaurant", "tags": ["restaurant", "chinese"], "sources": ["overture"], "website": "http://cafeoribellevue.com", "phone": "(425) 747-8822", "address": "14339 NE 20th St Ste I"}, "geometry": {"type": "Point", "coordinates": [-122.1490707, 47.6272316]}}, {"type": "Feature", "properties": {"id": "d3dfefa6-e8fd-4da5-95ee-30c0447ceb78", "name": "Lucky Barbecue and Noodle House", "category": "restaurant", "tags": ["restaurant", "chinese", "barbecue", "noodles"], "sources": ["overture"], "website": "https://www.luckybarbecue.com/", "phone": "+14253812888", "address": "14505 NE 20th St Suite N"}, "geometry": {"type": "Point", "coordinates": [-122.1463776, 47.6273422]}}, {"type": "Feature", "properties": {"id": "8301b736-dd92-4a83-ba35-8cba344fb7ca", "name": "Gyu-Kaku Japanese BBQ", "category": "restaurant", "tags": ["restaurant", "japanese", "barbecue", "asian"], "sources": ["overture"], "website": "https://www.gyu-kaku.com/bellevue/", "phone": "+14252968818", "address": "14506 NE 20th St"}, "geometry": {"type": "Point", "coordinates": [-122.1463165, 47.628212]}}, {"type": "Feature", "properties": {"id": "c7e972d7-1dc6-4ac1-b402-396c16fa0ae8", "name": "Sree Biryani Palace", "category": "restaurant", "tags": ["restaurant", "buffet", "asian"], "sources": ["overture"], "website": "http://www.sreebiryanipalace.com/", "phone": "4253577733", "address": "14510 NE 20th St #101"}, "geometry": {"type": "Point", "coordinates": [-122.1464539, 47.6279297]}}, {"type": "Feature", "properties": {"id": "bda8f180-ac23-49d4-8776-950476a8a6fa", "name": "Swagath Indian Grocery and Restaurant", "category": "restaurant", "tags": ["restaurant", "indian"], "sources": ["overture"], "website": "https://www.ubereats.com/store/swagath-vegetarian-restaurant/QUDU7vtER9KEfPx5ZXMsSA", "phone": "+14252145800", "address": "14504 NE 20th St"}, "geometry": {"type": "Point", "coordinates": [-122.1468735, 47.6284065]}}, {"type": "Feature", "properties": {"id": "0ef732dd-354c-408c-82a6-0f71d4ff8991", "name": "Tandoor Pizza", "category": "restaurant", "tags": ["restaurant", "pizza", "indian"], "sources": ["overture"], "website": "http://www.thetandoorpizza.com/", "phone": "+14256080700", "address": "14510 NE 20th St"}, "geometry": {"type": "Point", "coordinates": [-122.146698, 47.6292839]}}, {"type": "Feature", "properties": {"id": "477d79d8-4893-433e-a647-fea6ed626c3f", "name": "Desi Food Plaza", "category": "restaurant", "tags": ["restaurant", "indian"], "sources": ["overture"], "website": "http://www.sreebiryanipalace.com/", "phone": "+14253577733", "address": "14510 NE 20th St #101"}, "geometry": {"type": "Point", "coordinates": [-122.1467056, 47.6293221]}}, {"type": "Feature", "properties": {"id": "56083bd5-cd1b-4fbd-bf83-8d4d3f9d48c0", "name": "ADDA Bar and Grill", "category": "restaurant", "tags": ["restaurant", "bar-and-grill", "bar", "grill", "indian"], "sources": ["overture"], "website": "https://addabarandgrill.com/", "phone": "+14258913385", "address": "14510 NE 20th St"}, "geometry": {"type": "Point", "coordinates": [-122.1466827, 47.6294365]}}, {"type": "Feature", "properties": {"id": "ed130c49-b356-43b8-98b0-e20fedee2849", "name": "Curry Point", "category": "restaurant", "tags": ["restaurant", "indian"], "sources": ["overture"], "website": "http://www.currypoint.com/", "phone": "+14259395300", "address": "14510 NE 20th St"}, "geometry": {"type": "Point", "coordinates": [-122.1465836, 47.6293526]}}, {"type": "Feature", "properties": {"id": "f37fed27-afd4-412d-9d00-a1ef2bd8a63e", "name": "Tang Bar", "category": "restaurant", "tags": ["restaurant", "chinese"], "sources": ["overture"], "website": "http://tangbar.us", "phone": "(425) 429-6448", "address": "14603 NE 20th St"}, "geometry": {"type": "Point", "coordinates": [-122.1450577, 47.6267471]}}, {"type": "Feature", "properties": {"id": "4e230a24-5f28-46a6-96e8-f575e349ab74", "name": "Supreme Dumplings (Bellevue)", "category": "restaurant", "tags": ["restaurant", "chinese", "asian"], "sources": ["overture"], "website": "https://www.supreme-dumplings.com", "phone": "+18773090955", "address": "14603 NE 20th St #4B"}, "geometry": {"type": "Point", "coordinates": [-122.1450195, 47.6268082]}}, {"type": "Feature", "properties": {"id": "ef478a92-977e-486b-9197-3118fbe50ca9", "name": "Simmer Huang", "category": "restaurant", "tags": ["restaurant", "chinese"], "sources": ["overture"], "website": "http://www.seattlesimmerhuang.com", "phone": "(425) 633-0556", "address": "14603 NE 20th St"}, "geometry": {"type": "Point", "coordinates": [-122.1447372, 47.6268578]}}, {"type": "Feature", "properties": {"id": "afa997cc-bada-426f-8681-640664cb179c", "name": "Swish Swish", "category": "restaurant", "tags": ["restaurant", "asian"], "sources": ["overture"], "website": "http://www.swish-swish.com", "phone": "(425) 644-3545", "address": "14603 NE 20th St Ste 4"}, "geometry": {"type": "Point", "coordinates": [-122.1449051, 47.6268349]}}, {"type": "Feature", "properties": {"id": "43b97e55-001b-40af-9787-5ba9fe063cd5", "name": "Little Garden Llc", "category": "restaurant", "tags": ["restaurant"], "sources": ["overture"], "website": "http://littlegardenchinese.com", "address": "14725 NE 20th St"}, "geometry": {"type": "Point", "coordinates": [-122.1438904, 47.627552]}}, {"type": "Feature", "properties": {"id": "dfe123b6-4cba-41de-a66b-23b9f1123f40", "name": "Chick n Fish", "category": "restaurant", "tags": ["restaurant", "indian"], "sources": ["overture"], "website": "http://www.bellevuechicknfish.com", "phone": "(425) 746-4646", "address": "14701 NE 20th St"}, "geometry": {"type": "Point", "coordinates": [-122.1441803, 47.6275291]}}, {"type": "Feature", "properties": {"id": "1f689172-48c6-4255-b730-743783a06faa", "name": "Pho Tai Bellevue", "category": "restaurant", "tags": ["restaurant", "vietnamese", "asian", "soup"], "sources": ["overture"], "website": "http://www.pho.com/bellevue-wa/pho-tai", "phone": "+14256143333", "address": "14701 NE 20th St # C"}, "geometry": {"type": "Point", "coordinates": [-122.1442642, 47.6273613]}}, {"type": "Feature", "properties": {"id": "6b7a34a0-cd06-4928-b8a7-3195da360d26", "name": "The 42 - Restaurant at the End of the Universe", "category": "restaurant", "tags": ["restaurant", "american"], "sources": ["overture"], "phone": "+14254970534", "address": "12 st"}, "geometry": {"type": "Point", "coordinates": [-122.140419, 47.6211014]}}, {"type": "Feature", "properties": {"id": "7e9f1893-37cd-461b-9ad8-7456024d84f3", "name": "Dr. Vida Kazempour", "category": "cafe", "tags": ["cafe", "coffee"], "sources": ["overture"], "website": "https://local.lenscrafters.com/eyedoctors/wa/redmond/2040-148th-ave-ne.html?cid=yext_odLCOD0307-110001196&y_source=1_NTI4MTc5NDMtNDgzLWxvY2F0aW9uLndlYnNpdGU%3D", "phone": "4256419202", "address": "2040 148th Ave NE", "stations": [{"stopCode": 62, "lines": "2", "name": "Overlake Village Station", "walkingMeters": 1356, "walkingSeconds": 980, "band": 15}]}, "geometry": {"type": "Point", "coordinates": [-122.1411667, 47.6284103]}}, {"type": "Feature", "properties": {"id": 13237925676, "name": "An Utterance Ineffable", "category": "artwork", "tags": ["artwork"], "sources": ["osm"], "website": "https://static1.squarespace.com/static/63efe450f3d28b27294f0ff8/t/645e8f411c6d7774c49cde4f/1683918663093/COBUtilityBoxWrapsProgram2022.pdf"}, "geometry": {"type": "Point", "coordinates": [-122.1410423, 47.6268702]}}, {"type": "Feature", "properties": {"id": 43709061, "name": "Commissioner's Waterway", "category": "park", "tags": ["park"], "sources": ["osm"], "website": "http://www.ci.bellevue.wa.us/commissioner%27s_waterway_mini.htm", "address": "1669 148th Avenue NE"}, "geometry": {"type": "Point", "coordinates": [-122.1437069, 47.6260949]}}, {"type": "Feature", "properties": {"id": 60863783, "name": "Chevy Chase Neighborhood Park", "category": "park", "tags": ["park"], "sources": ["osm"]}, "geometry": {"type": "Point", "coordinates": [-122.1411682, 47.6228546]}}, {"type": "Feature", "properties": {"id": "de40168a-8fa8-45c2-a86d-18be08ce9183", "name": "Chevy Chase Neighborhood Park", "category": "park", "tags": ["park"], "sources": ["overture"], "phone": "+14254526885", "address": "15010 NE 15th St"}, "geometry": {"type": "Point", "coordinates": [-122.143425, 47.6250191]}}, {"type": "Feature", "properties": {"id": "d9ba54f0-9557-4ba4-b3fc-71188d3c3991", "name": "Commissioner's Waterway Mini Park", "category": "park", "tags": ["park"], "sources": ["overture"], "website": "http://www.ci.bellevue.wa.us", "phone": "(425) 452-6885", "address": "1669 148th Ave NE"}, "geometry": {"type": "Point", "coordinates": [-122.1435394, 47.6242638]}}, {"type": "Feature", "properties": {"id": 340339826, "name": "Definitive Audio", "category": "electronics", "tags": ["electronics"], "sources": ["osm"], "hours": "\"Tu-Sa 11:00-17:00; Mo,Su by appointment\""}, "geometry": {"type": "Point", "coordinates": [-122.1478666, 47.6275393]}}, {"type": "Feature", "properties": {"id": 3933280522, "name": "BevMo!", "category": "alcohol", "tags": ["alcohol"], "sources": ["osm"], "stations": [{"stopCode": 62, "lines": "2", "name": "Overlake Village Station", "walkingMeters": 1220, "walkingSeconds": 877, "band": 15}]}, "geometry": {"type": "Point", "coordinates": [-122.1416312, 47.6294291]}}, {"type": "Feature", "properties": {"id": 29217559, "name": "Fred Meyer", "category": "supermarket", "tags": ["supermarket", "wheelchair-accessible"], "sources": ["osm", "overture"], "website": "https://www.fredmeyer.com/stores/grocery/wa/bellevue/bellevue/701/00023?cid=loc_70100023_fb", "phone": "+14258658560", "address": "2041 148th Ave NE", "hours": "Mo-Su 06:00-23:00", "stations": [{"stopCode": 62, "lines": "2", "name": "Overlake Village Station", "walkingMeters": 1474, "walkingSeconds": 1060, "band": 15}]}, "geometry": {"type": "Point", "coordinates": [-122.1447682, 47.6289388]}}, {"type": "Feature", "properties": {"id": 11197927921, "name": "Mayuri International Foods", "category": "supermarket", "tags": ["supermarket"], "sources": ["osm"], "stations": [{"stopCode": 62, "lines": "2", "name": "Overlake Village Station", "walkingMeters": 1410, "walkingSeconds": 1014, "band": 15}]}, "geometry": {"type": "Point", "coordinates": [-122.1424373, 47.6281826]}}, {"type": "Feature", "properties": {"id": 2268902252, "name": "Marshalls", "category": "department_store", "tags": ["department-store", "department"], "sources": ["osm", "overture"], "website": "https://www.marshalls.com/", "phone": "+14256442429", "address": "2150 148th Ave NE", "stations": [{"stopCode": 62, "lines": "2", "name": "Overlake Village Station", "walkingMeters": 1254, "walkingSeconds": 902, "band": 15}]}, "geometry": {"type": "Point", "coordinates": [-122.141627, 47.6291215]}}, {"type": "Feature", "properties": {"id": 30757703, "name": "ampm", "category": "convenience", "tags": ["convenience"], "sources": ["osm", "overture"], "website": "https://www.ampm.com/", "phone": "+14256442812", "address": "14650 NE Bel Red Rd"}, "geometry": {"type": "Point", "coordinates": [-122.1438475, 47.626801]}}, {"type": "Feature", "properties": {"id": 3123286636, "name": "Men's Wearhouse", "category": "clothes", "tags": ["clothes", "mens"], "sources": ["osm", "overture"], "website": "https://www.menswearhouse.com/store-locator/2687", "phone": "+14256430987", "address": "2110 148th Ave NE", "stations": [{"stopCode": 62, "lines": "2", "name": "Overlake Village Station", "walkingMeters": 1319, "walkingSeconds": 949, "band": 15}]}, "geometry": {"type": "Point", "coordinates": [-122.141558, 47.628541]}}, {"type": "Feature", "properties": {"id": "16fa9c8b-44da-4994-be82-5ed131d3e35e", "name": "Men's Wearhouse", "category": "clothes", "tags": ["clothes"], "sources": ["overture"], "website": "https://www.menswearhouse.com/store-locator/2687", "address": "2110 148TH AVE NE", "stations": [{"stopCode": 62, "lines": "2", "name": "Overlake Village Station", "walkingMeters": 1390, "walkingSeconds": 1004, "band": 15}]}, "geometry": {"type": "Point", "coordinates": [-122.1430817, 47.6282425]}}, {"type": "Feature", "properties": {"id": 1478964893, "name": "Asian Family Market", "category": "supermarket", "tags": ["supermarket", "asian", "chinese", "delivery"], "sources": ["osm", "overture"], "website": "https://www.asianfamilymkt.com", "phone": "+14256438558", "address": "14515 NE 20th St", "hours": "Fr-Sa 09:00-20:00; Su-Th 09:00-21:00"}, "geometry": {"type": "Point", "coordinates": [-122.1466188, 47.6268978]}}, {"type": "Feature", "properties": {"id": 3889813437, "name": "Ross", "category": "department_store", "tags": ["department-store"], "sources": ["osm"], "phone": "+1-425-644-2433", "address": "14327 Northeast 20th Street", "hours": "Mo-Th 10:00-22:00; Fr-Sa 10:00-22:30; Su 10:00-22:00"}, "geometry": {"type": "Point", "coordinates": [-122.1495989, 47.6270486]}}, {"type": "Feature", "properties": {"id": 30757739, "name": "Harbor Freight Tools", "category": "hardware", "tags": ["hardware", "wheelchair-accessible"], "sources": ["osm", "overture"], "website": "https://go.harborfreight.com/store00279", "phone": "+14257461303", "address": "14506 NE 20th St", "hours": "Mo-Sa 08:00-20:00; Su 09:00-18:00"}, "geometry": {"type": "Point", "coordinates": [-122.1461752, 47.6285217]}}, {"type": "Feature", "properties": {"id": "556dc634-d630-44cf-b7cb-86114485cddd", "name": "K Smoke", "category": "tobacco", "tags": ["tobacco"], "sources": ["overture"], "website": "http://www.ksmoke.com/", "phone": "+14257470069", "address": "14310 NE 20th St"}, "geometry": {"type": "Point", "coordinates": [-122.1497955, 47.6282425]}}, {"type": "Feature", "properties": {"id": 3889622402, "name": "Batteries Plus Bulbs", "category": "electronics", "tags": ["electronics"], "sources": ["osm"], "address": "14917 Northeast 20th Street", "stations": [{"stopCode": 62, "lines": "2", "name": "Overlake Village Station", "walkingMeters": 1361, "walkingSeconds": 989, "band": 15}]}, "geometry": {"type": "Point", "coordinates": [-122.1416897, 47.6276485]}}, {"type": "Feature", "properties": {"id": 3889622419, "name": "Top Fitness Store", "category": "sports", "tags": ["sports"], "sources": ["osm"], "address": "14725 Northeast 20th Street", "hours": "Mo-Fr 10:00-19:00; Sa 10:00-18:00; Su 12:00-17:00"}, "geometry": {"type": "Point", "coordinates": [-122.1434188, 47.6275141]}}, {"type": "Feature", "properties": {"id": 3889813438, "name": "School of Rock", "category": "music", "tags": ["music"], "sources": ["osm"]}, "geometry": {"type": "Point", "coordinates": [-122.1490044, 47.6282878]}}, {"type": "Feature", "properties": {"id": 3889813439, "name": "Smoke", "category": "tobacco", "tags": ["tobacco"], "sources": ["osm"]}, "geometry": {"type": "Point", "coordinates": [-122.1496843, 47.6282955]}}, {"type": "Feature", "properties": {"id": 3889813447, "name": "Romance Deli", "category": "deli", "tags": ["deli", "russian", "delicatessen"], "sources": ["osm", "overture"], "website": "http://romancedeli1.placeweb.site", "phone": "(425) 289-5599", "address": "14310 NE 20th St Ste B"}, "geometry": {"type": "Point", "coordinates": [-122.1498151, 47.6282957]}}, {"type": "Feature", "properties": {"id": 3889813450, "name": "American Music", "category": "music", "tags": ["music"], "sources": ["osm"]}, "geometry": {"type": "Point", "coordinates": [-122.1487741, 47.6282878]}}, {"type": "Feature", "properties": {"id": 3889816957, "name": "Plaza Mexico", "category": "convenience", "tags": ["convenience", "supermarket"], "sources": ["osm", "overture"], "phone": "+14254012080", "address": "14330 Ne 20th St Ste B"}, "geometry": {"type": "Point", "coordinates": [-122.1491011, 47.6282878]}}, {"type": "Feature", "properties": {"id": 3889816958, "name": "Elegante", "category": "jewelry", "tags": ["jewelry"], "sources": ["osm"]}, "geometry": {"type": "Point", "coordinates": [-122.1493401, 47.6282878]}}, {"type": "Feature", "properties": {"id": 3889816960, "name": "Video Only", "category": "electronics", "tags": ["electronics"], "sources": ["osm"]}, "geometry": {"type": "Point", "coordinates": [-122.149043, 47.6270704]}}, {"type": "Feature", "properties": {"id": 3899099462, "name": "Dragon Lair", "category": "books", "tags": ["books"], "sources": ["osm"]}, "geometry": {"type": "Point", "coordinates": [-122.1435276, 47.6274147]}}, {"type": "Feature", "properties": {"id": 13247207301, "name": "Rich's for the Home", "category": "furniture", "tags": ["furniture"], "sources": ["osm"], "website": "https://www.richshome.com/locations/bellevue/", "address": "14404 Northeast 20th Street"}, "geometry": {"type": "Point", "coordinates": [-122.1475207, 47.6282958]}}, {"type": "Feature", "properties": {"id": 30757716, "name": "India Supermarket", "category": "supermarket", "tags": ["supermarket"], "sources": ["osm", "overture"], "website": "https://india-supermarket-wa.hub.biz/", "phone": "+14256444400", "address": "14625 NE 20th St", "hours": "Mo-Su 10:00-22:00"}, "geometry": {"type": "Point", "coordinates": [-122.144914, 47.6274916]}}, {"type": "Feature", "properties": {"id": "9cab60bb-75fa-4107-a426-7d4b6d2cfdf2", "name": "Sherwin-Williams", "category": "hardware", "tags": ["hardware"], "sources": ["overture"], "website": "https://www.sherwin-williams.com/store-locator/paint-store/bellevue/wa/708148", "phone": "+14253730255", "address": "14603 NE 20th St Ste 1"}, "geometry": {"type": "Point", "coordinates": [-122.1455765, 47.6268654]}}, {"type": "Feature", "properties": {"id": "2fd5f207-6174-434d-a9d6-cc56ec76b70a", "name": "Ross Dress for Less", "category": "variety_store", "tags": ["variety-store", "discount"], "sources": ["overture"], "website": "https://www.rossstores.com/", "phone": "+14256442433", "address": "14327 NE 20th St"}, "geometry": {"type": "Point", "coordinates": [-122.1495972, 47.6269989]}}, {"type": "Feature", "properties": {"id": "11719a63-ba3e-41a5-8008-5162151762b3", "name": "Cricket Wireless Authorized Retailer", "category": "mobile_phone", "tags": ["mobile-phone", "mobile"], "sources": ["overture"], "website": "https://www.att.com", "phone": "+18002742538", "address": "2041 148th Ave NE", "stations": [{"stopCode": 62, "lines": "2", "name": "Overlake Village Station", "walkingMeters": 1087, "walkingSeconds": 811, "band": 15}]}, "geometry": {"type": "Point", "coordinates": [-122.1441193, 47.6296577]}}, {"type": "Feature", "properties": {"id": "ce1e09d2-6260-43ba-9ee6-3b1275700e98", "name": "Sprint Store", "category": "mobile_phone", "tags": ["mobile-phone", "mobile"], "sources": ["overture"], "website": "https://www.t-mobile.com/store-locator/wa/redmond/148th-ave-ne-ne-20th-st", "phone": "(425) 746-7750", "address": "2028 148Th Ave Ne", "stations": [{"stopCode": 62, "lines": "2", "name": "Overlake Village Station", "walkingMeters": 1340, "walkingSeconds": 968, "band": 15}]}, "geometry": {"type": "Point", "coordinates": [-122.1414413, 47.6282196]}}, {"type": "Feature", "properties": {"id": "9d830dc3-c7f6-45ea-9507-536e590bd5f1", "name": "Harbor Freight", "category": "hardware", "tags": ["hardware"], "sources": ["overture"], "website": "https://www.harborfreight.com", "phone": "14257461303", "address": "14506 Ne 20th St  Ste 1"}, "geometry": {"type": "Point", "coordinates": [-122.1461563, 47.6285133]}}, {"type": "Feature", "properties": {"id": "73af02dc-6b86-4ec3-aaaf-b7e3ba56e718", "name": "Elegante Jewelry Manufacturing and Loan Inc.", "category": "jewelry", "tags": ["jewelry"], "sources": ["overture"], "website": "http://www.ejminc.com/", "phone": "4254549443", "address": "14320 NE 20th St Ste D"}, "geometry": {"type": "Point", "coordinates": [-122.1494522, 47.6278915]}}, {"type": "Feature", "properties": {"id": "62d17f97-c02b-4089-beb2-a3c44fa47f98", "name": "Iwan Llc", "category": "clothes", "tags": ["clothes"], "sources": ["overture"], "phone": "4255028717", "address": "14320 NE 21st St"}, "geometry": {"type": "Point", "coordinates": [-122.1492462, 47.6292381]}}, {"type": "Feature", "properties": {"id": "5416dc8c-92c8-46e4-977e-404999a07e4d", "name": "Pnd Corporation", "category": "hardware", "tags": ["hardware"], "sources": ["overture"], "website": "https://www.plugndike.com", "phone": "14255026792", "address": "14320 Ne 21st St  Ste 6"}, "geometry": {"type": "Point", "coordinates": [-122.1492462, 47.6292381]}}, {"type": "Feature", "properties": {"id": "ed50e77e-9c31-4086-b659-9f1121d4a2cf", "name": "Honey Baked Ham", "category": "deli", "tags": ["deli", "delicatessen", "american"], "sources": ["overture"], "website": "https://honeybaked.com/stores/4401?utm_source=facebook&utm_medium=facebook&utm_campaign=honeybakedhamco_soci&utm_id=SOCi", "phone": "+14256412900", "address": "14339 NE 20th St"}, "geometry": {"type": "Point", "coordinates": [-122.1491013, 47.6275826]}}, {"type": "Feature", "properties": {"id": "5585abf5-1834-41cf-914f-4c0f7c6dcb8c", "name": "Girl Scouts-totem Council East King Serv Cntr", "category": "gift", "tags": ["gift"], "sources": ["overture"], "website": "girlscoutsww.org", "phone": "+14256141126", "address": "14645 NE Bel Red Rd"}, "geometry": {"type": "Point", "coordinates": [-122.1448517, 47.6254349]}}, {"type": "Feature", "properties": {"id": "b05a1649-a872-44c4-8399-96581c284f47", "name": "Ats Grocery Washingtion, Llc", "category": "supermarket", "tags": ["supermarket"], "sources": ["overture"], "address": "14625 NE 20th St"}, "geometry": {"type": "Point", "coordinates": [-122.1450272, 47.6267433]}}, {"type": "Feature", "properties": {"id": "6089cb61-eb28-417b-b942-1c1053c3570d", "name": "Red Wing - Bellevue, WA", "category": "shoes", "tags": ["shoes", "shoe"], "sources": ["overture"], "website": "http://stores.redwing.com/bellevue-wa", "phone": "4257460414", "address": "14701 NE 20th St"}, "geometry": {"type": "Point", "coordinates": [-122.1442261, 47.6275024]}}, {"type": "Feature", "properties": {"id": "6c31abaa-e331-440d-80c0-fb5be3decb7a", "name": "Casual Male XL", "category": "clothes", "tags": ["clothes", "mens"], "sources": ["overture"], "website": "http://www.destinationxl.com", "phone": "(425) 603-0625", "address": "14725 NE 20th St"}, "geometry": {"type": "Point", "coordinates": [-122.143486, 47.6276436]}}, {"type": "Feature", "properties": {"id": "73485551-1a7e-4798-92f2-e31fe01955b4", "name": "Amazon Go Grocery", "category": "supermarket", "tags": ["supermarket"], "sources": ["overture"], "website": "http://www.amazon.com/gogrocery", "phone": "(888) 280-4331", "address": "2010 148th Ave N.E Ste 160", "stations": [{"stopCode": 62, "lines": "2", "name": "Overlake Village Station", "walkingMeters": 1397, "walkingSeconds": 1004, "band": 15}]}, "geometry": {"type": "Point", "coordinates": [-122.1428909, 47.6281853]}}, {"type": "Feature", "properties": {"id": 11215678658, "name": "ZoomCare", "category": "clinic", "tags": ["clinic"], "sources": ["osm"], "stations": [{"stopCode": 62, "lines": "2", "name": "Overlake Village Station", "walkingMeters": 1579, "walkingSeconds": 1136, "band": 15}]}, "geometry": {"type": "Point", "coordinates": [-122.1425654, 47.6286404]}}, {"type": "Feature", "properties": {"id": "1c559e15-6b57-4762-aadb-fd540f593a63", "name": "Bellevue Value Pet Clinic", "category": "clinic", "tags": ["clinic", "medical"], "sources": ["overture"], "website": "https://bellevuevaluepetclinic.com/", "phone": "4256447002", "address": "14504 NE 20th St"}, "geometry": {"type": "Point", "coordinates": [-122.1467438, 47.6284637]}}, {"type": "Feature", "properties": {"id": 1704750532, "name": "Goin\u2019 Postal Bellevue", "category": "post_office", "tags": ["post-office"], "sources": ["osm"], "website": "http://GoinPostalBellevue.com", "phone": "+1-425-747-8222", "address": "14725 Northeast 20th Street"}, "geometry": {"type": "Point", "coordinates": [-122.1435617, 47.6276014]}}, {"type": "Feature", "properties": {"id": 390279052, "name": "WaFd Bank", "category": "bank", "tags": ["bank", "credit", "union"], "sources": ["osm", "overture"], "website": "https://www.wafdbank.com/locations/washington/bellevue/bel-red-road?utm_source=facebook&utm_medium=yext", "phone": "+14256413530", "address": "14801 NE Bel Red Rd", "hours": "Mo-Th 09:00-17:00; Fr 09:00-18:00"}, "geometry": {"type": "Point", "coordinates": [-122.1426991, 47.6262869]}}, {"type": "Feature", "properties": {"id": 3889622418, "name": "Money Tree", "category": "bank", "tags": ["bank"], "sources": ["osm"], "address": "14921 Northeast 20th Street", "stations": [{"stopCode": 62, "lines": "2", "name": "Overlake Village Station", "walkingMeters": 1344, "walkingSeconds": 977, "band": 15}]}, "geometry": {"type": "Point", "coordinates": [-122.1414642, 47.6276539]}}, {"type": "Feature", "properties": {"id": 11030543201, "name": "Global Credit Union", "category": "bank", "tags": ["bank"], "sources": ["osm"], "website": "https://www.globalcu.org/branches/overlake/", "address": "2041 148th Avenue Northeast", "stations": [{"stopCode": 62, "lines": "2", "name": "Overlake Village Station", "walkingMeters": 1401, "walkingSeconds": 1008, "band": 15}]}, "geometry": {"type": "Point", "coordinates": [-122.1441936, 47.6286307]}}, {"type": "Feature", "properties": {"id": "dbf365a2-2859-45ea-9980-05417e49aaa6", "name": "U.S. Bank ATM", "category": "bank", "tags": ["bank", "credit", "union"], "sources": ["overture"], "website": "http://www.usbank.com/locations", "phone": "8008722657", "address": "2041 148th Ave NE", "stations": [{"stopCode": 62, "lines": "2", "name": "Overlake Village Station", "walkingMeters": 1376, "walkingSeconds": 990, "band": 15}]}, "geometry": {"type": "Point", "coordinates": [-122.1439438, 47.6288567]}}, {"type": "Feature", "properties": {"id": "7f2e6dbf-c0a7-4d03-a41a-4363ec9f1353", "name": "Express Shipping Inter Co", "category": "post_office", "tags": ["post-office", "office"], "sources": ["overture"], "website": "http://bellevueshipping.com/", "phone": "4253413458", "address": "14725 NE 20th St Ste D500"}, "geometry": {"type": "Point", "coordinates": [-122.1442413, 47.6278839]}}, {"type": "Feature", "properties": {"id": 395447826, "name": "YMCA", "category": "sports_centre", "tags": ["sports-centre"], "sources": ["osm"], "address": "14230 Bel Red Road"}, "geometry": {"type": "Point", "coordinates": [-122.1499168, 47.6260901]}}, {"type": "Feature", "properties": {"id": "50dde3f7-cff6-43bb-820b-00d0759fb6fe", "name": "Maximum Sports Conditioning", "category": "fitness_centre", "tags": ["fitness-centre", "gym"], "sources": ["overture"], "website": "http://maxsc.net", "phone": "(425) 641-4310", "address": "14320 NE 21st St Ste 16"}, "geometry": {"type": "Point", "coordinates": [-122.1493073, 47.6288681]}}, {"type": "Feature", "properties": {"id": "71ab2157-34c8-4d64-8b92-4d495affd095", "name": "Reign City Fitness", "category": "fitness_centre", "tags": ["fitness-centre", "gym"], "sources": ["overture"], "phone": "4357462276", "address": "1505 140th Ave NE"}, "geometry": {"type": "Point", "coordinates": [-122.1428909, 47.6238441]}}, {"type": "Feature", "properties": {"id": "40743b0a-9e55-4765-a39d-1e739e2ddfcf", "name": "Training For Warriors Bellevue", "category": "fitness_centre", "tags": ["fitness-centre", "fitness", "trainer"], "sources": ["overture"], "phone": "+12069142568", "address": "14320 Ne 21st St Ste 3"}, "geometry": {"type": "Point", "coordinates": [-122.1492462, 47.6292381]}}, {"type": "Feature", "properties": {"id": "1aca4ed0-9e52-4cab-b1ef-34a2ba6ac3e2", "name": "Alive & Shine Center", "category": "fitness_centre", "tags": ["fitness-centre", "yoga", "studio"], "sources": ["overture"], "website": "http://aliveandshinecenter.com", "phone": "14257467476", "address": "14725 Ne 20th St  Ste D Pmb 124"}, "geometry": {"type": "Point", "coordinates": [-122.143898, 47.6275482]}}, {"type": "Feature", "properties": {"id": "044e428f-fb86-4f39-94d0-58724e944c67", "name": "Eastside Lions Rugby", "category": "sports_centre", "tags": ["sports-centre", "sports", "club", "league"], "sources": ["overture"], "website": "https://www.eastsidelionsrugby.com", "address": "14725 Ne 20th St  Ste D40"}, "geometry": {"type": "Point", "coordinates": [-122.143898, 47.6275482]}}]}