{"type": "FeatureCollection", "features": [{"type": "Feature", "properties": {"id": 651873783, "name": "Beehive Espresso", "category": "cafe", "tags": ["cafe", "coffee-shop", "takeaway", "drive-through", "coffee"], "sources": ["osm", "overture"], "website": "http://www.beehiveespresso.com", "phone": "+12064033395", "address": "17716 Bothell Way NE"}, "geometry": {"type": "Point", "coordinates": [-122.2116909, 47.7565498]}}, {"type": "Feature", "properties": {"id": "dab028ae-847d-428d-98c3-dbb0cd1a47c1", "name": "El Rincon Napolitano", "category": "restaurant", "tags": ["restaurant", "mexican"], "sources": ["overture"], "phone": "+14252206012", "address": "9515 NE 180th St"}, "geometry": {"type": "Point", "coordinates": [-122.2134171, 47.757267]}}, {"type": "Feature", "properties": {"id": "a8524b85-196a-499f-ba14-bacba179c6f3", "name": "NW Espresso", "category": "cafe", "tags": ["cafe", "coffee"], "sources": ["overture"], "phone": "+14253299499", "address": "18015 Bothell Way NE"}, "geometry": {"type": "Point", "coordinates": [-122.2112427, 47.7587318]}}, {"type": "Feature", "properties": {"id": "d325ffdf-db9d-4512-b7b8-e5b27d721d28", "name": "Preservation Kitchen", "category": "restaurant", "tags": ["restaurant", "american"], "sources": ["overture"], "website": "http://www.preservationkitchen.com/", "phone": "(425) 408-1306", "address": "17121 Bothell Way NE"}, "geometry": {"type": "Point", "coordinates": [-122.212822, 47.7527313]}}, {"type": "Feature", "properties": {"id": "8d108b18-e180-4002-b01f-ccfbe70c280d", "name": "Afghan Choopan Restaurant", "category": "restaurant", "tags": ["restaurant", "afghan"], "sources": ["overture"], "website": "https://www.afghandelicious.com", "phone": "(425) 219-4871", "address": "17121 Bothell Way NE"}, "geometry": {"type": "Point", "coordinates": [-122.212883, 47.7527351]}}, {"type": "Feature", "properties": {"id": "cc8367c6-3689-4e16-99d1-5b8fded95482", "name": "Villa Cosenza", "category": "restaurant", "tags": ["restaurant", "italian"], "sources": ["overture"], "website": "http://www.villacosenza.com/", "phone": "(425) 398-1474", "address": "17121 Bothell Way NE"}, "geometry": {"type": "Point", "coordinates": [-122.212883, 47.7527351]}}, {"type": "Feature", "properties": {"id": 7530675789, "name": "Early Bothell Bus", "category": "artwork", "tags": ["artwork"], "sources": ["osm"]}, "geometry": {"type": "Point", "coordinates": [-122.2124344, 47.7504047]}}, {"type": "Feature", "properties": {"id": 7530675790, "name": "Model T Roadster", "category": "artwork", "tags": ["artwork"], "sources": ["osm"]}, "geometry": {"type": "Point", "coordinates": [-122.2135583, 47.750356]}}, {"type": "Feature", "properties": {"id": "fc63769e-ca66-4eb3-af0e-bbcef8b06b52", "name": "Trailside Apartments", "category": "attraction", "tags": ["attraction", "landmark", "historical", "building"], "sources": ["overture"], "website": "https://www.trailside.graninc.com/", "phone": "+14254831009", "address": "17725 Hall Rd #400"}, "geometry": {"type": "Point", "coordinates": [-122.2131805, 47.7567635]}}, {"type": "Feature", "properties": {"id": "be05065a-f359-429b-85be-5b5931206f02", "name": "Samma Senior Apartments", "category": "attraction", "tags": ["attraction", "landmark", "historical", "building"], "sources": ["overture"], "website": "https://www.sammaseniorapartments.com/", "phone": "+14253850881", "address": "17910 Bothell Way NE"}, "geometry": {"type": "Point", "coordinates": [-122.2107239, 47.7578773]}}, {"type": "Feature", "properties": {"id": "5fda10ee-84aa-4556-a203-5b29673946da", "name": "Volunteer Park", "category": "park", "tags": ["park"], "sources": ["overture"], "website": "https://www.geocaching.com/geocache/GCB71B_bothells-volunteer-park", "phone": "+14258066760", "address": "9607 NE 182nd St"}, "geometry": {"type": "Point", "coordinates": [-122.2116852, 47.7598953]}}, {"type": "Feature", "properties": {"id": "9e80953e-81d0-4e94-b4d1-46ba7966790e", "name": "Red Brick Road Park", "category": "park", "tags": ["park"], "sources": ["overture"], "website": "http://www.ci.bothell.wa.us/1040/Red-Brick-Road-Park", "phone": "+14258066760", "address": "Red Brick Rd"}, "geometry": {"type": "Point", "coordinates": [-122.2126999, 47.7503815]}}, {"type": "Feature", "properties": {"id": "dfb81b62-1f50-4ce3-97dd-1659eb2df1b4", "name": "Subway", "category": "deli", "tags": ["deli", "delicatessen"], "sources": ["overture"], "website": "http://www.subway.com", "phone": "(425) 487-1420", "address": "17208 Bothell Way NE Ste A"}, "geometry": {"type": "Point", "coordinates": [-122.2114334, 47.7525635]}}, {"type": "Feature", "properties": {"id": 651873923, "name": "76", "category": "convenience", "tags": ["convenience"], "sources": ["osm"], "address": "18015 Bothell Way Northeast"}, "geometry": {"type": "Point", "coordinates": [-122.2114447, 47.758882]}}, {"type": "Feature", "properties": {"id": "78886ffc-3b8a-4002-bab8-5dc263df0153", "name": "Sub Shop", "category": "deli", "tags": ["deli", "delicatessen"], "sources": ["overture"], "website": "http://www.subshopinc.com", "phone": "(425) 483-0135", "address": "18015 Bothell Way NE"}, "geometry": {"type": "Point", "coordinates": [-122.2112274, 47.758667]}}, {"type": "Feature", "properties": {"id": "414d7a2a-8710-4ae7-baaf-d049f6d920c1", "name": "Mexican Grocery Store-los Reyes", "category": "supermarket", "tags": ["supermarket"], "sources": ["overture"], "address": "17208 Bothell Way NE"}, "geometry": {"type": "Point", "coordinates": [-122.2113037, 47.7525978]}}, {"type": "Feature", "properties": {"id": "b89b0efb-cf81-4ba6-9fa3-7581c45f6800", "name": "La Mexicana", "category": "supermarket", "tags": ["supermarket"], "sources": ["overture"], "phone": "+12065078359", "address": "17208 Bothell Way NE"}, "geometry": {"type": "Point", "coordinates": [-122.2114563, 47.7525749]}}, {"type": "Feature", "properties": {"id": "6b860767-5525-4c3a-9f4d-0d7ced027933", "name": "Afghan Choopan Inc", "category": "supermarket", "tags": ["supermarket"], "sources": ["overture"], "address": "17121 Bothell Way NE"}, "geometry": {"type": "Point", "coordinates": [-122.2127533, 47.7527084]}}, {"type": "Feature", "properties": {"id": "3d9787f2-d27c-4995-baca-6750aa046808", "name": "Superior Stone Manufacturing", "category": "doityourself", "tags": ["doityourself", "building", "supply"], "sources": ["overture"], "website": "http://superiorstonemfg.com/", "phone": "4259319303", "address": "9025 Bothell Way NE"}, "geometry": {"type": "Point", "coordinates": [-122.2197495, 47.7522202]}}, {"type": "Feature", "properties": {"id": 651873934, "name": "Tao Cosmetics", "category": "clinic", "tags": ["clinic"], "sources": ["osm"], "website": "https://taocosmeticsurgery.com/", "address": "18120 97th Avenue Northeast"}, "geometry": {"type": "Point", "coordinates": [-122.2111688, 47.7598382]}}]}