{"type": "FeatureCollection", "features": [{"type": "Feature", "properties": {"id": "cb4473e5-2c90-431a-bb0d-2b762838833d", "name": "Taco Time", "category": "restaurant", "tags": ["restaurant", "taco"], "sources": ["overture"], "website": "http://www.TacoTimeNW.com", "phone": "(425) 226-2720", "address": "3300 Maple Valley Hwy"}, "geometry": {"type": "Point", "coordinates": [-122.1747513, 47.4755135]}}, {"type": "Feature", "properties": {"id": 653524998, "name": "Huxdotter Coffee", "category": "cafe", "tags": ["cafe", "coffee-shop", "takeaway", "vegetarian"], "sources": ["osm"], "address": "3404 Maple Valley Highway", "hours": "Mo-Fr 05:00-19:00; Sa-Su 06:00-19:00"}, "geometry": {"type": "Point", "coordinates": [-122.1732382, 47.4749958]}}, {"type": "Feature", "properties": {"id": "1ec23e07-fdc8-431c-ad3e-e60f2ced5e72", "name": "Tempo Inc", "category": "restaurant", "tags": ["restaurant"], "sources": ["overture"], "address": "3300 Maple Valley Hwy"}, "geometry": {"type": "Point", "coordinates": [-122.1747055, 47.4756966]}}, {"type": "Feature", "properties": {"id": "001eebe6-82a1-44f6-903f-370d08ccc5c5", "name": "Solera at Renton Highlands", "category": "attraction", "tags": ["attraction", "landmark", "historical", "building"], "sources": ["overture"], "website": "https://www.solerawa.com/?utm_knock=fb", "phone": "+14256710511", "address": "2950 SE 11th Pl"}, "geometry": {"type": "Point", "coordinates": [-122.1796951, 47.4722443]}}, {"type": "Feature", "properties": {"id": 51431083, "name": "Maplewood Park", "category": "park", "tags": ["park"], "sources": ["osm", "overture"], "website": "http://www.cityofrochester.gov/maplewoodpark", "phone": "(425) 227-8571", "address": "3400 SE 6th St"}, "geometry": {"type": "Point", "coordinates": [-122.1726533, 47.4758001]}}, {"type": "Feature", "properties": {"id": 424215378, "name": "Maplewood Roadside Park", "category": "park", "tags": ["park"], "sources": ["osm"]}, "geometry": {"type": "Point", "coordinates": [-122.1767737, 47.4756641]}}, {"type": "Feature", "properties": {"id": "3436d953-4774-4f15-ab39-0c18e80ce066", "name": "Maplewood Roadside Park", "category": "park", "tags": ["park"], "sources": ["overture"], "phone": "+14254306600", "address": "3225 SE 7th St"}, "geometry": {"type": "Point", "coordinates": [-122.1757584, 47.4753342]}}, {"type": "Feature", "properties": {"id": "6b7afa08-1309-4039-a54a-471a97aa7452", "name": "Ceder River", "category": "park", "tags": ["park"], "sources": ["overture"]}, "geometry": {"type": "Point", "coordinates": [-122.1769562, 47.4752693]}}]}