{"type": "FeatureCollection", "features": [{"type": "Feature", "properties": {"id": 57883263, "name": "Meydenbauer Bay Park", "category": "park", "tags": ["park"], "sources": ["osm", "overture"], "website": "http://www.ci.bellevue.wa.us/meydenbauer_beach.htm", "phone": "+14254526885", "address": "419 98th Ave NE", "hours": "06:00-23:00"}, "geometry": {"type": "Point", "coordinates": [-122.2107177, 47.6122098]}}, {"type": "Feature", "properties": {"id": 59147909, "name": "Clyde Beach Park", "category": "park", "tags": ["park"], "sources": ["osm", "overture"], "website": "http://www.ci.bellevue.wa.us/clyde_beach_park.htm", "phone": "+14254526885", "address": "2 92nd Ave NE"}, "geometry": {"type": "Point", "coordinates": [-122.2173718, 47.614664]}}, {"type": "Feature", "properties": {"id": "c90284c0-4fb8-4f89-acfb-5a2665cb625a", "name": "Bellevue Small Beach Park", "category": "park", "tags": ["park"], "sources": ["overture"], "address": "99th Ave SE"}, "geometry": {"type": "Point", "coordinates": [-122.2100525, 47.6105232]}}, {"type": "Feature", "properties": {"id": "e99f6352-1eba-44c0-a1f0-0a89f673d51d", "name": "Edible Arrangements", "category": "gift", "tags": ["gift"], "sources": ["overture"], "website": "https://www.ediblearrangements.com/stores/10455-ne-4th-st-bellevue-wa-98004", "address": "10455 NE 4th St"}, "geometry": {"type": "Point", "coordinates": [-122.2108002, 47.6177444]}}]}