{"type": "FeatureCollection", "features": [{"type": "Feature", "properties": {"id": "08cdbe20-74e3-4c3b-90fa-bce8f5fc2889", "name": "Machinery Tech", "category": "doityourself", "tags": ["doityourself", "building", "supply"], "sources": ["overture"], "phone": "+12067552927", "address": "2702 W Valley Hwy N"}, "geometry": {"type": "Point", "coordinates": [-122.2485962, 47.3317184]}}, {"type": "Feature", "properties": {"id": "a4a63041-72c8-427d-921c-eef3f7033444", "name": "Sunstate Equipment - Trench Safety Division", "category": "hardware", "tags": ["hardware"], "sources": ["overture"], "website": "https://www.sunstateequip.com/s/locations/washington/auburn/708", "phone": "(206) 624-1422", "address": "2702 West Valley Hwy N"}, "geometry": {"type": "Point", "coordinates": [-122.2488022, 47.3316841]}}, {"type": "Feature", "properties": {"id": "152707a4-159c-4b4f-bdfe-db322e84def7", "name": "Eurointernational Foods", "category": "supermarket", "tags": ["supermarket"], "sources": ["overture"], "phone": "2533338800", "address": "2880 W Valley Hwy N  Ste 101"}, "geometry": {"type": "Point", "coordinates": [-122.2490234, 47.332943]}}, {"type": "Feature", "properties": {"id": "8075d547-551e-4769-9d6f-189c52a2d680", "name": "Ironmill Fasteners & Hardware", "category": "doityourself", "tags": ["doityourself", "building", "supply"], "sources": ["overture"], "website": "https://www.ironmill.com", "phone": "12064140505", "address": "3500 W Valley Hwy N  # B103"}, "geometry": {"type": "Point", "coordinates": [-122.2468414, 47.3390694]}}, {"type": "Feature", "properties": {"id": "34d80beb-fd15-487e-963c-10f03f744fff", "name": "Vestcom Retail Solutions", "category": "supermarket", "tags": ["supermarket"], "sources": ["overture"], "website": "http://www.vestcom.com", "phone": "(253) 887-1237", "address": "1220 37th St NW Ste 102"}, "geometry": {"type": "Point", "coordinates": [-122.2465973, 47.3397331]}}]}