{"type": "FeatureCollection", "features": [{"type": "Feature", "properties": {"id": 5003555355, "name": "Starbucks", "category": "cafe", "tags": ["cafe", "coffee-shop", "takeaway", "drive-through", "coffee"], "sources": ["osm", "overture"], "website": "https://www.starbucks.com/store-locator/store/1017321", "phone": "+12065429608", "address": "1251 N 205th St"}, "geometry": {"type": "Point", "coordinates": [-122.343654, 47.7768456]}}, {"type": "Feature", "properties": {"id": "9aba14e6-d715-46b8-9c27-cbbcdfca21e9", "name": "Starbucks", "category": "cafe", "tags": ["cafe", "coffee"], "sources": ["overture"], "phone": "2065339520", "address": "20121 Aurora Ave N"}, "geometry": {"type": "Point", "coordinates": [-122.3461456, 47.7756653]}}, {"type": "Feature", "properties": {"id": "43945ea0-a579-42ff-81df-17658a06c97c", "name": "Taco Del Mar", "category": "restaurant", "tags": ["restaurant", "mexican"], "sources": ["overture"], "website": "https://www.tacodelmar.com", "phone": "12065338226", "address": "1291 N 205th St"}, "geometry": {"type": "Point", "coordinates": [-122.3429184, 47.7753487]}}, {"type": "Feature", "properties": {"id": 318162415, "name": "Panera Bread", "category": "fast_food", "tags": ["fast-food", "sandwich", "bakery", "takeaway", "wifi"], "sources": ["osm", "overture"], "website": "https://www.panerabread.com/en-us/cafe/locations/wa/edmonds/7929-lake-ballinger-way?utm_medium=local&utm_source=facebook&utm_campaign=dpm-dist&utm_term=202268&utm_content=main", "phone": "+14256402025", "address": "7929 Lake Ballinger Way", "hours": "Mo-Sa 06:00-21:00; Su 07:00-20:00"}, "geometry": {"type": "Point", "coordinates": [-122.3404192, 47.778166]}}, {"type": "Feature", "properties": {"id": 4470658991, "name": "Emerald City Smoothie", "category": "fast_food", "tags": ["fast-food", "juice"], "sources": ["osm"], "address": "1275 North 205th Street"}, "geometry": {"type": "Point", "coordinates": [-122.3432454, 47.7753379]}}, {"type": "Feature", "properties": {"id": 12122312163, "name": "Wingstop", "category": "fast_food", "tags": ["fast-food", "wings", "restaurant", "chicken"], "sources": ["osm", "overture"], "website": "https://www.wingstop.com/location/wingstop-2661-shoreline-wa-98133/menu?y_source=1_MTA2NDAxMTA3OC00ODMtbG9jYXRpb24ud2Vic2l0ZQ%3D%3D", "phone": "2063375434", "address": "20121 Aurora Ave. N, Unit B"}, "geometry": {"type": "Point", "coordinates": [-122.3465373, 47.7756621]}}, {"type": "Feature", "properties": {"id": 3052054851, "name": "Jersey Mike's Subs", "category": "fast_food", "tags": ["fast-food", "sandwich", "takeaway", "wheelchair-accessible"], "sources": ["osm"], "website": "https://www.jerseymikes.com/18004/shoreline-wa", "address": "1289 North 205th Street"}, "geometry": {"type": "Point", "coordinates": [-122.343013, 47.7753377]}}, {"type": "Feature", "properties": {"id": 3052054850, "name": "Gyro Sababa", "category": "fast_food", "tags": ["fast-food", "mediterranean", "takeaway"], "sources": ["osm"], "website": "https://gyrosababa.com", "address": "1291 North 205th Street"}, "geometry": {"type": "Point", "coordinates": [-122.3429055, 47.7753531]}}, {"type": "Feature", "properties": {"id": "767903a9-2cb0-4caa-bee1-2445b7247032", "name": "KFC", "category": "restaurant", "tags": ["restaurant", "chicken", "wings", "fast-food"], "sources": ["overture"], "website": "http://www.kfc.com/storelocator/Default.aspx?address=19553%20Aurora%20Ave.%20N.,Seattle,WA", "phone": "2065425155", "address": "19553 Aurora Ave N"}, "geometry": {"type": "Point", "coordinates": [-122.3461151, 47.7716866]}}, {"type": "Feature", "properties": {"id": 6104238009, "name": "Kitanda", "category": "cafe", "tags": ["cafe", "coffee-shop", "takeaway", "coffee"], "sources": ["osm", "overture"], "website": "kitanda.com", "phone": "12068017649", "address": "20121 Aurora Ave N  Ste A", "hours": "Mo-Sa 06:30-19:00; Su 08:00-18:00"}, "geometry": {"type": "Point", "coordinates": [-122.3463955, 47.7756627]}}, {"type": "Feature", "properties": {"id": 5003555354, "name": "Habit Burger & Grill", "category": "fast_food", "tags": ["fast-food", "burger", "takeaway"], "sources": ["osm"], "website": "https://www.habitburger.com/locations/shoreline-wa/", "phone": "+1-206-542-7551", "address": "1253 North 205th Street", "hours": "Mo-Su 10:00-22:00"}, "geometry": {"type": "Point", "coordinates": [-122.34365, 47.7770061]}}, {"type": "Feature", "properties": {"id": 4251294142, "name": "Bag O\u2019 Crab", "category": "restaurant", "tags": ["restaurant", "seafood", "wheelchair-accessible"], "sources": ["osm", "overture"], "website": "https://www.bagocrabshoreline.com/?utm_source=bing&utm_medium=websiteurl&utm_campaign=search", "phone": "2065468988", "address": "1295 N 205th St"}, "geometry": {"type": "Point", "coordinates": [-122.3427928, 47.7753517]}}, {"type": "Feature", "properties": {"id": 4470658990, "name": "Sushi Burrito", "category": "fast_food", "tags": ["fast-food"], "sources": ["osm"], "address": "1267 North 205th Street"}, "geometry": {"type": "Point", "coordinates": [-122.3433335, 47.7753409]}}, {"type": "Feature", "properties": {"id": 4772097140, "name": "Star Poke", "category": "fast_food", "tags": ["fast-food", "seafood", "poke", "restaurant"], "sources": ["osm", "overture"], "website": "http://starpokeseattle.com", "phone": "+12068017237", "address": "19926 Aurora Ave N", "hours": "Mo off; Tu-Sa 11:00-03:00,05:00-08:00, Su 11:00-07:00"}, "geometry": {"type": "Point", "coordinates": [-122.3457388, 47.7739558]}}, {"type": "Feature", "properties": {"id": 9724112257, "name": "Pho 99", "category": "restaurant", "tags": ["restaurant", "vietnamese"], "sources": ["osm"]}, "geometry": {"type": "Point", "coordinates": [-122.3455839, 47.7730985]}}, {"type": "Feature", "properties": {"id": 12329982241, "name": "El Cubano Cuban Sandwiches", "category": "fast_food", "tags": ["fast-food", "sandwich"], "sources": ["osm"], "website": "https://www.elcubanotogo.com", "phone": "+1-206-629-4453", "address": "19920 Aurora Avenue North"}, "geometry": {"type": "Point", "coordinates": [-122.3457344, 47.7738457]}}, {"type": "Feature", "properties": {"id": 13076830850, "name": "Chick-fil-A", "category": "fast_food", "tags": ["fast-food", "chicken", "takeaway", "drive-through", "fast", "food"], "sources": ["osm", "overture"], "website": "https://www.chick-fil-a.com/locations/wa/shoreline", "address": "19557 Aurora Ave N"}, "geometry": {"type": "Point", "coordinates": [-122.3465398, 47.7719277]}}, {"type": "Feature", "properties": {"id": 14030410171, "name": "Taste & Best", "category": "restaurant", "tags": ["restaurant", "indian"], "sources": ["osm"], "address": "20109 Aurora Avenue North"}, "geometry": {"type": "Point", "coordinates": [-122.3466414, 47.7753401]}}, {"type": "Feature", "properties": {"id": 309363989, "name": "Denny's", "category": "restaurant", "tags": ["restaurant", "american"], "sources": ["osm"], "address": "8431 244th Street Southwest"}, "geometry": {"type": "Point", "coordinates": [-122.3470731, 47.7784001]}}, {"type": "Feature", "properties": {"id": 309363988, "name": "Arby's", "category": "fast_food", "tags": ["fast-food", "sandwich", "takeaway", "drive-through", "fast", "food"], "sources": ["osm", "overture"], "website": "https://locations.arbys.com/wa/edmonds/8425-244th-st-sw.html", "phone": "4256788288", "address": "8425 244th St SW", "hours": "10:00-23:00"}, "geometry": {"type": "Point", "coordinates": [-122.3472158, 47.7780166]}}, {"type": "Feature", "properties": {"id": 243508882, "name": "Scott's Bar & Grill", "category": "restaurant", "tags": ["restaurant", "american"], "sources": ["osm"], "website": "https://scottsbarandgrill.com", "address": "8115 Lake Ballinger Way"}, "geometry": {"type": "Point", "coordinates": [-122.3427479, 47.7785971]}}, {"type": "Feature", "properties": {"id": 309299209, "name": "Good Burger", "category": "fast_food", "tags": ["fast-food", "burger", "takeaway", "wheelchair-accessible", "restaurant"], "sources": ["osm", "overture"], "website": "http://www.goodburgershoreline.com", "phone": "12068017050", "address": "19811 Aurora Ave N"}, "geometry": {"type": "Point", "coordinates": [-122.3464153, 47.7728565]}}, {"type": "Feature", "properties": {"id": "d7ed5193-d4bc-4570-b091-ea0a73ff8bd6", "name": "Banda Burrito", "category": "restaurant", "tags": ["restaurant", "mexican"], "sources": ["overture"], "website": "https://www.bandaburrito.com/", "phone": "+15055555555", "address": "8431 244th St. SW"}, "geometry": {"type": "Point", "coordinates": [-122.347084, 47.7784119]}}, {"type": "Feature", "properties": {"id": "4a75929f-1cee-4943-9c65-ef3be1f9506a", "name": "Denny's Restaurant", "category": "restaurant", "tags": ["restaurant"], "sources": ["overture"], "website": "https://www.dennys.com/", "phone": "+14255820578", "address": "8431 244th St. SW"}, "geometry": {"type": "Point", "coordinates": [-122.3470764, 47.7784042]}}, {"type": "Feature", "properties": {"id": "f15ee664-ea21-420c-9c47-501cd6b8eccf", "name": "Jersey Mike's", "category": "restaurant", "tags": ["restaurant", "sandwich", "fast-food"], "sources": ["overture"], "website": "https://www.jerseymikes.com/18004/shoreline-wa", "phone": "+12065469050", "address": "1289 N. 205th St."}, "geometry": {"type": "Point", "coordinates": [-122.342926, 47.7753792]}}, {"type": "Feature", "properties": {"id": "8abde22a-18d7-4cf1-a7f8-913d526e1554", "name": "The Burger Den", "category": "restaurant", "tags": ["restaurant"], "sources": ["overture"], "website": "https://www.theburgerden.com/", "phone": "+14255820578", "address": "8431 244th St. SW"}, "geometry": {"type": "Point", "coordinates": [-122.347084, 47.7784119]}}, {"type": "Feature", "properties": {"id": "b4273f02-2781-4a3b-b53a-fbff0f43019c", "name": "The Habit Burger Grill", "category": "restaurant", "tags": ["restaurant", "burger", "american", "bar-and-grill"], "sources": ["overture"], "website": "https://www.habitburger.com/locations/shoreline/", "phone": "+12065427551", "address": "1253 N 205th St"}, "geometry": {"type": "Point", "coordinates": [-122.3435669, 47.7769699]}}, {"type": "Feature", "properties": {"id": "d4de6df5-f3a8-4548-a049-5b7b78c4f0ea", "name": "A&W Restaurant", "category": "fast_food", "tags": ["fast-food", "fast", "food"], "sources": ["overture"], "website": "https://awrestaurants.com/locations/washington/seattle/10050-16th-ave-sw/", "phone": "2065425155", "address": "19553 Aurora Ave N"}, "geometry": {"type": "Point", "coordinates": [-122.3463211, 47.7717056]}}, {"type": "Feature", "properties": {"id": "d87afa6e-63fb-4a58-a81d-0bdf43139808", "name": "China Clipper Restaurant", "category": "restaurant", "tags": ["restaurant"], "sources": ["overture"], "website": "http://www.taiho.com", "phone": "(206) 546-8000", "address": "20221 Aurora Ave N"}, "geometry": {"type": "Point", "coordinates": [-122.3466492, 47.7762909]}}, {"type": "Feature", "properties": {"id": "628f36a6-b281-4c96-8a9f-efe13c17e6b8", "name": "Wans Food &amp Beverages Llc", "category": "restaurant", "tags": ["restaurant"], "sources": ["overture"], "address": "20109 Aurora Ave N Ste 101"}, "geometry": {"type": "Point", "coordinates": [-122.3466873, 47.7752571]}}, {"type": "Feature", "properties": {"id": "4a9cda59-48cc-4f67-996f-926dcb959111", "name": "JD Restaurant", "category": "restaurant", "tags": ["restaurant", "chinese"], "sources": ["overture"], "website": "http://Jdhotpot.com/", "phone": "+12066987777", "address": "20109 Aurora Ave N"}, "geometry": {"type": "Point", "coordinates": [-122.3466949, 47.7752991]}}, {"type": "Feature", "properties": {"id": "009a95e4-b6ed-4280-a866-327de270223f", "name": "SORIMMARA Hot Pot & Malatang (\uc18c\ub9bc\ub9c8\ub77c \uc1fc\uc5b4\ub77c\uc778\uc810)", "category": "restaurant", "tags": ["restaurant", "korean", "asian"], "sources": ["overture"], "website": "http://Www.sorimmaraus.com/", "phone": "+12066294246", "address": "20109 Aurora Ave N #101"}, "geometry": {"type": "Point", "coordinates": [-122.3467407, 47.775341]}}, {"type": "Feature", "properties": {"id": "4ecf5181-6aea-4694-94b3-4c46e0e46b25", "name": "Ming's Dumpling House", "category": "restaurant", "tags": ["restaurant", "dumplings"], "sources": ["overture"], "website": "http://www.mingsdumplinghouseshoreline.com", "phone": "(206) 542-3777", "address": "20109 Aurora Ave N"}, "geometry": {"type": "Point", "coordinates": [-122.346756, 47.7754059]}}, {"type": "Feature", "properties": {"id": "de16b801-19b4-4afc-a3e8-7b73032865e7", "name": "Sanmaru", "category": "restaurant", "tags": ["restaurant", "korean"], "sources": ["overture"], "website": "http://newgangnam.com", "phone": "(206) 542-9292", "address": "20109 Aurora Ave N"}, "geometry": {"type": "Point", "coordinates": [-122.3467255, 47.7753868]}}, {"type": "Feature", "properties": {"id": "ce4ff4aa-0b81-4ca9-baf2-f9535a43073d", "name": "Rumblefish Sushi", "category": "restaurant", "tags": ["restaurant", "sushi"], "sources": ["overture"], "website": "http://rumblefishsushi.com", "phone": "(206) 546-2840", "address": "20109 Aurora Ave N"}, "geometry": {"type": "Point", "coordinates": [-122.3465805, 47.7753563]}}, {"type": "Feature", "properties": {"id": "951e184b-26ea-4608-8803-887d04087f78", "name": "Rise & Shine Bakery", "category": "bakery", "tags": ["bakery", "vietnamese"], "sources": ["overture"], "website": "https://www.yelp.com/biz/rise-and-shine-bakery-shoreline", "phone": "+12066294987", "address": "19920 Aurora Ave N"}, "geometry": {"type": "Point", "coordinates": [-122.3457565, 47.7737617]}}, {"type": "Feature", "properties": {"id": "7831e6b1-ba5a-4eea-8c61-99b8e296a2de", "name": "El Cubano To Go", "category": "restaurant", "tags": ["restaurant", "cuban", "latin-american", "caribbean"], "sources": ["overture"], "website": "http://www.ElCubanoToGo.com/", "phone": "+12066294443", "address": "19920 Aurora Ave N"}, "geometry": {"type": "Point", "coordinates": [-122.3458481, 47.7738495]}}, {"type": "Feature", "properties": {"id": "0b5f3810-a70e-4db7-8458-e4a9af2d57ae", "name": "Pho 99 Authentic Vietnamese", "category": "restaurant", "tags": ["restaurant", "vietnamese", "asian", "noodles"], "sources": ["overture"], "website": "http://www.goodvietnamesefood.blogspot.com", "phone": "+12065423634", "address": "19828 Aurora Ave N"}, "geometry": {"type": "Point", "coordinates": [-122.3457794, 47.7730103]}}, {"type": "Feature", "properties": {"id": "c264fa8a-a5de-4778-be1c-018c7eb5879e", "name": "Grinders Hot Sands Restaurant", "category": "restaurant", "tags": ["restaurant", "sandwich"], "sources": ["overture"], "phone": "2065420627", "address": "19811 Aurora Ave N"}, "geometry": {"type": "Point", "coordinates": [-122.3464432, 47.7727051]}}, {"type": "Feature", "properties": {"id": "3be790fd-76e5-4841-84d2-4cd048d36d49", "name": "Aurora Burger And Shake", "category": "restaurant", "tags": ["restaurant", "burger"], "sources": ["overture"], "address": "19811 Aurora Ave N"}, "geometry": {"type": "Point", "coordinates": [-122.3464737, 47.7727699]}}, {"type": "Feature", "properties": {"id": "1860b3e2-d2a0-4133-a631-bae1b08ebe93", "name": "Woody's Bar", "category": "restaurant", "tags": ["restaurant", "barbecue", "american", "southern"], "sources": ["overture"], "website": "http://www.woodys.com", "phone": "+12065428781", "address": "19508 Aurora Ave N"}, "geometry": {"type": "Point", "coordinates": [-122.3458252, 47.7708855]}}, {"type": "Feature", "properties": {"id": "87e91c7b-9b7a-48fc-9405-a4501a4636c8", "name": "Tasty Pot", "category": "restaurant", "tags": ["restaurant", "taiwanese"], "sources": ["overture"], "website": "https://www.tastypotshoreline.com/?utm_source=bing&utm_medium=websiteurl&utm_campaign=search", "phone": "2065468988", "address": "1295 N 205th St"}, "geometry": {"type": "Point", "coordinates": [-122.3428192, 47.7753143]}}, {"type": "Feature", "properties": {"id": "2ee054fb-fdff-4c90-ad6b-0f1dc9b4b429", "name": "Gemridge Technologies Inc. Dba Gemridge Inc", "category": "restaurant", "tags": ["restaurant"], "sources": ["overture"], "address": "1501 N 200th St Ste 201"}, "geometry": {"type": "Point", "coordinates": [-122.3418427, 47.7731781]}}, {"type": "Feature", "properties": {"id": "c35ab346-9843-4ea8-a7b6-9ba75d668ee3", "name": "Ij Sushi Burrito- Shoreline", "category": "restaurant", "tags": ["restaurant", "sushi"], "sources": ["overture"], "phone": "12066294005", "address": "1267 N 205th St"}, "geometry": {"type": "Point", "coordinates": [-122.3433762, 47.7753296]}}, {"type": "Feature", "properties": {"id": "d6127595-81b4-4349-a55c-665fadd88ff5", "name": "Teriyaki Island", "category": "restaurant", "tags": ["restaurant", "japanese", "asian"], "sources": ["overture"], "website": "https://www.groupon.com/biz/shoreline-wa/teriyaki-island", "phone": "+12065424352", "address": "1263 N 205th St"}, "geometry": {"type": "Point", "coordinates": [-122.3434448, 47.7754211]}}, {"type": "Feature", "properties": {"id": "10b09969-c9ae-41ce-bc35-6023f99f377b", "name": "GYRO SABABA SHORELINE", "category": "restaurant", "tags": ["restaurant", "mediterranean"], "sources": ["overture"], "website": "https://north205th.gyrosababa.com/?utm_source=bing&utm_medium=websiteurl&utm_campaign=search", "phone": "2066294645", "address": "1291 N 205TH St"}, "geometry": {"type": "Point", "coordinates": [-122.3428421, 47.7752762]}}, {"type": "Feature", "properties": {"id": "4fc14562-0740-4243-8159-c968a28fd732", "name": "Scott's Bar and Grill", "category": "restaurant", "tags": ["restaurant", "bar-and-grill", "bar", "grill"], "sources": ["overture"], "website": "https://www.scottsbarandgrill.com/", "phone": "+14257752561", "address": "8115 Lake Ballinger Way"}, "geometry": {"type": "Point", "coordinates": [-122.3427887, 47.7785835]}}, {"type": "Feature", "properties": {"id": "34c4e6d6-00a8-428b-b6eb-9e892aabfa16", "name": "The Artiste", "category": "attraction", "tags": ["attraction", "landmark", "historical", "building"], "sources": ["overture"], "website": "http://www.weidner.com/shoreline/the-artiste-apartment-homes/", "phone": "+12067095339", "address": "20221 Aurora Ave N"}, "geometry": {"type": "Point", "coordinates": [-122.3467255, 47.7762756]}}, {"type": "Feature", "properties": {"id": "956d5c1a-e78e-43f3-8fce-de26928010b7", "name": "Nyland Apartments", "category": "attraction", "tags": ["attraction", "landmark", "historical", "building"], "sources": ["overture"], "phone": "+12069844157", "address": "8509 244th St SW"}, "geometry": {"type": "Point", "coordinates": [-122.348053, 47.7785149]}}, {"type": "Feature", "properties": {"id": "4b010f84-7a46-4022-8dfc-47f9692896bf", "name": "Echo Cove Condominiums", "category": "attraction", "tags": ["attraction", "landmark", "historical", "building"], "sources": ["overture"], "phone": "+12068017850", "address": "19428 & 19414, Aurora Ave N"}, "geometry": {"type": "Point", "coordinates": [-122.3453445, 47.7704391]}}, {"type": "Feature", "properties": {"id": "3ab969f4-5a59-4d00-953f-4f17b3a16e91", "name": "Echo Lake Condominiums", "category": "attraction", "tags": ["attraction", "landmark", "historical", "building"], "sources": ["overture"], "phone": "+12065420620", "address": "1144 N 198th St"}, "geometry": {"type": "Point", "coordinates": [-122.3442154, 47.7725182]}}, {"type": "Feature", "properties": {"id": 436756158, "name": "Echo Lake Park", "category": "park", "tags": ["park"], "sources": ["osm"]}, "geometry": {"type": "Point", "coordinates": [-122.3412189, 47.7730444]}}, {"type": "Feature", "properties": {"id": "c786be69-1ea6-4121-a2c5-9e57dd16d932", "name": "Echo Lake Park", "category": "park", "tags": ["park"], "sources": ["overture"], "phone": "+12068012603", "address": "19901 Ashworth Ave N"}, "geometry": {"type": "Point", "coordinates": [-122.340889, 47.7738762]}}, {"type": "Feature", "properties": {"id": 309299231, "name": "Days Inn by Wyndham Seattle Aurora", "category": "hotel", "tags": ["hotel"], "sources": ["osm", "overture"], "website": "https://www.wyndhamhotels.com/days-inn/seattle-washington/days-inn-seattle-aurora/overview", "phone": "+12065426300", "address": "19527 Aurora Ave N"}, "geometry": {"type": "Point", "coordinates": [-122.3465756, 47.7713429]}}, {"type": "Feature", "properties": {"id": "6fe060bf-93f8-4868-8e41-a7283cfb20c4", "name": "Just Food For Dogs", "category": "pet", "tags": ["pet"], "sources": ["overture"], "website": "https://www.justfoodfordogs.com", "phone": "(206) 546-1234", "address": "1241 N 205th, Inside Petco- WA Aurora"}, "geometry": {"type": "Point", "coordinates": [-122.3431549, 47.777565]}}, {"type": "Feature", "properties": {"id": 4470676591, "name": "Petco", "category": "pet", "tags": ["pet"], "sources": ["osm", "overture"], "website": "https://stores.petco.com/wa/seattle/pet-supplies-seattle-wa-265.html", "phone": "+12065461234", "address": "1241 N 205th", "hours": "Mo-We 09:00-21:00; Th 09:00-20:00; Fr-Sa 09:00-21:00; Su 10:00-19:00"}, "geometry": {"type": "Point", "coordinates": [-122.3430358, 47.7774797]}}, {"type": "Feature", "properties": {"id": "c0371153-19d4-4cf2-a547-13e0d0e3a427", "name": "Circle K", "category": "convenience", "tags": ["convenience"], "sources": ["overture"], "website": "https://www.circlek.com/", "phone": "+12065411250", "address": "20409 Aurora Ave N"}, "geometry": {"type": "Point", "coordinates": [-122.3466339, 47.7770462]}}, {"type": "Feature", "properties": {"id": 4470683090, "name": "Big 5 Sporting Goods", "category": "sports", "tags": ["sports"], "sources": ["osm"], "address": "1133 North 205th Street"}, "geometry": {"type": "Point", "coordinates": [-122.3446338, 47.7775118]}}, {"type": "Feature", "properties": {"id": 4251294143, "name": "Verizon", "category": "mobile_phone", "tags": ["mobile-phone"], "sources": ["osm"], "address": "1255 North 205th Street"}, "geometry": {"type": "Point", "coordinates": [-122.343579, 47.7753439]}}, {"type": "Feature", "properties": {"id": 12149792142, "name": "Lideta Market", "category": "convenience", "tags": ["convenience"], "sources": ["osm"]}, "geometry": {"type": "Point", "coordinates": [-122.3455818, 47.7729715]}}, {"type": "Feature", "properties": {"id": 12149792143, "name": "Jio Wireless", "category": "mobile_phone", "tags": ["mobile-phone", "mobile"], "sources": ["osm", "overture"], "phone": "+14257735158", "address": "20001 Aurora Ave N Suite A"}, "geometry": {"type": "Point", "coordinates": [-122.3464882, 47.77432]}}, {"type": "Feature", "properties": {"id": 12149792146, "name": "Euro Deli L\u00e1komka", "category": "deli", "tags": ["deli"], "sources": ["osm"], "address": "20011 Aurora Avenue North"}, "geometry": {"type": "Point", "coordinates": [-122.3464341, 47.7745032]}}, {"type": "Feature", "properties": {"id": 12149792147, "name": "Aurora Village Mart", "category": "convenience", "tags": ["convenience", "supermarket"], "sources": ["osm", "overture"], "phone": "+12064826730", "address": "20003 Aurora Ave N"}, "geometry": {"type": "Point", "coordinates": [-122.3464936, 47.7744116]}}, {"type": "Feature", "properties": {"id": 243367819, "name": "The Home Depot", "category": "doityourself", "tags": ["doityourself", "hardware"], "sources": ["osm", "overture"], "website": "https://www.homedepot.com/l/Aurora/WA/Shoreline/98133/4707?emt=MSFBPage", "phone": "+12065461900", "address": "1335 N 205th St", "hours": "Mo-Sa 06:00-21:00,Su 08:00-20:00"}, "geometry": {"type": "Point", "coordinates": [-122.3419274, 47.7761332]}}, {"type": "Feature", "properties": {"id": "b39ec96d-d73f-42fa-9c98-cbfc6df32352", "name": "99 Cents Only Store", "category": "variety_store", "tags": ["variety-store", "discount"], "sources": ["overture"], "website": "http://99only.com/", "phone": "+12065421560", "address": "19904 Aurora Ave N"}, "geometry": {"type": "Point", "coordinates": [-122.3456192, 47.7733879]}}, {"type": "Feature", "properties": {"id": "131ba6ca-d33b-434c-ba04-6b1b94aeb651", "name": "Lakomka Euro Deli", "category": "supermarket", "tags": ["supermarket"], "sources": ["overture"], "website": "https://lakomka.com", "phone": "12066295478", "address": "20011 Aurora Ave N"}, "geometry": {"type": "Point", "coordinates": [-122.3464508, 47.7745628]}}, {"type": "Feature", "properties": {"id": "e3df37c6-2ae5-4da2-9dcb-6c4f3b77ab70", "name": "Kushklub Recreational Cannabis Dispensary", "category": "cannabis", "tags": ["cannabis"], "sources": ["overture"], "website": "http://kushklub.com", "phone": "12064031757", "address": "20019 Aurora Ave N  # B"}, "geometry": {"type": "Point", "coordinates": [-122.3465195, 47.7749672]}}, {"type": "Feature", "properties": {"id": "277f547e-d6a9-4f45-8e8f-5c315eb9d980", "name": "Cannabis Provisions Inc", "category": "cannabis", "tags": ["cannabis", "clinic"], "sources": ["overture"], "website": "http://www.cannabisprovisionsinc.com/", "phone": "+12066295235", "address": "938 N 200th St C"}, "geometry": {"type": "Point", "coordinates": [-122.3468933, 47.774292]}}, {"type": "Feature", "properties": {"id": "22a74c82-7527-4b66-a6fb-a99061e17d31", "name": "Lideta Ethiopian and Eritrean Market", "category": "supermarket", "tags": ["supermarket"], "sources": ["overture"], "website": "https://lideta-mini-market.business.site", "phone": "+12065466751", "address": "19824 Aurora Ave N"}, "geometry": {"type": "Point", "coordinates": [-122.3457336, 47.772953]}}, {"type": "Feature", "properties": {"id": "5fd01613-8117-4397-9213-fb09e9d987ca", "name": "99 Cent Store", "category": "variety_store", "tags": ["variety-store", "discount"], "sources": ["overture"], "phone": "+14257732296", "address": "19904 Aurora Ave N"}, "geometry": {"type": "Point", "coordinates": [-122.3456268, 47.7733803]}}, {"type": "Feature", "properties": {"id": 11303205620, "name": "Costco Pharmacy", "category": "pharmacy", "tags": ["pharmacy"], "sources": ["osm"], "hours": "Mo-Fr 10:00-20:30; Sa 09:30-18:00; Su off"}, "geometry": {"type": "Point", "coordinates": [-122.3455828, 47.7754452]}}, {"type": "Feature", "properties": {"id": "14439286-cd87-4bb5-b510-2fde4514f39f", "name": "Costco Pharmacy", "category": "pharmacy", "tags": ["pharmacy"], "sources": ["overture"], "phone": "+12065420497", "address": "1175 N 205th St"}, "geometry": {"type": "Point", "coordinates": [-122.3443832, 47.7750664]}}, {"type": "Feature", "properties": {"id": "bac7b5a6-6522-4459-b2d3-f5b0ac5bfb02", "name": "UW Medicine", "category": "clinic", "tags": ["clinic", "medical"], "sources": ["overture"], "website": "https://www.uwmedicine.org/locations/primary-care-shoreline", "phone": "+12065425656", "address": "1355 N 205th St"}, "geometry": {"type": "Point", "coordinates": [-122.3420792, 47.7773666]}}, {"type": "Feature", "properties": {"id": 309363987, "name": "Bank of America", "category": "bank", "tags": ["bank"], "sources": ["osm"], "website": "https://locators.bankofamerica.com/wa/shoreline/financial-centers-shoreline-7506.html", "address": "1121 North 205th Street", "hours": "Mo-Fr 10:00-17:00; Sa 10:00-13:00"}, "geometry": {"type": "Point", "coordinates": [-122.3452914, 47.7774168]}}, {"type": "Feature", "properties": {"id": 243508883, "name": "Chase", "category": "bank", "tags": ["bank"], "sources": ["osm"], "website": "https://locator.chase.com/wa/edmonds/8105-lake-ballinger-way", "phone": "+1-425-776-9151", "address": "8105 Lake Ballinger Way", "hours": "Mo-Fr 09:00-17:00; Sa 09:00-13:00; Su closed"}, "geometry": {"type": "Point", "coordinates": [-122.3420168, 47.7781265]}}, {"type": "Feature", "properties": {"id": "72fc1bcd-df98-41b6-b99a-290e7f190a53", "name": "Bank of America Atm", "category": "bank", "tags": ["bank", "credit", "union"], "sources": ["overture"], "phone": "8004426680", "address": "1175 N 205th St"}, "geometry": {"type": "Point", "coordinates": [-122.3440247, 47.774826]}}, {"type": "Feature", "properties": {"id": "da2e0e90-6578-4134-b045-1d63f50b327d", "name": "Chase Bank", "category": "bank", "tags": ["bank", "credit", "union"], "sources": ["overture"], "website": "https://www.chase.com/locator/banking/us/wa/edmonds/8105-lake-ballinger-way", "phone": "+14257769151", "address": "8105 Lake Ballinger Way"}, "geometry": {"type": "Point", "coordinates": [-122.3420105, 47.7782059]}}, {"type": "Feature", "properties": {"id": "189f9cd8-1e59-464c-84e8-ac17e6248ff0", "name": "Northcore Performance Training", "category": "fitness_centre", "tags": ["fitness-centre", "gym"], "sources": ["overture"], "website": "http://www.northcoretraining.com", "phone": "(206) 334-3987", "address": "1501 N 200th St #A"}, "geometry": {"type": "Point", "coordinates": [-122.3418808, 47.7732277]}}]}