{"type": "FeatureCollection", "features": [{"type": "Feature", "properties": {"id": 3339242361, "name": "Maelstrom Brewing", "category": "pub", "tags": ["pub"], "sources": ["osm"], "website": "http://www.maelstrombrewing.com/", "address": "11014 120th Avenue Northeast", "hours": "We-Th16:00-21:00; Fr 15:00-21:00;Sa 13:00-21:00;Su 13:00-19:00"}, "geometry": {"type": "Point", "coordinates": [-122.180943, 47.6991435]}}, {"type": "Feature", "properties": {"id": "c3bfe6bb-8a5a-4602-9387-17627e800601", "name": "Gc Kitchen Llc Dba Garlic Crush", "category": "restaurant", "tags": ["restaurant"], "sources": ["overture"], "address": "11114 117th Pl NE"}, "geometry": {"type": "Point", "coordinates": [-122.1842728, 47.6996841]}}, {"type": "Feature", "properties": {"id": "3f698c3a-ac6d-43df-980a-ee01ee0869bc", "name": "Maelstrom Brewing Company", "category": "bar", "tags": ["bar", "brewery"], "sources": ["overture"], "website": "http://www.maelstrombrewing.com/", "phone": "+12068416071", "address": "11014 120th Ave NE"}, "geometry": {"type": "Point", "coordinates": [-122.181015, 47.6991119]}}, {"type": "Feature", "properties": {"id": 55783322, "name": "Spinney Homestead Park", "category": "park", "tags": ["park"], "sources": ["osm"]}, "geometry": {"type": "Point", "coordinates": [-122.1829728, 47.6903966]}}, {"type": "Feature", "properties": {"id": 55786157, "name": "Highlands Park", "category": "park", "tags": ["park"], "sources": ["osm", "overture"], "website": "https://www.kirklandwa.gov/Home", "phone": "(425) 587-3300", "address": "11210 NE 102nd Street"}, "geometry": {"type": "Point", "coordinates": [-122.1898076, 47.6909416]}}, {"type": "Feature", "properties": {"id": 55786165, "name": "Forbes Creek Park", "category": "park", "tags": ["park"], "sources": ["osm", "overture"], "website": "http://www.avanaatforbescreek.com", "phone": "+14255873300", "address": "11615 NE 106th Ln"}, "geometry": {"type": "Point", "coordinates": [-122.1858209, 47.6944503]}}, {"type": "Feature", "properties": {"id": "f89d1a99-418b-4559-bb13-dd38f6ae34a0", "name": "Mark Ryan Winery", "category": "wine", "tags": ["wine", "winery"], "sources": ["overture"], "website": "http://www.markryanwinery.com", "phone": "+14255768922", "address": "11025 117th Pl NE"}, "geometry": {"type": "Point", "coordinates": [-122.185173, 47.6990967]}}, {"type": "Feature", "properties": {"id": "6672b44d-1899-43f2-bc9f-7f6ea085b982", "name": "a'maurice Cellars", "category": "wine", "tags": ["wine", "winery"], "sources": ["overture"], "website": "http://www.amaurice.com", "phone": "(425) 576-0800", "address": "11134 - 117th Place NE"}, "geometry": {"type": "Point", "coordinates": [-122.1841049, 47.6999435]}}, {"type": "Feature", "properties": {"id": 3339242473, "name": "Tacoma Screw", "category": "hardware", "tags": ["hardware"], "sources": ["osm"], "website": "https://www.tacomascrew.com/", "phone": "+1-425-822-2585", "address": "11200 120th Avenue Northeast", "hours": "Mo-Fr 07:00-17:00"}, "geometry": {"type": "Point", "coordinates": [-122.1807685, 47.6999221]}}, {"type": "Feature", "properties": {"id": 3339242470, "name": "Inspired Closets", "category": "furniture", "tags": ["furniture"], "sources": ["osm"], "address": "11155 120th Avenue Northeast"}, "geometry": {"type": "Point", "coordinates": [-122.1815859, 47.6999374]}}, {"type": "Feature", "properties": {"id": "8ccf4158-c477-4381-ac96-8ec7fa709510", "name": "GTS Interior Supply", "category": "doityourself", "tags": ["doityourself", "building", "supply"], "sources": ["overture"], "website": "http://gtsinteriorsupply.com/", "phone": "+14258286761", "address": "10819 120th Ave NE"}, "geometry": {"type": "Point", "coordinates": [-122.1829605, 47.6973419]}}, {"type": "Feature", "properties": {"id": "b4ae6df8-2c3f-480b-a77c-6f9a26d045e5", "name": "Aramark Refreshment Svcs Inc", "category": "supermarket", "tags": ["supermarket"], "sources": ["overture"], "address": "11118 117th Pl NE"}, "geometry": {"type": "Point", "coordinates": [-122.1841125, 47.6996841]}}, {"type": "Feature", "properties": {"id": 4463504384, "name": "Gold's Gym", "category": "fitness_centre", "tags": ["fitness-centre", "gym"], "sources": ["osm", "overture"], "website": "https://www.goldsgym.com/kirklandwa", "phone": "+14258270777", "address": "11133 120th Ave NE"}, "geometry": {"type": "Point", "coordinates": [-122.1818003, 47.6995648]}}]}