{"type": "FeatureCollection", "features": [{"type": "Feature", "properties": {"id": "8cb187fc-8366-434f-a0ea-304f8509c875", "name": "Blackstar Kebabs", "category": "fast_food", "tags": ["fast-food", "food", "truck", "african"], "sources": ["overture"], "website": "http://www.blackstarkebab.com/", "phone": "+12064994019", "address": "7751 63rd Ave NE"}, "geometry": {"type": "Point", "coordinates": [-122.2805252, 47.6709938]}}, {"type": "Feature", "properties": {"id": 161502322, "name": "Bryant Park", "category": "park", "tags": ["park"], "sources": ["osm"], "website": "https://www.seattle.gov/parks/allparks/bryant-neighborhood-playground"}, "geometry": {"type": "Point", "coordinates": [-122.2837876, 47.6752845]}}, {"type": "Feature", "properties": {"id": "d32d87d1-adab-4893-934c-bc58b57f04db", "name": "Bryant Neighborhood Playground", "category": "playground", "tags": ["playground"], "sources": ["overture"], "website": "http://seattle.gov/parks/park_detail.asp?ID=482", "phone": "+12066844075", "address": "Bryant Neighborhood Playground, 4103 NE 65th St"}, "geometry": {"type": "Point", "coordinates": [-122.2862091, 47.6753082]}}, {"type": "Feature", "properties": {"id": "34dd4eb3-3c8f-4b44-ba95-573cc18d26f4", "name": "View Ridge Playground", "category": "playground", "tags": ["playground"], "sources": ["overture"], "website": "http://www.cityofseattle.net/parks/parkspaces/viewridge.htm", "phone": "+12066844075", "address": "4408 NE 70th St"}, "geometry": {"type": "Point", "coordinates": [-122.2816086, 47.6797256]}}, {"type": "Feature", "properties": {"id": "b41bafb0-b8ad-462e-b748-1b433d3f9fec", "name": "Country Inns & Suites", "category": "hotel", "tags": ["hotel"], "sources": ["overture"], "website": "www.countryinns.com", "phone": "+16208452181", "address": "4038 NE 58th St"}, "geometry": {"type": "Point", "coordinates": [-122.283165, 47.6714745]}}, {"type": "Feature", "properties": {"id": 1735362323, "name": "PCC Community Market", "category": "supermarket", "tags": ["supermarket", "wheelchair-accessible"], "sources": ["osm"], "website": "https://www.pccmarkets.com/stores/view-ridge/", "phone": "+1 206-526-7661", "address": "6514 40th Avenue Northeast", "hours": "Mo-Su 06:00-23:00"}, "geometry": {"type": "Point", "coordinates": [-122.284355, 47.6761289]}}, {"type": "Feature", "properties": {"id": "0f36ee05-f72f-4948-93a8-0a5526ab3524", "name": "Pcc Community Markets - View Ridge Co-op", "category": "supermarket", "tags": ["supermarket"], "sources": ["overture"], "website": "https://www.pccmarkets.com", "phone": "12065267661", "address": "6514 40th Ave NE"}, "geometry": {"type": "Point", "coordinates": [-122.2844925, 47.6761513]}}]}