{"type": "FeatureCollection", "features": [{"type": "Feature", "properties": {"id": 8064055973, "name": "Brier Pizza Kitchen", "category": "restaurant", "tags": ["restaurant", "pizza", "sandwich", "outdoor-seating", "takeaway"], "sources": ["osm"], "website": "https://brierpizza.com", "phone": "+1-425-424-0760", "address": "23631 Brier Road", "hours": "Su-Th 11:30-20:00; Fr-Sa 11:30-21:00"}, "geometry": {"type": "Point", "coordinates": [-122.2740454, 47.7836711]}}, {"type": "Feature", "properties": {"id": "6180e8b9-356d-424e-a1ff-7dd9347c0263", "name": "Jason's Java", "category": "cafe", "tags": ["cafe"], "sources": ["overture"], "website": "http://calendar.bellinghamherald.com", "phone": "+14254023445", "address": "23607 Brier Rd"}, "geometry": {"type": "Point", "coordinates": [-122.2741241, 47.7842522]}}, {"type": "Feature", "properties": {"id": "2405eafb-0b4f-4c4c-abb9-2743266a8a9a", "name": "Vita Momenti Italian Kitchen", "category": "restaurant", "tags": ["restaurant", "italian"], "sources": ["overture"], "website": "http://vitamomentikitchen.com/", "phone": "+14254240760", "address": "23631 Brier Rd"}, "geometry": {"type": "Point", "coordinates": [-122.273941, 47.7835732]}}, {"type": "Feature", "properties": {"id": 992517081, "name": "Bobcat Park", "category": "park", "tags": ["park"], "sources": ["osm", "overture"], "website": "ci.brier.wa.us/community/parks.htm", "address": "3140 236th St SW", "hours": "sunrise-sunset"}, "geometry": {"type": "Point", "coordinates": [-122.2764677, 47.7839623]}}, {"type": "Feature", "properties": {"id": 9894193772, "name": "Brier Grocery", "category": "convenience", "tags": ["convenience", "supermarket"], "sources": ["osm", "overture"], "phone": "+14254830505", "address": "23607 Brier Rd", "hours": "Mo-Th 07:30-21:00; Fr 07:30-22:00; Sa 08:00-22:00; Su 08:00-21:00"}, "geometry": {"type": "Point", "coordinates": [-122.274006, 47.7842261]}}, {"type": "Feature", "properties": {"id": 1058397351, "name": "Brier Library", "category": "library", "tags": ["library", "wifi"], "sources": ["osm", "overture"], "website": "http://www.sno-isle.org/", "phone": "+14254830888", "address": "23303 Brier Rd", "hours": "Tu-Th 11:00-19:00; Fr-Sa 10:00-18:00"}, "geometry": {"type": "Point", "coordinates": [-122.2736223, 47.7870453]}}]}