{"type": "FeatureCollection", "features": [{"type": "Feature", "properties": {"id": 13954819901, "name": "El Paso Supermarket", "category": "supermarket", "tags": ["supermarket", "mexican"], "sources": ["osm", "overture"], "website": "https://g.co/kgs/6V13G3H", "phone": "+12062486797", "address": "11417 Des Moines Memorial Dr S"}, "geometry": {"type": "Point", "coordinates": [-122.3062072, 47.50041]}}, {"type": "Feature", "properties": {"id": "e2124c9d-e637-4646-9622-55b07f5380c7", "name": "Opm Landscaping", "category": "doityourself", "tags": ["doityourself", "building", "supply"], "sources": ["overture"], "website": "https://opmlandscaping.net", "phone": "(206) 261-1585", "address": "10625 19th Ave S"}, "geometry": {"type": "Point", "coordinates": [-122.3089828, 47.5077629]}}]}