{"type": "FeatureCollection", "features": [{"type": "Feature", "properties": {"id": 161389089, "name": "Woodin Creek Park", "category": "park", "tags": ["park"], "sources": ["osm"]}, "geometry": {"type": "Point", "coordinates": [-122.1631714, 47.7494409]}}, {"type": "Feature", "properties": {"id": 1046595949, "name": "Treyburn Heights Park", "category": "park", "tags": ["park"], "sources": ["osm"]}, "geometry": {"type": "Point", "coordinates": [-122.1689727, 47.7412753]}}, {"type": "Feature", "properties": {"id": 1226375621, "name": "Tefft Winery", "category": "wine", "tags": ["wine", "winery"], "sources": ["osm"]}, "geometry": {"type": "Point", "coordinates": [-122.165881, 47.7491605]}}, {"type": "Feature", "properties": {"id": "83cde380-83d6-47c6-b650-74cf3e540967", "name": "Winsome Trading Inc", "category": "furniture", "tags": ["furniture"], "sources": ["overture"], "website": "http://www.winsomewood.com", "phone": "+14254838888", "address": "16111 Woodinville Redmond Rd NE"}, "geometry": {"type": "Point", "coordinates": [-122.1620789, 47.7447357]}}]}