{"type": "FeatureCollection", "features": [{"type": "Feature", "properties": {"id": 5154109826, "name": "Pizza Hut", "category": "restaurant", "tags": ["restaurant", "pizza", "fast-food"], "sources": ["osm", "overture"], "website": "https://locations.pizzahut.com/wa/lynnwood/6815-196th-st-sw?utm_medium=organic&utm_source=local&utm_campaign=yextpowerlistings&utm_content=website&utm_term=305851", "phone": "+14257745050", "address": "6815 196th St SW"}, "geometry": {"type": "Point", "coordinates": [-122.3260175, 47.8218767]}}, {"type": "Feature", "properties": {"id": 3517861012, "name": "Asian Wok", "category": "restaurant", "tags": ["restaurant", "chinese", "asian"], "sources": ["osm", "overture"], "website": "http://www.asianwoklynnwood.com", "phone": "+14257715838", "address": "6815 196th St SW"}, "geometry": {"type": "Point", "coordinates": [-122.3254351, 47.821841]}}, {"type": "Feature", "properties": {"id": 3517862046, "name": "Pho 84", "category": "restaurant", "tags": ["restaurant", "vietnamese", "noodles", "asian"], "sources": ["osm", "overture"], "website": "http://www.pho.com/lynnwood-wa/pho-84", "phone": "+14257754143", "address": "6815 196th St SW"}, "geometry": {"type": "Point", "coordinates": [-122.325577, 47.8218439]}}, {"type": "Feature", "properties": {"id": 3547834712, "name": "La Raza", "category": "restaurant", "tags": ["restaurant", "mexican"], "sources": ["osm"]}, "geometry": {"type": "Point", "coordinates": [-122.3259601, 47.8218432]}}, {"type": "Feature", "properties": {"id": 3547847005, "name": "Modoo Banjeom", "category": "restaurant", "tags": ["restaurant", "korean"], "sources": ["osm"]}, "geometry": {"type": "Point", "coordinates": [-122.3258278, 47.8209891]}}, {"type": "Feature", "properties": {"id": 10927209567, "name": "Gyros Kebab Grill", "category": "restaurant", "tags": ["restaurant", "mediterranean"], "sources": ["osm"]}, "geometry": {"type": "Point", "coordinates": [-122.3258958, 47.8218747]}}, {"type": "Feature", "properties": {"id": "711df68c-e898-4564-8636-3a77cd23d37a", "name": "Godfathers Pizza", "category": "restaurant", "tags": ["restaurant", "pizza"], "sources": ["overture"], "website": "http://www.godfatherspizza.com", "phone": "(206) 775-1136", "address": "6815 196th St SW"}, "geometry": {"type": "Point", "coordinates": [-122.3259048, 47.8218689]}}, {"type": "Feature", "properties": {"id": "0006cb46-27bc-4bf3-b21b-0999a8fe4382", "name": "Mayco Land", "category": "cafe", "tags": ["cafe", "coffee"], "sources": ["overture"], "phone": "+14254206608"}, "geometry": {"type": "Point", "coordinates": [-122.3294525, 47.8244629]}}, {"type": "Feature", "properties": {"id": "830645c0-7859-4ebb-807a-5a88aee7e26d", "name": "Aleppo Kitchen", "category": "restaurant", "tags": ["restaurant", "mediterranean"], "sources": ["overture"], "website": "http://www.aleppokitchenseattle.com", "phone": "(425) 697-6610", "address": "6851 196th St SW"}, "geometry": {"type": "Point", "coordinates": [-122.3258133, 47.8217697]}}, {"type": "Feature", "properties": {"id": "f0e84c90-73d2-42b0-8c3f-d1be74abb505", "name": "China Cafe", "category": "restaurant", "tags": ["restaurant", "noodles", "asian"], "sources": ["overture"], "website": "http://www.chinacafewa.com/", "phone": "4259069999", "address": "6812 196th St SW"}, "geometry": {"type": "Point", "coordinates": [-122.3258133, 47.8209343]}}, {"type": "Feature", "properties": {"id": "4526d902-b76c-47f5-a223-6e12202b2d93", "name": "Barcelona Cuisine", "category": "restaurant", "tags": ["restaurant", "mediterranean"], "sources": ["overture"], "website": "https://www.giftrocket.com/.../restaurante-mexicano-la-raza-lynnwood", "phone": "(425) 775-7526", "address": "6815 196th St SW Ste G"}, "geometry": {"type": "Point", "coordinates": [-122.3259735, 47.8218956]}}, {"type": "Feature", "properties": {"id": "511a4603-c84f-460e-a563-386950fbfd54", "name": "O'Yeah Tasty", "category": "restaurant", "tags": ["restaurant", "asian"], "sources": ["overture"], "website": "http://oyeahtasty.com", "phone": "(425) 906-9999", "address": "6812 196th St SW"}, "geometry": {"type": "Point", "coordinates": [-122.3259964, 47.8209305]}}, {"type": "Feature", "properties": {"id": "729390ac-a677-4528-ab7e-b101c0344409", "name": "Happy World Llc", "category": "restaurant", "tags": ["restaurant"], "sources": ["overture"], "address": "6812 196th St Sw Ste A"}, "geometry": {"type": "Point", "coordinates": [-122.3259735, 47.8209724]}}, {"type": "Feature", "properties": {"id": "5b396887-74e4-4edc-8a40-43ab79910923", "name": "Chrimar Apartments", "category": "attraction", "tags": ["attraction", "landmark", "historical", "building"], "sources": ["overture"], "phone": "+14257760049", "address": "19618 68th Ave W #125"}, "geometry": {"type": "Point", "coordinates": [-122.3252716, 47.8208084]}}, {"type": "Feature", "properties": {"id": "b85bccf1-2715-440e-bf9d-5b6499f4873b", "name": "Lynn Park, Lynnwood, Washington", "category": "park", "tags": ["park"], "sources": ["overture"]}, "geometry": {"type": "Point", "coordinates": [-122.3295288, 47.8204422]}}, {"type": "Feature", "properties": {"id": 3489666325, "name": "7-Eleven", "category": "convenience", "tags": ["convenience"], "sources": ["osm", "overture"], "website": "https://www.7-eleven.com/", "phone": "+14257715561", "address": "6815 196th St SW"}, "geometry": {"type": "Point", "coordinates": [-122.3263257, 47.821727]}}, {"type": "Feature", "properties": {"id": 3517838632, "name": "Thrift Store", "category": "clothes", "tags": ["clothes"], "sources": ["osm"]}, "geometry": {"type": "Point", "coordinates": [-122.3258332, 47.8218384]}}, {"type": "Feature", "properties": {"id": 3518108812, "name": "Michael F. Whelan, MD, DDS", "category": "books", "tags": ["books"], "sources": ["osm"]}, "geometry": {"type": "Point", "coordinates": [-122.324427, 47.821638]}}, {"type": "Feature", "properties": {"id": 5374290521, "name": "Reread Books", "category": "books", "tags": ["books"], "sources": ["osm"]}, "geometry": {"type": "Point", "coordinates": [-122.3245157, 47.8216523]}}, {"type": "Feature", "properties": {"id": 6012240850, "name": "A Pet Parlor", "category": "pet", "tags": ["pet"], "sources": ["osm"]}, "geometry": {"type": "Point", "coordinates": [-122.3214266, 47.8220224]}}, {"type": "Feature", "properties": {"id": "1255acb2-069f-4fd1-96df-e7766f0eefdf", "name": "Medina Jewelers", "category": "jewelry", "tags": ["jewelry"], "sources": ["overture"], "website": "http://www.medinajewelers.com", "phone": "14255828900", "address": "6501 196th St Sw  Ste A"}, "geometry": {"type": "Point", "coordinates": [-122.3212891, 47.8220596]}}, {"type": "Feature", "properties": {"id": 6012240851, "name": "Lifeplus Health Centers", "category": "clinic", "tags": ["clinic"], "sources": ["osm"]}, "geometry": {"type": "Point", "coordinates": [-122.3213243, 47.8220758]}}, {"type": "Feature", "properties": {"id": 350938934, "name": "Taing Chiropractic", "category": "clinic", "tags": ["clinic"], "sources": ["osm"]}, "geometry": {"type": "Point", "coordinates": [-122.3225549, 47.8214736]}}, {"type": "Feature", "properties": {"id": 350942891, "name": "VVMD Medical", "category": "clinic", "tags": ["clinic"], "sources": ["osm"]}, "geometry": {"type": "Point", "coordinates": [-122.3212289, 47.8210311]}}, {"type": "Feature", "properties": {"id": 351315742, "name": "Lynnwood Chiropractor Clinic", "category": "clinic", "tags": ["clinic"], "sources": ["osm"]}, "geometry": {"type": "Point", "coordinates": [-122.3232203, 47.8214864]}}, {"type": "Feature", "properties": {"id": 637794093, "name": "Leif Benjestorf, ARNP", "category": "clinic", "tags": ["clinic"], "sources": ["osm"]}, "geometry": {"type": "Point", "coordinates": [-122.3231684, 47.8216972]}}, {"type": "Feature", "properties": {"id": 345091274, "name": "Wells Fargo", "category": "bank", "tags": ["bank"], "sources": ["osm"]}, "geometry": {"type": "Point", "coordinates": [-122.3203726, 47.8208728]}}, {"type": "Feature", "properties": {"id": "c974d553-5b34-4d67-881e-d596cce67450", "name": "Wells Fargo Bank", "category": "bank", "tags": ["bank", "credit", "union"], "sources": ["overture"], "website": "https://www.wellsfargo.com/locator/bank/6400__196TH__ST__SW_LYNNWOOD_WA_98036/?utm_campaign=Local_Listings&utm_source=Others&group=Community_Bank&loc=AB16702", "phone": "4257120600", "address": "6400 196th St SW"}, "geometry": {"type": "Point", "coordinates": [-122.3202972, 47.8208733]}}, {"type": "Feature", "properties": {"id": 3547838244, "name": "Sound Sports and Conditioning", "category": "sports_centre", "tags": ["sports-centre"], "sources": ["osm"]}, "geometry": {"type": "Point", "coordinates": [-122.3262811, 47.8209999]}}, {"type": "Feature", "properties": {"id": "07146f28-2515-458d-9be8-df81e3bed47e", "name": "Sound Sports Performance And Training Llc", "category": "fitness_centre", "tags": ["fitness-centre", "fitness", "trainer"], "sources": ["overture"], "website": "http://www.soundsportsperformance.com", "phone": "14254198608", "address": "6812 196th St SW"}, "geometry": {"type": "Point", "coordinates": [-122.3259735, 47.8209724]}}]}