{"type": "FeatureCollection", "features": [{"type": "Feature", "properties": {"id": 8474436757, "name": "Starbucks", "category": "cafe", "tags": ["cafe", "coffee-shop", "takeaway", "coffee"], "sources": ["osm", "overture"], "website": "https://www.starbucks.com/store-locator", "phone": "2539315550", "address": "801 Auburn Way N"}, "geometry": {"type": "Point", "coordinates": [-122.2269553, 47.3154347]}}, {"type": "Feature", "properties": {"id": "ed55631b-e514-4119-b0d3-e74e30ae32f8", "name": "Sapporo Teriyaki", "category": "restaurant", "tags": ["restaurant", "chinese"], "sources": ["overture"], "website": "http://sapporoteriyaki.com", "phone": "(253) 735-3753", "address": "512 Auburn Way N"}, "geometry": {"type": "Point", "coordinates": [-122.225708, 47.3121681]}}, {"type": "Feature", "properties": {"id": 609595984, "name": "Chipotle", "category": "fast_food", "tags": ["fast-food", "mexican", "takeaway"], "sources": ["osm"], "address": "1261 Auburn Way North"}, "geometry": {"type": "Point", "coordinates": [-122.2218168, 47.3196817]}}, {"type": "Feature", "properties": {"id": 6177981263, "name": "Sunny Teriyaki", "category": "restaurant", "tags": ["restaurant", "japanese", "asian"], "sources": ["osm", "overture"], "website": "http://auburnsunnyteriyaki.com", "phone": "+12533330100", "address": "914 D St NE"}, "geometry": {"type": "Point", "coordinates": [-122.2244239, 47.3168339]}}, {"type": "Feature", "properties": {"id": 609595969, "name": "Little Caesars", "category": "fast_food", "tags": ["fast-food", "pizza", "takeaway"], "sources": ["osm"], "website": "https://littlecaesars.com/en-us/store/8971/", "address": "415 Auburn Way North"}, "geometry": {"type": "Point", "coordinates": [-122.2263468, 47.3111719]}}, {"type": "Feature", "properties": {"id": 521549887, "name": "KFC", "category": "fast_food", "tags": ["fast-food", "chicken", "takeaway", "fast", "food"], "sources": ["osm", "overture"], "website": "https://locations.kfc.com/wa/auburn/1002-auburn-way", "phone": "+12539391090", "address": "1002 Auburn Way"}, "geometry": {"type": "Point", "coordinates": [-122.2214292, 47.3171803]}}, {"type": "Feature", "properties": {"id": 6172451057, "name": "Soho Teriyaki", "category": "restaurant", "tags": ["restaurant", "asian", "japanese"], "sources": ["osm", "overture"], "website": "http://sohoteriyaki.com", "phone": "12537355431", "address": "1209 Auburn Way N"}, "geometry": {"type": "Point", "coordinates": [-122.2219264, 47.3188938]}}, {"type": "Feature", "properties": {"id": 6177981266, "name": "Pho Time", "category": "restaurant", "tags": ["restaurant", "vietnamese", "asian", "noodles"], "sources": ["osm", "overture"], "website": "http://quiznos.com/", "phone": "+12538337292", "address": "901 Auburn Way N"}, "geometry": {"type": "Point", "coordinates": [-122.2232799, 47.3163275]}}, {"type": "Feature", "properties": {"id": 1136875257, "name": "Sizzle Dogs", "category": "fast_food", "tags": ["fast-food", "hot-dog"], "sources": ["osm"]}, "geometry": {"type": "Point", "coordinates": [-122.2272591, 47.3191322]}}, {"type": "Feature", "properties": {"id": 11737415419, "name": "J's Wok and Teriyaki", "category": "restaurant", "tags": ["restaurant"], "sources": ["osm"]}, "geometry": {"type": "Point", "coordinates": [-122.2254639, 47.3157549]}}, {"type": "Feature", "properties": {"id": 12338301853, "name": "PICK-QUICK Drive In", "category": "fast_food", "tags": ["fast-food", "burger", "takeaway", "delivery", "drive-through", "fast", "food", "theme"], "sources": ["osm", "overture"], "website": "http://www.pick-quick.com/", "phone": "+12532481949", "address": "1132 Auburn Wy N", "hours": "11:00-21:00"}, "geometry": {"type": "Point", "coordinates": [-122.2210602, 47.3183164]}}, {"type": "Feature", "properties": {"id": 40183591, "name": "Applebee's", "category": "restaurant", "tags": ["restaurant", "american", "burger", "bar-and-grill"], "sources": ["osm", "overture"], "website": "https://restaurants.applebees.com/en-us/wa/auburn/1441-d-street-ne-99033", "phone": "+12538046800", "address": "1441 D Street NE"}, "geometry": {"type": "Point", "coordinates": [-122.2251745, 47.3198398]}}, {"type": "Feature", "properties": {"id": "94d5b05f-7ce9-41e3-8824-b4bbd048bc55", "name": "Arby's", "category": "fast_food", "tags": ["fast-food", "fast", "food"], "sources": ["overture"], "website": "https://locations.arbys.com/us/wa/auburn/140-15th-st-ne.html", "phone": "(253) 931-1287", "address": "140 15th St NE"}, "geometry": {"type": "Point", "coordinates": [-122.2221603, 47.3159676]}}, {"type": "Feature", "properties": {"id": 518903092, "name": "Red Lotus Chinese Restaurant", "category": "restaurant", "tags": ["restaurant"], "sources": ["osm"], "address": "714 Auburn Way North"}, "geometry": {"type": "Point", "coordinates": [-122.2245483, 47.3136414]}}, {"type": "Feature", "properties": {"id": 518903099, "name": "Starting Gate Restaurant", "category": "restaurant", "tags": ["restaurant", "diner", "american"], "sources": ["osm", "overture"], "website": "https://m.facebook.com/pages/Starting-Gate-Restaurant/117322438285858", "phone": "+12539394141", "address": "504 Auburn Way N"}, "geometry": {"type": "Point", "coordinates": [-122.2256239, 47.3119036]}}, {"type": "Feature", "properties": {"id": 519021069, "name": "Garcia\u2019s Mexican Restaurant & Cantina", "category": "restaurant", "tags": ["restaurant", "mexican", "latin-american"], "sources": ["osm", "overture"], "website": "https://www.garciasmexicancantina.com/", "phone": "+12533974329", "address": "321 Auburn Wy N", "hours": "11:00-22:00"}, "geometry": {"type": "Point", "coordinates": [-122.2263753, 47.3103909]}}, {"type": "Feature", "properties": {"id": 655427553, "name": "Memo's", "category": "restaurant", "tags": ["restaurant", "mexican", "fast-food"], "sources": ["osm", "overture"], "website": "http://memosmexicanfood.com", "phone": "+12532497364", "address": "1202 Auburn Wy N"}, "geometry": {"type": "Point", "coordinates": [-122.2211245, 47.318699]}}, {"type": "Feature", "properties": {"id": 659266539, "name": "Donut & Muffin Factory", "category": "cafe", "tags": ["cafe", "bakery"], "sources": ["osm", "overture"], "website": "https://m.facebook.com/pages/Donut-Muffin-Factory/115600238460688", "phone": "+12539398030", "address": "201 4th St NE"}, "geometry": {"type": "Point", "coordinates": [-122.226614, 47.3108686]}}, {"type": "Feature", "properties": {"id": 1240685157, "name": "Urban Chops", "category": "fast_food", "tags": ["fast-food", "vietnamese", "sandwich", "banh-mi", "takeaway", "restaurant", "asian"], "sources": ["osm", "overture"], "website": "http://urbanchops.net/", "phone": "+12065654430", "address": "512 Auburn Wy N", "hours": "Tu-Sa 11:00-18:00; Su-Mo off"}, "geometry": {"type": "Point", "coordinates": [-122.2257448, 47.3121055]}}, {"type": "Feature", "properties": {"id": "d55caa02-bb58-47a0-afab-12be7ea4140a", "name": "Little Caesars Pizza", "category": "restaurant", "tags": ["restaurant", "pizza", "fast-food"], "sources": ["overture"], "website": "https://littlecaesars.com/en-us/store/8971", "phone": "+12532497302", "address": "415 Auburn Wy N"}, "geometry": {"type": "Point", "coordinates": [-122.2264252, 47.3111916]}}, {"type": "Feature", "properties": {"id": "ea1c8dde-431e-4795-9e0e-9429fcf03850", "name": "Chipotle Mexican Grill", "category": "restaurant", "tags": ["restaurant", "mexican", "taco", "texmex"], "sources": ["overture"], "website": "https://locations.chipotle.com/wa/auburn/1261-auburn-way-n?utm_source=facebook&utm_medium=yext&utm_campaign=yext_listings%3Frestaurant%3D5097", "phone": "+12536004953", "address": "1261 Auburn Way N"}, "geometry": {"type": "Point", "coordinates": [-122.2218475, 47.3196831]}}, {"type": "Feature", "properties": {"id": "f7aadc9e-b7ec-4568-a261-cb5f8a519ccd", "name": "Ambakity Food Truck", "category": "fast_food", "tags": ["fast-food", "food", "truck", "mexican", "taco"], "sources": ["overture"], "website": "http://ambakity.com", "phone": "+14252176070", "address": "1314 Auburn Wy N"}, "geometry": {"type": "Point", "coordinates": [-122.2210464, 47.3195229]}}, {"type": "Feature", "properties": {"id": "51fcf657-d3aa-416b-912d-7e3c2ff746a9", "name": "Quechimbaauburn", "category": "restaurant", "tags": ["restaurant", "latin-american"], "sources": ["overture"], "phone": "+12533681151", "address": "1314 Auburn Way N"}, "geometry": {"type": "Point", "coordinates": [-122.2206116, 47.3197937]}}, {"type": "Feature", "properties": {"id": "05534f9f-c44f-45dc-a992-d170d6c5fdc7", "name": "Chin-graham Inc", "category": "restaurant", "tags": ["restaurant"], "sources": ["overture"], "address": "714 Auburn Way N"}, "geometry": {"type": "Point", "coordinates": [-122.2244263, 47.3136139]}}, {"type": "Feature", "properties": {"id": "47703e4e-4e05-4e76-ad9d-fe6072ddff42", "name": "Wet Head Brewery", "category": "bar", "tags": ["bar", "brewery"], "sources": ["overture"], "website": "http://www.wetheadbrewery.co", "phone": "(253) 951-6911", "address": "513 A St NE"}, "geometry": {"type": "Point", "coordinates": [-122.2288513, 47.3125801]}}, {"type": "Feature", "properties": {"id": "59ec5d16-0240-4276-8887-86abaaf5181b", "name": "Godfather's Pizza - Auburn", "category": "restaurant", "tags": ["restaurant", "pizza"], "sources": ["overture"], "website": "http://www.godfathers.com/", "phone": "(253) 833-1772", "address": "321 Auburn Way N"}, "geometry": {"type": "Point", "coordinates": [-122.2262192, 47.3104172]}}, {"type": "Feature", "properties": {"id": "8723c84c-5fc1-4e6c-9b85-5d188089577b", "name": "Walia And Srivastava Pllc", "category": "restaurant", "tags": ["restaurant"], "sources": ["overture"], "address": "130 3rd St NE"}, "geometry": {"type": "Point", "coordinates": [-122.2274704, 47.3100357]}}, {"type": "Feature", "properties": {"id": "404c70c6-d4fc-4516-9858-919b081f3992", "name": "Oly Dog House", "category": "restaurant", "tags": ["restaurant", "hot-dog", "hot", "dog", "fast-food"], "sources": ["overture"], "address": "1232 A St NE"}, "geometry": {"type": "Point", "coordinates": [-122.227356, 47.3192711]}}, {"type": "Feature", "properties": {"id": "3a70eb47-f3ec-428b-b481-e02d7f1ce097", "name": "Park Terrace Apartments", "category": "attraction", "tags": ["attraction", "landmark", "historical", "building"], "sources": ["overture"], "website": "http://allianceapts.com", "phone": "+12538339050", "address": "635 7th St NE"}, "geometry": {"type": "Point", "coordinates": [-122.2216263, 47.3136597]}}, {"type": "Feature", "properties": {"id": "ea0fbbbf-9b44-431c-8d57-dc569e93c81d", "name": "The Reserve at Auburn", "category": "attraction", "tags": ["attraction", "landmark", "historical", "building"], "sources": ["overture"], "website": "https://www.reserveatauburn.com/?rcstdid=NTE%3D-R5K2DQ2mkcE%3D&source=soci", "phone": "+12532181268", "address": "1107 A St NE"}, "geometry": {"type": "Point", "coordinates": [-122.2293243, 47.3171043]}}, {"type": "Feature", "properties": {"id": "b0796d61-3d5b-428c-a233-522798b45fbe", "name": "Auburn Court", "category": "attraction", "tags": ["attraction", "landmark", "historical", "building"], "sources": ["overture"], "website": "https://www.auburncourtapartments.com", "phone": "+12537356664", "address": "106 10th St NE"}, "geometry": {"type": "Point", "coordinates": [-122.2294922, 47.3148727]}}, {"type": "Feature", "properties": {"id": "200b59fb-4f6c-42b1-8035-2e85bddb763b", "name": "White River Valley Museum", "category": "museum", "tags": ["museum"], "sources": ["overture"], "website": "https://www.wrvmuseum.org", "phone": "+12532887433", "address": "501 Auburn Way N"}, "geometry": {"type": "Point", "coordinates": [-122.2265167, 47.3123398]}}, {"type": "Feature", "properties": {"id": "f1ea12fd-c733-481b-83d4-0eccc2f4190b", "name": "Villas at Auburn", "category": "attraction", "tags": ["attraction", "landmark", "historical", "building"], "sources": ["overture"], "website": "http://www.villasatauburn.com/", "phone": "+12532181298", "address": "1221 A St NE"}, "geometry": {"type": "Point", "coordinates": [-122.2294159, 47.318634]}}, {"type": "Feature", "properties": {"id": "e862aecb-1896-47a1-946e-f594c3542a2d", "name": "Arts Gallery", "category": "gallery", "tags": ["gallery", "art"], "sources": ["overture"], "website": "http://auburnvalleycreativearts.com/", "phone": "+12539313043"}, "geometry": {"type": "Point", "coordinates": [-122.2288284, 47.3187561]}}, {"type": "Feature", "properties": {"id": 25795116, "name": "Veteran's Memorial Park", "category": "park", "tags": ["park"], "sources": ["osm", "overture"], "website": "http://www.auburnwa.gov/things_to_do/parks_trails/veterans_memorial_park.htm", "phone": "+12539313043", "address": "411 E St NE"}, "geometry": {"type": "Point", "coordinates": [-122.2230464, 47.3121431]}}, {"type": "Feature", "properties": {"id": 475447604, "name": "Auburn Memorial Stadium", "category": "park", "tags": ["park"], "sources": ["osm"]}, "geometry": {"type": "Point", "coordinates": [-122.2210533, 47.3120483]}}, {"type": "Feature", "properties": {"id": 1314985386, "name": "Backyard Idea Garden", "category": "garden", "tags": ["garden"], "sources": ["osm"]}, "geometry": {"type": "Point", "coordinates": [-122.2231862, 47.3115122]}}, {"type": "Feature", "properties": {"id": 40183590, "name": "Fred Meyer", "category": "supermarket", "tags": ["supermarket"], "sources": ["osm", "overture"], "website": "https://www.fredmeyer.com/stores/grocery/wa/auburn/auburn/701/00019?cid=loc_70100019_fb", "phone": "+12539315550", "address": "801 Auburn Way N", "hours": "Mo-Su 06:00-22:00"}, "geometry": {"type": "Point", "coordinates": [-122.2262805, 47.3153537]}}, {"type": "Feature", "properties": {"id": "6b058fb2-2223-4992-b866-91652de5edd2", "name": "AT&T", "category": "mobile_phone", "tags": ["mobile-phone", "mobile"], "sources": ["overture"], "website": "http://www.att.com/maps/store-locator.html", "phone": "(253) 804-9000", "address": "790 Auburn Way North"}, "geometry": {"type": "Point", "coordinates": [-122.2238922, 47.3146515]}}, {"type": "Feature", "properties": {"id": 4346147108, "name": "Big 5 Sporting Goods", "category": "sports", "tags": ["sports"], "sources": ["osm"], "address": "1215 Auburn Way North"}, "geometry": {"type": "Point", "coordinates": [-122.2223082, 47.3189159]}}, {"type": "Feature", "properties": {"id": 4346147111, "name": "Dollar Tree", "category": "variety_store", "tags": ["variety-store", "discount"], "sources": ["osm", "overture"], "website": "https://locations.dollartree.com/wa/auburn/1241-auburn-way-north", "phone": "+13606390205", "address": "1241 Auburn Way North", "hours": "Mo-Su 08:00-21:00"}, "geometry": {"type": "Point", "coordinates": [-122.2235981, 47.3189396]}}, {"type": "Feature", "properties": {"id": 4346147118, "name": "Cricket Wireless", "category": "mobile_phone", "tags": ["mobile-phone"], "sources": ["osm"]}, "geometry": {"type": "Point", "coordinates": [-122.224102, 47.3195185]}}, {"type": "Feature", "properties": {"id": 4346147114, "name": "Rent-A-Center", "category": "furniture", "tags": ["furniture"], "sources": ["osm"]}, "geometry": {"type": "Point", "coordinates": [-122.224096, 47.3191674]}}, {"type": "Feature", "properties": {"id": 5624998121, "name": "Boost Mobile", "category": "mobile_phone", "tags": ["mobile-phone", "mobile"], "sources": ["osm", "overture"], "website": "https://www.boostmobile.com/locations/bd/boost-mobile-wa-auburn-1210-auburn-way-north-suite-a-a-98002?ll=1&utm_source=facebook&utm_medium=lastmile&utm_campaign=0015e00000jB8R5AAK", "phone": "+12537354326", "address": "1210 Auburn Way North Suite A Auburn, WA 98002"}, "geometry": {"type": "Point", "coordinates": [-122.220771, 47.3192315]}}, {"type": "Feature", "properties": {"id": 6177981269, "name": "Fred Meyer Jewelers", "category": "jewelry", "tags": ["jewelry"], "sources": ["osm", "overture"], "website": "https://www.fredmeyerjewelers.com", "phone": "12539315566", "address": "801 Auburn Way N"}, "geometry": {"type": "Point", "coordinates": [-122.226702, 47.3156756]}}, {"type": "Feature", "properties": {"id": 4346147117, "name": "Cigar Box", "category": "tobacco", "tags": ["tobacco"], "sources": ["osm"]}, "geometry": {"type": "Point", "coordinates": [-122.2240992, 47.319439]}}, {"type": "Feature", "properties": {"id": 659266562, "name": "Buds & Blooms", "category": "florist", "tags": ["florist"], "sources": ["osm"], "address": "405 Auburn Way North"}, "geometry": {"type": "Point", "coordinates": [-122.2262614, 47.3110199]}}, {"type": "Feature", "properties": {"id": 6140836860, "name": "Liquor & Wine", "category": "alcohol", "tags": ["alcohol"], "sources": ["osm"], "address": "790 Auburn Way North"}, "geometry": {"type": "Point", "coordinates": [-122.2238679, 47.3147597]}}, {"type": "Feature", "properties": {"id": "47bd67d6-f079-4d8b-97e7-10f8337f4409", "name": "Liquor & Wine", "category": "alcohol", "tags": ["alcohol"], "sources": ["overture"], "website": "http://liq.wa.gov", "phone": "(253) 931-3959", "address": "801 Auburn Way N Ste E"}, "geometry": {"type": "Point", "coordinates": [-122.226265, 47.3154182]}}, {"type": "Feature", "properties": {"id": 9990976917, "name": "Aaron's", "category": "furniture", "tags": ["furniture"], "sources": ["osm"]}, "geometry": {"type": "Point", "coordinates": [-122.2240362, 47.3199598]}}, {"type": "Feature", "properties": {"id": 5624995823, "name": "Cycle Gear", "category": "clothes", "tags": ["clothes"], "sources": ["osm"]}, "geometry": {"type": "Point", "coordinates": [-122.221123, 47.3190034]}}, {"type": "Feature", "properties": {"id": 5624995822, "name": "CRFT Beers", "category": "alcohol", "tags": ["alcohol", "bar", "beer"], "sources": ["osm", "overture"], "website": "http://www.crftbeers.com/", "phone": "+12537375359", "address": "1210 Auburn Wy N Ste E"}, "geometry": {"type": "Point", "coordinates": [-122.2208424, 47.3190185]}}, {"type": "Feature", "properties": {"id": 40183589, "name": "Lowe's", "category": "doityourself", "tags": ["doityourself", "wifi"], "sources": ["osm"], "website": "https://www.lowes.com/store/wa-auburn/1089", "phone": "+1-253-804-2600", "address": "1232 A Street Northeast", "hours": "Mo-Sa 06:00-21:00; Su 08:00-20:00"}, "geometry": {"type": "Point", "coordinates": [-122.2277682, 47.319089]}}, {"type": "Feature", "properties": {"id": "083d7243-2ebb-438c-a395-3649027f01f3", "name": "Rite Aid", "category": "convenience", "tags": ["convenience"], "sources": ["overture"], "website": "https://www.riteaid.com/store-details?storeNumber=5171", "phone": "2539395355", "address": "1231 Auburn Way N"}, "geometry": {"type": "Point", "coordinates": [-122.2210007, 47.3189926]}}, {"type": "Feature", "properties": {"id": "5bfe524b-7226-4935-82d9-7e98bb8850bd", "name": "Cricket Wireless Authorized Retailer", "category": "mobile_phone", "tags": ["mobile-phone", "mobile"], "sources": ["overture"], "website": "https://www.cricketwireless.com/stores/wa/auburn/1317-auburn-way-n?utm_source=Facebook&utm_medium=Organic_Search&utm_campaign=Yext_Listings", "phone": "+12533974121", "address": "1317 Auburn Way N"}, "geometry": {"type": "Point", "coordinates": [-122.2240677, 47.3195305]}}, {"type": "Feature", "properties": {"id": "cee7ee57-f19d-49d2-9b95-417f93287429", "name": "Auburn Liquor and Wine", "category": "alcohol", "tags": ["alcohol"], "sources": ["overture"], "website": "http://www.auburnliquors.com/", "phone": "+12539298940", "address": "790 Auburn Wy N #101"}, "geometry": {"type": "Point", "coordinates": [-122.2241058, 47.3147926]}}, {"type": "Feature", "properties": {"id": "435fa430-b57a-411b-a33f-c02c16149d1b", "name": "State of Washington Auburn", "category": "alcohol", "tags": ["alcohol"], "sources": ["overture"], "website": "http://liq.wa.gov", "phone": "+12539313959", "address": "801 Auburn Way N"}, "geometry": {"type": "Point", "coordinates": [-122.226265, 47.3154182]}}, {"type": "Feature", "properties": {"id": "f9b31d02-e221-4a74-926a-2cba46f2b1a0", "name": "Lowe's Home Improvement", "category": "doityourself", "tags": ["doityourself", "home", "improvement"], "sources": ["overture"], "website": "https://www.lowes.com/store/WA-Auburn/1089?cm_mmc=lod-_-c-_-lcl-_-awr-_-yxt-_-fb-_-1089-_-na-_-0-_-0&y_source=1_MTE4Mjk0NC01NTktbG9jYXRpb24ud2Vic2l0ZQ%3D%3D", "phone": "+12538042600", "address": "1232 A St NE"}, "geometry": {"type": "Point", "coordinates": [-122.2278748, 47.3191299]}}, {"type": "Feature", "properties": {"id": "05383b25-ec4e-4ff2-b072-fe84fda868c9", "name": "Fred Meyer Pharmacy", "category": "pharmacy", "tags": ["pharmacy"], "sources": ["overture"], "website": "https://www.fredmeyer.com/rx/pharmacy/details/701/00019?cid=loc_70100019P_fb", "phone": "+12539315584", "address": "801 Auburn Wy N"}, "geometry": {"type": "Point", "coordinates": [-122.2263336, 47.3152084]}}, {"type": "Feature", "properties": {"id": 4425970890, "name": "Franciscan Medical Clinic", "category": "clinic", "tags": ["clinic"], "sources": ["osm"]}, "geometry": {"type": "Point", "coordinates": [-122.2268591, 47.3169996]}}, {"type": "Feature", "properties": {"id": 521516895, "name": "HealthPoint Auburn North", "category": "clinic", "tags": ["clinic"], "sources": ["osm"], "address": "923 Auburn Way North"}, "geometry": {"type": "Point", "coordinates": [-122.222459, 47.3170719]}}, {"type": "Feature", "properties": {"id": "5f36a5c2-e200-48ff-abd1-4dfa16c177f3", "name": "Multicare Regional Cancer Center-Auburn", "category": "hospital", "tags": ["hospital"], "sources": ["overture"], "website": "http://www.multicare.org", "phone": "+12538768200", "address": "923 Auburn Way N"}, "geometry": {"type": "Point", "coordinates": [-122.2223816, 47.3170891]}}, {"type": "Feature", "properties": {"id": "e49c68ff-7497-491f-865d-3ddf63a6e7cc", "name": "Auburn Public Health Ctr, Auburn II", "category": "hospital", "tags": ["hospital"], "sources": ["overture"], "phone": "+12062638414", "address": "923 Auburn Way N"}, "geometry": {"type": "Point", "coordinates": [-122.2224426, 47.3170052]}}, {"type": "Feature", "properties": {"id": "4b4f34ed-efa9-4e45-a188-cf6b00983725", "name": "Tacoma General Hospital", "category": "hospital", "tags": ["hospital"], "sources": ["overture"], "website": "https://www.multicare.org/tacoma-general-hospital", "phone": "+12538768200"}, "geometry": {"type": "Point", "coordinates": [-122.2227707, 47.316433]}}, {"type": "Feature", "properties": {"id": "6a70123a-b0d3-49b3-a970-971da25bdfe2", "name": "Franciscan Medical Clinic - Auburn", "category": "clinic", "tags": ["clinic", "medical"], "sources": ["overture"], "website": "https://www.chifranciscan.org/locations/details.location.ced79e67-06e1-4b25-8631-9b672591e5c2.html", "phone": "2533515300", "address": "205 10th St NE Ste 200"}, "geometry": {"type": "Point", "coordinates": [-122.2268906, 47.3169632]}}, {"type": "Feature", "properties": {"id": "eb1606d3-23c9-48f5-a523-c8f904ee2ca5", "name": "Franciscan Pharmacy Auburn", "category": "pharmacy", "tags": ["pharmacy"], "sources": ["overture"], "website": "http://www.mygnp.com/store-locator", "phone": "2533515230", "address": "205 10th St NE"}, "geometry": {"type": "Point", "coordinates": [-122.2268448, 47.3165131]}}, {"type": "Feature", "properties": {"id": "5a9c4ae6-0815-4135-a7ca-872beb581bc8", "name": "Family Medicine Hospital Practice", "category": "hospital", "tags": ["hospital"], "sources": ["overture"], "website": "http://www.auburnfamilyclinic.com/", "phone": "+12538043483", "address": "125 3rd St NE"}, "geometry": {"type": "Point", "coordinates": [-122.2274628, 47.3104095]}}, {"type": "Feature", "properties": {"id": 4346147112, "name": "The UPS Store", "category": "post_office", "tags": ["post-office"], "sources": ["osm"]}, "geometry": {"type": "Point", "coordinates": [-122.223897, 47.3190261]}}, {"type": "Feature", "properties": {"id": 5715688705, "name": "BECU", "category": "bank", "tags": ["bank"], "sources": ["osm"], "address": "205 10th Street Northeast", "hours": "Mo-Fr 09:00-18:00,Sa 09:00-13:00"}, "geometry": {"type": "Point", "coordinates": [-122.2264846, 47.3169358]}}, {"type": "Feature", "properties": {"id": 521516902, "name": "Heritage Bank", "category": "bank", "tags": ["bank", "credit", "union"], "sources": ["osm", "overture"], "website": "https://local.heritagebanknw.com/wa/auburn/1001-d-street-ne", "phone": "+12532882101", "address": "1001 D St NE"}, "geometry": {"type": "Point", "coordinates": [-122.2255505, 47.3167758]}}, {"type": "Feature", "properties": {"id": "f07e9be3-cc28-432d-8732-9ec4b8a548bc", "name": "Valley Bank", "category": "bank", "tags": ["bank", "credit", "union"], "sources": ["overture"], "website": "http://www.vbwa.com/", "phone": "2532882101", "address": "1001 D St NE"}, "geometry": {"type": "Point", "coordinates": [-122.22509, 47.316658]}}, {"type": "Feature", "properties": {"id": 5624997422, "name": "EZ Mailbox Plus", "category": "post_office", "tags": ["post-office"], "sources": ["osm"]}, "geometry": {"type": "Point", "coordinates": [-122.2207669, 47.3191622]}}, {"type": "Feature", "properties": {"id": "257dbc81-833b-4028-aee6-c6cc083f22bf", "name": "Sterling Bank", "category": "bank", "tags": ["bank", "credit", "union"], "sources": ["overture"], "website": "http://www.bankwithsterling.com/", "phone": "2539390071", "address": "1261 Auburn Way N"}, "geometry": {"type": "Point", "coordinates": [-122.2214737, 47.3196793]}}, {"type": "Feature", "properties": {"id": "3d52d862-4d24-46af-97cc-94504b4f8dd1", "name": "U.S. Bank ATM", "category": "bank", "tags": ["bank", "credit", "union"], "sources": ["overture"], "website": "http://www.usbank.com/locations", "phone": "8008722657", "address": "801 Auburn Way N"}, "geometry": {"type": "Point", "coordinates": [-122.2262878, 47.3148384]}}, {"type": "Feature", "properties": {"id": "51edf3f0-ae91-40cc-ae9c-4303043af2f8", "name": "FedEx ShipSite", "category": "post_office", "tags": ["post-office", "office"], "sources": ["overture"], "website": "https://local.fedex.com/en-us/wa/auburn/00j5f", "address": "1227 Auburn Way N"}, "geometry": {"type": "Point", "coordinates": [-122.2226257, 47.318882]}}, {"type": "Feature", "properties": {"id": "7f09e02a-5ff9-4aca-970e-042ca4e71d4c", "name": "24 Hour Fitness", "category": "fitness_centre", "tags": ["fitness-centre", "gym"], "sources": ["overture"], "website": "http://www.24hourfitness.com/", "phone": "2538336480", "address": "915 Auburn Way N"}, "geometry": {"type": "Point", "coordinates": [-122.2226639, 47.3163605]}}, {"type": "Feature", "properties": {"id": "ccc7025e-71dd-4d76-bc63-d5de9c18d447", "name": "Planet Fitness", "category": "fitness_centre", "tags": ["fitness-centre", "gym"], "sources": ["overture"], "website": "https://www.planetfitness.com/gyms/auburn-wa?utm_medium=organic&utm_source=extnet", "phone": "+12537375501", "address": "915 Auburn Wy N"}, "geometry": {"type": "Point", "coordinates": [-122.2232285, 47.3168221]}}, {"type": "Feature", "properties": {"id": "1c8d9d8b-41be-41e7-88f0-6e6421102588", "name": "Auburn Pool", "category": "swimming_pool", "tags": ["swimming-pool", "swimming", "pool"], "sources": ["overture"], "website": "http://auburnsd.schoolwires.net/Page/495", "phone": "+12539398825", "address": "516 4th St NE"}, "geometry": {"type": "Point", "coordinates": [-122.222229, 47.3107338]}}, {"type": "Feature", "properties": {"id": "f5c7fba6-5470-4443-a6d4-47c8dbcc21a8", "name": "King County Swimming Pools", "category": "fitness_centre", "tags": ["fitness-centre", "gym"], "sources": ["overture"], "website": "http://www.kingcounty.gov", "phone": "+12539398825", "address": "516 4th St NE"}, "geometry": {"type": "Point", "coordinates": [-122.2223206, 47.3103752]}}]}