{"type": "FeatureCollection", "features": [{"type": "Feature", "properties": {"id": 4853787338, "name": "Postdoc Brewing", "category": "pub", "tags": ["pub", "outdoor-seating", "microbrew"], "sources": ["osm"], "website": "https://www.postdocbrewing.com/", "address": "17625 Northeast 65th Street", "hours": "Mo-Tu 15:00-22:00; We-Th 12:00-22:00; Fr-Sa 11:00-22:00; Su 11:00-20:00"}, "geometry": {"type": "Point", "coordinates": [-122.1054223, 47.6636505]}}, {"type": "Feature", "properties": {"id": 12517175569, "name": "Stone Korean Restaurant", "category": "restaurant", "tags": ["restaurant", "korean"], "sources": ["osm"]}, "geometry": {"type": "Point", "coordinates": [-122.1047711, 47.6674331]}}, {"type": "Feature", "properties": {"id": 13436987499, "name": "Qamaria Yemeni Coffee Co.", "category": "cafe", "tags": ["cafe", "coffee-shop", "middle-eastern", "takeaway", "air-conditioned", "wifi", "coffee"], "sources": ["osm", "overture"], "website": "https://www.qamariacoffee.com/", "phone": "+12067941422", "address": "17527 NE 67th Ct", "hours": "Mo-Th,Su 08:00-22:00; Fr-Sa 08:00-24:00"}, "geometry": {"type": "Point", "coordinates": [-122.1058595, 47.6650503]}}, {"type": "Feature", "properties": {"id": 105757826, "name": "Family Pancake House", "category": "restaurant", "tags": ["restaurant", "indoor-seating", "wheelchair-accessible", "air-conditioned", "breakfast-and-brunch", "breakfast", "brunch", "theme", "american"], "sources": ["osm", "overture"], "website": "http://www.familypancakehouse.com/", "phone": "+14258830922", "address": "17621 Redmond Wy", "hours": "Mo-Su 06:30-20:00"}, "geometry": {"type": "Point", "coordinates": [-122.1044913, 47.6685035]}}, {"type": "Feature", "properties": {"id": "b32ad3b4-c4c0-46ea-a2b4-8cef56f52cf4", "name": "Blazing Bagels", "category": "bakery", "tags": ["bakery"], "sources": ["overture"], "website": "https://www.blazingbagels.com", "phone": "+14258812243", "address": "6975 176th Ave Ne Ste 365"}, "geometry": {"type": "Point", "coordinates": [-122.1065216, 47.666687]}}, {"type": "Feature", "properties": {"id": "826bce5a-0b53-48ea-be85-85d71c44a57c", "name": "Hyderabadi Biryani", "category": "restaurant", "tags": ["restaurant", "indian"], "sources": ["overture"], "website": "http://www.hyderabadibiryani.net", "phone": "(425) 818-5352", "address": "6855 176th Ave NE"}, "geometry": {"type": "Point", "coordinates": [-122.1063614, 47.6664314]}}, {"type": "Feature", "properties": {"id": "13c598f7-aa8a-4608-9b92-aec8917a0d18", "name": "Izakaya Supa Banana", "category": "restaurant", "tags": ["restaurant", "japanese", "asian"], "sources": ["overture"], "website": "http://supabanana.com/", "phone": "+14254726748", "address": "17620 NE 69th Ct Ste 120"}, "geometry": {"type": "Point", "coordinates": [-122.1052094, 47.667408]}}, {"type": "Feature", "properties": {"id": "46b066a8-0094-4a8a-8065-febae250640c", "name": "Bonefrog Coffee", "category": "cafe", "tags": ["cafe", "coffee"], "sources": ["overture"], "website": "https://bonefrogcoffee.com/", "address": "17725 NE 65th St"}, "geometry": {"type": "Point", "coordinates": [-122.1043167, 47.6636581]}}, {"type": "Feature", "properties": {"id": "92c64137-9f22-4e7f-9eb2-4b10e625d9e4", "name": "Caffe Lusso Roastery", "category": "cafe", "tags": ["cafe", "coffee"], "sources": ["overture"], "website": "http://www.caffelusso.com/", "phone": "+14252842327", "address": "17725 NE 65th St"}, "geometry": {"type": "Point", "coordinates": [-122.1040649, 47.6635628]}}, {"type": "Feature", "properties": {"id": "31c20c3f-56e0-4b36-9817-e70ba8ee7b47", "name": "Postdoc Brewing Redmond", "category": "bar", "tags": ["bar", "brewery"], "sources": ["overture"], "website": "http://www.postdocbrewing.com/", "phone": "+14256584963", "address": "17625 NE 65th St"}, "geometry": {"type": "Point", "coordinates": [-122.1053772, 47.6637115]}}, {"type": "Feature", "properties": {"id": "eb4b8f74-bfb5-4730-b654-cc69461e2e17", "name": "Jawhara Cafe", "category": "restaurant", "tags": ["restaurant", "moroccan", "middle-eastern", "mediterranean"], "sources": ["overture"], "website": "http://www.jawharacafe.com/", "phone": "+14255163098", "address": "17550 NE 67th Ct #207"}, "geometry": {"type": "Point", "coordinates": [-122.1065674, 47.665554]}}, {"type": "Feature", "properties": {"id": "a727884f-46b6-4d42-bab0-446ba4af49c8", "name": "Ummah Coffee", "category": "cafe", "tags": ["cafe", "coffee"], "sources": ["overture"], "website": "http://www.ummahcoffee.com/", "phone": "+14253062294", "address": "17550 NE 67th Ct"}, "geometry": {"type": "Point", "coordinates": [-122.1065369, 47.6658173]}}, {"type": "Feature", "properties": {"id": "4ccfad32-63af-45ec-b89c-86cc20147841", "name": "Arabisk Cafe", "category": "cafe", "tags": ["cafe"], "sources": ["overture"], "website": "http://www.arabiskcafe.com", "phone": "(503) 489-9443", "address": "17550 NE 67th Ct"}, "geometry": {"type": "Point", "coordinates": [-122.1066666, 47.6658363]}}, {"type": "Feature", "properties": {"id": "a8fd1257-8fb5-45c9-a5c1-17bac2c5f211", "name": "Raining Cookies", "category": "bakery", "tags": ["bakery"], "sources": ["overture"], "website": "https://www.rainingcookies.com", "phone": "14258027301", "address": "6855 176th Ave Ne  Ste 200"}, "geometry": {"type": "Point", "coordinates": [-122.1065216, 47.666687]}}, {"type": "Feature", "properties": {"id": 12827685985, "name": "Air Grove", "category": "artwork", "tags": ["artwork"], "sources": ["osm"]}, "geometry": {"type": "Point", "coordinates": [-122.108174, 47.6675014]}}, {"type": "Feature", "properties": {"id": 13650893106, "name": "Spoke", "category": "artwork", "tags": ["artwork"], "sources": ["osm"], "stations": [{"stopCode": 64, "lines": "2", "name": "Marymoor Village Station", "walkingMeters": 1060, "walkingSeconds": 807, "band": 15}]}, "geometry": {"type": "Point", "coordinates": [-122.1079225, 47.6648358]}}, {"type": "Feature", "properties": {"id": "60eb956c-35c4-4bfe-b3ac-0923c6c407a2", "name": "Spectra Apartments", "category": "attraction", "tags": ["attraction", "landmark", "historical", "building"], "sources": ["overture"], "website": "http://spectraapts.com/?utm_source=free-local-listing&utm_medium=organic", "phone": "+12064880679", "address": "17620 NE 69th Ct"}, "geometry": {"type": "Point", "coordinates": [-122.1043015, 47.6666565]}}, {"type": "Feature", "properties": {"id": "47cd6fb4-93f7-4fa6-9932-a7559fb4245a", "name": "The Spoke Apartments", "category": "attraction", "tags": ["attraction", "landmark", "historical", "building"], "sources": ["overture"], "website": "https://thespokeredmond.com/?utm_source=Facebook&utm_medium=social&utm_iq=social", "phone": "+14254753940", "address": "17565 NE 67th Ct", "stations": [{"stopCode": 64, "lines": "2", "name": "Marymoor Village Station", "walkingMeters": 1136, "walkingSeconds": 848, "band": 15}]}, "geometry": {"type": "Point", "coordinates": [-122.1072311, 47.66502]}}, {"type": "Feature", "properties": {"id": "d340206c-75cd-4278-bedd-b94e93b2aa61", "name": "Marymoor Park - East Marymoor Lot", "category": "park", "tags": ["park"], "sources": ["overture"], "website": "https://en.parkopedia.com/parking/lot/marymoor_park_east_marymoor_lot/98052/redmond/?vendor=here", "phone": "+12064777275", "stations": [{"stopCode": 64, "lines": "2", "name": "Marymoor Village Station", "walkingMeters": 1114, "walkingSeconds": 860, "band": 15}]}, "geometry": {"type": "Point", "coordinates": [-122.1062241, 47.6638031]}}, {"type": "Feature", "properties": {"id": "c58f45d5-e2f9-46b6-be2d-7f392deef674", "name": "Marybelle Meadow", "category": "playground", "tags": ["playground"], "sources": ["overture"], "website": "http://www.kingcounty.gov/services/parks-recreation/parks/parks-and-natural-lands/popular-parks/marymoor.aspx", "address": "17525 NE 65th St", "stations": [{"stopCode": 64, "lines": "2", "name": "Marymoor Village Station", "walkingMeters": 984, "walkingSeconds": 734, "band": 15}]}, "geometry": {"type": "Point", "coordinates": [-122.1079025, 47.6622658]}}, {"type": "Feature", "properties": {"id": 140512149, "name": "Redmond Inn", "category": "hotel", "tags": ["hotel"], "sources": ["osm", "overture"], "website": "https://www.redmondinn.com/", "phone": "+18006348080", "address": "17601 Redmond Wy"}, "geometry": {"type": "Point", "coordinates": [-122.1053134, 47.6684214]}}, {"type": "Feature", "properties": {"id": "c63a652f-65ad-47dc-91d0-55afddf4132f", "name": "Perma-Chink Systems", "category": "hardware", "tags": ["hardware"], "sources": ["overture"], "website": "http://www.permachink.com", "phone": "+14258856050", "address": "17635 NE 67th Ct"}, "geometry": {"type": "Point", "coordinates": [-122.1042862, 47.6648636]}}, {"type": "Feature", "properties": {"id": "6578a6de-23b9-4447-b3ed-57600c139c37", "name": "Tsukineko", "category": "art", "tags": ["art", "supply"], "sources": ["overture"], "website": "http://www.tsukineko.com", "phone": "+14258837733", "address": "17640 NE 65th St"}, "geometry": {"type": "Point", "coordinates": [-122.1046677, 47.6643448]}}, {"type": "Feature", "properties": {"id": "fbf3a255-4818-4496-8e5a-14c7ae6adb8a", "name": "Office Pros, New Office Furniture", "category": "furniture", "tags": ["furniture"], "sources": ["overture"], "website": "https://www.officeproswa.com", "phone": "(425) 434-8900", "address": "17455 NE 67th Ct #110", "stations": [{"stopCode": 64, "lines": "2", "name": "Marymoor Village Station", "walkingMeters": 1017, "walkingSeconds": 776, "band": 15}]}, "geometry": {"type": "Point", "coordinates": [-122.1082458, 47.6645508]}}, {"type": "Feature", "properties": {"id": "30f7b7cb-e679-45c2-9634-90c19b5fb7db", "name": "Luv Macarons", "category": "supermarket", "tags": ["supermarket"], "sources": ["overture"], "website": "luvmacs.com", "address": "6855 176th Ave Ne Ste 270"}, "geometry": {"type": "Point", "coordinates": [-122.1065216, 47.666687]}}, {"type": "Feature", "properties": {"id": 5910668480, "name": "Fuse Barbell Clu", "category": "sports_centre", "tags": ["sports-centre", "weightlifting", "crossfit"], "sources": ["osm"]}, "geometry": {"type": "Point", "coordinates": [-122.1049385, 47.6635768]}}, {"type": "Feature", "properties": {"id": 10719481910, "name": "Sasquatch Strength", "category": "fitness_centre", "tags": ["fitness-centre", "fitness"], "sources": ["osm"], "website": "https://www.sasquatchstrength.com/redmond", "phone": "+1-425-300-1499", "address": "17620 Northeast 69th Court"}, "geometry": {"type": "Point", "coordinates": [-122.105196, 47.6674019]}}, {"type": "Feature", "properties": {"id": "c4e7b456-810b-4da2-8f98-6858caa9ff3a", "name": "Sasquatch Strength - Redmond", "category": "fitness_centre", "tags": ["fitness-centre", "gym"], "sources": ["overture"], "website": "http://www.sasquatchstrength.com/redmond", "phone": "+14253001499", "address": "17620 NE 69th Ct #140"}, "geometry": {"type": "Point", "coordinates": [-122.1050949, 47.6671906]}}, {"type": "Feature", "properties": {"id": "9c2e5489-9fe5-4c23-b3a1-1ed222e6c4c5", "name": "Pacific Fitness Washington", "category": "fitness_centre", "tags": ["fitness-centre", "gym"], "sources": ["overture"], "phone": "+12066419126", "address": "17625 NE 65th St"}, "geometry": {"type": "Point", "coordinates": [-122.1050034, 47.6636429]}}, {"type": "Feature", "properties": {"id": "fafb251d-6c16-43ba-bfab-c0b6de5ac185", "name": "Pendano Elite Fitness & Athletics", "category": "fitness_centre", "tags": ["fitness-centre", "gym"], "sources": ["overture"], "website": "https://pendanofitness.com", "phone": "+14252136555", "address": "17625 Ne 65th St Ste 115"}, "geometry": {"type": "Point", "coordinates": [-122.1050186, 47.6636314]}}, {"type": "Feature", "properties": {"id": "739caf23-d879-46c7-aadb-963e592ef049", "name": "CrossFit Fuse", "category": "fitness_centre", "tags": ["fitness-centre", "gym"], "sources": ["overture"], "website": "http://www.crossfit-fuse.com/", "phone": "4258614996", "address": "17625 NE 65th St"}, "geometry": {"type": "Point", "coordinates": [-122.1050186, 47.6636353]}}, {"type": "Feature", "properties": {"id": "eadac5f7-f2a3-4915-9fe7-b8943d21d0ac", "name": "City Of Redmond Park & Recreation", "category": "fitness_centre", "tags": ["fitness-centre", "gym"], "sources": ["overture"], "website": "https://www.redmond.gov", "phone": "14255562300", "address": "6505 176th Ave NE", "stations": [{"stopCode": 64, "lines": "2", "name": "Marymoor Village Station", "walkingMeters": 1191, "walkingSeconds": 889, "band": 15}]}, "geometry": {"type": "Point", "coordinates": [-122.1062164, 47.6642265]}}, {"type": "Feature", "properties": {"id": "e43d8766-8a8a-4aa3-9ca4-541420ea8acc", "name": "Kulikov Boxing Team Llc", "category": "fitness_centre", "tags": ["fitness-centre", "gym"], "sources": ["overture"], "phone": "4256339557", "address": "17519 NE 67th Ct", "stations": [{"stopCode": 64, "lines": "2", "name": "Marymoor Village Station", "walkingMeters": 1131, "walkingSeconds": 844, "band": 15}]}, "geometry": {"type": "Point", "coordinates": [-122.1072006, 47.6648827]}}, {"type": "Feature", "properties": {"id": "f0a34952-b166-4c40-bf6f-cbf54b197795", "name": "Sasquatch Crossfit", "category": "fitness_centre", "tags": ["fitness-centre", "gym"], "sources": ["overture"], "website": "http://sasquatchcrossfit.com/", "phone": "(360) 991-3264", "address": "17523 NE 67th Ct", "stations": [{"stopCode": 64, "lines": "2", "name": "Marymoor Village Station", "walkingMeters": 1140, "walkingSeconds": 875, "band": 15}]}, "geometry": {"type": "Point", "coordinates": [-122.1068344, 47.6647911]}}, {"type": "Feature", "properties": {"id": "80591b48-e6e3-481b-8df4-0ca4c0e1b92f", "name": "CrossFit PTV Redmond", "category": "fitness_centre", "tags": ["fitness-centre", "gym"], "sources": ["overture"], "website": "http://www.crossfitptv.com/", "phone": "4256106184", "address": "17455 NE 67th Ct #110", "stations": [{"stopCode": 64, "lines": "2", "name": "Marymoor Village Station", "walkingMeters": 1014, "walkingSeconds": 774, "band": 15}]}, "geometry": {"type": "Point", "coordinates": [-122.1081848, 47.6645279]}}]}