{"type": "FeatureCollection", "features": [{"type": "Feature", "properties": {"id": 1730821899, "name": "1906 Kobe Sister City Monument", "category": "artwork", "tags": ["artwork"], "sources": ["osm"]}, "geometry": {"type": "Point", "coordinates": [-122.2879832, 47.5825827]}}, {"type": "Feature", "properties": {"id": 3211770081, "name": "Garden Path", "category": "artwork", "tags": ["artwork"], "sources": ["osm"], "address": "2301 Lake Washington Boulevard South"}, "geometry": {"type": "Point", "coordinates": [-122.288167, 47.581717]}}, {"type": "Feature", "properties": {"id": 3211770086, "name": "Japanese Lantern", "category": "artwork", "tags": ["artwork"], "sources": ["osm"], "address": "2301 Lake Washington Boulevard South"}, "geometry": {"type": "Point", "coordinates": [-122.28795, 47.5825]}}, {"type": "Feature", "properties": {"id": "336d6d72-006a-4663-ae45-3852ddfbd87b", "name": "Heron House", "category": "gallery", "tags": ["gallery", "art"], "sources": ["overture"], "address": "1732 Lakeside Ave S"}, "geometry": {"type": "Point", "coordinates": [-122.2864304, 47.5866814]}}, {"type": "Feature", "properties": {"id": 57885587, "name": "Mount Claire Park", "category": "park", "tags": ["park"], "sources": ["osm"], "website": "https://www.seattle.gov/parks/allparks/mount-claire-park"}, "geometry": {"type": "Point", "coordinates": [-122.2864297, 47.5806915]}}, {"type": "Feature", "properties": {"id": 184544066, "name": "South Atlantic Street End", "category": "park", "tags": ["park"], "sources": ["osm"]}, "geometry": {"type": "Point", "coordinates": [-122.2853426, 47.5887806]}}, {"type": "Feature", "properties": {"id": 184544522, "name": "South Massachusetts Public Shore", "category": "park", "tags": ["park"], "sources": ["osm"]}, "geometry": {"type": "Point", "coordinates": [-122.2856014, 47.5876444]}}, {"type": "Feature", "properties": {"id": 294615040, "name": "South Holgate Street End", "category": "park", "tags": ["park"], "sources": ["osm"]}, "geometry": {"type": "Point", "coordinates": [-122.285926, 47.5864974]}}, {"type": "Feature", "properties": {"id": "59cdbc50-289b-4896-8d40-2ddc7efd10b8", "name": "Mount Baker Park", "category": "park", "tags": ["park"], "sources": ["overture"], "website": "http://seattle.gov/parks/park_detail.asp?ID=419", "phone": "+12066844075", "address": "2521 Lake Park Dr S", "stations": [{"stopCode": 57, "lines": "1", "name": "Mount Baker Station", "walkingMeters": 1218, "walkingSeconds": 877, "band": 15}]}, "geometry": {"type": "Point", "coordinates": [-122.2884521, 47.5808868]}}]}