{"type": "FeatureCollection", "features": [{"type": "Feature", "properties": {"id": "5fe53a33-9fa1-4428-bf80-9a76dd961868", "name": "Taluswood Apartments", "category": "attraction", "tags": ["attraction", "landmark", "historical", "building"], "sources": ["overture"], "website": "https://www.taluswoodapartments.com", "phone": "+14256065403", "address": "4208 236th St SW"}, "geometry": {"type": "Point", "coordinates": [-122.2894363, 47.784584]}}, {"type": "Feature", "properties": {"id": 301946817, "name": "City Light Woods Park", "category": "park", "tags": ["park"], "sources": ["osm"], "hours": "sunrise-sunset"}, "geometry": {"type": "Point", "coordinates": [-122.2820604, 47.7853988]}}, {"type": "Feature", "properties": {"id": 546165650, "name": "Markland Woods Playground", "category": "park", "tags": ["park"], "sources": ["osm"]}, "geometry": {"type": "Point", "coordinates": [-122.2898947, 47.7872013]}}, {"type": "Feature", "properties": {"id": "643392be-3dc8-4e9a-a063-8fcdd18d8e7b", "name": "City Light Woods", "category": "park", "tags": ["park"], "sources": ["overture"], "address": "236th St SW"}, "geometry": {"type": "Point", "coordinates": [-122.2809219, 47.7885094]}}]}