{"type": "FeatureCollection", "features": [{"type": "Feature", "properties": {"id": "105ab362-2646-4272-a2d0-13f40b44faeb", "name": "Newcastle Espresso", "category": "cafe", "tags": ["cafe", "coffee"], "sources": ["overture"], "website": "https://newcastlecoffeecompany.com/contact-us", "phone": "+12068541220", "address": "6420 Lake Washington Blvd SE"}, "geometry": {"type": "Point", "coordinates": [-122.1912994, 47.5450897]}}, {"type": "Feature", "properties": {"id": "1acc7ec7-2852-4df6-9f18-8d727bb0e6ac", "name": "Bellevue Park 2", "category": "attraction", "tags": ["attraction", "landmark", "historical", "building"], "sources": ["overture"], "website": "http://www.bellevuepark2.info/", "phone": "+14256818630", "address": "6022 Lake Washington Blvd SE"}, "geometry": {"type": "Point", "coordinates": [-122.1904907, 47.5491219]}}, {"type": "Feature", "properties": {"id": 13386877891, "name": "Porter Jensen Jewelers", "category": "jewelry", "tags": ["jewelry"], "sources": ["osm", "overture"], "website": "http://porterjensen.com/", "phone": "+14257933730", "address": "6401 Lake Washington Blvd SE"}, "geometry": {"type": "Point", "coordinates": [-122.1913354, 47.5456927]}}, {"type": "Feature", "properties": {"id": 368404796, "name": "Newcastle Shell", "category": "convenience", "tags": ["convenience"], "sources": ["osm"], "website": "http://www.shell.us/", "phone": "+1-425-255-2754", "address": "6420 Lake Washington Boulevard Southeast", "hours": "Mo-Fr 08:00-17:00 || Sa open \"by appointment\""}, "geometry": {"type": "Point", "coordinates": [-122.1913023, 47.5451593]}}]}