{"type": "FeatureCollection", "features": [{"type": "Feature", "properties": {"id": 4789555721, "name": "Just Poke", "category": "restaurant", "tags": ["restaurant", "poke", "takeaway", "wheelchair-accessible", "seafood", "hawaiian"], "sources": ["osm", "overture"], "website": "https://justpoke.com/", "phone": "+14252420889", "address": "7345 164th Ave NE Ste I-147", "hours": "Mo-Su 11:00-20:00", "stations": [{"stopCode": 65, "lines": "2", "name": "Downtown Redmond Station", "walkingMeters": 569, "walkingSeconds": 416, "band": 10}]}, "geometry": {"type": "Point", "coordinates": [-122.1217339, 47.6698313]}}, {"type": "Feature", "properties": {"id": 2626130765, "name": "Matts' Rotisserie & Oyster Lounge", "category": "restaurant", "tags": ["restaurant", "regional"], "sources": ["osm"], "website": "https://www.mattsrotisserie.com/", "phone": "+1-425-376-0909", "address": "16551 Northeast 74th Street", "hours": "Mo-Th 11:00-21:00; Fr,Sa 11:00-10:00", "stations": [{"stopCode": 65, "lines": "2", "name": "Downtown Redmond Station", "walkingMeters": 636, "walkingSeconds": 464, "band": 10}]}, "geometry": {"type": "Point", "coordinates": [-122.1200345, 47.6697211]}}, {"type": "Feature", "properties": {"id": 3731149444, "name": "Creperie de Paris", "category": "cafe", "tags": ["cafe"], "sources": ["osm"], "phone": "+1-425-882-4700", "address": "16503 Northeast 74th Street", "stations": [{"stopCode": 65, "lines": "2", "name": "Downtown Redmond Station", "walkingMeters": 636, "walkingSeconds": 464, "band": 10}]}, "geometry": {"type": "Point", "coordinates": [-122.1200369, 47.6697989]}}, {"type": "Feature", "properties": {"id": 12004776069, "name": "Fuji Steakhouse", "category": "restaurant", "tags": ["restaurant", "japanese", "steak-house", "sushi"], "sources": ["osm", "overture"], "website": "https://fuji-steakhouse.com/", "phone": "+14259685800", "address": "7330 164th Ave NE", "hours": "Mo-Th 03:30-21:30; Fr-Su 12:00-14:30,15:30-21:30", "stations": [{"stopCode": 65, "lines": "2", "name": "Downtown Redmond Station", "walkingMeters": 621, "walkingSeconds": 453, "band": 10}]}, "geometry": {"type": "Point", "coordinates": [-122.1203507, 47.6698189]}}, {"type": "Feature", "properties": {"id": 14020896316, "name": "AKB, a hotel bar", "category": "bar", "tags": ["bar", "breakfast-and-brunch"], "sources": ["osm", "overture"], "website": "https://www.akbhotelbar.com/location/redmond/", "phone": "4256583000", "address": "7200 164th Avenue NE", "stations": [{"stopCode": 65, "lines": "2", "name": "Downtown Redmond Station", "walkingMeters": 732, "walkingSeconds": 533, "band": 10}]}, "geometry": {"type": "Point", "coordinates": [-122.1203414, 47.6688283]}}, {"type": "Feature", "properties": {"id": "cef4a1b9-78c6-4d4f-b419-a650f8db3fb7", "name": "Archer's Kitchen + Bar", "category": "restaurant", "tags": ["restaurant", "american"], "sources": ["overture"], "website": "https://www.archerhotel.com/redmond/archer-kitchen", "phone": "+18554379100", "address": "7200 164th Ave NE", "stations": [{"stopCode": 65, "lines": "2", "name": "Downtown Redmond Station", "walkingMeters": 700, "walkingSeconds": 510, "band": 10}]}, "geometry": {"type": "Point", "coordinates": [-122.1204834, 47.6688919]}}, {"type": "Feature", "properties": {"id": 10314105826, "name": "Legend of the Moon", "category": "artwork", "tags": ["artwork"], "sources": ["osm"], "stations": [{"stopCode": 64, "lines": "2", "name": "Marymoor Village Station", "walkingMeters": 500, "walkingSeconds": 360, "band": 10}]}, "geometry": {"type": "Point", "coordinates": [-122.1219761, 47.663388]}}, {"type": "Feature", "properties": {"id": 12162601865, "name": "House Post", "category": "artwork", "tags": ["artwork"], "sources": ["osm"], "website": "https://www.redmond.gov/2039/House-Post", "stations": [{"stopCode": 65, "lines": "2", "name": "Downtown Redmond Station", "walkingMeters": 733, "walkingSeconds": 538, "band": 10}]}, "geometry": {"type": "Point", "coordinates": [-122.1232843, 47.6684801]}}, {"type": "Feature", "properties": {"id": 12508614202, "name": "Giant Baseball", "category": "artwork", "tags": ["artwork"], "sources": ["osm"], "stations": [{"stopCode": 64, "lines": "2", "name": "Marymoor Village Station", "walkingMeters": 839, "walkingSeconds": 603, "band": 15}]}, "geometry": {"type": "Point", "coordinates": [-122.124518, 47.6640618]}}, {"type": "Feature", "properties": {"id": "c737e2be-2aea-4806-939c-fcc3bdd7db0a", "name": "James W. Clise House", "category": "attraction", "tags": ["attraction", "landmark", "historical", "building"], "sources": ["overture"], "stations": [{"stopCode": 64, "lines": "2", "name": "Marymoor Village Station", "walkingMeters": 561, "walkingSeconds": 403, "band": 15}]}, "geometry": {"type": "Point", "coordinates": [-122.1228104, 47.6646843]}}, {"type": "Feature", "properties": {"id": "fd85608e-3c77-44ed-96b3-28bbe8c1b50f", "name": "Marymoor Park", "category": "park", "tags": ["park"], "sources": ["overture"], "website": "http://www.kingcounty.gov/recreation/parks/inventory/marymoor.aspx", "phone": "+14254526885", "address": "NE Marymoor Wy", "stations": [{"stopCode": 64, "lines": "2", "name": "Marymoor Village Station", "walkingMeters": 381, "walkingSeconds": 284, "band": 10}]}, "geometry": {"type": "Point", "coordinates": [-122.1217651, 47.6627197]}}, {"type": "Feature", "properties": {"id": "526a3f24-b4a7-405d-8f6f-5c8db84cd651", "name": "Marymoor Park", "category": "park", "tags": ["park"], "sources": ["overture"], "website": "http://www.kingcounty.gov/services/parks-recreation/parks/parks-and-natural-lands/popular-parks/marymoor.aspx", "phone": "+12064777275", "address": "6046 West Lake Sammamish Pkwy NE", "stations": [{"stopCode": 64, "lines": "2", "name": "Marymoor Village Station", "walkingMeters": 588, "walkingSeconds": 423, "band": 10}]}, "geometry": {"type": "Point", "coordinates": [-122.1207962, 47.6632996]}}, {"type": "Feature", "properties": {"id": "8c8120da-c5d6-4d95-bc1f-d7b3644ed507", "name": "Redmond Central Connector", "category": "park", "tags": ["park"], "sources": ["overture"], "website": "https://www.traillink.com/trail/redmond-central-connector", "phone": "(425) 556-2723", "address": "Bear Creek Pkwy", "stations": [{"stopCode": 65, "lines": "2", "name": "Downtown Redmond Station", "walkingMeters": 609, "walkingSeconds": 448, "band": 10}]}, "geometry": {"type": "Point", "coordinates": [-122.1222153, 47.6687164]}}, {"type": "Feature", "properties": {"id": "95845a74-dcbe-4fad-9fea-12e46dd0cf0d", "name": "Marymoor windmill", "category": "park", "tags": ["park"], "sources": ["overture"], "stations": [{"stopCode": 64, "lines": "2", "name": "Marymoor Village Station", "walkingMeters": 543, "walkingSeconds": 405, "band": 10}]}, "geometry": {"type": "Point", "coordinates": [-122.1235352, 47.6624451]}}, {"type": "Feature", "properties": {"id": 660181045, "name": "Archer Hotel", "category": "hotel", "tags": ["hotel"], "sources": ["osm"], "website": "https://archerhotel.com", "address": "7200 164th Avenue Northeast", "stations": [{"stopCode": 65, "lines": "2", "name": "Downtown Redmond Station", "walkingMeters": 692, "walkingSeconds": 505, "band": 10}]}, "geometry": {"type": "Point", "coordinates": [-122.120847, 47.6688144]}}, {"type": "Feature", "properties": {"id": "48e34c0f-8672-499d-a71d-3bafafd092d9", "name": "Archer Hotel Redmond", "category": "hotel", "tags": ["hotel"], "sources": ["overture"], "website": "https://archerhotel.com/redmond", "phone": "+14256583000", "address": "7200 164th Ave NE", "stations": [{"stopCode": 65, "lines": "2", "name": "Downtown Redmond Station", "walkingMeters": 695, "walkingSeconds": 506, "band": 10}]}, "geometry": {"type": "Point", "coordinates": [-122.1208115, 47.6688423]}}, {"type": "Feature", "properties": {"id": 2703202976, "name": "Marymoor Games", "category": "toys", "tags": ["toys", "wheelchair-accessible"], "sources": ["osm"], "website": "https://www.unclesgames.com/", "phone": "+1-425-497-9180", "address": "16507 Northeast 74th Street", "hours": "Su 11:00-19:00; Mo-We 10:00-21:00; Th 10:00-22:00; Fr 10:00+; Sa 10:00-21:00", "stations": [{"stopCode": 65, "lines": "2", "name": "Downtown Redmond Station", "walkingMeters": 630, "walkingSeconds": 460, "band": 10}]}, "geometry": {"type": "Point", "coordinates": [-122.1200285, 47.6698683]}}, {"type": "Feature", "properties": {"id": "e7ead826-f561-44be-abaf-9cc6fe52f39c", "name": "Daiso", "category": "variety_store", "tags": ["variety-store", "discount"], "sources": ["overture"], "website": "https://www.daisous.com", "address": "7330 164th Ave Ne Ste E115", "stations": [{"stopCode": 65, "lines": "2", "name": "Downtown Redmond Station", "walkingMeters": 693, "walkingSeconds": 517, "band": 10}]}, "geometry": {"type": "Point", "coordinates": [-122.1203003, 47.669487]}}, {"type": "Feature", "properties": {"id": "617f9c2b-3581-4f78-806f-4c7050bfbbd3", "name": "Hashtag Cannabis - Redmond Marijuana Dispensary", "category": "cannabis", "tags": ["cannabis"], "sources": ["overture"], "website": "https://shop-redmond.seattlehashtag.com/rec/menu", "phone": "4252563148", "address": "7829 Leary Way NE", "stations": [{"stopCode": 65, "lines": "2", "name": "Downtown Redmond Station", "walkingMeters": 634, "walkingSeconds": 466, "band": 10}]}, "geometry": {"type": "Point", "coordinates": [-122.1298981, 47.6698456]}}, {"type": "Feature", "properties": {"id": "ab864442-868b-4db4-8992-bf1481bce278", "name": "Etiquette", "category": "clothes", "tags": ["clothes", "womens"], "sources": ["overture"], "website": "https://redmondtowncenter.com", "phone": "+14254971711", "address": "7330 164th Ave Ne Ste E145", "stations": [{"stopCode": 65, "lines": "2", "name": "Downtown Redmond Station", "walkingMeters": 693, "walkingSeconds": 517, "band": 10}]}, "geometry": {"type": "Point", "coordinates": [-122.1203003, 47.669487]}}, {"type": "Feature", "properties": {"id": "0a4412f6-5074-4b4f-aac4-00ff2e6bbf86", "name": "Kinwell", "category": "clinic", "tags": ["clinic", "medical"], "sources": ["overture"], "phone": "+18334115469", "address": "7330 164th Ave Ne Ste E160", "stations": [{"stopCode": 65, "lines": "2", "name": "Downtown Redmond Station", "walkingMeters": 693, "walkingSeconds": 517, "band": 10}]}, "geometry": {"type": "Point", "coordinates": [-122.1203003, 47.669487]}}, {"type": "Feature", "properties": {"id": 13846218392, "name": "Pony Express", "category": "post_office", "tags": ["post-office"], "sources": ["osm"], "website": "https://www.ponyexpressredmond.com/", "phone": "+1-425-881-2449", "address": "7345 164th Avenue Northeast", "hours": "Mo-Fr 09:00-18:00; Sa 10:00-16:00", "stations": [{"stopCode": 65, "lines": "2", "name": "Downtown Redmond Station", "walkingMeters": 547, "walkingSeconds": 400, "band": 10}]}, "geometry": {"type": "Point", "coordinates": [-122.1217325, 47.6699018]}}]}