{"type": "FeatureCollection", "features": [{"type": "Feature", "properties": {"id": "3d020e3b-93fb-453a-812b-062b41ea1cc0", "name": "Sunrise Tacos", "category": "restaurant", "tags": ["restaurant", "mexican"], "sources": ["overture"], "website": "http://sunrisetacosseattle.com/"}, "geometry": {"type": "Point", "coordinates": [-122.268692, 47.5624199]}}, {"type": "Feature", "properties": {"id": "5d40d0a5-fb02-4072-8043-fde180401c74", "name": "Lake Washington Boulevard Park", "category": "park", "tags": ["park"], "sources": ["overture"], "website": "http://www.seattle.gov/parks/park_detail.asp?ID=412", "phone": "+12066844075", "address": "4500 Lake Washington Blvd S"}, "geometry": {"type": "Point", "coordinates": [-122.2655182, 47.5614395]}}, {"type": "Feature", "properties": {"id": "3c968573-349a-472a-9f3f-c70452be4100", "name": "Lakewood Moorage", "category": "park", "tags": ["park"], "sources": ["overture"], "website": "http://www.seattle.gov/parks/boats/lakewoodmoorage.htm", "phone": "+12067223887", "address": "4500 Lake Washington Blvd S"}, "geometry": {"type": "Point", "coordinates": [-122.2667236, 47.5634041]}}, {"type": "Feature", "properties": {"id": "66c537dc-da35-42f7-bfbf-cdce71bbf0b9", "name": "Mt Baker Park", "category": "park", "tags": ["park"], "sources": ["overture"], "website": "http://seattle.gov/parks/park_detail.asp?ID=419", "address": "4677 Lake Washington Blvd S"}, "geometry": {"type": "Point", "coordinates": [-122.2658386, 47.5608673]}}]}