{"type": "FeatureCollection", "features": [{"type": "Feature", "properties": {"id": "592469ed-f16d-4bbb-96a7-017246d2d9c3", "name": "El Pollo Real 2", "category": "restaurant", "tags": ["restaurant", "mexican", "taco", "texmex"], "sources": ["overture"], "website": "http://elpolloreal.us", "phone": "+12065654271", "address": "12449 E Marginal Way S"}, "geometry": {"type": "Point", "coordinates": [-122.2852707, 47.4910316]}}, {"type": "Feature", "properties": {"id": "94451518-a044-4c6c-9620-da02ff78c1dc", "name": "Sears Home Services", "category": "doityourself", "tags": ["doityourself", "home", "improvement"], "sources": ["overture"], "website": "https://www.searshomeservices.com/locations/hi/hvac/wa/seattle", "phone": "+14252508669", "address": "3425 S 116th St"}, "geometry": {"type": "Point", "coordinates": [-122.2873306, 47.4992409]}}, {"type": "Feature", "properties": {"id": "caa109df-1644-4f51-8257-9cc64e443b8f", "name": "Sahale Snacks", "category": "supermarket", "tags": ["supermarket"], "sources": ["overture"], "website": "http://www.sahalesnacks.com", "phone": "+12067109123", "address": "3411 S 120th Pl #100"}, "geometry": {"type": "Point", "coordinates": [-122.287674, 47.4948349]}}, {"type": "Feature", "properties": {"id": "30cbe06a-6560-4d79-955e-560b27720b84", "name": "Group Health Cooperative", "category": "clinic", "tags": ["clinic", "medical"], "sources": ["overture"], "phone": "+12063263430", "address": "12401 E Marginal Way S"}, "geometry": {"type": "Point", "coordinates": [-122.2872772, 47.491539]}}]}