{"type": "FeatureCollection", "features": [{"type": "Feature", "properties": {"id": 2383893058, "name": "Fuel", "category": "cafe", "tags": ["cafe", "coffee-shop", "outdoor-seating", "indoor-seating", "takeaway"], "sources": ["osm"], "website": "https://www.fuelcoffeeseattle.com", "address": "610 19th Avenue East", "hours": "Mo-Su 07:00-17:00"}, "geometry": {"type": "Point", "coordinates": [-122.307136, 47.624752]}}, {"type": "Feature", "properties": {"id": 1726737138, "name": "Taurus Ox", "category": "restaurant", "tags": ["restaurant", "lao", "outdoor-seating", "indoor-seating", "wifi", "asian"], "sources": ["osm", "overture"], "website": "http://taurusox.com/", "phone": "+12069720075", "address": "903 19th Ave E", "hours": "Tu-Sa 12:00-21:00"}, "geometry": {"type": "Point", "coordinates": [-122.307517, 47.6270436]}}, {"type": "Feature", "properties": {"id": 2384439974, "name": "Yeobo Cafe and Bar", "category": "cafe", "tags": ["cafe", "breakfast", "coffee-shop", "korean", "tea", "indoor-seating"], "sources": ["osm"], "website": "https://www.yeobosea.com", "address": "2332 East Madison Street", "hours": "Mo-Tu, Th-Fr 07:00-21:00; Sa-Su 08:00-21:00"}, "geometry": {"type": "Point", "coordinates": [-122.301488, 47.6200605]}}, {"type": "Feature", "properties": {"id": 4318969638, "name": "Hello Robin", "category": "cafe", "tags": ["cafe", "ice-cream", "indoor-seating", "wheelchair-accessible", "air-conditioned", "bakery"], "sources": ["osm", "overture"], "website": "http://www.hellorobincookies.com/", "phone": "+12067357970", "address": "522 19th Ave E", "hours": "11:00-22:00"}, "geometry": {"type": "Point", "coordinates": [-122.3071746, 47.6239997]}}, {"type": "Feature", "properties": {"id": 4318969640, "name": "Rocket Taco", "category": "restaurant", "tags": ["restaurant", "tex-mex", "outdoor-seating", "indoor-seating", "taco", "mexican"], "sources": ["osm", "overture"], "website": "http://www.rocket-taco.com/", "phone": "+12064575355", "address": "602 19th Ave E", "hours": "Mo-Su 11:30-21:00"}, "geometry": {"type": "Point", "coordinates": [-122.307163, 47.6242811]}}, {"type": "Feature", "properties": {"id": 5483119339, "name": "Monsoon", "category": "restaurant", "tags": ["restaurant", "vietnamese", "outdoor-seating", "indoor-seating", "takeaway", "asian"], "sources": ["osm", "overture"], "website": "http://www.monsoonrestaurants.com/", "phone": "+12063252111", "address": "615 19th Ave E", "hours": "Mo-Fr 11:30-22:00; Sa 10:00-24:00; Su 10:00-23:00"}, "geometry": {"type": "Point", "coordinates": [-122.3075106, 47.6248499]}}, {"type": "Feature", "properties": {"id": 5902899189, "name": "Macrina Bakery - Aloha", "category": "cafe", "tags": ["cafe", "outdoor-seating", "indoor-seating"], "sources": ["osm"], "website": "https://macrinabakery.com/aloha-cafe", "phone": "+1-206-328-7573", "hours": "Mo-Su 07:00-18:00"}, "geometry": {"type": "Point", "coordinates": [-122.306994, 47.6265669]}}, {"type": "Feature", "properties": {"id": 6230992087, "name": "Zeeks Pizza - Capitol Hill", "category": "restaurant", "tags": ["restaurant", "pizza", "outdoor-seating", "indoor-seating"], "sources": ["osm"], "address": "1830 East Mercer Street", "hours": "Mo-Th 11:00-21:00; Fr-Su 12:00-21:00"}, "geometry": {"type": "Point", "coordinates": [-122.3074746, 47.6245692]}}, {"type": "Feature", "properties": {"id": "a7167a32-b9a7-4ed4-976a-2d3fc4ea14d2", "name": "Zeeks Pizza", "category": "restaurant", "tags": ["restaurant", "pizza", "italian"], "sources": ["overture"], "website": "https://zeekspizza.com/locations/", "phone": "+12064575997", "address": "1830 E Mercer St"}, "geometry": {"type": "Point", "coordinates": [-122.307457, 47.6245842]}}, {"type": "Feature", "properties": {"id": 13063629597, "name": "Pitch the Baby", "category": "pub", "tags": ["pub"], "sources": ["osm"], "website": "https://www.pitchthebabybar.com", "address": "600 19th Avenue East"}, "geometry": {"type": "Point", "coordinates": [-122.3071283, 47.6245355]}}, {"type": "Feature", "properties": {"id": "70a682c7-5324-4b94-aab6-dfebc1e952e3", "name": "Two Doors Down", "category": "restaurant", "tags": ["restaurant", "burger"], "sources": ["overture"], "website": "twodoorsseattle.com", "phone": "12063242337", "address": "2332 E Madison St"}, "geometry": {"type": "Point", "coordinates": [-122.3014908, 47.62006]}}, {"type": "Feature", "properties": {"id": "c184673f-5c12-4f5a-9363-a77c1aa2d41f", "name": "Macrina Bakery and Cafe", "category": "bakery", "tags": ["bakery"], "sources": ["overture"], "website": "http://www.macrinabakery.com", "phone": "+12063287573", "address": "746 19th Ave E"}, "geometry": {"type": "Point", "coordinates": [-122.307106, 47.6265602]}}, {"type": "Feature", "properties": {"id": "ea00e315-ce02-4c04-b982-c28724cf8ea8", "name": "Money Frog", "category": "restaurant", "tags": ["restaurant", "asian"], "sources": ["overture"], "website": "http://moneyfrogseattle.com", "phone": "(206) 487-9886", "address": "903 19th Ave E"}, "geometry": {"type": "Point", "coordinates": [-122.3076553, 47.6270714]}}, {"type": "Feature", "properties": {"id": "35db4c59-62fb-465f-a020-b63e844ed7a9", "name": "Vios Caf\u00e9 and Marketplace", "category": "restaurant", "tags": ["restaurant", "greek", "mediterranean"], "sources": ["overture"], "website": "http://www.vioscafe.com/", "phone": "2063293236", "address": "903 19th Ave E"}, "geometry": {"type": "Point", "coordinates": [-122.3077011, 47.627018]}}, {"type": "Feature", "properties": {"id": "be37fe1d-4ee7-4023-8dbe-b4c2bb0106bd", "name": "Golden Lotus Inc", "category": "restaurant", "tags": ["restaurant"], "sources": ["overture"], "website": "https://www.monsoonrestaurants.com", "address": "615 19th Ave E"}, "geometry": {"type": "Point", "coordinates": [-122.3076172, 47.6249275]}}, {"type": "Feature", "properties": {"id": "63940c6a-b2d2-4647-a566-0bf3eef6af86", "name": "Golden Lotus Incorporated", "category": "restaurant", "tags": ["restaurant"], "sources": ["overture"], "website": "https://www.monsoonrestaurants.com", "address": "615 19th Ave E"}, "geometry": {"type": "Point", "coordinates": [-122.3076172, 47.6249275]}}, {"type": "Feature", "properties": {"id": "f0257268-08e2-4733-9b9b-4a2314edc178", "name": "Kingfish Cafe", "category": "restaurant", "tags": ["restaurant", "southern"], "sources": ["overture"], "website": "http://www.thekingfishcafe.com", "phone": "(206) 320-8757", "address": "602 19th Ave E"}, "geometry": {"type": "Point", "coordinates": [-122.3073196, 47.6245232]}}, {"type": "Feature", "properties": {"id": "75deabc4-008c-43ed-8303-02c8450db426", "name": "Fuel Coffee & Books", "category": "cafe", "tags": ["cafe", "coffee"], "sources": ["overture"], "website": "https://www.fuelcoffeeseattle.com", "phone": "12063294700", "address": "610 19th Ave E"}, "geometry": {"type": "Point", "coordinates": [-122.3071136, 47.6247368]}}, {"type": "Feature", "properties": {"id": "f6b21ba5-2303-461f-ac79-0e574b6b4011", "name": "Ernest Loves Agnes", "category": "restaurant", "tags": ["restaurant", "italian"], "sources": ["overture"], "website": "http://www.ernestlovesagnes.com", "phone": "(206) 535-8723", "address": "602 19th Ave E"}, "geometry": {"type": "Point", "coordinates": [-122.3072968, 47.6245384]}}, {"type": "Feature", "properties": {"id": "2f156eca-0b81-4e46-a381-be43f37a58af", "name": "Tallulah's", "category": "bar", "tags": ["bar"], "sources": ["overture"], "website": "http://aneighborhoodcafe.com", "phone": "(206) 860-0077", "address": "550 19th Ave E"}, "geometry": {"type": "Point", "coordinates": [-122.3072205, 47.6243057]}}, {"type": "Feature", "properties": {"id": "7615ef75-5ca5-48a6-b395-68304967f467", "name": "Bounty Kitchen Capitol Hill", "category": "restaurant", "tags": ["restaurant", "health-food", "health", "food"], "sources": ["overture"], "website": "http://www.bountykitchenseattle.com", "address": "550 19th Ave E"}, "geometry": {"type": "Point", "coordinates": [-122.3069687, 47.6242599]}}, {"type": "Feature", "properties": {"id": 2383893059, "name": "AMcE Creative Arts", "category": "gallery", "tags": ["gallery", "art"], "sources": ["osm", "overture"], "website": "http://www.amcecreativearts.com/", "phone": "+12065181046", "address": "612 19th Ave E"}, "geometry": {"type": "Point", "coordinates": [-122.3071318, 47.6247952]}}, {"type": "Feature", "properties": {"id": 3211770198, "name": "Lantern Gateway", "category": "artwork", "tags": ["artwork"], "sources": ["osm"]}, "geometry": {"type": "Point", "coordinates": [-122.3072103, 47.6215345]}}, {"type": "Feature", "properties": {"id": 3211770199, "name": "Skyline Canopies", "category": "artwork", "tags": ["artwork"], "sources": ["osm"], "address": "330 19th Avenue East"}, "geometry": {"type": "Point", "coordinates": [-122.30705, 47.6216]}}, {"type": "Feature", "properties": {"id": 3211770200, "name": "House Finial", "category": "artwork", "tags": ["artwork"], "sources": ["osm"]}, "geometry": {"type": "Point", "coordinates": [-122.3070067, 47.6215719]}}, {"type": "Feature", "properties": {"id": "c7ee3a18-9e82-4234-ba78-242e85870ef6", "name": "Coryell Court", "category": "attraction", "tags": ["attraction", "landmark", "historical", "building"], "sources": ["overture"], "address": "1820 E Thomas St", "stations": [{"stopCode": 49, "lines": "1,2", "name": "Capitol Hill Station", "walkingMeters": 1099, "walkingSeconds": 790, "band": 15}]}, "geometry": {"type": "Point", "coordinates": [-122.307663, 47.6206131]}}, {"type": "Feature", "properties": {"id": "15460a56-efba-4ab5-a4ee-21ba8ebb7034", "name": "Thomas Manor", "category": "attraction", "tags": ["attraction", "landmark", "historical", "building"], "sources": ["overture"], "phone": "+12064661189", "address": "1821 E Thomas St", "stations": [{"stopCode": 49, "lines": "1,2", "name": "Capitol Hill Station", "walkingMeters": 1231, "walkingSeconds": 919, "band": 15}]}, "geometry": {"type": "Point", "coordinates": [-122.3077164, 47.6204033]}}, {"type": "Feature", "properties": {"id": 49749535, "name": "Miller Triangle", "category": "park", "tags": ["park"], "sources": ["osm"], "website": "https://www.seattle.gov/parks/allparks/miller-triangle"}, "geometry": {"type": "Point", "coordinates": [-122.3055753, 47.6203481]}}, {"type": "Feature", "properties": {"id": 49749536, "name": "Miller Playfield", "category": "park", "tags": ["park"], "sources": ["osm"], "website": "http://www.seattle.gov/parks/park_detail.asp?id=373", "address": "330 19th Avenue East"}, "geometry": {"type": "Point", "coordinates": [-122.3060431, 47.6215357]}}, {"type": "Feature", "properties": {"id": 60007123, "name": "Prentis I. Frazier Park", "category": "park", "tags": ["park"], "sources": ["osm", "overture"], "website": "http://www.seattle.gov/parks/park_detail.asp?ID=357", "phone": "+12066844075", "address": "401 24th Ave E"}, "geometry": {"type": "Point", "coordinates": [-122.3015959, 47.622909]}}, {"type": "Feature", "properties": {"id": 2383893024, "name": "Tirto Furniture", "category": "furniture", "tags": ["furniture"], "sources": ["osm", "overture"], "website": "http://tirtofurniture.com/", "phone": "+12063220597", "address": "1908 E Mercer St", "hours": "Tu-Su 11:00-18:00"}, "geometry": {"type": "Point", "coordinates": [-122.3066687, 47.6245275]}}, {"type": "Feature", "properties": {"id": 2434635612, "name": "Megan Mary Olander Flowers", "category": "florist", "tags": ["florist"], "sources": ["osm"], "website": "https://meganmaryolander.com/", "address": "1911 East Aloha Street", "hours": "Mo-Fr 10:00-17:00; Sa,Su off"}, "geometry": {"type": "Point", "coordinates": [-122.3067287, 47.6267378]}}, {"type": "Feature", "properties": {"id": 4318969639, "name": "Cone & Steiner", "category": "convenience", "tags": ["convenience"], "sources": ["osm"], "website": "https://www.coneandsteiner.com/locations/", "phone": "+1-206-582-1928", "address": "532 19th Avenue East", "hours": "08:00-22:00"}, "geometry": {"type": "Point", "coordinates": [-122.3071717, 47.6240701]}}, {"type": "Feature", "properties": {"id": 12028776209, "name": "Spark & Thread", "category": "gift", "tags": ["gift", "wheelchair-accessible"], "sources": ["osm"], "hours": "We-Sa 11:00-17:00; Su 11:00-16:00; Mo,Tu off"}, "geometry": {"type": "Point", "coordinates": [-122.3068089, 47.6267597]}}, {"type": "Feature", "properties": {"id": "4fb6db82-4a51-41b4-8fea-f3bee7a88e34", "name": "Williams Flower & Gift - Capitol Hill Florist", "category": "florist", "tags": ["florist"], "sources": ["overture"], "website": "https://www.williamsflowers.com/capitol-hill-wa-florists/", "phone": "2062101425", "address": "1112 19th Ave E Ste 2"}, "geometry": {"type": "Point", "coordinates": [-122.3069687, 47.6290321]}}, {"type": "Feature", "properties": {"id": "8059071d-da98-4173-8bd6-7f1fdcf81393", "name": "C & S General Store", "category": "variety_store", "tags": ["variety-store", "discount"], "sources": ["overture"], "website": "https://c-s-general-store.hub.biz/", "phone": "+17065922229", "address": "3193 Riverside Rd"}, "geometry": {"type": "Point", "coordinates": [-122.3072891, 47.6240616]}}, {"type": "Feature", "properties": {"id": "54f7b2cb-d769-4e65-8e6e-8cd296ed5b9e", "name": "Newell Roger H", "category": "doityourself", "tags": ["doityourself", "building", "supply"], "sources": ["overture"], "website": "http://rhnewellaia.com", "phone": "(206) 322-1192", "address": "1102 19th Ave E"}, "geometry": {"type": "Point", "coordinates": [-122.3069992, 47.6288948]}}, {"type": "Feature", "properties": {"id": "40c3ab5c-abd5-4f29-8a44-f116616c6dff", "name": "Christopher Sabec - Gleam Law, PLLC", "category": "cannabis", "tags": ["cannabis"], "sources": ["overture"], "website": "http://www.gleamlaw.com/", "phone": "2066932900", "address": "613 19th Ave E #202"}, "geometry": {"type": "Point", "coordinates": [-122.307312, 47.6247559]}}, {"type": "Feature", "properties": {"id": "6b41aa1c-5455-465f-80cd-ada5700504b5", "name": "Cheesland", "category": "supermarket", "tags": ["supermarket"], "sources": ["overture"], "website": "http://cheeselandinc.com", "phone": "+12067091220", "address": "308 24th Ave E"}, "geometry": {"type": "Point", "coordinates": [-122.3008575, 47.621685]}}, {"type": "Feature", "properties": {"id": 2383893030, "name": "Country Doctor", "category": "clinic", "tags": ["clinic"], "sources": ["osm"], "website": "https://countrydoctor.org/", "phone": "+1-206-299-1600", "address": "500 19th Avenue East"}, "geometry": {"type": "Point", "coordinates": [-122.30698, 47.623424]}}, {"type": "Feature", "properties": {"id": 2383893053, "name": "Emerald City Aikido", "category": "sports_centre", "tags": ["sports-centre", "martial-arts"], "sources": ["osm"], "address": "604 19th Avenue East"}, "geometry": {"type": "Point", "coordinates": [-122.3071282, 47.6246483]}}, {"type": "Feature", "properties": {"id": "cf4f6cc2-4af8-4983-93c7-7030b45e65f3", "name": "Ritual House", "category": "fitness_centre", "tags": ["fitness-centre", "yoga", "studio"], "sources": ["overture"], "website": "http://www.ritualhouseseattle.com/", "phone": "+12065555555", "address": "608 19th Ave E"}, "geometry": {"type": "Point", "coordinates": [-122.3072052, 47.6246605]}}]}