{"type": "FeatureCollection", "features": [{"type": "Feature", "properties": {"id": 736989448, "name": "Starbucks", "category": "cafe", "tags": ["cafe", "coffee-shop", "outdoor-seating", "indoor-seating", "takeaway", "coffee"], "sources": ["osm", "overture"], "website": "https://www.starbucks.com/store-locator/store/18497/", "phone": "+12062464644", "address": "17827 1st Ave S"}, "geometry": {"type": "Point", "coordinates": [-122.3347748, 47.4424728]}}, {"type": "Feature", "properties": {"id": 6110335226, "name": "Pizza Hut", "category": "restaurant", "tags": ["restaurant", "pizza", "indoor-seating", "fast-food"], "sources": ["osm", "overture"], "website": "https://locations.pizzahut.com/wa/normandy-park/17833-1st-ave-s?utm_medium=organic&utm_source=local&utm_campaign=yextpowerlistings&utm_content=website&utm_term=315248", "phone": "+12062444900", "address": "17833 1st Ave S King"}, "geometry": {"type": "Point", "coordinates": [-122.335121, 47.442393]}}, {"type": "Feature", "properties": {"id": 6227559486, "name": "Ichi Teriyaki", "category": "restaurant", "tags": ["restaurant", "japanese", "indoor-seating"], "sources": ["osm"], "address": "17841 1st Avenue South"}, "geometry": {"type": "Point", "coordinates": [-122.335799, 47.4423013]}}, {"type": "Feature", "properties": {"id": 6110335186, "name": "Mc Mike's Burgers", "category": "fast_food", "tags": ["fast-food", "burger"], "sources": ["osm"], "address": "17825 1st Avenue South"}, "geometry": {"type": "Point", "coordinates": [-122.334769, 47.4426875]}}, {"type": "Feature", "properties": {"id": 6110335187, "name": "Archie's", "category": "restaurant", "tags": ["restaurant", "mexican"], "sources": ["osm"], "address": "17821 1st Avenue South", "hours": "Tu-Fr 11:00-21:00; Sa,Su 08:00-21:00; Mo off"}, "geometry": {"type": "Point", "coordinates": [-122.3347656, 47.4427639]}}, {"type": "Feature", "properties": {"id": 6227557885, "name": "Lam Bistro & Pho", "category": "restaurant", "tags": ["restaurant", "vietnamese", "indoor-seating"], "sources": ["osm"], "address": "17851 1st Avenue South"}, "geometry": {"type": "Point", "coordinates": [-122.336143, 47.4423059]}}, {"type": "Feature", "properties": {"id": 6339100081, "name": "Shelly's Breakfast, Lunch, and Dinner", "category": "restaurant", "tags": ["restaurant"], "sources": ["osm"], "address": "17642 1st Avenue South"}, "geometry": {"type": "Point", "coordinates": [-122.333736, 47.4442386]}}, {"type": "Feature", "properties": {"id": "0b689a10-03b1-44e3-a788-f36b3ff3652e", "name": "Teak House Thai Restaurant", "category": "restaurant", "tags": ["restaurant", "thai", "asian"], "sources": ["overture"], "website": "http://teakhousenormandypark.com/", "phone": "+12062448444", "address": "17651 1st Ave S"}, "geometry": {"type": "Point", "coordinates": [-122.3344421, 47.4438591]}}, {"type": "Feature", "properties": {"id": "cf75b8da-7c4d-4215-9a0b-c2d07d5a386c", "name": "Shelly's", "category": "restaurant", "tags": ["restaurant", "diner", "breakfast-and-brunch"], "sources": ["overture"], "website": "http://shellysburien.wix.com/shellys", "phone": "+12062466666", "address": "17642 1st Ave S"}, "geometry": {"type": "Point", "coordinates": [-122.3337097, 47.4441719]}}, {"type": "Feature", "properties": {"id": "4d2aef1f-b120-4706-b00a-261cb9c3b268", "name": "Casa Durango", "category": "restaurant", "tags": ["restaurant", "mexican"], "sources": ["overture"], "website": "https://casadurango.com", "phone": "12062432260", "address": "17644 1st Ave S"}, "geometry": {"type": "Point", "coordinates": [-122.3336563, 47.4442329]}}, {"type": "Feature", "properties": {"id": "6ccecd10-7541-4ed7-b465-d627dee32544", "name": "Olympic Coffee & Roasting", "category": "restaurant", "tags": ["restaurant"], "sources": ["overture"], "address": "17692 1st Ave S"}, "geometry": {"type": "Point", "coordinates": [-122.3329544, 47.4440308]}}, {"type": "Feature", "properties": {"id": "2ef0d707-9a34-4752-8737-a0f14c25bf23", "name": "Bamboo Garden Teriyaki", "category": "restaurant", "tags": ["restaurant", "japanese", "asian", "sushi"], "sources": ["overture"], "website": "http://www.bamboogarden.com", "phone": "+12069019225", "address": "17652 1st Ave S"}, "geometry": {"type": "Point", "coordinates": [-122.3332062, 47.4441338]}}, {"type": "Feature", "properties": {"id": "4eb88ec3-09e4-495d-aea8-fc2b9f6925de", "name": "Arcadia", "category": "restaurant", "tags": ["restaurant", "greek"], "sources": ["overture"], "website": "http://www.arcadiataste.com", "phone": "(206) 241-9999", "address": "17642 1st Ave S"}, "geometry": {"type": "Point", "coordinates": [-122.3336334, 47.4442635]}}, {"type": "Feature", "properties": {"id": "bac381d2-9342-4b51-8789-afda79b1c246", "name": "Archie's Mexican Restaurant", "category": "restaurant", "tags": ["restaurant", "mexican", "latin-american"], "sources": ["overture"], "website": "http://archies-mexican-restaurant.square.site/", "phone": "+12064360850", "address": "17821 1st Ave S"}, "geometry": {"type": "Point", "coordinates": [-122.3345947, 47.4429817]}}, {"type": "Feature", "properties": {"id": "3c0ad059-e475-4af3-86e8-8efdf5b5bdf6", "name": "Abruzzis Pizza & Pasta", "category": "restaurant", "tags": ["restaurant"], "sources": ["overture"], "address": "17817 1st Ave S"}, "geometry": {"type": "Point", "coordinates": [-122.3347397, 47.4427834]}}, {"type": "Feature", "properties": {"id": "658216a6-7216-4fb1-a867-24a13975c58c", "name": "Cafe App", "category": "restaurant", "tags": ["restaurant"], "sources": ["overture"], "address": "17851 1st Ave S"}, "geometry": {"type": "Point", "coordinates": [-122.3361435, 47.4423256]}}, {"type": "Feature", "properties": {"id": "3204d7d6-0a7d-468b-9177-542b6d1abded", "name": "Peyrassol West", "category": "bar", "tags": ["bar", "wine"], "sources": ["overture"], "website": "http://www.peyrassolwest.com/", "phone": "+12064135496", "address": "17833 1st Ave S"}, "geometry": {"type": "Point", "coordinates": [-122.3356705, 47.442421]}}, {"type": "Feature", "properties": {"id": "e45212f3-ee8c-4da8-a9a1-1913f8719a76", "name": "Normandy Teriyaki and Sushi", "category": "restaurant", "tags": ["restaurant", "japanese", "asian"], "sources": ["overture"], "website": "https://www.toasttab.com/normandyteriyaki", "phone": "+12062410999", "address": "17841 1st Ave S"}, "geometry": {"type": "Point", "coordinates": [-122.3358154, 47.4424324]}}, {"type": "Feature", "properties": {"id": "8b613f1a-7fca-44a7-9b9d-b1e4616b81a8", "name": "Krungthep Thai and Pho", "category": "restaurant", "tags": ["restaurant", "thai"], "sources": ["overture"], "website": "https://krungthepthaiandpho.shop/", "phone": "2065574191", "address": "17851 1st Ave S"}, "geometry": {"type": "Point", "coordinates": [-122.3363037, 47.4423943]}}, {"type": "Feature", "properties": {"id": "abb5dab4-cd41-4fa8-8ac7-a3243bdf3dd8", "name": "Highpointer", "category": "attraction", "tags": ["attraction", "landmark", "historical", "building"], "sources": ["overture"], "phone": "+12064310318", "address": "17431 Ambaum Blvd S"}, "geometry": {"type": "Point", "coordinates": [-122.3324661, 47.4458771]}}, {"type": "Feature", "properties": {"id": 172710895, "name": "E.J Nist Park", "category": "park", "tags": ["park"], "sources": ["osm"], "address": "242 Southwest Normandy Road"}, "geometry": {"type": "Point", "coordinates": [-122.3392374, 47.4407892]}}, {"type": "Feature", "properties": {"id": "c968fcce-c613-444d-a6bc-13a6a79d2542", "name": "E.J. Nist Family Park", "category": "park", "tags": ["park"], "sources": ["overture"], "website": "http://ejnistfamilypark1.placeweb.site", "phone": "+12062487603", "address": "242 SW Normandy Rd"}, "geometry": {"type": "Point", "coordinates": [-122.3389587, 47.4410286]}}, {"type": "Feature", "properties": {"id": 545895883, "name": "QFC", "category": "supermarket", "tags": ["supermarket", "wheelchair-accessible"], "sources": ["osm", "overture"], "website": "https://www.qfc.com", "phone": "12062439340", "address": "17847 1st Ave S", "hours": "Mo-Su 00:00-01:00,05:00-24:00"}, "geometry": {"type": "Point", "coordinates": [-122.3357748, 47.441769]}}, {"type": "Feature", "properties": {"id": 6227557888, "name": "Paws in the Park", "category": "pet", "tags": ["pet"], "sources": ["osm", "overture"], "website": "https://pawsintheparkgroomandsupply.com/", "phone": "+12062427387", "address": "17833 1st Ave S"}, "geometry": {"type": "Point", "coordinates": [-122.3353454, 47.4423053]}}, {"type": "Feature", "properties": {"id": "a097dd4a-91ab-46c6-9602-dff134342c85", "name": "My Goods Market", "category": "convenience", "tags": ["convenience"], "sources": ["overture"], "website": "www.circlek.com", "phone": "12062444586", "address": "18032 1st Ave S"}, "geometry": {"type": "Point", "coordinates": [-122.3341446, 47.4409065]}}, {"type": "Feature", "properties": {"id": 651648425, "name": "Dunn Lumber", "category": "hardware", "tags": ["hardware"], "sources": ["osm"], "website": "https://www.dunnlumber.com/storelocator/storedetails?id=31", "phone": "+1-206-242-1010", "address": "17635 1st Avenue South", "hours": "Mo-Fr 07:00-18:00; Sa 08:00-17:00"}, "geometry": {"type": "Point", "coordinates": [-122.3350646, 47.4439319]}}, {"type": "Feature", "properties": {"id": 676961722, "name": "Sun Mart", "category": "convenience", "tags": ["convenience"], "sources": ["osm"], "address": "17956 1st Avenue South"}, "geometry": {"type": "Point", "coordinates": [-122.3338438, 47.4421506]}}, {"type": "Feature", "properties": {"id": "4651062b-c996-4be3-9124-a0cacdb72348", "name": "At&t Store", "category": "mobile_phone", "tags": ["mobile-phone", "mobile"], "sources": ["overture"], "website": "https://www.att.com", "phone": "12065574662", "address": "17829 1st Ave S"}, "geometry": {"type": "Point", "coordinates": [-122.3351364, 47.4424171]}}, {"type": "Feature", "properties": {"id": "317fc64e-e31e-41b3-a0c3-ffa0e735a10b", "name": "MNT Electric", "category": "doityourself", "tags": ["doityourself", "building", "supply"], "sources": ["overture"], "website": "https://mntelectric.com", "phone": "(206) 758-5503", "address": "106 SW 171st St"}, "geometry": {"type": "Point", "coordinates": [-122.3349075, 47.449955]}}, {"type": "Feature", "properties": {"id": "1eb3219e-c2eb-4ec1-8959-7a4343b0e04a", "name": "Anarchy Smoke Shop", "category": "tobacco", "tags": ["tobacco"], "sources": ["overture"], "website": "http://www.yelp.com/biz/anarchy-smoke-shop-burien", "phone": "+12067086080", "address": "17648 1st Ave S"}, "geometry": {"type": "Point", "coordinates": [-122.3333206, 47.4441452]}}, {"type": "Feature", "properties": {"id": "4fb0badf-79eb-430d-b486-4775e4f5765d", "name": "Custom Built Fence Company", "category": "doityourself", "tags": ["doityourself", "building", "supply"], "sources": ["overture"], "website": "http://custombuiltfencecompany.com", "phone": "(206) 459-1182", "address": "18064 2nd Pl S"}, "geometry": {"type": "Point", "coordinates": [-122.3316727, 47.4402351]}}, {"type": "Feature", "properties": {"id": "4264cad7-ac4d-4c9c-9e1b-e979119fd381", "name": "Lavina Mays Garden & Gift", "category": "gift", "tags": ["gift"], "sources": ["overture"], "website": "http://www.lavinamays.com/", "phone": "2064023364", "address": "17824 1st Ave S"}, "geometry": {"type": "Point", "coordinates": [-122.3340836, 47.4426498]}}, {"type": "Feature", "properties": {"id": "3e3293cd-d698-4fea-9301-95f66c6de1f0", "name": "Camaral5 Sal\u00f3n", "category": "clothes", "tags": ["clothes", "womens"], "sources": ["overture"], "phone": "+12068534633", "address": "18016 1st Ave S"}, "geometry": {"type": "Point", "coordinates": [-122.3340607, 47.4413414]}}, {"type": "Feature", "properties": {"id": "8d64ddb5-5cc6-4d9e-989e-eedc23608b19", "name": "Quality Food Center", "category": "supermarket", "tags": ["supermarket"], "sources": ["overture"], "website": "https://www.qfc.com/stores/grocery/wa/normandy-park/manhattan/705/00805", "address": "17847 1st Ave S"}, "geometry": {"type": "Point", "coordinates": [-122.335762, 47.4418182]}}, {"type": "Feature", "properties": {"id": "a8290d2a-40ec-4077-aada-b7c71c26d892", "name": "Stratton House", "category": "toys", "tags": ["toys"], "sources": ["overture"], "website": "https://www.homeschoolscience.com", "phone": "8006947225", "address": "17837 1st Ave S  # 186"}, "geometry": {"type": "Point", "coordinates": [-122.3355637, 47.4423294]}}, {"type": "Feature", "properties": {"id": "8dbb2908-175e-47fa-80bf-6a85a130f711", "name": "Lucky Star Consignment Burien", "category": "clothes", "tags": ["clothes"], "sources": ["overture"], "website": "http://luckystarclothing.com", "phone": "(206) 397-4912", "address": "17833 1st Ave S Ste A"}, "geometry": {"type": "Point", "coordinates": [-122.3351822, 47.4423904]}}, {"type": "Feature", "properties": {"id": "239c43e1-e18a-4a8d-9ce1-30f2b6ead631", "name": "The Redeeming Closet", "category": "clothes", "tags": ["clothes"], "sources": ["overture"], "website": "https://theredeemingcloset.com", "phone": "(206) 420-7700", "address": "18011 3rd Ave SW"}, "geometry": {"type": "Point", "coordinates": [-122.3380508, 47.4412918]}}, {"type": "Feature", "properties": {"id": "f3d6ef93-c01a-4ff1-9736-629da20ebdf2", "name": "Washington State Of", "category": "pharmacy", "tags": ["pharmacy"], "sources": ["overture"], "website": "https://access.wa.gov", "phone": "+12062437500", "address": "17833 1st Ave S"}, "geometry": {"type": "Point", "coordinates": [-122.3351974, 47.4423294]}}, {"type": "Feature", "properties": {"id": "a85a13a6-ab58-45e5-939c-3ec1ab005ada", "name": "KeyBank", "category": "bank", "tags": ["bank", "credit", "union"], "sources": ["overture"], "website": "https://www.key.com/locations/WA/Burien/BRCH47310138/17818-1st-Ave-S?ppc=cmpyxt", "phone": "+12062481110", "address": "17818 1st Ave S"}, "geometry": {"type": "Point", "coordinates": [-122.3338165, 47.4428596]}}, {"type": "Feature", "properties": {"id": 6227557887, "name": "The UPS Store", "category": "post_office", "tags": ["post-office"], "sources": ["osm"], "address": "17837 1st Avenue South"}, "geometry": {"type": "Point", "coordinates": [-122.3357025, 47.442303]}}, {"type": "Feature", "properties": {"id": "57f877e8-d4a9-4882-a38a-872e8f04e8d1", "name": "Bank of America ATM", "category": "bank", "tags": ["bank", "credit", "union"], "sources": ["overture"], "website": "https://locators.bankofamerica.com/wa/seattle/atm-seattle-109102.html", "phone": "8444018500", "address": "17857 1st Ave S"}, "geometry": {"type": "Point", "coordinates": [-122.334404, 47.4417877]}}]}