{"type": "FeatureCollection", "features": [{"type": "Feature", "properties": {"id": 2462255323, "name": "Pagliacci Pizza", "category": "fast_food", "tags": ["fast-food", "pizza", "restaurant", "italian"], "sources": ["osm", "overture"], "website": "http://www.pagliacci.com", "phone": "+12067261717", "address": "6224 Sand Point Way NE", "hours": "Su-Th 11:00-23:00; Fr-Sa 11:00-00:00"}, "geometry": {"type": "Point", "coordinates": [-122.264816, 47.674123]}}, {"type": "Feature", "properties": {"id": "f4db55b3-ddee-472b-86cb-84c263a9f26f", "name": "Parkpoint Condominiums", "category": "attraction", "tags": ["attraction", "landmark", "historical", "building"], "sources": ["overture"], "website": "http://www.parkpointcondos.com", "phone": "+12065268844", "address": "6551 Sand Point Way NE"}, "geometry": {"type": "Point", "coordinates": [-122.2639999, 47.6761475]}}, {"type": "Feature", "properties": {"id": "fd6ffa78-3ab4-4d44-a65f-ec46c6658402", "name": "Seventy 01 Condominiums", "category": "attraction", "tags": ["attraction", "landmark", "historical", "building"], "sources": ["overture"], "website": "http://www.7001condos.com", "phone": "+12065258822", "address": "7021 Sand Point Way NE"}, "geometry": {"type": "Point", "coordinates": [-122.2643204, 47.6797371]}}, {"type": "Feature", "properties": {"id": "cc7b7a0d-04af-4180-bdc1-c6a23caa6e6e", "name": "Radford Court", "category": "attraction", "tags": ["attraction", "landmark", "historical", "building"], "sources": ["overture"], "website": "https://www.radfordcourtliving.com/", "phone": "+12068990870", "address": "6400 NE Radford Dr"}, "geometry": {"type": "Point", "coordinates": [-122.2615433, 47.6752243]}}, {"type": "Feature", "properties": {"id": "97b8c7bf-116f-430e-a6f7-15530e2e6e9a", "name": "Magnuson Park Mickey Merriam Ballfields", "category": "park", "tags": ["park"], "sources": ["overture"], "address": "6800 Sportsfield Dr"}, "geometry": {"type": "Point", "coordinates": [-122.2606735, 47.6780891]}}, {"type": "Feature", "properties": {"id": 221076217, "name": "Seattle Children's Magnuson Clinic", "category": "clinic", "tags": ["clinic"], "sources": ["osm"], "website": "https://www.seattlechildrens.org/locations/magnuson-clinic/", "address": "6901 Sand Point Way Northeast"}, "geometry": {"type": "Point", "coordinates": [-122.2641657, 47.678457]}}, {"type": "Feature", "properties": {"id": 220804727, "name": "The National Archives at Seattle", "category": "library", "tags": ["library"], "sources": ["osm"], "website": "https://www.archives.gov/seattle", "phone": "+1-206-336-5115", "address": "6125 Sand Point Way Northeast", "hours": "Mo-Fr 09:00-16:00"}, "geometry": {"type": "Point", "coordinates": [-122.2680503, 47.6731148]}}, {"type": "Feature", "properties": {"id": "0cbfbcef-501b-4097-b6c6-790822b6988a", "name": "Seattle Genealogical Society Library", "category": "library", "tags": ["library"], "sources": ["overture"], "website": "http://seattlegenealogicalsociety.org", "phone": "(206) 522-8658", "address": "6200 Sand Point Way NE"}, "geometry": {"type": "Point", "coordinates": [-122.2650986, 47.6737785]}}, {"type": "Feature", "properties": {"id": "c1d7c677-87f5-4aae-91c9-433627a785f3", "name": "Game On Fitness", "category": "fitness_centre", "tags": ["fitness-centre", "gym"], "sources": ["overture"], "website": "http://www.gameonfit.com", "phone": "(206) 854-6354", "address": "7000 62ND Ave NE"}, "geometry": {"type": "Point", "coordinates": [-122.2620926, 47.6797523]}}]}