{"type": "FeatureCollection", "features": [{"type": "Feature", "properties": {"id": 2623069780, "name": "Oddfellas Pub & Eatery", "category": "restaurant", "tags": ["restaurant", "irish", "pub"], "sources": ["osm", "overture"], "website": "https://www.oddfellaspubauburn.com/", "phone": "+12539397278", "address": "102 W Main St", "hours": "Mo-Th 07:00-22:00; Fr-Sa 07:00-00:00; Su 07:00-21:00"}, "geometry": {"type": "Point", "coordinates": [-122.2312142, 47.3072851]}}, {"type": "Feature", "properties": {"id": 4345466006, "name": "The Rainier Room", "category": "bar", "tags": ["bar"], "sources": ["osm"]}, "geometry": {"type": "Point", "coordinates": [-122.2311669, 47.3071242]}}, {"type": "Feature", "properties": {"id": "05206c87-35f5-427f-a018-7d4aa94a3b3a", "name": "Andie's Restaurant", "category": "restaurant", "tags": ["restaurant", "breakfast-and-brunch", "breakfast", "brunch"], "sources": ["overture"], "phone": "2539393593", "address": "530 W Main St"}, "geometry": {"type": "Point", "coordinates": [-122.236351, 47.3074226]}}, {"type": "Feature", "properties": {"id": "febebf02-720c-47d4-ab59-7dd58b600bb8", "name": "Andie's On Main Street", "category": "restaurant", "tags": ["restaurant", "american"], "sources": ["overture"], "website": "http://www.andiesres.com", "phone": "(530) 962-4678", "address": "530 W Main St"}, "geometry": {"type": "Point", "coordinates": [-122.2364273, 47.3072701]}}, {"type": "Feature", "properties": {"id": "32315ccd-00b8-48f8-8aa4-295fe5498970", "name": "Happy Express", "category": "restaurant", "tags": ["restaurant", "sushi"], "sources": ["overture"], "website": "https://www.happyexpressauburn.com", "phone": "(253) 329-2356", "address": "530 W Main St"}, "geometry": {"type": "Point", "coordinates": [-122.2364273, 47.3072701]}}, {"type": "Feature", "properties": {"id": "d6def90b-3c12-4bfb-a782-83edeeb78c6c", "name": "Marvel Food & Deli", "category": "restaurant", "tags": ["restaurant"], "sources": ["overture"], "website": "http://www.marvelfoodanddeli.com", "address": "2 W Main St"}, "geometry": {"type": "Point", "coordinates": [-122.2300949, 47.3073196]}}, {"type": "Feature", "properties": {"id": "e0057af4-7247-40e5-b4bc-e64e7fbe06e9", "name": "J&L Grand Theater and Arcade Bar", "category": "bar", "tags": ["bar"], "sources": ["overture"], "website": "https://www.facebook.com/profile.php?id=100066996996862"}, "geometry": {"type": "Point", "coordinates": [-122.2303391, 47.3073158]}}, {"type": "Feature", "properties": {"id": "22e4f333-9414-4e5d-9c88-1cef269f33d5", "name": "Pie Style", "category": "bakery", "tags": ["bakery"], "sources": ["overture"], "website": "https://www.exploreauburn.com", "phone": "12062948809", "address": "20 W Main St"}, "geometry": {"type": "Point", "coordinates": [-122.2304077, 47.3069916]}}, {"type": "Feature", "properties": {"id": "bef68274-896b-48e7-b3a2-79022cd054e7", "name": "Sun Break Cafe", "category": "restaurant", "tags": ["restaurant", "breakfast-and-brunch", "breakfast", "brunch"], "sources": ["overture"], "phone": "+12539395225", "address": "22 A St SW"}, "geometry": {"type": "Point", "coordinates": [-122.230751, 47.3066902]}}, {"type": "Feature", "properties": {"id": "89d3efbf-0b10-47fa-ae11-949a36cf2b68", "name": "PNW Coffee CO", "category": "cafe", "tags": ["cafe", "coffee", "breakfast-and-brunch"], "sources": ["overture"], "website": "http://pnwcoffeeco.com/", "phone": "+12537374415", "address": "110 2nd St SW"}, "geometry": {"type": "Point", "coordinates": [-122.231308, 47.3061905]}}, {"type": "Feature", "properties": {"id": "271caeff-932f-4fe4-adf4-b75ffa130b46", "name": "Station Bistro", "category": "restaurant", "tags": ["restaurant", "diner"], "sources": ["overture"], "website": "http://auburnstationbistro.com", "phone": "(253) 735-1399", "address": "110 2nd St SW"}, "geometry": {"type": "Point", "coordinates": [-122.2312622, 47.3061523]}}, {"type": "Feature", "properties": {"id": "70883049-e9e8-4b4e-9eaa-5b7b38901f32", "name": "Jason's coffee shop", "category": "cafe", "tags": ["cafe", "coffee"], "sources": ["overture"], "phone": "2537353220", "address": "129 A St NW"}, "geometry": {"type": "Point", "coordinates": [-122.2313461, 47.3087997]}}, {"type": "Feature", "properties": {"id": "c3e97dc0-cb85-4c0a-8018-eddeb1d8803c", "name": "The Quarters", "category": "restaurant", "tags": ["restaurant"], "sources": ["overture"], "website": "https://www.thequartersfusion.com", "phone": "(206) 402-2568", "address": "721 W Main St"}, "geometry": {"type": "Point", "coordinates": [-122.2377472, 47.3079147]}}, {"type": "Feature", "properties": {"id": "dbd22c54-e791-4724-9620-115f17df184f", "name": "Kampo Cuisine", "category": "restaurant", "tags": ["restaurant", "chinese", "asian"], "sources": ["overture"], "website": "http://www.kampoauburn.com", "phone": "+12538807807", "address": "739 W Main St"}, "geometry": {"type": "Point", "coordinates": [-122.2382431, 47.3079109]}}, {"type": "Feature", "properties": {"id": "c5c60154-c161-4a7c-a9d1-be79311b6436", "name": "Sweetie Bistro", "category": "restaurant", "tags": ["restaurant", "asian", "fusion"], "sources": ["overture"], "phone": "2533974033", "address": "739 W Main St"}, "geometry": {"type": "Point", "coordinates": [-122.2382355, 47.3079338]}}, {"type": "Feature", "properties": {"id": 12528016643, "name": "Civic Lanterns", "category": "artwork", "tags": ["artwork"], "sources": ["osm"]}, "geometry": {"type": "Point", "coordinates": [-122.2302632, 47.3075109]}}, {"type": "Feature", "properties": {"id": 12528016644, "name": "Children Playing Train at the Switch", "category": "artwork", "tags": ["artwork"], "sources": ["osm"]}, "geometry": {"type": "Point", "coordinates": [-122.2302345, 47.3076669]}}, {"type": "Feature", "properties": {"id": 12528016653, "name": "Entropy Of A Tree", "category": "artwork", "tags": ["artwork"], "sources": ["osm"]}, "geometry": {"type": "Point", "coordinates": [-122.2300768, 47.3070348]}}, {"type": "Feature", "properties": {"id": 12528016654, "name": "Transparencies In Time", "category": "artwork", "tags": ["artwork"], "sources": ["osm"]}, "geometry": {"type": "Point", "coordinates": [-122.2301249, 47.3070112]}}, {"type": "Feature", "properties": {"id": 12528016655, "name": "Plaza Park \"Living Room\" Chairs", "category": "artwork", "tags": ["artwork"], "sources": ["osm"]}, "geometry": {"type": "Point", "coordinates": [-122.2300643, 47.3070908]}}, {"type": "Feature", "properties": {"id": "42b2922e-a6f4-4773-b50f-c9a34e9cd6e9", "name": "Auburn Environmental Park", "category": "park", "tags": ["park"], "sources": ["overture"], "website": "http://www.auburnwa.gov/things_to_do/parks_trails/aep.htm", "phone": "(253) 931-3090", "address": "West Main Street"}, "geometry": {"type": "Point", "coordinates": [-122.2333527, 47.307663]}}, {"type": "Feature", "properties": {"id": 506203310, "name": "AgriShop Auburn Ace Hardware", "category": "doityourself", "tags": ["doityourself"], "sources": ["osm"], "phone": "+1-253-833-0870", "address": "308 West Main Street", "hours": "Mo-Fr 08:00-18:00; Sa 08:00-17:00"}, "geometry": {"type": "Point", "coordinates": [-122.2333963, 47.3071404]}}, {"type": "Feature", "properties": {"id": 655136893, "name": "West Main Short Stop", "category": "convenience", "tags": ["convenience"], "sources": ["osm"], "address": "210 West Main Street"}, "geometry": {"type": "Point", "coordinates": [-122.232703, 47.3073076]}}, {"type": "Feature", "properties": {"id": "e3a0b35f-6706-4fb8-860e-76ff4bb72988", "name": "Alpine Products", "category": "clothes", "tags": ["clothes"], "sources": ["overture"], "website": "http://www.alpinemarkings.com", "phone": "+12533519828", "address": "550 3rd St SW"}, "geometry": {"type": "Point", "coordinates": [-122.2365952, 47.30513]}}, {"type": "Feature", "properties": {"id": "d005994a-9b17-4d8f-8097-67f30e19ce8d", "name": "Pinnacle Granite", "category": "doityourself", "tags": ["doityourself", "building", "supply"], "sources": ["overture"], "phone": "+12537374929", "address": "117 G St Sw Ste 2"}, "geometry": {"type": "Point", "coordinates": [-122.2385941, 47.3061981]}}, {"type": "Feature", "properties": {"id": 6172450736, "name": "Christian Community Free Clinic", "category": "clinic", "tags": ["clinic"], "sources": ["osm"]}, "geometry": {"type": "Point", "coordinates": [-122.231403, 47.3076029]}}, {"type": "Feature", "properties": {"id": "0356fb42-0d56-4c23-8e16-ffdb951bf608", "name": "NW Neurological", "category": "hospital", "tags": ["hospital"], "sources": ["overture"], "phone": "+12533331637", "address": "121 N Division St"}, "geometry": {"type": "Point", "coordinates": [-122.2304535, 47.3088799]}}, {"type": "Feature", "properties": {"id": "c28fa497-d820-4189-8286-c390860876ca", "name": "Multicare Auburn Sleep Medicine Center", "category": "hospital", "tags": ["hospital"], "sources": ["overture"], "website": "http://www.multicare.org/", "phone": "+12538042809", "address": "121 N Division St"}, "geometry": {"type": "Point", "coordinates": [-122.2304077, 47.308876]}}, {"type": "Feature", "properties": {"id": 4345218689, "name": "FitBody Boot Camp", "category": "fitness_centre", "tags": ["fitness-centre"], "sources": ["osm"]}, "geometry": {"type": "Point", "coordinates": [-122.2316213, 47.3062663]}}]}