{"type": "FeatureCollection", "features": [{"type": "Feature", "properties": {"id": 67234295, "name": "Lake Hills Park", "category": "park", "tags": ["park"], "sources": ["osm"], "website": "http://www.ci.bellevue.wa.us/lake_hills_community.htm", "address": "1200 164th Avenue Southeast"}, "geometry": {"type": "Point", "coordinates": [-122.122368, 47.5986417]}}, {"type": "Feature", "properties": {"id": "65ea44d4-0ccb-4c33-b0b9-8dc4527406e5", "name": "Lake Hills Park", "category": "park", "tags": ["park"], "sources": ["overture"], "website": "http://www.ci.bellevue.wa.us", "phone": "+14254526914", "address": "164th Ave SE &, SE 12th St"}, "geometry": {"type": "Point", "coordinates": [-122.1214752, 47.5992126]}}, {"type": "Feature", "properties": {"id": 217383799, "name": "Robinsglen Nature Park", "category": "park", "tags": ["park"], "sources": ["osm", "overture"], "website": "http://www.ci.bellevue.wa.us/robinsglen.htm", "phone": "+14254526885", "address": "16357 SE 16th St"}, "geometry": {"type": "Point", "coordinates": [-122.1213533, 47.5959268]}}]}