{"type": "FeatureCollection", "features": [{"type": "Feature", "properties": {"id": "fac2f688-ce29-4cae-91b5-366f3060343d", "name": "Denny's", "category": "restaurant", "tags": ["restaurant", "diner", "american", "breakfast-and-brunch"], "sources": ["overture"], "website": "http://dennys.com/", "phone": "+12532614455", "address": "22403 94th Ave S"}, "geometry": {"type": "Point", "coordinates": [-122.2172165, 47.4012489]}}, {"type": "Feature", "properties": {"id": 360427893, "name": "Garrison Creek Park", "category": "park", "tags": ["park"], "sources": ["osm", "overture"], "website": "https://www.kentwa.gov/departments/kent-parks/parks-places/parks-trails/garrison-creek-park", "phone": "+12538565000", "address": "9615 S 218th St", "hours": "dawn-dusk"}, "geometry": {"type": "Point", "coordinates": [-122.2107797, 47.4061136]}}]}