{"type": "FeatureCollection", "features": [{"type": "Feature", "properties": {"id": 13290353809, "name": "Domino's", "category": "fast_food", "tags": ["fast-food", "pizza", "takeaway"], "sources": ["osm"], "address": "928 North 160th Street", "hours": "Mo-Th,Su 10:30-24:00; Fr-Sa 10:30-01:00"}, "geometry": {"type": "Point", "coordinates": [-122.346904, 47.7451988]}}, {"type": "Feature", "properties": {"id": 3335452930, "name": "Starbucks", "category": "cafe", "tags": ["cafe", "coffee-shop", "takeaway", "coffee"], "sources": ["osm", "overture"], "website": "https://www.starbucks.com/store-locator/store/1014688", "phone": "2065395518", "address": "15332 Aurora Ave N"}, "geometry": {"type": "Point", "coordinates": [-122.343851, 47.7410708]}}, {"type": "Feature", "properties": {"id": 771801466, "name": "Triumph Valley Shoreline", "category": "restaurant", "tags": ["restaurant", "chinese", "asian"], "sources": ["osm", "overture"], "website": "https://www.triumphvalleyshoreline.com", "phone": "+12068338906", "address": "15323 Westminster Way N"}, "geometry": {"type": "Point", "coordinates": [-122.3493107, 47.7409021]}}, {"type": "Feature", "properties": {"id": "577a9d8e-16a0-4d41-a9f5-f06994bb75ba", "name": "Pizza Hut", "category": "restaurant", "tags": ["restaurant", "pizza"], "sources": ["overture"], "website": "http://www.pizzahut.com", "phone": "(206) 362-6100", "address": "15565 Aurora Ave N"}, "geometry": {"type": "Point", "coordinates": [-122.3458405, 47.7430191]}}, {"type": "Feature", "properties": {"id": 9888692570, "name": "Chipotle", "category": "fast_food", "tags": ["fast-food", "mexican", "takeaway"], "sources": ["osm"], "website": "https://locations.chipotle.com/wa/shoreline/15725-westminster-way-n", "phone": "+1-206-453-6338", "address": "15725 Westminster Way North", "hours": "Mo-Su 10:45-22:00"}, "geometry": {"type": "Point", "coordinates": [-122.3465428, 47.7438037]}}, {"type": "Feature", "properties": {"id": 2102186795, "name": "Yum Yum", "category": "restaurant", "tags": ["restaurant", "thai", "outdoor-seating", "takeaway"], "sources": ["osm"], "hours": "Mo-Fr 11:00-21:00; Sa-Su 12:00-21:00"}, "geometry": {"type": "Point", "coordinates": [-122.3477873, 47.7452242]}}, {"type": "Feature", "properties": {"id": 12096171455, "name": "Five Guys", "category": "fast_food", "tags": ["fast-food", "burger", "takeaway", "restaurant"], "sources": ["osm", "overture"], "website": "https://restaurants.fiveguys.com/15515-westminster-way-north", "phone": "2065821776", "address": "15515 Westminster Way N Ste E", "hours": "Mo-Su 11:00-22:00"}, "geometry": {"type": "Point", "coordinates": [-122.3482352, 47.7422778]}}, {"type": "Feature", "properties": {"id": 2653225385, "name": "Shay's Restaurant & Lounge", "category": "restaurant", "tags": ["restaurant"], "sources": ["osm"]}, "geometry": {"type": "Point", "coordinates": [-122.3449894, 47.7448176]}}, {"type": "Feature", "properties": {"id": 4699650274, "name": "The Grill King", "category": "restaurant", "tags": ["restaurant", "korean"], "sources": ["osm"], "website": "https://shorelinekoreanbbq.com/", "phone": "+1-206-743-9482", "address": "15740 Aurora Avenue North", "hours": "We-Su 14:30-24:00"}, "geometry": {"type": "Point", "coordinates": [-122.3449591, 47.7446447]}}, {"type": "Feature", "properties": {"id": 5301526002, "name": "Bullettrain Udon", "category": "fast_food", "tags": ["fast-food", "outdoor-seating"], "sources": ["osm"]}, "geometry": {"type": "Point", "coordinates": [-122.3498522, 47.7425556]}}, {"type": "Feature", "properties": {"id": 6367997524, "name": "Mediterranean Oasis", "category": "restaurant", "tags": ["restaurant", "mediterranean", "middle-eastern"], "sources": ["osm", "overture"], "website": "https://mediterraneanoasis-wa.com/", "phone": "+12069132857", "address": "15238 Aurora Ave N"}, "geometry": {"type": "Point", "coordinates": [-122.3439409, 47.7401798]}}, {"type": "Feature", "properties": {"id": "2dd65137-d2b5-4043-aef9-787ddba2eaa3", "name": "Ladybug Espresso", "category": "cafe", "tags": ["cafe", "coffee"], "sources": ["overture"], "website": "https://ladybugbikiniespresso.com", "phone": "(206) 546-6326", "address": "16053 Aurora Ave N"}, "geometry": {"type": "Point", "coordinates": [-122.3459473, 47.7465324]}}, {"type": "Feature", "properties": {"id": 10252453728, "name": "Round Table Pizza", "category": "restaurant", "tags": ["restaurant", "pizza", "italian"], "sources": ["osm", "overture"], "website": "http://roundtablepizza.olo.com/menu/round-table-pizza-shoreline-2?olonwp=Lij7MEMhykWQYWp4Jz8H6g", "phone": "+12066293750", "address": "15725 Westminster Way N"}, "geometry": {"type": "Point", "coordinates": [-122.3466885, 47.7439009]}}, {"type": "Feature", "properties": {"id": 12029132365, "name": "Big Chicken", "category": "fast_food", "tags": ["fast-food", "chicken", "outdoor-seating", "restaurant"], "sources": ["osm", "overture"], "website": "https://www.bigchicken.com/", "phone": "+12067754388", "address": "15515 Westminster Way N"}, "geometry": {"type": "Point", "coordinates": [-122.3479097, 47.7420997]}}, {"type": "Feature", "properties": {"id": 12096171445, "name": "Mustache", "category": "cafe", "tags": ["cafe", "bubble-tea"], "sources": ["osm"], "address": "15525 Westminster Way North"}, "geometry": {"type": "Point", "coordinates": [-122.3475197, 47.7424003]}}, {"type": "Feature", "properties": {"id": 548287752, "name": "Ladybug Bikini Espresso", "category": "cafe", "tags": ["cafe"], "sources": ["osm"], "website": "https://www.ladybugbikiniespresso.com"}, "geometry": {"type": "Point", "coordinates": [-122.345889, 47.7467029]}}, {"type": "Feature", "properties": {"id": 1287944624, "name": "Taqueria El Gallo Diaz", "category": "restaurant", "tags": ["restaurant", "mexican", "taco"], "sources": ["osm", "overture"], "website": "http://taqueria-el-gallo-diaz.business.site", "phone": "+12068982782", "address": "16510 Aurora Ave N", "hours": "Mo-Sa 10:00-21:00"}, "geometry": {"type": "Point", "coordinates": [-122.3451077, 47.7494036]}}, {"type": "Feature", "properties": {"id": "8e11df17-7f77-4b34-877a-0dc2e806010c", "name": "Domino's Pizza", "category": "restaurant", "tags": ["restaurant", "pizza", "fast-food"], "sources": ["overture"], "website": "https://www.dominos.com/en/?utm_source=google&utm_medium=loclist&utm_campaign=localmaps", "phone": "+12063633911", "address": "928 N 160th St"}, "geometry": {"type": "Point", "coordinates": [-122.346817, 47.7452087]}}, {"type": "Feature", "properties": {"id": "14b85067-4f14-4093-a981-078b24a09e63", "name": "Chipotle Mexican Grill", "category": "restaurant", "tags": ["restaurant", "mexican", "texmex", "taco"], "sources": ["overture"], "website": "https://locations.chipotle.com/wa/shoreline/15725-westminster-way-n?utm_source=facebook&utm_medium=yext&utm_campaign=yext_listings%3Frestaurant%3D3925", "phone": "+12064536338", "address": "15725 Westminster Way N"}, "geometry": {"type": "Point", "coordinates": [-122.3465424, 47.743824]}}, {"type": "Feature", "properties": {"id": "1d29e16d-dd7d-4371-825e-1db1b108db89", "name": "Shari's Cafe and Pies", "category": "restaurant", "tags": ["restaurant", "breakfast-and-brunch", "breakfast", "brunch", "soup"], "sources": ["overture"], "website": "https://www.sharis.com/locations/washington/aurora-washington-cafe/", "phone": "2063612552", "address": "15252 Aurora Ave N"}, "geometry": {"type": "Point", "coordinates": [-122.3450012, 47.7403336]}}, {"type": "Feature", "properties": {"id": "f6766b00-422c-450b-972c-67ef494f104b", "name": "Twinkle Sangar Llc Dba Friendly Gas Station", "category": "restaurant", "tags": ["restaurant"], "sources": ["overture"], "address": "16510 Aurora Ave N"}, "geometry": {"type": "Point", "coordinates": [-122.3449936, 47.7489853]}}, {"type": "Feature", "properties": {"id": "60f175fc-42e7-4092-bdff-b9fd05b668fb", "name": "Los Portales 2", "category": "restaurant", "tags": ["restaurant", "american"], "sources": ["overture"], "website": "http://www.losportales.com/", "phone": "(206) 542-4210", "address": "16053 Aurora Ave N"}, "geometry": {"type": "Point", "coordinates": [-122.3460083, 47.7464256]}}, {"type": "Feature", "properties": {"id": "7c99a57f-efbf-4da3-9a7e-4e25d780e567", "name": "De Naga Group", "category": "restaurant", "tags": ["restaurant"], "sources": ["overture"], "address": "900 N 160th St"}, "geometry": {"type": "Point", "coordinates": [-122.3478241, 47.7452393]}}, {"type": "Feature", "properties": {"id": "ba09cf5b-aac1-4f18-98e0-d4577663d6f8", "name": "Yum Yum Thai Restaurant", "category": "restaurant", "tags": ["restaurant", "thai", "asian"], "sources": ["overture"], "website": "http://www.yumyumthaishoreline.com/", "phone": "+12063621933", "address": "900 N 160th St"}, "geometry": {"type": "Point", "coordinates": [-122.3478012, 47.7451515]}}, {"type": "Feature", "properties": {"id": "b76cfad0-7839-437d-afeb-601cb314bc0f", "name": "Shay's Restaurant", "category": "restaurant", "tags": ["restaurant", "bar-and-grill", "american"], "sources": ["overture"], "website": "http://www.menuclub.com", "phone": "+12063638877", "address": "15744 Aurora Ave N"}, "geometry": {"type": "Point", "coordinates": [-122.3451385, 47.7448311]}}, {"type": "Feature", "properties": {"id": "d5ae0f8e-e5b6-4ffe-8f3e-b76f4beec55c", "name": "The Grill King All You Can Eat Korean BBQ", "category": "restaurant", "tags": ["restaurant", "barbecue", "asian"], "sources": ["overture"], "website": "https://www.shorelinekoreanbbq.com/", "phone": "2067439482", "address": "15740 Aurora Ave N"}, "geometry": {"type": "Point", "coordinates": [-122.3449707, 47.7447281]}}, {"type": "Feature", "properties": {"id": "3c103084-e430-4314-84d0-98b80ef02d50", "name": "Central Pizzeria", "category": "restaurant", "tags": ["restaurant", "pizza"], "sources": ["overture"], "website": "https://townandcountrymarkets.com", "phone": "12063669998", "address": "15505 Westminster Way N"}, "geometry": {"type": "Point", "coordinates": [-122.3498917, 47.7429161]}}, {"type": "Feature", "properties": {"id": "3e8c88b5-8159-4275-b1de-7f00df3a5854", "name": "Super China Buffet", "category": "restaurant", "tags": ["restaurant", "buffet"], "sources": ["overture"], "website": "https://www.superchinabuffetshoreline.com", "phone": "12064179908", "address": "15323 Westminster Way N"}, "geometry": {"type": "Point", "coordinates": [-122.34935, 47.7408562]}}, {"type": "Feature", "properties": {"id": "62c56e80-c413-4620-8aae-bda5e5482227", "name": "The Current Apartments", "category": "attraction", "tags": ["attraction", "landmark", "historical", "building"], "sources": ["overture"], "website": "https://www.thecurrentshoreline.com/?utm_knock=sm", "phone": "+12066780901", "address": "15560 Westminster Way N"}, "geometry": {"type": "Point", "coordinates": [-122.3451691, 47.7416306]}}, {"type": "Feature", "properties": {"id": 548285368, "name": "Darnell Park", "category": "park", "tags": ["park"], "sources": ["osm", "overture"], "website": "http://darnellpark.placeweb.site/", "phone": "+12068012600", "address": "1125 N 165th St"}, "geometry": {"type": "Point", "coordinates": [-122.3436242, 47.7480698]}}, {"type": "Feature", "properties": {"id": "f18f3cf4-154b-4f9f-a36a-56e110d7c744", "name": "Interurban Trail", "category": "park", "tags": ["park"], "sources": ["overture"], "address": "Interurban Trail"}, "geometry": {"type": "Point", "coordinates": [-122.3435822, 47.7400627]}}, {"type": "Feature", "properties": {"id": 13242263601, "name": "Shoreline Motel", "category": "motel", "tags": ["motel"], "sources": ["osm", "overture"], "website": "http://www.shorelinemotel.com", "phone": "+12065427777", "address": "16526 Aurora Ave N", "hours": "24/7"}, "geometry": {"type": "Point", "coordinates": [-122.3452158, 47.7496993]}}, {"type": "Feature", "properties": {"id": "2c124d8e-4046-44bf-a984-a95cc2994398", "name": "7-Eleven", "category": "convenience", "tags": ["convenience"], "sources": ["overture"], "website": "https://www.7-eleven.com/locations/wa/shoreline/928-n-160th-street-16485", "phone": "2063655545", "address": "928 N 160th St"}, "geometry": {"type": "Point", "coordinates": [-122.3468552, 47.7450523]}}, {"type": "Feature", "properties": {"id": 696397793, "name": "Town & Country", "category": "supermarket", "tags": ["supermarket"], "sources": ["osm"], "website": "https://townandcountrymarkets.com/markets/shoreline", "address": "15505 Westminster Way North"}, "geometry": {"type": "Point", "coordinates": [-122.349859, 47.7426683]}}, {"type": "Feature", "properties": {"id": 144130748, "name": "Safeway", "category": "supermarket", "tags": ["supermarket", "pharmacy"], "sources": ["osm", "overture"], "website": "https://local.safeway.com/safeway/wa/shoreline/15332-aurora-ave-n.html", "phone": "+12063640453", "address": "15332 Aurora Ave N", "hours": "Mo-Fr 06:00-23:00; Sa 06:00-23:00; Su 06:00-23:00"}, "geometry": {"type": "Point", "coordinates": [-122.3435644, 47.7409302]}}, {"type": "Feature", "properties": {"id": 3179505958, "name": "Marshalls", "category": "department_store", "tags": ["department-store", "department"], "sources": ["osm", "overture"], "website": "https://www.marshalls.com/", "phone": "+12063678520", "address": "15801 Westminster Way North"}, "geometry": {"type": "Point", "coordinates": [-122.348191, 47.7445757]}}, {"type": "Feature", "properties": {"id": "0b4bfd65-812c-43dc-a78f-0a2f47a44d37", "name": "ExtraMile", "category": "convenience", "tags": ["convenience"], "sources": ["overture"], "website": "https://www.chevronextramile.com/station-finder/15510-aurora-ave-n-shoreline-wa-98133-id200410", "phone": "+12063630390", "address": "15510 Aurora Ave N"}, "geometry": {"type": "Point", "coordinates": [-122.3451538, 47.7420235]}}, {"type": "Feature", "properties": {"id": "b7c04c76-644e-4f0d-8dbb-d6570d2cb90d", "name": "The Recology Store", "category": "gift", "tags": ["gift"], "sources": ["overture"], "website": "https://www.recology.com/", "phone": "2064173877", "address": "15235 Aurora Ave N"}, "geometry": {"type": "Point", "coordinates": [-122.345665, 47.740303]}}, {"type": "Feature", "properties": {"id": 5610875728, "name": "Whistle Workwear", "category": "clothes", "tags": ["clothes"], "sources": ["osm"], "website": "https://www.americanworkwear.com/", "address": "15240 Aurora Avenue North"}, "geometry": {"type": "Point", "coordinates": [-122.3439353, 47.7403261]}}, {"type": "Feature", "properties": {"id": "ae118433-c0a4-4b2d-8a1e-dfc83c275001", "name": "A Greener Today Marijuana", "category": "cannabis", "tags": ["cannabis", "clinic"], "sources": ["overture"], "website": "https://agreenertoday.com/", "phone": "+12068017756", "address": "16053 Aurora Ave N"}, "geometry": {"type": "Point", "coordinates": [-122.3457947, 47.7464066]}}, {"type": "Feature", "properties": {"id": 10252453729, "name": "Galls", "category": "clothes", "tags": ["clothes"], "sources": ["osm"], "address": "15835 Westminster Way North", "hours": "Mo-Fr 08:30-17:00; Sa,Su off"}, "geometry": {"type": "Point", "coordinates": [-122.3469984, 47.7446703]}}, {"type": "Feature", "properties": {"id": 11944228627, "name": "Shell", "category": "convenience", "tags": ["convenience"], "sources": ["osm"]}, "geometry": {"type": "Point", "coordinates": [-122.3450315, 47.7490401]}}, {"type": "Feature", "properties": {"id": 11944249848, "name": "Shoreline Bike Shack", "category": "bicycle", "tags": ["bicycle"], "sources": ["osm"], "website": "https://seattlereconomy.org/bike-shack/", "address": "16610 Aurora Avenue North", "hours": "We 15:00-20:00; Sa 10:00-15:00"}, "geometry": {"type": "Point", "coordinates": [-122.3451103, 47.7499294]}}, {"type": "Feature", "properties": {"id": 12029164474, "name": "Pet Evolution", "category": "pet", "tags": ["pet"], "sources": ["osm", "overture"], "website": "https://www.petevolution.com/wa-shoreline/", "phone": "+12063314441", "address": "15515 Westminster Way N"}, "geometry": {"type": "Point", "coordinates": [-122.3480374, 47.742171]}}, {"type": "Feature", "properties": {"id": 309143317, "name": "Chevron", "category": "convenience", "tags": ["convenience"], "sources": ["osm"]}, "geometry": {"type": "Point", "coordinates": [-122.3447954, 47.7418003]}}, {"type": "Feature", "properties": {"id": 309273860, "name": "Shoreline Tool Library", "category": "bicycle", "tags": ["bicycle"], "sources": ["osm"], "website": "https://seattlereconomy.org/stl/", "address": "16610 Aurora Avenue North", "hours": "Mo-Fr 15:00-20:00; Sa 10:00-15:00"}, "geometry": {"type": "Point", "coordinates": [-122.3450356, 47.7498789]}}, {"type": "Feature", "properties": {"id": "24427f4b-38d0-4330-82a9-b7b12115fccc", "name": "Sherwin-Williams", "category": "hardware", "tags": ["hardware"], "sources": ["overture"], "website": "https://www.sherwin-williams.com/store-locator/paint-store/shoreline/wa/708109", "phone": "+12063657320", "address": "15242 Aurora Ave N"}, "geometry": {"type": "Point", "coordinates": [-122.3438721, 47.7404137]}}, {"type": "Feature", "properties": {"id": "0df6c9f6-0b59-48ff-a1ee-4483a7a4ac6d", "name": "Aaron Brothers Art & Framing", "category": "art", "tags": ["art", "supply"], "sources": ["overture"], "phone": "2064175065", "address": "15909 Westminster Way N"}, "geometry": {"type": "Point", "coordinates": [-122.3460922, 47.7434196]}}, {"type": "Feature", "properties": {"id": "f8efacb0-b90b-42e1-ac60-7dd455191c4d", "name": "Sears", "category": "department_store", "tags": ["department-store", "department"], "sources": ["overture"], "website": "https://www.sears.com/stores/washington/shoreline/0001059.html", "phone": "2063649000", "address": "15711 Aurora Ave N"}, "geometry": {"type": "Point", "coordinates": [-122.3490067, 47.7436256]}}, {"type": "Feature", "properties": {"id": "15b449a7-f15a-4cb8-b2e5-e051588cfe8d", "name": "Amen Market", "category": "supermarket", "tags": ["supermarket"], "sources": ["overture"], "website": "http://amenmarkets.homestead.com", "phone": "+12068040107", "address": "16053 Aurora Ave N ste d"}, "geometry": {"type": "Point", "coordinates": [-122.3458099, 47.7463837]}}, {"type": "Feature", "properties": {"id": "682ab0e0-ce1e-4733-93a5-461c5f5c16c2", "name": "Quintana Roo Mexicatessen", "category": "deli", "tags": ["deli", "delicatessen"], "sources": ["overture"], "website": "http://www.quintanaroomexicatessen.com", "phone": "(206) 542-8226", "address": "16301 Aurora Ave N"}, "geometry": {"type": "Point", "coordinates": [-122.3460693, 47.7472458]}}, {"type": "Feature", "properties": {"id": "82bc2b06-740b-4590-bcc4-a4bc6655a999", "name": "Universal Wireless Repair", "category": "mobile_phone", "tags": ["mobile-phone", "mobile"], "sources": ["overture"], "website": "http://www.uwrepair.com/", "phone": "+12063316166", "address": "15526 Aurora Ave N"}, "geometry": {"type": "Point", "coordinates": [-122.3448715, 47.7422333]}}, {"type": "Feature", "properties": {"id": "a4fb264a-8926-41be-be58-44b6657d0906", "name": "Town & Country Market Shoreline", "category": "supermarket", "tags": ["supermarket"], "sources": ["overture"], "website": "https://townandcountrymarkets.com", "phone": "12063639226", "address": "15505 Westminster Way N"}, "geometry": {"type": "Point", "coordinates": [-122.3498917, 47.7429161]}}, {"type": "Feature", "properties": {"id": "c8832bbe-8a4c-4942-8830-27bf3bb30809", "name": "Lands' End", "category": "clothes", "tags": ["clothes"], "sources": ["overture"], "website": "http://www.landsend.com/", "phone": "2064402039", "address": "15711 Aurora Ave N"}, "geometry": {"type": "Point", "coordinates": [-122.3484802, 47.7440681]}}, {"type": "Feature", "properties": {"id": 3540339777, "name": "ZoomCare", "category": "clinic", "tags": ["clinic"], "sources": ["osm"], "address": "15911 Westminster Way North"}, "geometry": {"type": "Point", "coordinates": [-122.3461814, 47.7446433]}}, {"type": "Feature", "properties": {"id": "53cfd541-1181-4002-ba86-43b2ae54e1ac", "name": "Safeway Pharmacy", "category": "pharmacy", "tags": ["pharmacy"], "sources": ["overture"], "website": "https://local.pharmacy.safeway.com/safeway/wa/shoreline/15332-aurora-ave-n.html", "phone": "2065395500", "address": "15332 Aurora Ave N"}, "geometry": {"type": "Point", "coordinates": [-122.3436432, 47.7406654]}}, {"type": "Feature", "properties": {"id": "b38e1767-413b-458f-b9dd-1c183c5c29bb", "name": "International Community Health", "category": "hospital", "tags": ["hospital"], "sources": ["overture"], "phone": "+12065330898"}, "geometry": {"type": "Point", "coordinates": [-122.3457947, 47.7497139]}}, {"type": "Feature", "properties": {"id": 3192451382, "name": "Bank of America", "category": "bank", "tags": ["bank", "drive-through", "credit", "union"], "sources": ["osm", "overture"], "website": "http://www.bankofamerica.com", "phone": "+12065855714", "address": "15401 Westminster Way N"}, "geometry": {"type": "Point", "coordinates": [-122.3496927, 47.741723]}}, {"type": "Feature", "properties": {"id": "4136afb9-b184-46c5-b425-b7163a896463", "name": "U.S. Bank", "category": "bank", "tags": ["bank", "credit", "union"], "sources": ["overture"], "website": "https://www.usbank.com/locations", "phone": "2063636366", "address": "15415 Westminster Way N"}, "geometry": {"type": "Point", "coordinates": [-122.3486328, 47.7415199]}}, {"type": "Feature", "properties": {"id": 309147285, "name": "Sound Credit Union", "category": "bank", "tags": ["bank"], "sources": ["osm"], "website": "https://www.soundcu.com", "address": "16330 Aurora Avenue North"}, "geometry": {"type": "Point", "coordinates": [-122.3450582, 47.7478617]}}, {"type": "Feature", "properties": {"id": "c537e5e6-9792-4c33-809f-3b7ac4e8e474", "name": "Alaska USA Federal Credit Union", "category": "bank", "tags": ["bank", "credit", "union"], "sources": ["overture"], "website": "https://www.alaskausa.org/", "phone": "8005259094", "address": "15332 Aurora Ave N"}, "geometry": {"type": "Point", "coordinates": [-122.3436356, 47.7409019]}}, {"type": "Feature", "properties": {"id": "4dd8202f-da30-496b-bfc3-fc4e875b5aae", "name": "Pacific Premier Bank", "category": "bank", "tags": ["bank", "credit", "union"], "sources": ["overture"], "website": "https://www.ppbi.com/help/locations-hours.html", "phone": "2063657300", "address": "15225 Aurora Ave N"}, "geometry": {"type": "Point", "coordinates": [-122.3457031, 47.7401619]}}, {"type": "Feature", "properties": {"id": 12096171446, "name": "Pure Barre", "category": "fitness_centre", "tags": ["fitness-centre", "barre", "pilates", "studio"], "sources": ["osm", "overture"], "website": "https://www.purebarre.com/location/shoreline-wa", "phone": "+12069812085", "address": "15525 Westminster Way N"}, "geometry": {"type": "Point", "coordinates": [-122.3475551, 47.7423689]}}, {"type": "Feature", "properties": {"id": 5307015499, "name": "Goldfish Swim School", "category": "sports_centre", "tags": ["sports-centre", "swimming"], "sources": ["osm"], "address": "15901 Westminster Way North"}, "geometry": {"type": "Point", "coordinates": [-122.3465638, 47.7446332]}}, {"type": "Feature", "properties": {"id": "640fc5c3-68ce-42a4-aacd-e51757e67773", "name": "2.0 | Next Level Fitness", "category": "fitness_centre", "tags": ["fitness-centre", "gym"], "sources": ["overture"], "website": "http://www.2p0fit.com", "phone": "(206) 327-9070", "address": "15815 Westminster Way N"}, "geometry": {"type": "Point", "coordinates": [-122.3474808, 47.7447166]}}]}