{"type": "FeatureCollection", "features": [{"type": "Feature", "properties": {"id": 10037964017, "name": "El Recreo", "category": "restaurant", "tags": ["restaurant", "mexican", "wheelchair-accessible", "taco", "latin-american"], "sources": ["osm", "overture"], "website": "http://orderelrecreowa.com/", "phone": "+14255726136", "address": "2801 NE Sunset Blvd Ste A", "hours": "Mo-Su 11:00-21:00"}, "geometry": {"type": "Point", "coordinates": [-122.1799947, 47.4999178]}}, {"type": "Feature", "properties": {"id": 10038088117, "name": "Renton Deli", "category": "cafe", "tags": ["cafe", "vietnamese", "restaurant", "sandwich"], "sources": ["osm", "overture"], "website": "http://www.renton-diner-deli.advertory.com", "phone": "+14252267572", "address": "2801 NE Sunset Blvd", "hours": "Mo-Sa 09:00-17:00"}, "geometry": {"type": "Point", "coordinates": [-122.1799366, 47.4999707]}}, {"type": "Feature", "properties": {"id": "e751b9db-9246-45b6-9e47-7bb95cb9fe57", "name": "Hilltop in the Highlands", "category": "attraction", "tags": ["attraction", "landmark", "historical", "building"], "sources": ["overture"], "website": "https://www.udr.com/seattle-apartments/renton/hilltop-in-the-highlands/", "phone": "+14254063212", "address": "500 Monroe Ave NE"}, "geometry": {"type": "Point", "coordinates": [-122.1726151, 47.4907074]}}, {"type": "Feature", "properties": {"id": 4909104588, "name": "Mi Mercado", "category": "convenience", "tags": ["convenience", "wheelchair-accessible", "supermarket", "latin-american"], "sources": ["osm", "overture"], "website": "https://g.co/kgs/vWB2nU", "phone": "+14252551734", "address": "2808 NE 10th St"}, "geometry": {"type": "Point", "coordinates": [-122.1797262, 47.4996776]}}, {"type": "Feature", "properties": {"id": "1897ae71-3bc3-4057-a0bf-b1279fbfc658", "name": "Books On West", "category": "books", "tags": ["books"], "sources": ["overture"], "website": "http://www.booksonthewest.com", "phone": "(425) 271-6481", "address": "824 Lynnwood Ave NE"}, "geometry": {"type": "Point", "coordinates": [-122.1762314, 47.4963989]}}]}