{"type": "FeatureCollection", "features": [{"type": "Feature", "properties": {"id": 1730821230, "name": "QED Coffee", "category": "cafe", "tags": ["cafe", "coffee-shop", "coffee"], "sources": ["osm", "overture"], "website": "http://www.qedcoffee.com/", "phone": "+12062357678", "address": "1418 31st Ave S", "stations": [{"stopCode": 54, "lines": "2", "name": "Judkins Park Station", "walkingMeters": 1079, "walkingSeconds": 777, "band": 15}]}, "geometry": {"type": "Point", "coordinates": [-122.2922255, 47.5896845]}}, {"type": "Feature", "properties": {"id": 1730821255, "name": "That's Amore Italian Cafe", "category": "restaurant", "tags": ["restaurant", "reservations", "italian"], "sources": ["osm", "overture"], "website": "https://www.thatsamoreseattle.com", "phone": "+12063223677", "address": "1425 31st Ave S", "stations": [{"stopCode": 54, "lines": "2", "name": "Judkins Park Station", "walkingMeters": 1048, "walkingSeconds": 756, "band": 15}]}, "geometry": {"type": "Point", "coordinates": [-122.292667, 47.5895405]}}, {"type": "Feature", "properties": {"id": 2390866747, "name": "Iconiq", "category": "restaurant", "tags": ["restaurant", "japanese", "french", "asian"], "sources": ["osm", "overture"], "website": "http://Iconiqseattle.net/", "phone": "+12065687715", "address": "1421 31st Ave S", "stations": [{"stopCode": 54, "lines": "2", "name": "Judkins Park Station", "walkingMeters": 1062, "walkingSeconds": 764, "band": 15}]}, "geometry": {"type": "Point", "coordinates": [-122.2926214, 47.5897058]}}, {"type": "Feature", "properties": {"id": "8b70e520-7a11-4d3a-8646-1a534b945718", "name": "A La Bonne Franquette", "category": "restaurant", "tags": ["restaurant", "french"], "sources": ["overture"], "website": "http://www.albfseattle.com", "phone": "(206) 568-7715", "address": "1421 31st Ave S", "stations": [{"stopCode": 54, "lines": "2", "name": "Judkins Park Station", "walkingMeters": 1062, "walkingSeconds": 766, "band": 15}]}, "geometry": {"type": "Point", "coordinates": [-122.2926865, 47.5896606]}}, {"type": "Feature", "properties": {"id": "fbeba7fc-c675-48e6-a8bd-82a5a908d92a", "name": "D&g Adventures Inc", "category": "restaurant", "tags": ["restaurant"], "sources": ["overture"], "address": "1425 31st Ave S", "stations": [{"stopCode": 54, "lines": "2", "name": "Judkins Park Station", "walkingMeters": 1157, "walkingSeconds": 863, "band": 15}]}, "geometry": {"type": "Point", "coordinates": [-122.2926865, 47.5895615]}}, {"type": "Feature", "properties": {"id": 3211770087, "name": "Martin Luther King Jr. Memorial", "category": "artwork", "tags": ["artwork"], "sources": ["osm"], "stations": [{"stopCode": 57, "lines": "1", "name": "Mount Baker Station", "walkingMeters": 1034, "walkingSeconds": 744, "band": 15}, {"stopCode": 54, "lines": "2", "name": "Judkins Park Station", "walkingMeters": 1304, "walkingSeconds": 942, "band": 15}]}, "geometry": {"type": "Point", "coordinates": [-122.29731, 47.5829754]}}, {"type": "Feature", "properties": {"id": 4740477553, "name": "Urban Peace Circle", "category": "artwork", "tags": ["artwork"], "sources": ["osm"], "stations": [{"stopCode": 54, "lines": "2", "name": "Judkins Park Station", "walkingMeters": 645, "walkingSeconds": 465, "band": 10}]}, "geometry": {"type": "Point", "coordinates": [-122.2971353, 47.5897039]}}, {"type": "Feature", "properties": {"id": "4f39e2ca-0cf6-4874-9a33-b4e6575d53ad", "name": "Center Park Apartments", "category": "attraction", "tags": ["attraction", "landmark", "historical", "building"], "sources": ["overture"], "website": "www.seattlehousing.org/housing/public/locations/center-park", "phone": "+12063200756", "address": "2121 26th Ave S", "stations": [{"stopCode": 57, "lines": "1", "name": "Mount Baker Station", "walkingMeters": 1036, "walkingSeconds": 748, "band": 15}, {"stopCode": 54, "lines": "2", "name": "Judkins Park Station", "walkingMeters": 1126, "walkingSeconds": 812, "band": 15}, {"stopCode": 56, "lines": "1", "name": "Beacon Hill Station", "walkingMeters": 1445, "walkingSeconds": 1038, "band": 15}]}, "geometry": {"type": "Point", "coordinates": [-122.2993088, 47.5840721]}}, {"type": "Feature", "properties": {"id": 50536569, "name": "Bradner Gardens Park", "category": "garden", "tags": ["garden", "park"], "sources": ["osm", "overture"], "website": "http://seattle.gov/parks/park_detail.asp?ID=401", "phone": "+12066844075", "address": "1730 Bradner Pl S", "stations": [{"stopCode": 54, "lines": "2", "name": "Judkins Park Station", "walkingMeters": 1034, "walkingSeconds": 745, "band": 15}]}, "geometry": {"type": "Point", "coordinates": [-122.295448, 47.5873849]}}, {"type": "Feature", "properties": {"id": 51473915, "name": "Martin Luther King Junior Civil Rights Memorial Park", "category": "park", "tags": ["park"], "sources": ["osm"], "website": "https://www.seattle.gov/parks/find/parks/martin-luther-king-jr-memorial-park", "address": "2200 Martin Luther King Junior Way South", "stations": [{"stopCode": 57, "lines": "1", "name": "Mount Baker Station", "walkingMeters": 1070, "walkingSeconds": 770, "band": 15}]}, "geometry": {"type": "Point", "coordinates": [-122.297246, 47.5824243]}}, {"type": "Feature", "properties": {"id": 51473916, "name": "College Street Park", "category": "park", "tags": ["park"], "sources": ["osm", "overture"], "website": "http://seattle.gov/parks/park_detail.asp?ID=3922", "phone": "+12066844075", "address": "2915 S College St", "stations": [{"stopCode": 57, "lines": "1", "name": "Mount Baker Station", "walkingMeters": 1007, "walkingSeconds": 724, "band": 15}]}, "geometry": {"type": "Point", "coordinates": [-122.2946279, 47.5827049]}}, {"type": "Feature", "properties": {"id": 230598416, "name": "Mt. Baker Ridge Viewpoint", "category": "park", "tags": ["park"], "sources": ["osm"], "address": "1411 31st Avenue South", "stations": [{"stopCode": 54, "lines": "2", "name": "Judkins Park Station", "walkingMeters": 1029, "walkingSeconds": 741, "band": 15}]}, "geometry": {"type": "Point", "coordinates": [-122.2926241, 47.5899926]}}, {"type": "Feature", "properties": {"id": "334feb61-2f48-4d16-8c36-85d4087ce65c", "name": "Blue Dog Pond", "category": "park", "tags": ["park", "dog"], "sources": ["overture"], "website": "http://seattle.gov/parks/park_detail.asp?ID=4418", "phone": "+12066844075", "address": "1520 26th Ave S", "stations": [{"stopCode": 54, "lines": "2", "name": "Judkins Park Station", "walkingMeters": 647, "walkingSeconds": 467, "band": 10}]}, "geometry": {"type": "Point", "coordinates": [-122.2985916, 47.5887489]}}, {"type": "Feature", "properties": {"id": "572126b7-0e83-44b0-a420-54521eeb5d5d", "name": "Colman Park", "category": "park", "tags": ["park"], "sources": ["overture"], "website": "http://www.seattle.gov/parks/park_detail.asp?id=405", "phone": "+12066844075", "address": "1740 Lake Washington Blvd S"}, "geometry": {"type": "Point", "coordinates": [-122.2902298, 47.5863914]}}, {"type": "Feature", "properties": {"id": "642c16bc-2aa7-4f7c-84ed-9202135a66d5", "name": "Sam Smith Park", "category": "park", "tags": ["park"], "sources": ["overture"], "website": "http://www.seattle.gov/Parks/park_detail.asp?id=4242", "phone": "+12066844075", "address": "1400 Martin Luther King Jr Way S", "stations": [{"stopCode": 54, "lines": "2", "name": "Judkins Park Station", "walkingMeters": 616, "walkingSeconds": 445, "band": 10}]}, "geometry": {"type": "Point", "coordinates": [-122.2970505, 47.5899239]}}, {"type": "Feature", "properties": {"id": "d481b606-b3de-4a2a-a3eb-613fa2e5335b", "name": "Martin Luther King Jr. Memorial Park", "category": "park", "tags": ["park"], "sources": ["overture"], "website": "http://www.seattle.gov/parks/find/parks/martin-luther-king-jr-memorial-park", "phone": "+12066844075", "address": "2200 Martin Luther King Jr Way S", "stations": [{"stopCode": 57, "lines": "1", "name": "Mount Baker Station", "walkingMeters": 1027, "walkingSeconds": 739, "band": 15}, {"stopCode": 54, "lines": "2", "name": "Judkins Park Station", "walkingMeters": 1297, "walkingSeconds": 937, "band": 15}]}, "geometry": {"type": "Point", "coordinates": [-122.2973175, 47.5829811]}}, {"type": "Feature", "properties": {"id": "02b98562-b886-483d-8397-24d29ec121dc", "name": "7th Avenue Seattle Hotel", "category": "hotel", "tags": ["hotel"], "sources": ["overture"], "website": "http://www.tripadvisor.com/Hotel_Review-g33581-d74677-Reviews-Inn_at_7th_Avenue-Ouray_Colorado.html", "phone": "+12535911063", "address": "1513 26th Ave S", "stations": [{"stopCode": 54, "lines": "2", "name": "Judkins Park Station", "walkingMeters": 525, "walkingSeconds": 380, "band": 10}]}, "geometry": {"type": "Point", "coordinates": [-122.2993546, 47.5891457]}}, {"type": "Feature", "properties": {"id": 2048590852, "name": "Dog Mania", "category": "pet", "tags": ["pet"], "sources": ["osm"], "website": "http://www.dogmaniaseattle.com/", "address": "1428 31st Avenue South", "stations": [{"stopCode": 54, "lines": "2", "name": "Judkins Park Station", "walkingMeters": 1076, "walkingSeconds": 776, "band": 15}]}, "geometry": {"type": "Point", "coordinates": [-122.2922214, 47.589518]}}, {"type": "Feature", "properties": {"id": 2048590960, "name": "Serevi Rugby", "category": "sports", "tags": ["sports"], "sources": ["osm"], "website": "http://www.serevirugby.com/", "address": "1417 31st Avenue South", "stations": [{"stopCode": 54, "lines": "2", "name": "Judkins Park Station", "walkingMeters": 1054, "walkingSeconds": 759, "band": 15}]}, "geometry": {"type": "Point", "coordinates": [-122.2926171, 47.5897704]}}, {"type": "Feature", "properties": {"id": "06fa8c7e-be52-40bd-909a-bfa84da9c508", "name": "Unstill Life Fitness Coaching", "category": "fitness_centre", "tags": ["fitness-centre", "fitness", "trainer"], "sources": ["overture"], "website": "http://www.unstilllife.com", "address": "1414 31st Ave S", "stations": [{"stopCode": 54, "lines": "2", "name": "Judkins Park Station", "walkingMeters": 1236, "walkingSeconds": 922, "band": 15}]}, "geometry": {"type": "Point", "coordinates": [-122.2918472, 47.5898247]}}, {"type": "Feature", "properties": {"id": "3a0fd69a-9bba-43c7-a28b-78e0479d1624", "name": "Ridge Fitness", "category": "fitness_centre", "tags": ["fitness-centre", "gym"], "sources": ["overture"], "phone": "12069921944", "address": "1414 31st Ave S  Ste 103", "stations": [{"stopCode": 54, "lines": "2", "name": "Judkins Park Station", "walkingMeters": 1236, "walkingSeconds": 922, "band": 15}]}, "geometry": {"type": "Point", "coordinates": [-122.2918472, 47.5898247]}}]}