{"type": "FeatureCollection", "features": [{"type": "Feature", "properties": {"id": "5988c725-548f-409b-a2b9-1776713e384b", "name": "Southern Taiwan", "category": "restaurant", "tags": ["restaurant", "taiwanese"], "sources": ["overture"], "website": "https://www.staiwanfoodtruck.com", "address": "1607 145th Pl SE"}, "geometry": {"type": "Point", "coordinates": [-122.1502457, 47.5957451]}}, {"type": "Feature", "properties": {"id": "de468427-e706-4f18-b9da-e53dc96d948b", "name": "Alder Bellevue", "category": "attraction", "tags": ["attraction", "landmark", "historical", "building"], "sources": ["overture"], "website": "https://www.alderbellevue.com/", "phone": "+14255461548", "address": "1501 145th Pl SE"}, "geometry": {"type": "Point", "coordinates": [-122.1517563, 47.5974579]}}, {"type": "Feature", "properties": {"id": 422278036, "name": "Skyridge Park", "category": "park", "tags": ["park"], "sources": ["osm"]}, "geometry": {"type": "Point", "coordinates": [-122.1586084, 47.5922136]}}, {"type": "Feature", "properties": {"id": 4782560558, "name": "TRES Sandwich", "category": "deli", "tags": ["deli", "restaurant", "sandwich", "japanese", "asian"], "sources": ["osm", "overture"], "website": "http://www.tressandwich.com/", "phone": "+14256437333", "address": "1502 145th Pl SE", "hours": "Mo-Su 08:00-14:00"}, "geometry": {"type": "Point", "coordinates": [-122.150063, 47.5969871]}}, {"type": "Feature", "properties": {"id": 486500389, "name": "ampm", "category": "convenience", "tags": ["convenience"], "sources": ["osm"]}, "geometry": {"type": "Point", "coordinates": [-122.1502254, 47.5957308]}}, {"type": "Feature", "properties": {"id": "47db6481-9712-43b4-af22-c864f93b7a37", "name": "Tomoshibi Library", "category": "library", "tags": ["library"], "sources": ["overture"], "website": "https://ourlibrarysite.wordpress.com/", "phone": "+14259220813", "address": "14200 SE 13th Pl"}, "geometry": {"type": "Point", "coordinates": [-122.1519699, 47.5996246]}}]}