{"type": "FeatureCollection", "features": [{"type": "Feature", "properties": {"id": 50622252, "name": "Cedar Park", "category": "park", "tags": ["park"], "sources": ["osm", "overture"], "website": "https://www.seattle.gov", "phone": "12066844075", "address": "3737 NE 135th St"}, "geometry": {"type": "Point", "coordinates": [-122.2881249, 47.725843]}}, {"type": "Feature", "properties": {"id": 293126948, "name": "Lake City Beach Park", "category": "park", "tags": ["park"], "sources": ["osm"], "website": "https://www.seattle.gov/parks/allparks/lake-city-beach-park"}, "geometry": {"type": "Point", "coordinates": [-122.2810897, 47.7229617]}}, {"type": "Feature", "properties": {"id": "f97e9b93-c854-46c7-be4c-6deca2542e8e", "name": "Oasis In Cedar Park", "category": "guest_house", "tags": ["guest-house", "bed", "breakfast"], "sources": ["overture"], "website": "http://www.oasisincedarpark.com/", "phone": "+19178613216", "address": "4010 NE 135th St"}, "geometry": {"type": "Point", "coordinates": [-122.2850723, 47.7266197]}}, {"type": "Feature", "properties": {"id": "82922c0a-fd4f-460c-88c6-459257f1db77", "name": "Argo Fitness", "category": "fitness_centre", "tags": ["fitness-centre", "gym"], "sources": ["overture"], "website": "http://www.argofitness.com/", "phone": "+12062805249", "address": "3737 NE 135th St"}, "geometry": {"type": "Point", "coordinates": [-122.287384, 47.7261581]}}]}