{"type": "FeatureCollection", "features": [{"type": "Feature", "properties": {"id": 10813931507, "name": "Windsong", "category": "artwork", "tags": ["artwork"], "sources": ["osm"]}, "geometry": {"type": "Point", "coordinates": [-122.2314298, 47.6199275]}}, {"type": "Feature", "properties": {"id": 55329049, "name": "Medina Park", "category": "park", "tags": ["park"], "sources": ["osm", "overture"], "website": "http://www.medina-wa.gov", "phone": "+14252016044", "address": "Medina Park, 8301 NE 12th St"}, "geometry": {"type": "Point", "coordinates": [-122.2309054, 47.6196934]}}, {"type": "Feature", "properties": {"id": "4571a2bc-da9a-48d4-9ab1-aacd017bc71a", "name": "Kitchen & Market", "category": "supermarket", "tags": ["supermarket"], "sources": ["overture"], "website": "kitchenandmarket.com", "phone": "+14256981853", "address": "800 Evergreen Point Rd"}, "geometry": {"type": "Point", "coordinates": [-122.2384033, 47.6177177]}}, {"type": "Feature", "properties": {"id": 1050033196, "name": "Medina Post Office", "category": "post_office", "tags": ["post-office"], "sources": ["osm"], "website": "https://tools.usps.com/locations/details/1372540", "address": "816 Evergreen Point Road"}, "geometry": {"type": "Point", "coordinates": [-122.2384824, 47.6179335]}}, {"type": "Feature", "properties": {"id": "ecedd202-87bb-4d7b-b418-e53f9ccdcfe3", "name": "United States Postal Service", "category": "post_office", "tags": ["post-office", "office"], "sources": ["overture"], "website": "https://tools.usps.com/find-location.htm?location=1372540", "phone": "+18002758777", "address": "816 Evergreen Point Rd"}, "geometry": {"type": "Point", "coordinates": [-122.2386398, 47.6179276]}}]}