{"type": "FeatureCollection", "features": [{"type": "Feature", "properties": {"id": "3d5b13dc-213a-4554-82e6-5760e31d2f95", "name": "Subway", "category": "restaurant", "tags": ["restaurant", "sandwich"], "sources": ["overture"], "website": "https://restaurants.subway.com/united-states/wa/seattle/8819-14th-ave-s", "phone": "(206) 762-3300", "address": "8819 14th Ave S"}, "geometry": {"type": "Point", "coordinates": [-122.3154831, 47.5240211]}}, {"type": "Feature", "properties": {"id": 2328499891, "name": "Mi Fondita Del Itsmo", "category": "restaurant", "tags": ["restaurant", "mexican"], "sources": ["osm", "overture"], "phone": "12067395824", "address": "8525 14th Ave S"}, "geometry": {"type": "Point", "coordinates": [-122.3150838, 47.5266049]}}, {"type": "Feature", "properties": {"id": 2328499894, "name": "Uncle Eddie\u2019s South Park", "category": "restaurant", "tags": ["restaurant", "american"], "sources": ["osm"], "phone": "+1-206-686-3254", "address": "8601 14th Avenue South", "hours": "We,Th,Sa,Su 09:00-15:00; Fr 09:00-21:00"}, "geometry": {"type": "Point", "coordinates": [-122.315113, 47.5263167]}}, {"type": "Feature", "properties": {"id": 2328499906, "name": "South Town Pie", "category": "restaurant", "tags": ["restaurant", "pizza"], "sources": ["osm", "overture"], "website": "http://www.southtownpie.com/", "phone": "+12065357166", "address": "8611 14th Ave S", "hours": "Su-We 11:00-22:00; Th-Sa 11:00-23:00"}, "geometry": {"type": "Point", "coordinates": [-122.3151064, 47.5260598]}}, {"type": "Feature", "properties": {"id": 2328499910, "name": "Loretta\u2019s Northwesterner", "category": "pub", "tags": ["pub", "american", "burger", "outdoor-seating", "wheelchair-accessible", "has-bar", "restaurant", "bar-and-grill"], "sources": ["osm", "overture"], "website": "http://lorettasnorthwesterner.com", "phone": "+12062512821", "address": "8617 14th Ave S", "hours": "Mo-Th 11:00-24:00, Fr 11:00-24:00, Sa 00:00-02:00, Sa 10:00-24:00, Su 00:00-02:00, Su 10:00-24:00"}, "geometry": {"type": "Point", "coordinates": [-122.3151259, 47.5258713]}}, {"type": "Feature", "properties": {"id": "28d29cd3-e654-460d-bbc5-aa75b5726038", "name": "Caffe Umbria", "category": "cafe", "tags": ["cafe", "coffee"], "sources": ["overture"], "website": "http://www.caffeumbria.com", "phone": "(206) 762-5300", "address": "8620 16th Ave S"}, "geometry": {"type": "Point", "coordinates": [-122.3123322, 47.5257874]}}, {"type": "Feature", "properties": {"id": 4425628397, "name": "Taqueria El Rincon", "category": "restaurant", "tags": ["restaurant", "mexican"], "sources": ["osm"]}, "geometry": {"type": "Point", "coordinates": [-122.3150757, 47.5252161]}}, {"type": "Feature", "properties": {"id": "59fb7523-1730-4585-82a6-78bec9eedc90", "name": "Taqueria El Rincon", "category": "restaurant", "tags": ["restaurant", "mexican"], "sources": ["overture"], "website": "http://elrinconsito.com", "phone": "(206) 762-7227", "address": "8910 14th Ave S"}, "geometry": {"type": "Point", "coordinates": [-122.3154907, 47.5241318]}}, {"type": "Feature", "properties": {"id": 4425652695, "name": "Honor Mexicano", "category": "restaurant", "tags": ["restaurant", "mexican"], "sources": ["osm"], "address": "8517 14th Avenue South", "hours": "Mo-Su 11:00-21:00"}, "geometry": {"type": "Point", "coordinates": [-122.3151123, 47.5267218]}}, {"type": "Feature", "properties": {"id": 4425658392, "name": "El Rey", "category": "restaurant", "tags": ["restaurant", "peruvian"], "sources": ["osm"], "website": "https://elreyperuvianrestaurantseattle.com/", "address": "8515 14th Avenue South"}, "geometry": {"type": "Point", "coordinates": [-122.3151136, 47.5268047]}}, {"type": "Feature", "properties": {"id": 4425665289, "name": "Taqueria El Kiosko", "category": "fast_food", "tags": ["fast-food", "mexican", "takeaway"], "sources": ["osm"]}, "geometry": {"type": "Point", "coordinates": [-122.3154252, 47.5240223]}}, {"type": "Feature", "properties": {"id": 5335984521, "name": "Via Vadi Caff\u00e9", "category": "cafe", "tags": ["cafe"], "sources": ["osm", "overture"], "website": "http://viavadi.com", "phone": "(206) 762-7519", "address": "8600 14th Ave S"}, "geometry": {"type": "Point", "coordinates": [-122.3145127, 47.5263085]}}, {"type": "Feature", "properties": {"id": 8140542237, "name": "The Scene in South Park", "category": "cafe", "tags": ["cafe", "coffee-shop", "coffee"], "sources": ["osm", "overture"], "website": "http://www.resistenciacoffee.com/", "phone": "+12069069241", "address": "1249 S Cloverdale St", "hours": "Mo-Fr 06:30-15:30; Sa 07:30-15:30; Su 08:00-15:30"}, "geometry": {"type": "Point", "coordinates": [-122.3154114, 47.5263373]}}, {"type": "Feature", "properties": {"id": 9112066080, "name": "Tasty\u2019s Bar & Grill", "category": "restaurant", "tags": ["restaurant"], "sources": ["osm"]}, "geometry": {"type": "Point", "coordinates": [-122.3150997, 47.5261477]}}, {"type": "Feature", "properties": {"id": 11535169900, "name": "Momo's Kebab", "category": "fast_food", "tags": ["fast-food", "food", "truck"], "sources": ["osm", "overture"], "website": "https://www.momoskebabseattle.com", "phone": "(206) 665-4460", "address": "8520 14th Ave S"}, "geometry": {"type": "Point", "coordinates": [-122.3147422, 47.5265374]}}, {"type": "Feature", "properties": {"id": 13898045710, "name": "Muy Macho Taco Truck", "category": "fast_food", "tags": ["fast-food", "mexican"], "sources": ["osm"], "phone": "+1-206-412-5550", "hours": "Mo-Fr 11:00-19:00"}, "geometry": {"type": "Point", "coordinates": [-122.3150717, 47.5270679]}}, {"type": "Feature", "properties": {"id": 224021701, "name": "Good Voyage", "category": "cafe", "tags": ["cafe", "coffee-shop", "restaurant"], "sources": ["osm", "overture"], "address": "8520 14th Ave S", "hours": "Tu-Th,Su 08:00-21:00; Fr,Sa 08:00-22:00"}, "geometry": {"type": "Point", "coordinates": [-122.3145647, 47.5267326]}}, {"type": "Feature", "properties": {"id": "aa858bfc-e447-48fd-a82a-47315d5a4791", "name": "Krispy Krunchy Chicken", "category": "restaurant", "tags": ["restaurant", "chicken", "fast-food"], "sources": ["overture"], "website": "https://locations.krispykrunchy.com/wa/seattle/8819-14th-ave-south", "phone": "2067634145", "address": "8819 14Th Ave South"}, "geometry": {"type": "Point", "coordinates": [-122.315506, 47.5241165]}}, {"type": "Feature", "properties": {"id": 907625898, "name": "112 Caf\u00e9", "category": "cafe", "tags": ["cafe"], "sources": ["osm"]}, "geometry": {"type": "Point", "coordinates": [-122.3147955, 47.5237709]}}, {"type": "Feature", "properties": {"id": "2507dfd9-3be6-4d6c-8b75-1dd504bcb68c", "name": "Pasteleria y Panaderia La Ideal", "category": "bakery", "tags": ["bakery"], "sources": ["overture"], "website": "http://www.catchtheculture.com", "phone": "+12067674002", "address": "8909 14th Ave S"}, "geometry": {"type": "Point", "coordinates": [-122.3155518, 47.5236397]}}, {"type": "Feature", "properties": {"id": "07736fa3-5891-4603-a6ce-d4d20c22de7e", "name": "Barstool Bites", "category": "restaurant", "tags": ["restaurant"], "sources": ["overture"], "website": "https://seasideonthepier.com", "address": "8507 14th Ave S"}, "geometry": {"type": "Point", "coordinates": [-122.315239, 47.5270386]}}, {"type": "Feature", "properties": {"id": "fc9322fa-363f-4350-ae2e-fb879e33441e", "name": "Charcuterie", "category": "restaurant", "tags": ["restaurant"], "sources": ["overture"], "website": "http://zoesmeats.com", "phone": "(206) 763-9637", "address": "9100 15th Pl S Ste B"}, "geometry": {"type": "Point", "coordinates": [-122.3121338, 47.5219078]}}, {"type": "Feature", "properties": {"id": "ef52ef75-0a43-4ada-a3ca-68e00eeb237e", "name": "Baj\u00f3n en Seattle", "category": "restaurant", "tags": ["restaurant", "argentine", "chilean", "latin-american"], "sources": ["overture"], "website": "http://www.instagram.com/phoraleseattle", "phone": "+12535718792", "address": "8909 14th Ave S"}, "geometry": {"type": "Point", "coordinates": [-122.3151703, 47.523632]}}, {"type": "Feature", "properties": {"id": "86205ad2-d20a-4f0a-9e97-4358539d9b2a", "name": "Burrito Express", "category": "fast_food", "tags": ["fast-food", "food", "truck", "mexican", "taco"], "sources": ["overture"], "website": "http://www.burritoexpressseattle.com/", "phone": "+12068514027", "address": "1252 S Cloverdale St"}, "geometry": {"type": "Point", "coordinates": [-122.3155365, 47.5266151]}}, {"type": "Feature", "properties": {"id": "33cd1561-d869-4162-bd3a-e92d074836fc", "name": "Uncle Eddie's Public House", "category": "restaurant", "tags": ["restaurant", "pub"], "sources": ["overture"], "website": "http://www.eddiesp.com/", "phone": "+12066863254", "address": "8601 14th Ave S"}, "geometry": {"type": "Point", "coordinates": [-122.3152008, 47.526371]}}, {"type": "Feature", "properties": {"id": "e193c6b9-43a7-4c15-9dcb-59fc24bc6db3", "name": "Jonesmith Llc", "category": "restaurant", "tags": ["restaurant"], "sources": ["overture"], "address": "8601 14th Ave S"}, "geometry": {"type": "Point", "coordinates": [-122.3151474, 47.5262947]}}, {"type": "Feature", "properties": {"id": "704167b5-d659-43c0-80a7-ee38b69efa80", "name": "Resistencia Coffee", "category": "cafe", "tags": ["cafe", "coffee"], "sources": ["overture"], "website": "https://www.resistenciacoffee.com", "phone": "(206) 906-9241", "address": "1249 S Cloverdale St"}, "geometry": {"type": "Point", "coordinates": [-122.3154068, 47.5262871]}}, {"type": "Feature", "properties": {"id": "1b1aaf6a-bff2-45ee-bce0-74b367f38703", "name": "Sabor A Mi", "category": "restaurant", "tags": ["restaurant", "mexican"], "sources": ["overture"], "website": "https://www.groupon.com/biz/seattle/juan-colorado", "phone": "(206) 764-9379", "address": "8709 14th Ave S"}, "geometry": {"type": "Point", "coordinates": [-122.3151627, 47.5252457]}}, {"type": "Feature", "properties": {"id": "e404551e-5776-4a4f-bc12-cd3c9b9770b9", "name": "El Herradero Mexican Restaurant", "category": "restaurant", "tags": ["restaurant", "texmex", "mexican", "fast-food"], "sources": ["overture"], "website": "http://taqueria-el-rincon-express.negocio.site", "phone": "+12062575355", "address": "8709 14th Ave S"}, "geometry": {"type": "Point", "coordinates": [-122.3150558, 47.5252266]}}, {"type": "Feature", "properties": {"id": "f9f21fc1-7d5c-42e2-9757-2f136e4709f5", "name": "Tastys T & Ms", "category": "restaurant", "tags": ["restaurant", "breakfast-and-brunch", "breakfast", "brunch"], "sources": ["overture"], "address": "8605 14th Ave S"}, "geometry": {"type": "Point", "coordinates": [-122.3151169, 47.526165]}}, {"type": "Feature", "properties": {"id": "5196b58b-378c-43d8-9f01-9ba31a3b99f5", "name": "Seattle-lite Brewing Company", "category": "bar", "tags": ["bar", "brewery"], "sources": ["overture"], "phone": "+12064023248", "address": "8520 14th Ave S"}, "geometry": {"type": "Point", "coordinates": [-122.3146133, 47.5266495]}}, {"type": "Feature", "properties": {"id": "744b288f-8357-418b-9e9a-790903283c13", "name": "Napoli's Pizzeria Ristorante", "category": "restaurant", "tags": ["restaurant", "pizza"], "sources": ["overture"], "website": "http://napolipizzeriasouthpark.com", "phone": "(206) 768-9615", "address": "8600 14th Ave S"}, "geometry": {"type": "Point", "coordinates": [-122.314682, 47.5263138]}}, {"type": "Feature", "properties": {"id": "756605e7-f45b-4f0c-98ed-583953aafdac", "name": "Honor Mexicano Restaurant", "category": "restaurant", "tags": ["restaurant", "mexican", "latin-american"], "sources": ["overture"], "phone": "+12064026428", "address": "8517 14th Ave S"}, "geometry": {"type": "Point", "coordinates": [-122.315033, 47.5267258]}}, {"type": "Feature", "properties": {"id": 13746570109, "name": "Allure", "category": "artwork", "tags": ["artwork"], "sources": ["osm"], "website": "https://www.dianehansen.com/allure"}, "geometry": {"type": "Point", "coordinates": [-122.3146619, 47.5271022]}}, {"type": "Feature", "properties": {"id": 13936415106, "name": "South Park Letters", "category": "artwork", "tags": ["artwork"], "sources": ["osm"]}, "geometry": {"type": "Point", "coordinates": [-122.3156606, 47.5279607]}}, {"type": "Feature", "properties": {"id": "ef154dcf-a8d4-4ef4-aae9-1de33efd10b7", "name": "Rp Art", "category": "gallery", "tags": ["gallery", "art"], "sources": ["overture"], "website": "https://www.ulrichpakker.com", "phone": "(206) 789-7454", "address": "8604 Dallas Ave S"}, "geometry": {"type": "Point", "coordinates": [-122.3125992, 47.5272903]}}, {"type": "Feature", "properties": {"id": "09ebc87b-9c62-4e51-94b5-f21dff46edbe", "name": "Phenix Glass Art", "category": "gallery", "tags": ["gallery", "art"], "sources": ["overture"], "phone": "2067681683", "address": "1601 S 92nd Pl  Ste C"}, "geometry": {"type": "Point", "coordinates": [-122.3105164, 47.5206642]}}, {"type": "Feature", "properties": {"id": 490021673, "name": "Dallas Avenue South Triangle", "category": "park", "tags": ["park"], "sources": ["osm"]}, "geometry": {"type": "Point", "coordinates": [-122.3199633, 47.5299755]}}, {"type": "Feature", "properties": {"id": 887310373, "name": "Duwamish River People\u2019s Park and Shoreline Habitat", "category": "park", "tags": ["park"], "sources": ["osm"], "website": "https://www.portseattle.org/projects/duwamish-river-peoples-park"}, "geometry": {"type": "Point", "coordinates": [-122.3104957, 47.524657]}}, {"type": "Feature", "properties": {"id": 1463243929, "name": "South Park Plaza", "category": "park", "tags": ["park"], "sources": ["osm", "overture"], "website": "https://www.seattle.gov", "phone": "12066844075", "address": "8456 Dallas Ave S"}, "geometry": {"type": "Point", "coordinates": [-122.3153948, 47.5279774]}}, {"type": "Feature", "properties": {"id": "4ecfb027-2a08-450f-941e-4bf23f4b0d1d", "name": "South Park Bark Park", "category": "park", "tags": ["park", "dog"], "sources": ["overture"], "website": "http://www.kingcounty.gov", "phone": "(206) 684-1154", "address": "8457 Dallas Ave S"}, "geometry": {"type": "Point", "coordinates": [-122.3153992, 47.5274315]}}, {"type": "Feature", "properties": {"id": 9112066083, "name": "ExtraMile", "category": "convenience", "tags": ["convenience"], "sources": ["osm"]}, "geometry": {"type": "Point", "coordinates": [-122.3154237, 47.5242157]}}, {"type": "Feature", "properties": {"id": 8140481736, "name": "Left Bank", "category": "wine", "tags": ["wine", "bar", "gay"], "sources": ["osm", "overture"], "website": "http://leftbankseattle.com/", "phone": "+12062575052", "address": "8526 14th Ave S", "hours": "Mo,We 16:00-20:00; Th 17:00-21:00; Fr 17:00-22:00; Sa 15:00-22:00; Su 13:00-17:00"}, "geometry": {"type": "Point", "coordinates": [-122.3145249, 47.5265668]}}, {"type": "Feature", "properties": {"id": 9112066081, "name": "South Park Grocery", "category": "convenience", "tags": ["convenience", "supermarket"], "sources": ["osm", "overture"], "website": "http://www.agr.wa.gov", "phone": "+12067631256", "address": "8909 14th Ave S", "hours": "Mo-Sa 08:00-23:00; Su 08:00-22:00"}, "geometry": {"type": "Point", "coordinates": [-122.3151559, 47.5235971]}}, {"type": "Feature", "properties": {"id": "980663ee-4b7f-4ae0-bae2-acc44f0ad314", "name": "Metropcs", "category": "mobile_phone", "tags": ["mobile-phone", "mobile"], "sources": ["overture"], "website": "metropcswireless.net", "phone": "+12069810249", "address": "8520 14th Ave S"}, "geometry": {"type": "Point", "coordinates": [-122.3146133, 47.5266495]}}, {"type": "Feature", "properties": {"id": "6fe2b913-1e8e-44f6-909c-bb1f8afbc12b", "name": "Jelly Store", "category": "clothes", "tags": ["clothes"], "sources": ["overture"], "website": "https://www.jellystore.com", "address": "9100 15th Pl S"}, "geometry": {"type": "Point", "coordinates": [-122.3124084, 47.5219498]}}, {"type": "Feature", "properties": {"id": "68360b92-77ef-4008-a264-df191b3bab8d", "name": "Woodpecker Flooring Inc", "category": "doityourself", "tags": ["doityourself", "home", "improvement"], "sources": ["overture"], "website": "https://woodpeckerflooring.com/", "phone": "2069295029", "address": "1436 S Director St"}, "geometry": {"type": "Point", "coordinates": [-122.3136597, 47.5224724]}}, {"type": "Feature", "properties": {"id": "77543983-2b22-43d9-82f1-0c4198bee95c", "name": "Chikahisa Studio", "category": "jewelry", "tags": ["jewelry"], "sources": ["overture"], "website": "https://chikahisastudio.com/pages/creating-your-talisman-necklace", "phone": "+12064511269", "address": "1244 S Concord St"}, "geometry": {"type": "Point", "coordinates": [-122.3157425, 47.5240364]}}, {"type": "Feature", "properties": {"id": "6825b323-8c73-4c1c-9b54-fc2a03f2cf2a", "name": "Discount Foods", "category": "supermarket", "tags": ["supermarket"], "sources": ["overture"], "website": "http://www.precioslocos.com", "phone": "(206) 763-8354", "address": "8507 14th Ave S"}, "geometry": {"type": "Point", "coordinates": [-122.3151398, 47.5270081]}}, {"type": "Feature", "properties": {"id": "65d568b5-326c-4056-8666-aef739270686", "name": "Juan Colorado Restaurant", "category": "supermarket", "tags": ["supermarket"], "sources": ["overture"], "address": "8709 14th Ave S"}, "geometry": {"type": "Point", "coordinates": [-122.3151627, 47.5252571]}}, {"type": "Feature", "properties": {"id": "147daad3-f802-4ed6-8c1e-abd564011e72", "name": "Satica Medical Group", "category": "cannabis", "tags": ["cannabis", "clinic"], "sources": ["overture"], "website": "http://www.saticagrowing.com/", "phone": "+12068839150", "address": "8601 14th Ave S"}, "geometry": {"type": "Point", "coordinates": [-122.315033, 47.526268]}}, {"type": "Feature", "properties": {"id": "875566ee-19a2-48e0-b5ad-3d5b9f00e32b", "name": "Stockbox South Park Grocery", "category": "supermarket", "tags": ["supermarket"], "sources": ["overture"], "website": "http://www.stockboxgrocers.com", "phone": "(206) 457-4716", "address": "8520 14th Ave S"}, "geometry": {"type": "Point", "coordinates": [-122.3146439, 47.5267639]}}, {"type": "Feature", "properties": {"id": "d31f7c19-d9e3-4fd7-8dfe-ddf86021d863", "name": "The Flower House", "category": "florist", "tags": ["florist"], "sources": ["overture"], "website": "http://flowerhouse805.com", "phone": "+12067634486", "address": "1403 S Thistle St"}, "geometry": {"type": "Point", "coordinates": [-122.3147049, 47.5280113]}}, {"type": "Feature", "properties": {"id": 9112066082, "name": "Sea-Mar Pharmacy", "category": "pharmacy", "tags": ["pharmacy"], "sources": ["osm"]}, "geometry": {"type": "Point", "coordinates": [-122.3147482, 47.5245122]}}, {"type": "Feature", "properties": {"id": 9112066073, "name": "Sea Mar Behavioral Health", "category": "clinic", "tags": ["clinic"], "sources": ["osm"], "hours": "Mo-Fr 08:00-17:00"}, "geometry": {"type": "Point", "coordinates": [-122.3151177, 47.5246368]}}, {"type": "Feature", "properties": {"id": 9112066074, "name": "Sea Mar Community Health Centers", "category": "clinic", "tags": ["clinic", "medical"], "sources": ["osm", "overture"], "website": "http://www.seamar.org", "phone": "(206) 762-3730", "address": "8720 14th Ave S", "hours": "Mo-Sa 08:00-17:00"}, "geometry": {"type": "Point", "coordinates": [-122.3147396, 47.5249374]}}, {"type": "Feature", "properties": {"id": 9112066075, "name": "Sea Mar Community Health Centers", "category": "clinic", "tags": ["clinic"], "sources": ["osm"], "hours": "Mo-Fr 07:30-17:00; Sa 07:45-17:00"}, "geometry": {"type": "Point", "coordinates": [-122.3152697, 47.5233189]}}, {"type": "Feature", "properties": {"id": "fc46f807-06c0-4531-8c10-b20da56183c1", "name": "Sea Mar Community Health Centers", "category": "clinic", "tags": ["clinic", "medical"], "sources": ["overture"], "website": "https://www.seamar.org/", "phone": "+12067635277", "address": "1040 S Henderson St"}, "geometry": {"type": "Point", "coordinates": [-122.3184891, 47.5238495]}}, {"type": "Feature", "properties": {"id": "5ce78a53-d4d8-4cb8-9a22-5784d9781afb", "name": "Sea Mar Seattle Pharmacy", "category": "pharmacy", "tags": ["pharmacy"], "sources": ["overture"], "website": "http://www.seamar.org/king-pharmacy-seattle.html", "phone": "2067623397", "address": "8800 14th Ave S"}, "geometry": {"type": "Point", "coordinates": [-122.314949, 47.5244942]}}]}