{"type": "FeatureCollection", "features": [{"type": "Feature", "properties": {"id": "0084281a-3472-46f3-a2a7-274919b4e1d0", "name": "Starbucks", "category": "cafe", "tags": ["cafe", "coffee"], "sources": ["overture"], "website": "http://starbucks.com", "phone": "(206) 723-4143", "address": "Lake Washington Blvd"}, "geometry": {"type": "Point", "coordinates": [-122.2941818, 47.5939369]}}, {"type": "Feature", "properties": {"id": 2374087303, "name": "Wood Shop BBQ", "category": "restaurant", "tags": ["restaurant", "barbecue", "outdoor-seating", "american"], "sources": ["osm", "overture"], "website": "http://www.thewoodshopbbq.com/", "phone": "+12064857381", "address": "2513 S Jackson St", "hours": "11:00-20:00"}, "geometry": {"type": "Point", "coordinates": [-122.29925, 47.5991362]}}, {"type": "Feature", "properties": {"id": 2374087308, "name": "Reckless Noodle House", "category": "restaurant", "tags": ["restaurant", "asian", "outdoor-seating", "wheelchair-accessible"], "sources": ["osm"], "website": "https://www.recklessnoodles.com/", "phone": "+1-206-329-5499", "address": "2519 South Jackson Street"}, "geometry": {"type": "Point", "coordinates": [-122.299028, 47.5991314]}}, {"type": "Feature", "properties": {"id": 3633467974, "name": "Repast", "category": "cafe", "tags": ["cafe"], "sources": ["osm"], "address": "1368 31st Avenue South", "stations": [{"stopCode": 54, "lines": "2", "name": "Judkins Park Station", "walkingMeters": 1041, "walkingSeconds": 750, "band": 15}]}, "geometry": {"type": "Point", "coordinates": [-122.2921385, 47.5906124]}}, {"type": "Feature", "properties": {"id": 3633467976, "name": "Hey Day", "category": "restaurant", "tags": ["restaurant", "burger"], "sources": ["osm"], "website": "https://www.heydayseattle.com/", "address": "1372 31st Avenue South", "stations": [{"stopCode": 54, "lines": "2", "name": "Judkins Park Station", "walkingMeters": 981, "walkingSeconds": 707, "band": 15}]}, "geometry": {"type": "Point", "coordinates": [-122.2921385, 47.5904939]}}, {"type": "Feature", "properties": {"id": 3919594607, "name": "Dorothea Coffee", "category": "cafe", "tags": ["cafe", "coffee-shop", "coffee"], "sources": ["osm", "overture"], "website": "http://dorotheacoffee.com", "phone": "(206) 910-9102", "address": "2812 S Jackson St"}, "geometry": {"type": "Point", "coordinates": [-122.2955808, 47.5993769]}}, {"type": "Feature", "properties": {"id": 5502117542, "name": "Standard Public House", "category": "pub", "tags": ["pub", "outdoor-seating", "microbrew"], "sources": ["osm"]}, "geometry": {"type": "Point", "coordinates": [-122.2995712, 47.5994107]}}, {"type": "Feature", "properties": {"id": 13447488544, "name": "Jackson Street Pizza Lounge", "category": "restaurant", "tags": ["restaurant", "pizza", "vegetarian", "vegan", "gluten-free"], "sources": ["osm", "overture"], "website": "http://www.JacksonStreetPizzaLounge.com/", "phone": "+12064857118", "address": "2901 S Jackson St", "hours": "Su-Th 16:00-23:00; Fr,Sa 16:00-24:00"}, "geometry": {"type": "Point", "coordinates": [-122.2947049, 47.5989854]}}, {"type": "Feature", "properties": {"id": 887599104, "name": "Kaiseki Garden", "category": "restaurant", "tags": ["restaurant", "sushi"], "sources": ["osm"], "website": "https://kaisekigarden.com/", "phone": "+1-206-644-0156", "address": "2506 South Jackson Street", "hours": "Mo-Su,PH 11:00-22:00 open, Dec 25 Th off"}, "geometry": {"type": "Point", "coordinates": [-122.2994595, 47.5994598]}}, {"type": "Feature", "properties": {"id": "d966aa81-ea67-4f6f-95fe-a001dabf5a0d", "name": "KF Sushi", "category": "restaurant", "tags": ["restaurant", "sushi", "japanese", "asian"], "sources": ["overture"], "website": "http://www.kaisekigarden.com/", "phone": "+12066440156", "address": "2506 S Jackson St #102"}, "geometry": {"type": "Point", "coordinates": [-122.2994919, 47.5993309]}}, {"type": "Feature", "properties": {"id": "dc2ff1fe-4935-433b-8595-c939c33e3694", "name": "Standard Brewing", "category": "bar", "tags": ["bar", "brewery"], "sources": ["overture"], "website": "http://standardbrew.com/", "phone": "+12065351584", "address": "2504 S Jackson St"}, "geometry": {"type": "Point", "coordinates": [-122.2998123, 47.5994873]}}, {"type": "Feature", "properties": {"id": "a559b18d-4765-4a56-a45e-4c2b1068f287", "name": "Soho Coffee Company Llc", "category": "restaurant", "tags": ["restaurant"], "sources": ["overture"], "website": "https://www.broadcastcoffeeroasters.com", "address": "2524 S Jackson St Ste 101"}, "geometry": {"type": "Point", "coordinates": [-122.2990265, 47.5995789]}}, {"type": "Feature", "properties": {"id": "076e77a6-4b4d-4f29-891f-9e2e49d6617f", "name": "Broadcast Coffee Roasters", "category": "cafe", "tags": ["cafe", "coffee"], "sources": ["overture"], "website": "http://broadcastcoffee.com/", "phone": "+12063220807", "address": "2524 S Jackson St #104"}, "geometry": {"type": "Point", "coordinates": [-122.2988968, 47.599453]}}, {"type": "Feature", "properties": {"id": "a9eb1881-47b4-4953-8671-aee992bcae57", "name": "Temple Pastries", "category": "bakery", "tags": ["bakery"], "sources": ["overture"], "website": "https://www.instagram.com/nessiesuglypastries", "address": "2524 S Jackson St"}, "geometry": {"type": "Point", "coordinates": [-122.2988358, 47.5994682]}}, {"type": "Feature", "properties": {"id": "18b3fd46-5481-45fd-897e-ea7466f60996", "name": "Oaky's Tex Mex", "category": "restaurant", "tags": ["restaurant", "mexican"], "sources": ["overture"], "website": "http://oakystexmex.com/", "phone": "2066485726", "address": "2524 S Jackson St"}, "geometry": {"type": "Point", "coordinates": [-122.2990036, 47.5992546]}}, {"type": "Feature", "properties": {"id": "1368d615-1d49-451f-9acc-01ccd2a70a06", "name": "Reckless Noodle House and Cocktails", "category": "restaurant", "tags": ["restaurant", "noodles", "asian"], "sources": ["overture"], "website": "http://recklessnoodles.com/", "phone": "+12063295499", "address": "2519 S Jackson St"}, "geometry": {"type": "Point", "coordinates": [-122.2990341, 47.5991173]}}, {"type": "Feature", "properties": {"id": "f27a763d-06a6-4ca7-93b7-143a5dc619f7", "name": "All-Purpose Pizza & Ale", "category": "restaurant", "tags": ["restaurant", "pizza"], "sources": ["overture"], "website": "http://www.allpurposepizza.com/", "phone": "(206) 324-8646", "address": "2901 S Jackson St"}, "geometry": {"type": "Point", "coordinates": [-122.2948532, 47.5991821]}}, {"type": "Feature", "properties": {"id": "b5ef7875-7ef7-463c-b6ac-af846a598162", "name": "Heyday Bar & Restaurant", "category": "restaurant", "tags": ["restaurant", "bar-and-grill", "bar", "grill"], "sources": ["overture"], "website": "http://heydayseattle.com/", "phone": "+12068299816", "address": "1372 31st Ave S", "stations": [{"stopCode": 54, "lines": "2", "name": "Judkins Park Station", "walkingMeters": 975, "walkingSeconds": 702, "band": 15}]}, "geometry": {"type": "Point", "coordinates": [-122.2922211, 47.5904274]}}, {"type": "Feature", "properties": {"id": "c10cf7cf-eaee-4298-ba44-b2930623203f", "name": "Baking Duos", "category": "bakery", "tags": ["bakery"], "sources": ["overture"], "website": "http://www.bakingduos.com/", "phone": "+12532344048", "address": "3102 S Day St", "stations": [{"stopCode": 54, "lines": "2", "name": "Judkins Park Station", "walkingMeters": 1202, "walkingSeconds": 897, "band": 15}]}, "geometry": {"type": "Point", "coordinates": [-122.2921829, 47.5905457]}}, {"type": "Feature", "properties": {"id": 13235458804, "name": "The Philosophical Promenade", "category": "artwork", "tags": ["artwork"], "sources": ["osm"], "website": "https://www.si.edu/object/philosophical-promenade-sculpture:siris_ari_336278", "stations": [{"stopCode": 54, "lines": "2", "name": "Judkins Park Station", "walkingMeters": 730, "walkingSeconds": 526, "band": 10}]}, "geometry": {"type": "Point", "coordinates": [-122.2954584, 47.5905378]}}, {"type": "Feature", "properties": {"id": "d7a78cf9-851c-401c-8b5e-565b3c0d25bf", "name": "Mount Baker Ridge Tunnel", "category": "attraction", "tags": ["attraction", "landmark", "historical", "building"], "sources": ["overture"], "website": "http://www.seattle.gov/arts/", "phone": "+12066847171", "stations": [{"stopCode": 54, "lines": "2", "name": "Judkins Park Station", "walkingMeters": 754, "walkingSeconds": 544, "band": 10}]}, "geometry": {"type": "Point", "coordinates": [-122.2986298, 47.5903511]}}, {"type": "Feature", "properties": {"id": "371acf60-ad25-411d-b7a7-08fa55d4042d", "name": "Jackson Street Apartments", "category": "attraction", "tags": ["attraction", "landmark", "historical", "building"], "sources": ["overture"], "website": "https://www.jacksonstapartments.com/?utm_source=businessprofile&utm_medium=search&utm_campaign=general", "phone": "+18662581675", "address": "2524 S Jackson St"}, "geometry": {"type": "Point", "coordinates": [-122.2992172, 47.5994339]}}, {"type": "Feature", "properties": {"id": 52135055, "name": "Frink Park", "category": "park", "tags": ["park"], "sources": ["osm"]}, "geometry": {"type": "Point", "coordinates": [-122.2905123, 47.5985076]}}, {"type": "Feature", "properties": {"id": "7fb752e5-8ab3-46b7-8131-437bf754e3a2", "name": "Frink Park", "category": "park", "tags": ["park"], "sources": ["overture"], "website": "http://www.seattle.gov/parks/park_detail.asp?ID=392", "phone": "+12066844075", "address": "398 Lake Washington Blvd S"}, "geometry": {"type": "Point", "coordinates": [-122.2907333, 47.5992928]}}, {"type": "Feature", "properties": {"id": 161084252, "name": "Flo Ware Park", "category": "park", "tags": ["park", "playground"], "sources": ["osm", "overture"], "website": "http://seattle.gov/parks/park_detail.asp?ID=363", "phone": "+12066844075", "address": "2800 S Jackson St"}, "geometry": {"type": "Point", "coordinates": [-122.2958881, 47.5995597]}}, {"type": "Feature", "properties": {"id": 905632503, "name": "Sam Smith Park Playground", "category": "playground", "tags": ["playground"], "sources": ["osm"], "stations": [{"stopCode": 54, "lines": "2", "name": "Judkins Park Station", "walkingMeters": 787, "walkingSeconds": 567, "band": 10}]}, "geometry": {"type": "Point", "coordinates": [-122.2952279, 47.5900206]}}, {"type": "Feature", "properties": {"id": 228735328, "name": "Quick Pack Food Mart", "category": "convenience", "tags": ["convenience"], "sources": ["osm", "overture"], "website": "https://quick-pack-food-mart.hub.biz/", "phone": "+18573987310", "address": "2616 S Jackson St"}, "geometry": {"type": "Point", "coordinates": [-122.2978246, 47.5994565]}}, {"type": "Feature", "properties": {"id": "25c6a14b-e5a2-4497-94b3-5c7227cd7848", "name": "Jackson Street Grocery Store", "category": "supermarket", "tags": ["supermarket"], "sources": ["overture"], "website": "http://www.jacksonstreettattoocompany.com", "phone": "(206) 322-0686", "address": "2723 S Jackson St"}, "geometry": {"type": "Point", "coordinates": [-122.2964554, 47.5989494]}}, {"type": "Feature", "properties": {"id": 2048590869, "name": "Pulse Fitness", "category": "fitness_centre", "tags": ["fitness-centre", "gym"], "sources": ["osm", "overture"], "website": "http://pulsefitseattle.com/", "phone": "2063253000", "address": "1366 31st Ave S", "stations": [{"stopCode": 54, "lines": "2", "name": "Judkins Park Station", "walkingMeters": 1046, "walkingSeconds": 754, "band": 15}]}, "geometry": {"type": "Point", "coordinates": [-122.2921409, 47.5906616]}}, {"type": "Feature", "properties": {"id": "fdb55747-30d9-433f-9357-7cc32f70b662", "name": "Cappy's Boxing Gym", "category": "fitness_centre", "tags": ["fitness-centre", "gym"], "sources": ["overture"], "website": "http://cappysgym.com", "phone": "(206) 322-6410", "address": "1408 22nd Ave"}, "geometry": {"type": "Point", "coordinates": [-122.2983093, 47.5990524]}}, {"type": "Feature", "properties": {"id": "7429068f-d837-4afe-9e79-ec3d0dae9c4c", "name": "Crossfit CD", "category": "fitness_centre", "tags": ["fitness-centre", "gym"], "sources": ["overture"], "website": "http://www.crossfitcd.com", "phone": "(206) 601-9240", "address": "2512 S Jackson St"}, "geometry": {"type": "Point", "coordinates": [-122.2991486, 47.5996246]}}, {"type": "Feature", "properties": {"id": "619f0ce8-24b5-40f1-ae2d-dc61de824072", "name": "Columbia City Fitness Center", "category": "fitness_centre", "tags": ["fitness-centre", "gym"], "sources": ["overture"], "website": "https://www.columbiacityfitness.com/", "phone": "2063221008", "address": "2609 S Jackson St"}, "geometry": {"type": "Point", "coordinates": [-122.2982407, 47.5990677]}}, {"type": "Feature", "properties": {"id": "b6fc5e9e-2545-4c61-a31e-da77a92d348c", "name": "Every Body Health & Fitness", "category": "fitness_centre", "tags": ["fitness-centre", "gym"], "sources": ["overture"], "website": "http://www.everybodyhealthandfitnessinc.com", "phone": "(206) 324-6062", "address": "2609 S Jackson St"}, "geometry": {"type": "Point", "coordinates": [-122.2983856, 47.5990219]}}, {"type": "Feature", "properties": {"id": "248c5bb4-6d58-4a3e-b365-92490280ce9c", "name": "Jazzercise", "category": "fitness_centre", "tags": ["fitness-centre", "gym"], "sources": ["overture"], "website": "http://www.jazzercise.com", "phone": "(206) 612-9340", "address": "2728 S Judkins St", "stations": [{"stopCode": 54, "lines": "2", "name": "Judkins Park Station", "walkingMeters": 839, "walkingSeconds": 603, "band": 10}]}, "geometry": {"type": "Point", "coordinates": [-122.2963638, 47.5921326]}}]}