{"type": "FeatureCollection", "features": [{"type": "Feature", "properties": {"id": 13085584273, "name": "The Volunteer", "category": "artwork", "tags": ["artwork"], "sources": ["osm"]}, "geometry": {"type": "Point", "coordinates": [-122.2915136, 47.363615]}}, {"type": "Feature", "properties": {"id": "f27f5d48-4c6d-441f-b773-8ce56268de3b", "name": "Pembrooke Apartment Homes", "category": "attraction", "tags": ["attraction", "landmark", "historical", "building"], "sources": ["overture"], "website": "http://www.apartmentskentwashington.com/", "phone": "+18448184549", "address": "25907 27th Pl S"}, "geometry": {"type": "Point", "coordinates": [-122.297493, 47.3687744]}}, {"type": "Feature", "properties": {"id": 170305769, "name": "Glenn Nelson Park", "category": "park", "tags": ["park"], "sources": ["osm", "overture"], "website": "http://kentwa.gov/content.aspx?id=11318", "phone": "+12538565000", "address": "3216 S 268th St", "hours": "dawn-dusk"}, "geometry": {"type": "Point", "coordinates": [-122.2905525, 47.363144]}}]}