{"type": "FeatureCollection", "features": [{"type": "Feature", "properties": {"id": "ec9f43a6-41ec-4768-90f6-c32e5fc71a9c", "name": "Des Moines Creek Park", "category": "park", "tags": ["park", "italian"], "sources": ["overture"], "phone": "+12066251367", "address": "2151 S 200th St", "stations": [{"stopCode": 65, "lines": "1", "name": "Angle Lake Station", "walkingMeters": 619, "walkingSeconds": 449, "band": 10}]}, "geometry": {"type": "Point", "coordinates": [-122.305748, 47.4225311]}}, {"type": "Feature", "properties": {"id": "7141dd6c-d11e-48cd-ba7c-60c59216b5ff", "name": "Seapeak Inc", "category": "supermarket", "tags": ["supermarket"], "sources": ["overture"], "website": "www.seapeak.com", "address": "2367 S 200th St", "stations": [{"stopCode": 65, "lines": "1", "name": "Angle Lake Station", "walkingMeters": 566, "walkingSeconds": 422, "band": 5}]}, "geometry": {"type": "Point", "coordinates": [-122.3033752, 47.4218979]}}]}