{"type": "FeatureCollection", "features": [{"type": "Feature", "properties": {"id": "a1bd8d23-641e-4145-8b6c-a45626c2f782", "name": "Subway", "category": "restaurant", "tags": ["restaurant", "sandwich"], "sources": ["overture"], "website": "https://www.subway.com", "phone": "14258234332", "address": "14130 Juanita Dr Ne  Ste 103"}, "geometry": {"type": "Point", "coordinates": [-122.2434082, 47.7291183]}}, {"type": "Feature", "properties": {"id": 12717518991, "name": "Starbucks", "category": "cafe", "tags": ["cafe", "coffee-shop", "takeaway", "coffee"], "sources": ["osm", "overture"], "website": "https://www.starbucks.com/store-locator/store/9579", "phone": "4258214885", "address": "14130 Juanita Dr NE"}, "geometry": {"type": "Point", "coordinates": [-122.2433089, 47.7290915]}}, {"type": "Feature", "properties": {"id": 3335328048, "name": "Kami Teriyaki", "category": "restaurant", "tags": ["restaurant", "japanese", "asian"], "sources": ["osm", "overture"], "website": "http://kamiteriyaki.com", "phone": "+14258234777", "address": "14130 Juanita Dr NE"}, "geometry": {"type": "Point", "coordinates": [-122.2430266, 47.7284079]}}, {"type": "Feature", "properties": {"id": 3335328057, "name": "Thai Golden Bowl", "category": "restaurant", "tags": ["restaurant", "thai", "asian"], "sources": ["osm", "overture"], "website": "https://order.toasttab.com/online/thai-golden-bowl-14130-juanita-dr-ne-109", "phone": "+14256151451", "address": "14130 Juanita Dr NE"}, "geometry": {"type": "Point", "coordinates": [-122.2434529, 47.7295198]}}, {"type": "Feature", "properties": {"id": 326847394, "name": "Kickstart Coffee", "category": "cafe", "tags": ["cafe"], "sources": ["osm"]}, "geometry": {"type": "Point", "coordinates": [-122.2440873, 47.7285346]}}, {"type": "Feature", "properties": {"id": "d8417f09-07c3-48bf-8edf-d383cb3aa916", "name": "Tacos El Guero Mexican Restaurant & Bar", "category": "restaurant", "tags": ["restaurant", "mexican"], "sources": ["overture"], "website": "https://tacoselgueronw.com", "phone": "14252694469", "address": "14130 Juanita Dr Ne  Ste 101"}, "geometry": {"type": "Point", "coordinates": [-122.2434082, 47.7291183]}}, {"type": "Feature", "properties": {"id": "7d7dbc66-b2ae-45ec-a0b8-235967750092", "name": "Pizza Works", "category": "restaurant", "tags": ["restaurant", "vegan"], "sources": ["overture"], "website": "http://www.pizzawrks.com/", "phone": "(425) 821-1300", "address": "14130 Juanita Dr NE Ste 109"}, "geometry": {"type": "Point", "coordinates": [-122.2435303, 47.7290382]}}, {"type": "Feature", "properties": {"id": "f2defe01-2335-43ce-9f63-f0a2e171b68a", "name": "Unity Coffee Shop", "category": "restaurant", "tags": ["restaurant"], "sources": ["overture"], "website": "https://food.orders.co/unitycoffeeshop1", "phone": "4254058353", "address": "14106 Juanita Dr NE"}, "geometry": {"type": "Point", "coordinates": [-122.2442169, 47.7282867]}}, {"type": "Feature", "properties": {"id": 4309883689, "name": "QFC", "category": "supermarket", "tags": ["supermarket"], "sources": ["osm", "overture"], "website": "https://www.qfc.com/stores/grocery/wa/kirkland/inglewood/705/00838?cid=loc_70500838_fb", "phone": "+14258214885", "address": "14130 Juanita Dr NE", "hours": "24/7"}, "geometry": {"type": "Point", "coordinates": [-122.2431841, 47.7289381]}}, {"type": "Feature", "properties": {"id": 326847229, "name": "Food Mart", "category": "convenience", "tags": ["convenience"], "sources": ["osm"], "address": "14106 Juanita Drive Northeast"}, "geometry": {"type": "Point", "coordinates": [-122.2437303, 47.7283759]}}, {"type": "Feature", "properties": {"id": "268273b7-efce-48b2-ae2b-35e70867762e", "name": "Quality Food Center", "category": "supermarket", "tags": ["supermarket"], "sources": ["overture"], "website": "https://www.qfc.com/stores/grocery/wa/kirkland/inglewood/705/00838", "address": "14130 Juanita Dr NE"}, "geometry": {"type": "Point", "coordinates": [-122.2431412, 47.7289658]}}, {"type": "Feature", "properties": {"id": "bf506522-dda8-41e8-8b3b-95beedf97423", "name": "Bartell Drugs", "category": "pharmacy", "tags": ["pharmacy"], "sources": ["overture"], "phone": "14258231000", "address": "14130 Juanita Dr Ne  Ste 107"}, "geometry": {"type": "Point", "coordinates": [-122.2434082, 47.7291183]}}, {"type": "Feature", "properties": {"id": "32ab7010-7552-483f-8f2a-b6e1549fa529", "name": "Bank of America ATM", "category": "bank", "tags": ["bank", "credit", "union"], "sources": ["overture"], "phone": "8004426680", "address": "14130 Juanita Dr NE"}, "geometry": {"type": "Point", "coordinates": [-122.2426987, 47.7290001]}}, {"type": "Feature", "properties": {"id": "39d30a75-a04f-4369-98da-04fe4b7b3a4a", "name": "LA Fitness", "category": "fitness_centre", "tags": ["fitness-centre", "gym"], "sources": ["overture"], "website": "https://www.lafitness.com/Pages/clubhome.aspx?clubid=1127&utm_source=bing&utm_medium=bingmaps&utm_campaign=maps", "phone": "4258216004", "address": "14130 Juanita Dr NE"}, "geometry": {"type": "Point", "coordinates": [-122.2426987, 47.7290001]}}, {"type": "Feature", "properties": {"id": "35713561-3790-4039-8e46-a864be1c14dc", "name": "Vision Quest Sport and Fitness", "category": "fitness_centre", "tags": ["fitness-centre", "gym"], "sources": ["overture"], "website": "http://www.visionquestsportandfitness.com/", "phone": "4258216004", "address": "14130 Juanita Dr NE"}, "geometry": {"type": "Point", "coordinates": [-122.2433853, 47.7291489]}}]}