{"type": "FeatureCollection", "features": [{"type": "Feature", "properties": {"id": 3211765148, "name": "Salmon", "category": "artwork", "tags": ["artwork"], "sources": ["osm"], "stations": [{"stopCode": 60, "lines": "1", "name": "Othello Station", "walkingMeters": 1073, "walkingSeconds": 773, "band": 15}]}, "geometry": {"type": "Point", "coordinates": [-122.293317, 47.5387]}}, {"type": "Feature", "properties": {"id": 56176618, "name": "Van Asselt Park", "category": "park", "tags": ["park"], "sources": ["osm"], "website": "https://www.seattle.gov/parks/allparks/van-asselt-playground", "stations": [{"stopCode": 60, "lines": "1", "name": "Othello Station", "walkingMeters": 1189, "walkingSeconds": 854, "band": 15}]}, "geometry": {"type": "Point", "coordinates": [-122.2938851, 47.5394821]}}, {"type": "Feature", "properties": {"id": 494520582, "name": "Van Asselt Park Playground", "category": "playground", "tags": ["playground"], "sources": ["osm"]}, "geometry": {"type": "Point", "coordinates": [-122.2960847, 47.5392924]}}, {"type": "Feature", "properties": {"id": "28f21b68-595e-4b84-95cd-a7c5386867f5", "name": "Van Asselt Playground", "category": "playground", "tags": ["playground"], "sources": ["overture"], "address": "7200 Beacon Ave S"}, "geometry": {"type": "Point", "coordinates": [-122.2960739, 47.5392876]}}, {"type": "Feature", "properties": {"id": "61607ca6-b13e-42e6-8d89-a52b0cb520c5", "name": "Van Asselt Playground", "category": "park", "tags": ["park"], "sources": ["overture"], "address": "2820 S Myrtle St", "stations": [{"stopCode": 60, "lines": "1", "name": "Othello Station", "walkingMeters": 1238, "walkingSeconds": 924, "band": 15}]}, "geometry": {"type": "Point", "coordinates": [-122.2940674, 47.5394402]}}, {"type": "Feature", "properties": {"id": "b69f9a2c-7923-4b9c-8263-e390355b569b", "name": "Nordstrom", "category": "department_store", "tags": ["department-store", "department"], "sources": ["overture"], "website": "http://www.nordstrom.com", "phone": "(206) 768-1700", "address": "7979 Perimeter Rd S"}, "geometry": {"type": "Point", "coordinates": [-122.2973785, 47.5306778]}}, {"type": "Feature", "properties": {"id": 366028622, "name": "The Seattle Public Library - NewHolly Branch", "category": "library", "tags": ["library", "wifi"], "sources": ["osm"], "website": "https://www.spl.org/hours-and-locations/newholly-branch", "phone": "+1-206-386-1905", "address": "7058 32nd Avenue South", "hours": "Mo-Tu 13:00-20:00; We-Th, Sa 11:00-18:00; Su 13:00-17:00", "stations": [{"stopCode": 60, "lines": "1", "name": "Othello Station", "walkingMeters": 946, "walkingSeconds": 680, "band": 15}]}, "geometry": {"type": "Point", "coordinates": [-122.2909854, 47.5390048]}}, {"type": "Feature", "properties": {"id": "dc0cc305-b1cb-4004-9fba-326a4d905430", "name": "NewHolly Branch - The Seattle Public Library", "category": "library", "tags": ["library"], "sources": ["overture"], "website": "https://www.spl.org/hours-and-locations/newholly-branch", "phone": "2063861905", "address": "7058 32nd Ave S Ste 104", "stations": [{"stopCode": 60, "lines": "1", "name": "Othello Station", "walkingMeters": 947, "walkingSeconds": 681, "band": 15}]}, "geometry": {"type": "Point", "coordinates": [-122.2914429, 47.5391121]}}]}