{"type": "FeatureCollection", "features": [{"type": "Feature", "properties": {"id": 4914847935, "name": "Athens Pizza & Pasta", "category": "restaurant", "tags": ["restaurant", "pizza", "italian", "greek"], "sources": ["osm", "overture"], "website": "http://athenspizzaauburn.vpweb.com", "phone": "+12539397444", "address": "959 E Main St"}, "geometry": {"type": "Point", "coordinates": [-122.2167194, 47.308194]}}, {"type": "Feature", "properties": {"id": 4971890514, "name": "Mom's Teriyaki", "category": "restaurant", "tags": ["restaurant", "japanese", "chinese", "asian"], "sources": ["osm", "overture"], "website": "http://www.moms-teriyaki-restaurant-auburn-wa.com", "phone": "+12538040436", "address": "1115 E Main St", "hours": "Mo-Fr 10:30-19:30; Sa 12:00-19:30"}, "geometry": {"type": "Point", "coordinates": [-122.214379, 47.3083914]}}, {"type": "Feature", "properties": {"id": 11038085521, "name": "Mumbai Grand Indian Cuisine", "category": "restaurant", "tags": ["restaurant", "indian"], "sources": ["osm", "overture"], "website": "https://www.mumbaigrandmenu.com/", "phone": "+12532044470", "address": "1119 E Main St", "hours": "Mo-Su 11:30-22:30"}, "geometry": {"type": "Point", "coordinates": [-122.2142975, 47.3084044]}}, {"type": "Feature", "properties": {"id": 1143713680, "name": "Gibs Coffee Company", "category": "cafe", "tags": ["cafe", "coffee-shop", "coffee"], "sources": ["osm", "overture"], "phone": "+12532854918", "address": "1148 E Main St"}, "geometry": {"type": "Point", "coordinates": [-122.2136788, 47.3076755]}}, {"type": "Feature", "properties": {"id": "b9823065-1490-4693-9285-c8c787836d2d", "name": "La mia casa sicura", "category": "bar", "tags": ["bar"], "sources": ["overture"], "address": "3 N St SE"}, "geometry": {"type": "Point", "coordinates": [-122.212265, 47.3079338]}}, {"type": "Feature", "properties": {"id": "cb65cce1-897f-4a13-8667-7ae64f884887", "name": "Sweet Crumbles Bakery", "category": "bakery", "tags": ["bakery"], "sources": ["overture"], "website": "https://www.instagram.com/sweet.crumblesss/", "phone": "+12068541860", "address": "1111 E Main St"}, "geometry": {"type": "Point", "coordinates": [-122.214447, 47.3083763]}}, {"type": "Feature", "properties": {"id": "7d8bd13c-aaeb-474d-be8a-c0daeec564ac", "name": "Flavor Zone", "category": "restaurant", "tags": ["restaurant", "halal"], "sources": ["overture"], "website": "https://restaurantauburn.com", "phone": "(425) 524-7674", "address": "1119 E Main St"}, "geometry": {"type": "Point", "coordinates": [-122.21418, 47.3079643]}}, {"type": "Feature", "properties": {"id": "3b7faf4e-b0a9-4652-87b6-255c8b1af91c", "name": "Crepas Y Antojos Llc", "category": "fast_food", "tags": ["fast-food", "fast", "food"], "sources": ["overture"], "phone": "12536009193", "address": "1119 E Main St"}, "geometry": {"type": "Point", "coordinates": [-122.2141266, 47.308445]}}, {"type": "Feature", "properties": {"id": "1a0479b2-2ec2-4b77-b452-aed95c8f7f6f", "name": "Chester's Chicken", "category": "restaurant", "tags": ["restaurant", "chicken"], "sources": ["overture"], "website": "https://www.chesterschicken.com/", "phone": "2537352491", "address": "1204 E Main St"}, "geometry": {"type": "Point", "coordinates": [-122.2130203, 47.3080482]}}, {"type": "Feature", "properties": {"id": "132191fd-55de-43bb-9918-254894a53193", "name": "El Guerrero Mexican Kitchen", "category": "restaurant", "tags": ["restaurant", "mexican", "taco", "latin-american"], "sources": ["overture"], "website": "https://guerreromexicankitchen.com/", "phone": "+12532871077", "address": "1204 E Main St"}, "geometry": {"type": "Point", "coordinates": [-122.2129517, 47.3077049]}}, {"type": "Feature", "properties": {"id": "553439de-47d7-4531-b73e-83d1c8cd2ceb", "name": "Taqueria San Luis", "category": "restaurant", "tags": ["restaurant", "mexican", "taco", "latin-american"], "sources": ["overture"], "website": "http://www.taqueriasanluis.com/", "phone": "+12535288426", "address": "1204 E Main St"}, "geometry": {"type": "Point", "coordinates": [-122.2129364, 47.3078575]}}, {"type": "Feature", "properties": {"id": "c46cd781-adc4-4a5e-b9f9-1923f1f3038c", "name": "Illahee Apartments", "category": "attraction", "tags": ["attraction", "landmark", "historical", "building"], "sources": ["overture"], "website": "https://www.liveatillahee.com/", "phone": "+12533296140", "address": "105 N St SE"}, "geometry": {"type": "Point", "coordinates": [-122.2123108, 47.3073006]}}, {"type": "Feature", "properties": {"id": 4971890504, "name": "Food Mart", "category": "convenience", "tags": ["convenience"], "sources": ["osm"]}, "geometry": {"type": "Point", "coordinates": [-122.2129293, 47.3077221]}}, {"type": "Feature", "properties": {"id": "4ca61f34-350c-45a6-bfdf-95e15984bb5d", "name": "Main Street Market", "category": "supermarket", "tags": ["supermarket"], "sources": ["overture"], "website": "http://www.agr.wa.gov", "phone": "(253) 804-6700", "address": "1119 E Main St"}, "geometry": {"type": "Point", "coordinates": [-122.2141571, 47.3085251]}}, {"type": "Feature", "properties": {"id": 4971890509, "name": "Human Society Thrift Store", "category": "pet", "tags": ["pet"], "sources": ["osm"]}, "geometry": {"type": "Point", "coordinates": [-122.2137299, 47.3084268]}}, {"type": "Feature", "properties": {"id": 4971890510, "name": "Auburn's Main Supermarket", "category": "supermarket", "tags": ["supermarket"], "sources": ["osm", "overture"], "website": "https://auburnsmainsupermarket.com", "phone": "+12532497430", "address": "1119 E Main St", "hours": "Mo-Su 08:00-21:00"}, "geometry": {"type": "Point", "coordinates": [-122.214115, 47.3084238]}}, {"type": "Feature", "properties": {"id": "2670cd0c-ea2e-45be-be97-e500ebfd68e0", "name": "Jai Investments Llc", "category": "supermarket", "tags": ["supermarket"], "sources": ["overture"], "address": "1119 E Main St"}, "geometry": {"type": "Point", "coordinates": [-122.2141266, 47.308445]}}]}