{"type": "FeatureCollection", "features": [{"type": "Feature", "properties": {"id": 4112890792, "name": "Kent Parks Deli & Cafe", "category": "cafe", "tags": ["cafe", "sandwich"], "sources": ["osm"], "website": "http://kentwa.gov/residents/senior-activity-center/deli-and-cafe", "address": "600 East Smith Street", "hours": "Mo-Fr 11:45-13:00"}, "geometry": {"type": "Point", "coordinates": [-122.2266875, 47.3831694]}}, {"type": "Feature", "properties": {"id": 638969013, "name": "Wendy's", "category": "fast_food", "tags": ["fast-food", "burger", "takeaway", "drive-through", "fast", "food", "american"], "sources": ["osm", "overture"], "website": "https://locations.wendys.com/united-states/wa/kent/505-e-smith", "phone": "+12538523559", "address": "505 E. Smith", "hours": "09:00-22:00"}, "geometry": {"type": "Point", "coordinates": [-122.227829, 47.3835815]}}, {"type": "Feature", "properties": {"id": 638969001, "name": "Khub Khun Thai", "category": "restaurant", "tags": ["restaurant", "thai", "takeaway"], "sources": ["osm"], "address": "603 East Smith Street"}, "geometry": {"type": "Point", "coordinates": [-122.2266465, 47.3835715]}}, {"type": "Feature", "properties": {"id": "ceca4ba3-c68c-4979-beab-498c96d0c382", "name": "FreshGround Coffee House", "category": "cafe", "tags": ["cafe", "coffee"], "sources": ["overture"], "website": "http://www.kentnaz.org/", "phone": "+12538525144", "address": "930 E James St"}, "geometry": {"type": "Point", "coordinates": [-122.2216034, 47.3860741]}}, {"type": "Feature", "properties": {"id": "2e774a4f-dd10-44a1-a274-7477e024d735", "name": "Grandma Thai Cuisine", "category": "restaurant", "tags": ["restaurant", "asian", "fusion", "noodles", "thai"], "sources": ["overture"], "website": "https://www.ordergrandmathaicuisine.com/?utm_source=bing&utm_medium=websiteurl&utm_campaign=search", "phone": "2538545666", "address": "603 E Smith St"}, "geometry": {"type": "Point", "coordinates": [-122.2266846, 47.3835831]}}, {"type": "Feature", "properties": {"id": 4112890891, "name": "Underworks", "category": "artwork", "tags": ["artwork"], "sources": ["osm"]}, "geometry": {"type": "Point", "coordinates": [-122.224284, 47.3822754]}}, {"type": "Feature", "properties": {"id": 638969002, "name": "Greater Kent Historical Society", "category": "museum", "tags": ["museum"], "sources": ["osm"], "website": "https://kenthistoricalmuseum.org/", "phone": "+1-253-854-4330", "address": "855 East Smith Street", "hours": "We-Sa 10:00-16:00"}, "geometry": {"type": "Point", "coordinates": [-122.2243509, 47.3835273]}}, {"type": "Feature", "properties": {"id": "cac657d7-3d7e-4fb8-a4ca-e4bd5021b5bd", "name": "Kent Historical Museum", "category": "museum", "tags": ["museum", "history"], "sources": ["overture"], "website": "https://linktr.ee/greaterkenthistoricalsociety", "phone": "+12538544330", "address": "855 E Smith St"}, "geometry": {"type": "Point", "coordinates": [-122.2244034, 47.3837051]}}, {"type": "Feature", "properties": {"id": "e1052f29-50a6-4096-9559-74f8c9a68f70", "name": "Mill Creek Canyon Earthworks Park", "category": "park", "tags": ["park"], "sources": ["overture"], "website": "http://kentwa.gov/content.aspx?id=11914", "phone": "+12538565000", "address": "100 Reiten Rd"}, "geometry": {"type": "Point", "coordinates": [-122.2245102, 47.3824196]}}, {"type": "Feature", "properties": {"id": "bd3ae2f2-6795-40c8-a0ee-6bcf886dc76c", "name": "Art Wright Field", "category": "park", "tags": ["park"], "sources": ["overture"], "phone": "+12538565600", "address": "850 Central Ave N"}, "geometry": {"type": "Point", "coordinates": [-122.2297592, 47.3898163]}}, {"type": "Feature", "properties": {"id": "e8326e61-c371-4fc5-a61b-cf861742a347", "name": "Gowe Street Mini Park", "category": "park", "tags": ["park"], "sources": ["overture"], "address": "130 N Kennebeck Ave"}, "geometry": {"type": "Point", "coordinates": [-122.2280884, 47.3809319]}}, {"type": "Feature", "properties": {"id": "7be29d3b-b067-478e-b6f3-e15c9a7867f7", "name": "Earthworks Park", "category": "park", "tags": ["park"], "sources": ["overture"], "website": "http://kentwa.gov/arts/earthworks/", "phone": "(253) 856-5200", "address": "100-246 Jason Ave"}, "geometry": {"type": "Point", "coordinates": [-122.2253418, 47.3835335]}}, {"type": "Feature", "properties": {"id": 3721662319, "name": "Market PL", "category": "convenience", "tags": ["convenience"], "sources": ["osm"]}, "geometry": {"type": "Point", "coordinates": [-122.2287184, 47.3835832]}}, {"type": "Feature", "properties": {"id": 6125562786, "name": "La Huerta International Market", "category": "supermarket", "tags": ["supermarket"], "sources": ["osm"], "phone": "+1-253-520-0198", "address": "405 East Smith Street", "hours": "Mo-Sa 08:00-22:00; Su 08:00-21:00"}, "geometry": {"type": "Point", "coordinates": [-122.2292423, 47.3836449]}}, {"type": "Feature", "properties": {"id": "b34f6446-8ca8-442c-95de-6be9e405dbad", "name": "La Huerta Mexican & Latin Market", "category": "supermarket", "tags": ["supermarket"], "sources": ["overture"], "website": "http://www.lahuertamarket.com/", "phone": "+12535200198", "address": "405 E Smith St"}, "geometry": {"type": "Point", "coordinates": [-122.229332, 47.3836288]}}, {"type": "Feature", "properties": {"id": "316871b8-12b6-495d-a526-960de9097ac1", "name": "HealthPoint Kent", "category": "clinic", "tags": ["clinic", "medical"], "sources": ["overture"], "website": "http://www.healthpointchc.org/", "phone": "+12538522866", "address": "403 E Meeker St"}, "geometry": {"type": "Point", "coordinates": [-122.22966, 47.3818321]}}, {"type": "Feature", "properties": {"id": "4b3f6453-50c6-47b0-bcec-bbd30e2e3f61", "name": "MultiCare Kent Urgent Care", "category": "hospital", "tags": ["hospital"], "sources": ["overture"], "website": "http://www.multicare.org", "phone": "+12533727866", "address": "222 State Ave N"}, "geometry": {"type": "Point", "coordinates": [-122.2294998, 47.3828468]}}]}