{"type": "FeatureCollection", "features": [{"type": "Feature", "properties": {"id": 1186068432, "name": "The Lookout", "category": "park", "tags": ["park"], "sources": ["osm"]}, "geometry": {"type": "Point", "coordinates": [-122.2223671, 47.5312651]}}, {"type": "Feature", "properties": {"id": 246574394, "name": "Wildwood Park", "category": "park", "tags": ["park"], "sources": ["osm"], "address": "7400 86th Avenue Southeast"}, "geometry": {"type": "Point", "coordinates": [-122.2229295, 47.5366401]}}, {"type": "Feature", "properties": {"id": "8526e2a6-470d-47a7-9210-9fb22b061986", "name": "South Mercer Playfields", "category": "playground", "tags": ["playground"], "sources": ["overture"], "website": "http://www.mercergov.org/page.asp?navid=394", "phone": "+12069659990", "address": "8220 SE 78th St"}, "geometry": {"type": "Point", "coordinates": [-122.2285843, 47.5338478]}}]}