{"type": "FeatureCollection", "features": [{"type": "Feature", "properties": {"id": 293722655, "name": "Big Fish Grill", "category": "restaurant", "tags": ["restaurant", "seafood", "bar-and-grill"], "sources": ["osm", "overture"], "website": "http://www.thebigfishgrill.com/", "phone": "+14254873474", "address": "13706 NE 175th St #8516"}, "geometry": {"type": "Point", "coordinates": [-122.1564079, 47.7546619]}}, {"type": "Feature", "properties": {"id": 293833085, "name": "Taco Time", "category": "fast_food", "tags": ["fast-food", "mexican", "takeaway", "vegetarian", "fast", "food", "taco"], "sources": ["osm", "overture"], "website": "https://order.tacotimenw.com/menu/woodinville", "phone": "+14254816907", "address": "13912 NE 175th St"}, "geometry": {"type": "Point", "coordinates": [-122.153605, 47.75484]}}, {"type": "Feature", "properties": {"id": "123c8224-bf3d-45f3-97f6-10076151d25f", "name": "The Herbfarm", "category": "restaurant", "tags": ["restaurant", "american"], "sources": ["overture"], "website": "http://www.theherbfarm.com/Upcoming/Current_Menu", "phone": "+14254855300"}, "geometry": {"type": "Point", "coordinates": [-122.1554642, 47.7546501]}}, {"type": "Feature", "properties": {"id": 11196816232, "name": "Starbucks", "category": "cafe", "tags": ["cafe", "coffee-shop", "takeaway", "coffee"], "sources": ["osm", "overture"], "website": "https://www.starbucks.ca/store-locator/store/1023086/140th-ave-ne-woodinville-17600-140th-ave-ne-woodinville-wa-98072-us", "phone": "+14254774200", "address": "17600 140th Ave NE"}, "geometry": {"type": "Point", "coordinates": [-122.1524895, 47.7553338]}}, {"type": "Feature", "properties": {"id": "226ebf89-63c3-4e29-b426-7d48690c40f7", "name": "Starbucks", "category": "cafe", "tags": ["cafe", "coffee"], "sources": ["overture"], "website": "https://www.starbucks.com/store-locator/store/12136/", "phone": "+14253988099", "address": "13780 NE 175th St Suite 110"}, "geometry": {"type": "Point", "coordinates": [-122.1554489, 47.7546768]}}, {"type": "Feature", "properties": {"id": "8569d2c7-9562-459a-a3e1-14c6417c62e4", "name": "Starbucks", "category": "cafe", "tags": ["cafe", "coffee"], "sources": ["overture"], "website": "http://www.starbucks.com", "phone": "(425) 398-5458", "address": "18025 Garden Way NE"}, "geometry": {"type": "Point", "coordinates": [-122.1568451, 47.7578506]}}, {"type": "Feature", "properties": {"id": "f655e782-2646-4518-98c7-38b83ea6f497", "name": "Starbucks", "category": "cafe", "tags": ["cafe", "coffee"], "sources": ["overture"], "phone": "4253985458", "address": "17641 Garden Way Dr Woodinville Hagge Ns"}, "geometry": {"type": "Point", "coordinates": [-122.1579056, 47.7557487]}}, {"type": "Feature", "properties": {"id": "acd2f101-0ecb-45f4-925a-652f2142779f", "name": "Starbucks", "category": "cafe", "tags": ["cafe", "coffee"], "sources": ["overture"], "website": "https://www.starbucks.com/store-locator/store/1020282", "phone": "+14254826410", "address": "13950 NE 178th Pl"}, "geometry": {"type": "Point", "coordinates": [-122.1541138, 47.7584877]}}, {"type": "Feature", "properties": {"id": 3797475951, "name": "Qdoba", "category": "fast_food", "tags": ["fast-food", "mexican", "takeaway"], "sources": ["osm"], "website": "https://locations.qdoba.com/us/wa/woodinville/17744-garden-way-ne.html", "phone": "+1-425-485-8842", "address": "17744 Garden Way Northeast", "hours": "10:30-21:00"}, "geometry": {"type": "Point", "coordinates": [-122.1542797, 47.7566761]}}, {"type": "Feature", "properties": {"id": 26958358, "name": "McDonald's", "category": "fast_food", "tags": ["fast-food", "burger", "takeaway", "drive-through", "child-friendly", "air-conditioned", "wifi", "fast", "food"], "sources": ["osm", "overture"], "website": "https://www.mcdonalds.com/us/en-us/location/wa/woodinville/17450-140th-ave-ne/5795.html?cid=RF%3AYXT%3ARoN%3A%3AClicks%3Fcid%3DRF%3AYXT%3AFB%3A%3AClicks", "phone": "+14254835797", "address": "17223 140th Ave Ne", "hours": "06:00-23:00"}, "geometry": {"type": "Point", "coordinates": [-122.1534451, 47.7528458]}}, {"type": "Feature", "properties": {"id": 3797475922, "name": "Mercurys Coffee Co.", "category": "cafe", "tags": ["cafe", "coffee-shop", "takeaway", "coffee"], "sources": ["osm", "overture"], "website": "https://www.mercuryscoffee.com", "phone": "+14252862518", "address": "17641 Garden Way NE", "hours": "05:00-19:00"}, "geometry": {"type": "Point", "coordinates": [-122.1569602, 47.7553927]}}, {"type": "Feature", "properties": {"id": 710896934, "name": "Cava Azul Cocina & Cantina", "category": "restaurant", "tags": ["restaurant", "mexican"], "sources": ["osm"], "website": "https://cavaazul.net"}, "geometry": {"type": "Point", "coordinates": [-122.1533751, 47.756382]}}, {"type": "Feature", "properties": {"id": 3797475940, "name": "Jimmy John's", "category": "fast_food", "tags": ["fast-food", "sandwich", "takeaway", "restaurant"], "sources": ["osm", "overture"], "website": "https://locations.jimmyjohns.com/wa/woodinville/sandwiches-1982.html", "phone": "+14254201056", "address": "13780 Ne 175th St Ste.106"}, "geometry": {"type": "Point", "coordinates": [-122.155659, 47.7546232]}}, {"type": "Feature", "properties": {"id": 3157335393, "name": "Papa Murphy's", "category": "fast_food", "tags": ["fast-food", "pizza", "takeaway", "restaurant"], "sources": ["osm", "overture"], "website": "https://locations.papamurphys.com/wa/woodinville/14182-ne-woodinville-duvall-road", "phone": "+14254856695", "address": "14182 NE Woodinville Duvall Road"}, "geometry": {"type": "Point", "coordinates": [-122.1505348, 47.7550404]}}, {"type": "Feature", "properties": {"id": 1403865493, "name": "Bobae Coffee and Tea", "category": "cafe", "tags": ["cafe", "coffee-shop", "takeaway", "wifi"], "sources": ["osm"], "address": "14015 Northeast Woodinville Duvall Road", "hours": "Mo,We-Su 11:00-20:00; Tu 11:00-18:00"}, "geometry": {"type": "Point", "coordinates": [-122.152055, 47.7534059]}}, {"type": "Feature", "properties": {"id": 3797475931, "name": "Chipotle", "category": "fast_food", "tags": ["fast-food", "mexican", "takeaway"], "sources": ["osm"], "website": "https://locations.chipotle.com/wa/woodinville/13780-ne-175th-st", "phone": "+1-425-527-0137", "address": "13780 Northeast 175th Street", "hours": "Mo-Su 10:45-23:00"}, "geometry": {"type": "Point", "coordinates": [-122.155802, 47.7546158]}}, {"type": "Feature", "properties": {"id": 3797475924, "name": "Cold Stone Creamery", "category": "ice_cream", "tags": ["ice-cream"], "sources": ["osm"]}, "geometry": {"type": "Point", "coordinates": [-122.1544329, 47.7568204]}}, {"type": "Feature", "properties": {"id": "a1e1d7a6-24da-4aa6-9a1c-7b51f6fca250", "name": "Burger King", "category": "restaurant", "tags": ["restaurant", "burger"], "sources": ["overture"], "website": "http://www.burgerking.com", "phone": "(425) 485-8383", "address": "13514 NE 175th St"}, "geometry": {"type": "Point", "coordinates": [-122.1583862, 47.754734]}}, {"type": "Feature", "properties": {"id": 1733685609, "name": "Mongolian Grill", "category": "restaurant", "tags": ["restaurant", "mongolian-grill", "outdoor-seating", "vegetarian", "vegan", "child-friendly"], "sources": ["osm"]}, "geometry": {"type": "Point", "coordinates": [-122.1555658, 47.7546511]}}, {"type": "Feature", "properties": {"id": 3797475923, "name": "Panera Bread", "category": "fast_food", "tags": ["fast-food", "sandwich", "bakery", "takeaway"], "sources": ["osm", "overture"], "website": "https://www.panerabread.com/en-us/cafe/locations/wa/woodinville/13780-ne-175th-st?utm_medium=local&utm_source=facebook&utm_campaign=dpm-dist&utm_term=202266&utm_content=main", "phone": "+14254827966", "address": "13780 NE 175th St", "hours": "Mo-Sa 06:00-21:00; Su 07:00-21:00"}, "geometry": {"type": "Point", "coordinates": [-122.1560224, 47.7548176]}}, {"type": "Feature", "properties": {"id": 26778027, "name": "Red Robin", "category": "restaurant", "tags": ["restaurant", "burger"], "sources": ["osm"]}, "geometry": {"type": "Point", "coordinates": [-122.1556107, 47.7577144]}}, {"type": "Feature", "properties": {"id": 3157265146, "name": "Emerald City Smoothie", "category": "fast_food", "tags": ["fast-food", "smoothie"], "sources": ["osm"], "address": "14027 Northeast Woodinville Duvall Road"}, "geometry": {"type": "Point", "coordinates": [-122.1510279, 47.7534156]}}, {"type": "Feature", "properties": {"id": 12968716656, "name": "Five Guys", "category": "fast_food", "tags": ["fast-food", "burger", "takeaway", "restaurant", "american"], "sources": ["osm", "overture"], "website": "https://restaurants.fiveguys.com/13620-northeast-175th-street", "phone": "+14254881201", "address": "13620 NE 175th St", "hours": "Mo-Su 11:00-22:00; PH off"}, "geometry": {"type": "Point", "coordinates": [-122.1576776, 47.7546328]}}, {"type": "Feature", "properties": {"id": 5778167953, "name": "MOD Pizza", "category": "fast_food", "tags": ["fast-food", "pizza", "takeaway", "restaurant"], "sources": ["osm", "overture"], "website": "https://locations.modpizza.com/usa/wa/woodinville/17848-garden-way-ne?utm_source=facebook&utm_medium=yext", "phone": "+14254717903", "address": "17848 Garden Way NE", "hours": "Mo-We 10:30-22:00; Th-Sa 10:30-23:00; Su 10:30-22:00"}, "geometry": {"type": "Point", "coordinates": [-122.1546657, 47.7569466]}}, {"type": "Feature", "properties": {"id": 13148519201, "name": "Teriyaki Bowl", "category": "restaurant", "tags": ["restaurant", "japanese", "noodles", "sushi", "asian"], "sources": ["osm", "overture"], "website": "https://teriyaki-bowl-wa-7.hub.biz", "phone": "+14254831904", "address": "13400 NE 175th St"}, "geometry": {"type": "Point", "coordinates": [-122.157876, 47.7546309]}}, {"type": "Feature", "properties": {"id": 3157335388, "name": "One Bite Cafe", "category": "cafe", "tags": ["cafe"], "sources": ["osm", "overture"], "website": "https://order.toasttab.com/online/onebitecafe-woodinville", "address": "14184 NE Woodinville Duvall Rd"}, "geometry": {"type": "Point", "coordinates": [-122.1504266, 47.7550453]}}, {"type": "Feature", "properties": {"id": 26787132, "name": "Jamba", "category": "fast_food", "tags": ["fast-food", "juice", "takeaway"], "sources": ["osm"], "website": "https://locations.jamba.com/wa/woodinville/13804-ne-175th-street", "phone": "+1-425-531-8001", "address": "13804 Northeast 175th Street", "hours": "10:00-18:00"}, "geometry": {"type": "Point", "coordinates": [-122.1549531, 47.7547254]}}, {"type": "Feature", "properties": {"id": 7399307985, "name": "Jersey Mike's Subs", "category": "fast_food", "tags": ["fast-food", "sandwich", "takeaway"], "sources": ["osm"], "website": "https://www.jerseymikes.com/18022/woodinville-wa", "address": "17321 140th Avenue Northeast"}, "geometry": {"type": "Point", "coordinates": [-122.1537149, 47.7535957]}}, {"type": "Feature", "properties": {"id": 27916165, "name": "Tipsy Cow Burger Bar", "category": "restaurant", "tags": ["restaurant", "burger", "wheelchair-accessible"], "sources": ["osm"], "website": "https://www.tipsycowburgerbar.com/", "address": "14111 Northeast Woodinville Duvall Road", "hours": "11:00-24:00"}, "geometry": {"type": "Point", "coordinates": [-122.1506564, 47.7542792]}}, {"type": "Feature", "properties": {"id": 26958384, "name": "KFC", "category": "fast_food", "tags": ["fast-food", "chicken", "takeaway", "fast", "food"], "sources": ["osm", "overture"], "website": "https://locations.kfc.com/wa/woodinville/17100-140th-avenue-ne", "phone": "+14254151508", "address": "17100 140th Avenue NE"}, "geometry": {"type": "Point", "coordinates": [-122.153293, 47.7518171]}}, {"type": "Feature", "properties": {"id": 3157335378, "name": "Akane Ramen jpn Cuisine", "category": "restaurant", "tags": ["restaurant", "japanese"], "sources": ["osm"]}, "geometry": {"type": "Point", "coordinates": [-122.1513764, 47.7556277]}}, {"type": "Feature", "properties": {"id": 3157335382, "name": "Woodinville Thai", "category": "restaurant", "tags": ["restaurant", "thai"], "sources": ["osm"]}, "geometry": {"type": "Point", "coordinates": [-122.1517739, 47.7552498]}}, {"type": "Feature", "properties": {"id": 11098490393, "name": "Dough Zone", "category": "restaurant", "tags": ["restaurant", "chinese"], "sources": ["osm"], "website": "https://www.doughzonedumplinghouse.com", "phone": "+1-425-287-5555", "address": "17650 140th Avenue Northeast"}, "geometry": {"type": "Point", "coordinates": [-122.152313, 47.7560422]}}, {"type": "Feature", "properties": {"id": 3797475917, "name": "Moeida Asian Bistro", "category": "restaurant", "tags": ["restaurant", "asian"], "sources": ["osm"]}, "geometry": {"type": "Point", "coordinates": [-122.1545363, 47.7568774]}}, {"type": "Feature", "properties": {"id": 3797475926, "name": "Gyro Express", "category": "restaurant", "tags": ["restaurant", "greek", "mediterranean"], "sources": ["osm", "overture"], "website": "http://www.gyroexpresswoodinville.com/", "phone": "+14254866031", "address": "13804 NE 175th St"}, "geometry": {"type": "Point", "coordinates": [-122.1550646, 47.7547792]}}, {"type": "Feature", "properties": {"id": 27868844, "name": "Wendy's", "category": "fast_food", "tags": ["fast-food", "burger", "takeaway", "drive-through", "fast", "food", "american"], "sources": ["osm", "overture"], "website": "https://locations.wendys.com/united-states/wa/woodinville/13514-ne-175th", "phone": "+14254819665", "address": "13514 Ne 175th", "hours": "09:00-22:00"}, "geometry": {"type": "Point", "coordinates": [-122.1584179, 47.7547849]}}, {"type": "Feature", "properties": {"id": 7399297384, "name": "Pho Vina", "category": "restaurant", "tags": ["restaurant", "vietnamese", "asian", "noodles"], "sources": ["osm", "overture"], "website": "http://www.phovinawoodinville.com/", "phone": "+14254080851", "address": "17325 140th Ave NE"}, "geometry": {"type": "Point", "coordinates": [-122.1537152, 47.7536408]}}, {"type": "Feature", "properties": {"id": 5830070233, "name": "Ezell's Famous Chicken", "category": "fast_food", "tags": ["fast-food", "chicken", "fast", "food", "comfort-food"], "sources": ["osm", "overture"], "website": "https://www.ezellschicken.com/", "phone": "+14254858960", "address": "17323 140th Ave NE", "hours": "Mo-Su 11:00-21:00"}, "geometry": {"type": "Point", "coordinates": [-122.153714, 47.7535378]}}, {"type": "Feature", "properties": {"id": 7399304548, "name": "Plaza Santa Fe", "category": "restaurant", "tags": ["restaurant", "mexican", "latin-american", "bar-and-grill"], "sources": ["osm", "overture"], "website": "http://plazasantafegrill.com/", "phone": "+14254812100", "address": "17301 140th Ave NE"}, "geometry": {"type": "Point", "coordinates": [-122.1533873, 47.753235]}}, {"type": "Feature", "properties": {"id": 7399307987, "name": "Curry Leaf", "category": "restaurant", "tags": ["restaurant", "indian"], "sources": ["osm"], "address": "17311 140th Avenue Northeast"}, "geometry": {"type": "Point", "coordinates": [-122.1535456, 47.7533541]}}, {"type": "Feature", "properties": {"id": 7399307988, "name": "Minami Teriyaki", "category": "restaurant", "tags": ["restaurant", "japanese", "asian"], "sources": ["osm", "overture"], "website": "http://cherryblossom.com", "phone": "+14254872661", "address": "17307 140th Ave NE #6879"}, "geometry": {"type": "Point", "coordinates": [-122.153441, 47.7533541]}}, {"type": "Feature", "properties": {"id": 7399307989, "name": "Cantina Bar", "category": "restaurant", "tags": ["restaurant"], "sources": ["osm"], "address": "17305 140th Avenue Northeast"}, "geometry": {"type": "Point", "coordinates": [-122.1532827, 47.7533613]}}, {"type": "Feature", "properties": {"id": 7399361594, "name": "B&N Cafe", "category": "cafe", "tags": ["cafe", "outdoor-seating"], "sources": ["osm"]}, "geometry": {"type": "Point", "coordinates": [-122.1568218, 47.7577169]}}, {"type": "Feature", "properties": {"id": 7509044284, "name": "Caliente Kitchen and Bar", "category": "restaurant", "tags": ["restaurant", "mexican", "latin-american", "bar-and-grill"], "sources": ["osm", "overture"], "website": "http://www.calientekitchenbar.com", "phone": "+14258922639", "address": "17302 140th Ave NE"}, "geometry": {"type": "Point", "coordinates": [-122.1522392, 47.7531058]}}, {"type": "Feature", "properties": {"id": 8692149339, "name": "Woodin Creek Kitchen & Tap", "category": "restaurant", "tags": ["restaurant", "american", "bar-and-grill", "bar", "grill"], "sources": ["osm", "overture"], "website": "http://www.WoodinCreekKitchen.com/", "phone": "+14252151999", "address": "13550 NE Village Square Dr #1010"}, "geometry": {"type": "Point", "coordinates": [-122.1588933, 47.7523716]}}, {"type": "Feature", "properties": {"id": 8974734166, "name": "Sidekick Coffee", "category": "cafe", "tags": ["cafe", "coffee-shop", "outdoor-seating", "wifi", "coffee"], "sources": ["osm", "overture"], "website": "http://sidekick.coffee/", "phone": "+14259497422", "address": "17255 135th Ave NE", "hours": "Mo-Fr 06:00-17:00; Sa-Su 07:00-17:00"}, "geometry": {"type": "Point", "coordinates": [-122.1592773, 47.7524054]}}, {"type": "Feature", "properties": {"id": 9648908738, "name": "Brix Wine Cafe", "category": "restaurant", "tags": ["restaurant", "italian", "american", "has-bar"], "sources": ["osm"], "website": "https://www.brixwinecafe.com", "phone": "+1-425-242-0280", "address": "13550 Village Square Drive", "hours": "Tu-Fr 16:00-21:00; Sa-Su 11:00-21:00"}, "geometry": {"type": "Point", "coordinates": [-122.1588317, 47.7519683]}}, {"type": "Feature", "properties": {"id": 9648930887, "name": "Woodinville Cafe", "category": "restaurant", "tags": ["restaurant", "american", "breakfast-and-brunch", "breakfast", "brunch"], "sources": ["osm", "overture"], "website": "http://woodinville.cafesinc.com/", "phone": "+14254891403", "address": "14170 NE Woodinville Duvall Rd", "hours": "Mo-Su 06:00-20:00"}, "geometry": {"type": "Point", "coordinates": [-122.1509171, 47.7550154]}}, {"type": "Feature", "properties": {"id": 9648969500, "name": "Rusty Pelican", "category": "restaurant", "tags": ["restaurant", "breakfast"], "sources": ["osm"]}, "geometry": {"type": "Point", "coordinates": [-122.1584025, 47.7518114]}}, {"type": "Feature", "properties": {"id": 9649048528, "name": "Swanky Scoop", "category": "ice_cream", "tags": ["ice-cream"], "sources": ["osm"]}, "geometry": {"type": "Point", "coordinates": [-122.1588815, 47.7521638]}}, {"type": "Feature", "properties": {"id": "08988495-dc3c-48bc-a7cc-85ef35c9cb26", "name": "Round Table Pizza", "category": "restaurant", "tags": ["restaurant", "pizza"], "sources": ["overture"], "website": "http://www.round-table.com/", "phone": "(425) 481-7117", "address": "17600 140th Ave NE"}, "geometry": {"type": "Point", "coordinates": [-122.1524277, 47.7553368]}}, {"type": "Feature", "properties": {"id": 11196816236, "name": "Pasta Nova", "category": "restaurant", "tags": ["restaurant", "italian"], "sources": ["osm"], "hours": "Mo-Sa 16:00-21:00; Su off"}, "geometry": {"type": "Point", "coordinates": [-122.1522346, 47.7532319]}}, {"type": "Feature", "properties": {"id": 12236518767, "name": "Zeek's Pizza", "category": "restaurant", "tags": ["restaurant", "pizza", "gluten-free", "gluten", "free"], "sources": ["osm", "overture"], "website": "https://zeekspizza.com/", "phone": "4259495008", "address": "17255 135th Ave NE Ste 1060"}, "geometry": {"type": "Point", "coordinates": [-122.1593214, 47.751809]}}, {"type": "Feature", "properties": {"id": 13074954685, "name": "Rooney's Food And Spirits", "category": "restaurant", "tags": ["restaurant", "pub"], "sources": ["osm", "overture"], "website": "https://bit.ly/Rooneysonlineordering", "phone": "4254813586", "address": "17626 140th Ave NE"}, "geometry": {"type": "Point", "coordinates": [-122.1517789, 47.7558033]}}, {"type": "Feature", "properties": {"id": 13148519901, "name": "Bento Box", "category": "restaurant", "tags": ["restaurant", "japanese"], "sources": ["osm"]}, "geometry": {"type": "Point", "coordinates": [-122.1588734, 47.7520568]}}, {"type": "Feature", "properties": {"id": "8541a997-12be-4f00-a8b9-642ac6cd6c30", "name": "Little Caesars Pizza", "category": "restaurant", "tags": ["restaurant", "pizza"], "sources": ["overture"], "website": "http://www.littlecaesars.com", "phone": "(425) 408-0749", "address": "17317 140th Ave NE"}, "geometry": {"type": "Point", "coordinates": [-122.1536179, 47.7535591]}}, {"type": "Feature", "properties": {"id": "5036f489-b173-4b27-821c-1a8c5c756891", "name": "Pizza Takeout & Delivery", "category": "fast_food", "tags": ["fast-food", "fast", "food"], "sources": ["overture"], "website": "https://locations.papamurphys.com/wa/woodinville/14182-ne-woodinville-duvall-road"}, "geometry": {"type": "Point", "coordinates": [-122.1505966, 47.7550049]}}, {"type": "Feature", "properties": {"id": "19262c2e-bf58-4335-89eb-e4541b3bddc4", "name": "Jersey Mike's", "category": "restaurant", "tags": ["restaurant", "sandwich", "fast-food"], "sources": ["overture"], "website": "https://www.jerseymikes.com/18022/woodinville-wa", "phone": "+14254194662", "address": "17321 140th Avenue NE"}, "geometry": {"type": "Point", "coordinates": [-122.1535873, 47.7536507]}}, {"type": "Feature", "properties": {"id": "c1322603-fd0e-4b30-a318-3a74a1ce1a7f", "name": "Chipotle Mexican Grill", "category": "restaurant", "tags": ["restaurant", "mexican", "taco", "fast-food"], "sources": ["overture"], "website": "https://locations.chipotle.com/wa/woodinville/13780-ne-175th-st?utm_source=facebook&utm_medium=yext&utm_campaign=yext_listings%3Frestaurant%3D1747", "phone": "+14255270137", "address": "13780 NE 175th St"}, "geometry": {"type": "Point", "coordinates": [-122.1557693, 47.7546158]}}, {"type": "Feature", "properties": {"id": "f6d99936-224c-487f-8d5a-ceface73b84e", "name": "Red Robin Gourmet Burgers", "category": "restaurant", "tags": ["restaurant", "burger", "american", "fast-food"], "sources": ["overture"], "website": "https://www.redrobin.com/locations/wa/woodinville/woodinville-133", "phone": "+14254886300", "address": "18029 Garden Way NE"}, "geometry": {"type": "Point", "coordinates": [-122.1554489, 47.7575531]}}, {"type": "Feature", "properties": {"id": "f8c4cb2e-2a6c-482b-8814-45900e2367f9", "name": "Qdoba Mexican Grill", "category": "restaurant", "tags": ["restaurant", "mexican", "taco", "texmex"], "sources": ["overture"], "website": "https://locations.qdoba.com/us/wa/woodinville/17744-garden-way-ne", "phone": "+14254858842", "address": "17744 Garden Way NE Woodinville"}, "geometry": {"type": "Point", "coordinates": [-122.154335, 47.7567406]}}, {"type": "Feature", "properties": {"id": "32215e57-98fa-4078-a02a-5f36a2b21b5f", "name": "Donatos Pizza", "category": "restaurant", "tags": ["restaurant", "pizza"], "sources": ["overture"], "website": "https://www.donatos.com", "phone": "4254883600", "address": "18029 Garden Way NE"}, "geometry": {"type": "Point", "coordinates": [-122.1556244, 47.7577133]}}, {"type": "Feature", "properties": {"id": "b287126e-4e03-4ea1-80f1-63bcd516c77b", "name": "Godfathers Pizza", "category": "restaurant", "tags": ["restaurant", "pizza"], "sources": ["overture"], "website": "http://www.godfatherspizza.com", "phone": "(425) 485-2877", "address": "14111 NE Woodinville Duvall Rd # R"}, "geometry": {"type": "Point", "coordinates": [-122.1506042, 47.7542725]}}, {"type": "Feature", "properties": {"id": "7fdc810c-ef3c-4f0c-b8c4-d4de0b3d7b0a", "name": "Rusty Pelican Cafe", "category": "cafe", "tags": ["cafe", "american"], "sources": ["overture"], "website": "http://www.rustypelicancafe.com", "phone": "+14252866660", "address": "13590 NE Village Square Dr Ste 1060"}, "geometry": {"type": "Point", "coordinates": [-122.1584625, 47.7517738]}}, {"type": "Feature", "properties": {"id": "7f64df9d-eaa5-4aa7-b283-d00e038941b6", "name": "Teddy's Bigger Burgers", "category": "restaurant", "tags": ["restaurant", "burger"], "sources": ["overture"], "website": "https://www.teddysbb.com/woodinville-menu", "phone": "(425) 408-1604", "address": "17705 140th Ave NE"}, "geometry": {"type": "Point", "coordinates": [-122.1532822, 47.7562027]}}, {"type": "Feature", "properties": {"id": "01e6230d-4a51-4378-b725-ec3fc9e5effe", "name": "Freshii", "category": "fast_food", "tags": ["fast-food", "fast", "food"], "sources": ["overture"], "phone": "+14252091604", "address": "14184 NE Woodinville Duvall Rd"}, "geometry": {"type": "Point", "coordinates": [-122.150444, 47.7550163]}}, {"type": "Feature", "properties": {"id": "b9ef1853-bc10-44cd-8917-04f56ddf7756", "name": "Los Chilangos Mexican Food & Catering", "category": "fast_food", "tags": ["fast-food", "food", "truck"], "sources": ["overture"], "website": "https://www.chilangoswintersprings.com", "phone": "+14255429871", "address": "13424 NE 175th St"}, "geometry": {"type": "Point", "coordinates": [-122.1594315, 47.7547493]}}, {"type": "Feature", "properties": {"id": "eff67c94-3a3e-4fca-b699-8d2a1e079327", "name": "Hapa Food Company", "category": "fast_food", "tags": ["fast-food", "food", "truck"], "sources": ["overture"], "website": "http://www.hapafoodco.com", "phone": "(425) 287-0412", "address": "13811 NE 175th St"}, "geometry": {"type": "Point", "coordinates": [-122.1546707, 47.7542419]}}, {"type": "Feature", "properties": {"id": "e36398b6-9eeb-402b-9e29-a8b7fda8ad18", "name": "Tot Spot Cafe", "category": "cafe", "tags": ["cafe"], "sources": ["overture"], "website": "http://www.totspotcafe.com", "phone": "(425) 488-2795", "address": "17802 134th Ave NE"}, "geometry": {"type": "Point", "coordinates": [-122.159996, 47.7581406]}}, {"type": "Feature", "properties": {"id": "4abfbc61-a819-4e65-a817-95a731c64431", "name": "Capital Burgue Woodinville", "category": "restaurant", "tags": ["restaurant", "burger", "brazilian", "latin-american"], "sources": ["overture"], "website": "https://www.clover.com/online-ordering/capital-grill--burgue-kirkland", "phone": "+12068873217", "address": "13424 NE 175th St"}, "geometry": {"type": "Point", "coordinates": [-122.1594315, 47.7548141]}}, {"type": "Feature", "properties": {"id": "fd3a7834-5b81-4bdb-a05b-4d7a10c63f81", "name": "Lifted Taco", "category": "restaurant", "tags": ["restaurant", "taco"], "sources": ["overture"], "website": "https://www.liftedtaco.com", "phone": "(425) 419-4322", "address": "17255 135th Ave NE Ste 1040"}, "geometry": {"type": "Point", "coordinates": [-122.1592941, 47.7521095]}}, {"type": "Feature", "properties": {"id": "e8e1a936-7791-4cae-9ff0-84c48a6afeeb", "name": "Mammothsun Properties, Llc", "category": "restaurant", "tags": ["restaurant"], "sources": ["overture"], "address": "17255 135th Ave Ne Ste 1060"}, "geometry": {"type": "Point", "coordinates": [-122.1597519, 47.7513313]}}, {"type": "Feature", "properties": {"id": "4804def4-9106-44e4-9b5b-d5d1eca9fe70", "name": "Three of Cups Winery", "category": "bar", "tags": ["bar", "wine"], "sources": ["overture"], "website": "http://www.threeofcups.com", "phone": "(425) 286-6657", "address": "19255 Woodinville Snohomish Rd NE"}, "geometry": {"type": "Point", "coordinates": [-122.1559906, 47.7523727]}}, {"type": "Feature", "properties": {"id": "81bf031e-ddaa-419b-b7f6-f5be8b2099ae", "name": "Mongolian Grill Woodinville", "category": "restaurant", "tags": ["restaurant", "asian", "mongolian", "japanese"], "sources": ["overture"], "website": "http://www.mongoliangrillwa.com", "phone": "+14254853733", "address": "13780 NE 175th St"}, "geometry": {"type": "Point", "coordinates": [-122.1555862, 47.7548027]}}, {"type": "Feature", "properties": {"id": "2f999e5b-4146-4993-af50-f5aac9725419", "name": "Iron Hop Brewing", "category": "bar", "tags": ["bar", "brewery"], "sources": ["overture"], "website": "http://www.IronHopBrewing.com/", "address": "123 Unknown St"}, "geometry": {"type": "Point", "coordinates": [-122.1560135, 47.7524986]}}, {"type": "Feature", "properties": {"id": "eb09bb77-5fd6-4f6d-a365-abf35162555c", "name": "Ruby's Diner", "category": "restaurant", "tags": ["restaurant", "diner"], "sources": ["overture"], "website": "http://www.rubys.com", "phone": "(425) 489-1173", "address": "13706 NE 175th St"}, "geometry": {"type": "Point", "coordinates": [-122.1564331, 47.7546921]}}, {"type": "Feature", "properties": {"id": "19835521-6125-4ff4-9552-446d35d5ffc2", "name": "Zaw Artisan Pizza", "category": "restaurant", "tags": ["restaurant", "pizza"], "sources": ["overture"], "website": "http://www.zaw.com", "phone": "(425) 482-9945", "address": "17641 Garden Way NE"}, "geometry": {"type": "Point", "coordinates": [-122.156868, 47.7557487]}}, {"type": "Feature", "properties": {"id": "fdc485bd-e859-4ac5-a930-bec13b533ae8", "name": "Cafe Fresco", "category": "restaurant", "tags": ["restaurant"], "sources": ["overture"], "website": "http://www.cafefresco.us", "phone": "(425) 806-9996", "address": "17650 140th Ave NE"}, "geometry": {"type": "Point", "coordinates": [-122.1521606, 47.7560616]}}, {"type": "Feature", "properties": {"id": "da2c4e07-afce-44f1-9100-a28142ab275d", "name": "Dough Zone - Woodinville", "category": "restaurant", "tags": ["restaurant", "dim-sum", "dim", "sum"], "sources": ["overture"], "address": "17650 140th Ave NE"}, "geometry": {"type": "Point", "coordinates": [-122.1521149, 47.7563019]}}, {"type": "Feature", "properties": {"id": "005e1456-99b6-4c82-ae06-a9abea6102d1", "name": "Woodinville Ys Company", "category": "restaurant", "tags": ["restaurant"], "sources": ["overture"], "address": "17650 140th Ave NE"}, "geometry": {"type": "Point", "coordinates": [-122.1521149, 47.7563019]}}, {"type": "Feature", "properties": {"id": "197f25b2-4aed-487d-a4cf-4061b23d697c", "name": "Sushi Connections Japanese Restaurant", "category": "restaurant", "tags": ["restaurant", "asian", "pan", "sushi"], "sources": ["overture"], "website": "http://www.sushiconnections.com/", "phone": "4254883288", "address": "17650 140th Ave NE"}, "geometry": {"type": "Point", "coordinates": [-122.1523056, 47.7560387]}}, {"type": "Feature", "properties": {"id": "fde3414e-7880-486a-b259-d2a8611bc0c4", "name": "Dis Pies & Fries, Llc.", "category": "restaurant", "tags": ["restaurant"], "sources": ["overture"], "phone": "+14257853966", "address": "17705 140th Ave Ne Ste A2"}, "geometry": {"type": "Point", "coordinates": [-122.1533585, 47.7563858]}}, {"type": "Feature", "properties": {"id": "226c0e07-8d1a-415f-b28a-27786066bc54", "name": "Cava Azul Cocina and Cantina", "category": "restaurant", "tags": ["restaurant", "mexican", "latin-american"], "sources": ["overture"], "website": "https://cavaazul.net/", "phone": "+14256580800", "address": "17705 140th Ave NE Ste A2"}, "geometry": {"type": "Point", "coordinates": [-122.153511, 47.7564163]}}, {"type": "Feature", "properties": {"id": "9e1d8157-bb00-4600-a4cc-36ff4a970e30", "name": "Woodinville", "category": "fast_food", "tags": ["fast-food", "fast", "food"], "sources": ["overture"], "website": "https://tacotimenw.com/find-us/woodinville/", "address": "13912 NE 175th Street Woodinville, WA 98072"}, "geometry": {"type": "Point", "coordinates": [-122.1535263, 47.7552376]}}, {"type": "Feature", "properties": {"id": "24e7e856-6bd2-4418-9713-1e5e76f836fd", "name": "Curry Leaf Cuisine of India", "category": "restaurant", "tags": ["restaurant", "indian", "asian"], "sources": ["overture"], "website": "https://thecurryleafcuisine.com/", "phone": "+14253752964", "address": "17311 140th Ave NE"}, "geometry": {"type": "Point", "coordinates": [-122.1535645, 47.7533722]}}, {"type": "Feature", "properties": {"id": "421f1e35-7ffe-4366-9725-8e8cb1282612", "name": "Clay Oven Cuisine Of India", "category": "restaurant", "tags": ["restaurant", "indian"], "sources": ["overture"], "website": "myclayoven.com", "phone": "14259495970", "address": "17311 140th Ave NE"}, "geometry": {"type": "Point", "coordinates": [-122.1535721, 47.753273]}}, {"type": "Feature", "properties": {"id": "00ff428e-ff17-4242-a04e-73c2a32c66cd", "name": "Pita Crush", "category": "restaurant", "tags": ["restaurant", "greek", "fast-food"], "sources": ["overture"], "website": "http://mypitacrush.com/", "phone": "+14254866031", "address": "13804 NE 175th St"}, "geometry": {"type": "Point", "coordinates": [-122.1549301, 47.7547493]}}, {"type": "Feature", "properties": {"id": "e8bb2a1b-858d-4830-96f9-716c3fcd05cb", "name": "The Cheese Pit", "category": "restaurant", "tags": ["restaurant", "sandwich"], "sources": ["overture"], "website": "https://www.thecheesepit.com", "phone": "2063002529", "address": "13811 NE 175th St"}, "geometry": {"type": "Point", "coordinates": [-122.1548233, 47.7541428]}}, {"type": "Feature", "properties": {"id": "689cd82e-0b71-4757-8ebb-3ef6cd219921", "name": "Cherry Blossom", "category": "restaurant", "tags": ["restaurant"], "sources": ["overture"], "website": "http://www.cherryblossom.com", "phone": "(425) 820-7676", "address": "17321 140th Ave NE # 175"}, "geometry": {"type": "Point", "coordinates": [-122.1531754, 47.7532539]}}, {"type": "Feature", "properties": {"id": "4c995db9-4fd9-4bb7-85e9-e528d1bc0cd8", "name": "Ooba's Mexican Grill", "category": "restaurant", "tags": ["restaurant", "mexican"], "sources": ["overture"], "website": "http://www.oobatooba.com", "phone": "(425) 481-5252", "address": "17302 140th Ave NE"}, "geometry": {"type": "Point", "coordinates": [-122.1523132, 47.7530327]}}, {"type": "Feature", "properties": {"id": "fe5b1308-047a-4df2-b552-bd26274b2aac", "name": "Pasta Nova Italiano", "category": "restaurant", "tags": ["restaurant", "italian", "mediterranean"], "sources": ["overture"], "website": "http://www.pastanovaitaliano.com/", "phone": "+14254833716", "address": "17310 140th Ave NE"}, "geometry": {"type": "Point", "coordinates": [-122.1522751, 47.7532654]}}, {"type": "Feature", "properties": {"id": "26d99b7f-2ede-460c-99de-777c10f2606e", "name": "Bobae USA", "category": "cafe", "tags": ["cafe", "tea", "room"], "sources": ["overture"], "website": "http://www.bobaeusa.com/", "phone": "+14258889666", "address": "14015 NE Woodinville Duvall Rd"}, "geometry": {"type": "Point", "coordinates": [-122.1520386, 47.7534561]}}, {"type": "Feature", "properties": {"id": "91470c08-1dcb-40a8-bd1a-dba649628ec7", "name": "Tipsy Cow", "category": "restaurant", "tags": ["restaurant", "burger", "bar-and-grill"], "sources": ["overture"], "website": "http://www.tipsycowburgerbar.com", "phone": "+14253054300", "address": "14111 NE Woodinville Duvall Rd"}, "geometry": {"type": "Point", "coordinates": [-122.15065, 47.7542267]}}, {"type": "Feature", "properties": {"id": "ae4b450c-4439-4cd2-b863-074ac61a7207", "name": "Woodinville Bagel Bakery", "category": "bakery", "tags": ["bakery", "bagel"], "sources": ["overture"], "website": "http://www.WoodinvilleBagel.com/", "phone": "+14254889899", "address": "14126 NE Woodinville Duvall Rd"}, "geometry": {"type": "Point", "coordinates": [-122.1511993, 47.7552795]}}, {"type": "Feature", "properties": {"id": "30527e36-2caf-48dd-90c9-84488a56bb99", "name": "Power Rich Llc", "category": "restaurant", "tags": ["restaurant"], "sources": ["overture"], "address": "17610 140th Ave NE"}, "geometry": {"type": "Point", "coordinates": [-122.1516876, 47.7552681]}}, {"type": "Feature", "properties": {"id": "fc828071-7498-4384-9d91-f26161fe6304", "name": "Thai Woodinville", "category": "restaurant", "tags": ["restaurant", "thai"], "sources": ["overture"], "address": "17610 140th Ave NE"}, "geometry": {"type": "Point", "coordinates": [-122.1516876, 47.7552681]}}, {"type": "Feature", "properties": {"id": "f21ecd95-b1ea-4cf4-8bfd-0a2c4b62582a", "name": "Rooney's Bar", "category": "restaurant", "tags": ["restaurant", "american", "sushi"], "sources": ["overture"], "website": "http://www.rooneysfoodandspirits.com/", "phone": "+14253813586", "address": "17626 140th Ave NE"}, "geometry": {"type": "Point", "coordinates": [-122.1517792, 47.7558098]}}, {"type": "Feature", "properties": {"id": "f197bd71-5037-4342-9748-4bbee31e9e72", "name": "Akane Ramen", "category": "restaurant", "tags": ["restaurant", "japanese", "asian"], "sources": ["overture"], "website": "https://order.toasttab.com/online/akaneramenteriyaki", "phone": "+12069848899", "address": "14136 NE Woodinville Duvall Rd"}, "geometry": {"type": "Point", "coordinates": [-122.1511917, 47.7555809]}}, {"type": "Feature", "properties": {"id": 9522303529, "name": "In Cloud Light IV", "category": "artwork", "tags": ["artwork"], "sources": ["osm"], "website": "https://www.youtube.com/watch?v=RaKn9wOp6OE"}, "geometry": {"type": "Point", "coordinates": [-122.1592006, 47.7506269]}}, {"type": "Feature", "properties": {"id": 9648924517, "name": "DeYoung House", "category": "museum", "tags": ["museum"], "sources": ["osm"], "website": "https://www.woodinvilleheritage.org/"}, "geometry": {"type": "Point", "coordinates": [-122.1504524, 47.7513178]}}, {"type": "Feature", "properties": {"id": 9649062842, "name": "Tara Jennings Fine Art", "category": "gallery", "tags": ["gallery"], "sources": ["osm"]}, "geometry": {"type": "Point", "coordinates": [-122.1587456, 47.7529245]}}, {"type": "Feature", "properties": {"id": 10713337245, "name": "Bassett Hounds Statue", "category": "artwork", "tags": ["artwork"], "sources": ["osm"]}, "geometry": {"type": "Point", "coordinates": [-122.1550171, 47.7546203]}}, {"type": "Feature", "properties": {"id": "fb43bf50-1c76-4863-aa9d-e492057b5832", "name": "Woodin Creek Village Apartment Homes", "category": "attraction", "tags": ["attraction", "landmark", "historical", "building"], "sources": ["overture"], "website": "http://www.woodincreekvillage.com", "phone": "+14252564096", "address": "17255 135th Ave NE"}, "geometry": {"type": "Point", "coordinates": [-122.159317, 47.752079]}}, {"type": "Feature", "properties": {"id": "e67f3b49-0bc4-415c-b0d4-5ed6fc51dc66", "name": "Woodinville Heritage Society & Museum", "category": "museum", "tags": ["museum", "history"], "sources": ["overture"], "website": "http://woodinvilleheritage.org/", "phone": "+14254020750", "address": "14121 NE 171st St"}, "geometry": {"type": "Point", "coordinates": [-122.1504669, 47.7512741]}}, {"type": "Feature", "properties": {"id": "f3d8e768-8853-4584-9a77-be140a5ea16e", "name": "Cornerstone Village Apartments", "category": "attraction", "tags": ["attraction", "landmark", "historical", "building"], "sources": ["overture"], "website": "http://www.liveatpatagoniavillage.com/", "phone": "+14254856557", "address": "14110 NE 179th St APT 21"}, "geometry": {"type": "Point", "coordinates": [-122.1512299, 47.7574654]}}, {"type": "Feature", "properties": {"id": 161391629, "name": "DeYoung Park", "category": "park", "tags": ["park"], "sources": ["osm", "overture"], "website": "https://www.ci.woodinville.wa.us/information/city_hall/facilities2/deyoung_park", "phone": "+14254892700", "address": "13680 NE 175th St", "hours": "sunrise-sunset"}, "geometry": {"type": "Point", "coordinates": [-122.1568475, 47.7548913]}}, {"type": "Feature", "properties": {"id": "596f8629-552e-4eb8-ad8d-a262ee20816a", "name": "Moss Lake", "category": "park", "tags": ["park"], "sources": ["overture"], "website": "www.wta.org/go-hiking/hikes/moss-lake", "address": "Moss Lake"}, "geometry": {"type": "Point", "coordinates": [-122.1584015, 47.7547646]}}, {"type": "Feature", "properties": {"id": "d8a5f75a-702f-46dd-9d31-aabf167260c3", "name": "Lake 22, Snoqualmie Natl Forest", "category": "park", "tags": ["park"], "sources": ["overture"], "website": "http://www.fs.usda.gov/recarea/mbs/recreation/recarea/?recid=17762", "phone": "+18008321355"}, "geometry": {"type": "Point", "coordinates": [-122.1557388, 47.7546463]}}, {"type": "Feature", "properties": {"id": "7ae604c8-e928-4b4e-a79d-c8cc86b17881", "name": "Adams Bench Winery", "category": "wine", "tags": ["wine", "winery"], "sources": ["overture"], "website": "http://www.adamsbench.com/", "phone": "+14254081969", "address": "13590 NE Village Square Dr Ste 1040"}, "geometry": {"type": "Point", "coordinates": [-122.1584702, 47.7518654]}}, {"type": "Feature", "properties": {"id": "9abaa07b-21c1-41a1-97cc-daf4c2d73743", "name": "Brian Carter Cellars", "category": "wine", "tags": ["wine", "winery"], "sources": ["overture"], "website": "http://www.briancartercellars.com/", "phone": "+14258069463", "address": "17140 135th Ave NE STE 1030"}, "geometry": {"type": "Point", "coordinates": [-122.1586914, 47.7514038]}}, {"type": "Feature", "properties": {"id": 27944770, "name": "7-Eleven", "category": "convenience", "tags": ["convenience", "delivery"], "sources": ["osm", "overture"], "website": "https://www.7-eleven.com/", "phone": "+14254838448", "address": "13923 NE 175th St", "hours": "24/7"}, "geometry": {"type": "Point", "coordinates": [-122.1532939, 47.754008]}}, {"type": "Feature", "properties": {"id": 295233968, "name": "Haggen", "category": "supermarket", "tags": ["supermarket"], "sources": ["osm", "overture"], "website": "https://local.haggen.com/wa/woodinville/17641-garden-way-ne.html", "phone": "+14253986700", "address": "17641 Garden Way NE", "hours": "24/7"}, "geometry": {"type": "Point", "coordinates": [-122.1569293, 47.7557468]}}, {"type": "Feature", "properties": {"id": 614308326, "name": "Trader Joe's", "category": "supermarket", "tags": ["supermarket"], "sources": ["osm", "overture"], "website": "https://locations.traderjoes.com/wa/woodinville/293/", "phone": "+1-425-292-7559", "address": "14035 NE Woodinville Duvall Rd", "hours": "09:00-21:00"}, "geometry": {"type": "Point", "coordinates": [-122.1504957, 47.7534206]}}, {"type": "Feature", "properties": {"id": 790704171, "name": "Barnes & Noble", "category": "books", "tags": ["books"], "sources": ["osm"], "website": "https://stores.barnesandnoble.com/store/2910", "phone": "+1-425-398-1990", "address": "18025 Garden Way Northeast", "hours": "09:00-21:00"}, "geometry": {"type": "Point", "coordinates": [-122.156627, 47.7577418]}}, {"type": "Feature", "properties": {"id": 539560546, "name": "Target", "category": "department_store", "tags": ["department-store", "department"], "sources": ["osm", "overture"], "website": "https://www.target.com/sl/woodinville/1118", "phone": "+14254826410", "address": "13950 NE 178th Pl Ste. 100 Woodinville, WA 98072", "hours": "08:00-22:00"}, "geometry": {"type": "Point", "coordinates": [-122.1541141, 47.7590771]}}, {"type": "Feature", "properties": {"id": 7552117886, "name": "Old Navy", "category": "clothes", "tags": ["clothes"], "sources": ["osm", "overture"], "website": "https://oldnavy.gap.com/", "phone": "+14253988248", "address": "14021 NE Woodinville Duvall Rd"}, "geometry": {"type": "Point", "coordinates": [-122.151737, 47.7534089]}}, {"type": "Feature", "properties": {"id": "6ab95ae6-cf01-4c5c-9f9e-7e9ad1ab9ed5", "name": "T-mobile", "category": "mobile_phone", "tags": ["mobile-phone", "mobile"], "sources": ["overture"], "website": "https://www.t-mobile.com", "phone": "+14254879975", "address": "13930 Ne 178th Pl Ste 104"}, "geometry": {"type": "Point", "coordinates": [-122.1534882, 47.7581596]}}, {"type": "Feature", "properties": {"id": 3797475955, "name": "AT&T", "category": "mobile_phone", "tags": ["mobile-phone", "mobile"], "sources": ["osm", "overture"], "website": "https://www.att.com/stores/washington/woodinville/243427?source=E-Fls10000000000X&wtExtndSource=website", "phone": "+14258180069", "address": "18021 Garden Way NE"}, "geometry": {"type": "Point", "coordinates": [-122.1570733, 47.757572]}}, {"type": "Feature", "properties": {"id": 3797475928, "name": "Sprint", "category": "mobile_phone", "tags": ["mobile-phone"], "sources": ["osm"], "address": "13930 Northeast Mill Place"}, "geometry": {"type": "Point", "coordinates": [-122.1538742, 47.7581615]}}, {"type": "Feature", "properties": {"id": 3157335387, "name": "Dollar Tree", "category": "variety_store", "tags": ["variety-store", "discount"], "sources": ["osm", "overture"], "website": "https://locations.dollartree.com/wa/woodinville/14158-ne-woodinville-duvall-rd", "phone": "+15096406375", "address": "14158 NE Woodinville Duvall Rd", "hours": "Mo-Sa 08:00-22:00; Su 09:00-20:00"}, "geometry": {"type": "Point", "coordinates": [-122.1508777, 47.7558219]}}, {"type": "Feature", "properties": {"id": 3797475943, "name": "Verizon", "category": "mobile_phone", "tags": ["mobile-phone", "mobile"], "sources": ["osm", "overture"], "website": "https://www.verizon.com", "phone": "18008801077", "address": "17742 Garden Way Ne  Bldg 14b"}, "geometry": {"type": "Point", "coordinates": [-122.154303, 47.7566245]}}, {"type": "Feature", "properties": {"id": 7552117888, "name": "Ulta Beauty", "category": "cosmetics", "tags": ["cosmetics"], "sources": ["osm"], "website": "https://www.ulta.com/stores/woodinville-wa-1500", "phone": "+1-425-659-2820", "address": "14019 Northeast Woodinville Duvall Road", "hours": "Mo-We 10:00-20:00; Th-Sa 10:00-21:00; Su 11:00-18:00"}, "geometry": {"type": "Point", "coordinates": [-122.15187, 47.7534077]}}, {"type": "Feature", "properties": {"id": 3797475904, "name": "Ross", "category": "department_store", "tags": ["department-store"], "sources": ["osm"], "phone": "+1-425-424-9213", "address": "17849 Garden Way Northeast", "hours": "Mo-Th 10:00-22:00; Fr-Sa 09:30-22:30; Su 10:00-21:00"}, "geometry": {"type": "Point", "coordinates": [-122.1569988, 47.7568287]}}, {"type": "Feature", "properties": {"id": 3157335396, "name": "Sir Lonebuck's House of Comics & Geekery", "category": "books", "tags": ["books"], "sources": ["osm"]}, "geometry": {"type": "Point", "coordinates": [-122.1513397, 47.7554929]}}, {"type": "Feature", "properties": {"id": 3797475889, "name": "Famous Footwear", "category": "shoes", "tags": ["shoes"], "sources": ["osm"]}, "geometry": {"type": "Point", "coordinates": [-122.1569684, 47.7572744]}}, {"type": "Feature", "properties": {"id": 3797475896, "name": "OshKosh B'gosh", "category": "clothes", "tags": ["clothes", "childrens"], "sources": ["osm", "overture"], "website": "https://locations.oshkosh.com/wa/woodinville/woodinville-wa", "phone": "+14254831997", "address": "17953 Garden Way NE"}, "geometry": {"type": "Point", "coordinates": [-122.1569787, 47.7571165]}}, {"type": "Feature", "properties": {"id": 3797475913, "name": "PetSmart", "category": "pet", "tags": ["pet"], "sources": ["osm", "overture"], "website": "https://www.petsmart.com/stores/us/wa/woodinville-store0378.html", "phone": "+14254242098", "address": "17845 Garden Way NE", "hours": "Mo-Sa 09:00-21:00; Su 10:00-19:00"}, "geometry": {"type": "Point", "coordinates": [-122.1570256, 47.7563715]}}, {"type": "Feature", "properties": {"id": 3797475921, "name": "Eddie Bauer Outlet", "category": "clothes", "tags": ["clothes"], "sources": ["osm"]}, "geometry": {"type": "Point", "coordinates": [-122.15454, 47.7576583]}}, {"type": "Feature", "properties": {"id": 27804800, "name": "Rocket", "category": "convenience", "tags": ["convenience"], "sources": ["osm", "overture"], "website": "https://rocketstores.com/", "phone": "+14254810734", "address": "14002 NE 175th St"}, "geometry": {"type": "Point", "coordinates": [-122.1522487, 47.7549645]}}, {"type": "Feature", "properties": {"id": "b19f373d-dd6d-4634-b427-84d36a983a2c", "name": "Baer Winery", "category": "wine", "tags": ["wine", "winery"], "sources": ["overture"], "website": "https://baerwinery.com", "phone": "(425) 483-7060", "address": "19501 144th Ave NE, Unit F-100, Woodinville, WA 98072, United States"}, "geometry": {"type": "Point", "coordinates": [-122.1584015, 47.7521172]}}, {"type": "Feature", "properties": {"id": 9589991708, "name": "Smoke Shop", "category": "tobacco", "tags": ["tobacco"], "sources": ["osm"]}, "geometry": {"type": "Point", "coordinates": [-122.1537157, 47.7534877]}}, {"type": "Feature", "properties": {"id": 11196816235, "name": "Soccer Post", "category": "sports", "tags": ["sports"], "sources": ["osm"]}, "geometry": {"type": "Point", "coordinates": [-122.1536885, 47.7534409]}}, {"type": "Feature", "properties": {"id": 13148519101, "name": "Danner", "category": "clothes", "tags": ["clothes"], "sources": ["osm"], "address": "13620 Northeast 175th Street"}, "geometry": {"type": "Point", "coordinates": [-122.1577534, 47.7546303]}}, {"type": "Feature", "properties": {"id": "f17e56a3-58d6-40f8-8aec-c1037773113a", "name": "Rite Aid", "category": "convenience", "tags": ["convenience"], "sources": ["overture"], "website": "https://www.riteaid.com/locations/wa/woodinville/14035-ne-woodinville-duvall.html", "phone": "4254856468", "address": "14035 NE Woodinville-Duvall"}, "geometry": {"type": "Point", "coordinates": [-122.1504974, 47.753231]}}, {"type": "Feature", "properties": {"id": "f777ce09-af39-4a52-8270-2bbdedefec03", "name": "At&t Store", "category": "mobile_phone", "tags": ["mobile-phone", "mobile"], "sources": ["overture"], "website": "https://www.att.com", "phone": "14258180069", "address": "18021 Garden Way NE"}, "geometry": {"type": "Point", "coordinates": [-122.1571579, 47.757618]}}, {"type": "Feature", "properties": {"id": "3f691840-4e05-4e79-857b-54b7ec22e4b0", "name": "Sherwin-Williams", "category": "doityourself", "tags": ["doityourself", "building", "supply"], "sources": ["overture"], "website": "https://www.sherwin-williams.com/store-locator/paint-store/woodinville/wa/708667", "phone": "+14254814431", "address": "14041 NE Woodinville Duvall Rd"}, "geometry": {"type": "Point", "coordinates": [-122.1500854, 47.753479]}}, {"type": "Feature", "properties": {"id": "a38a9094-6d05-41b4-8ea8-0aca9ccfe352", "name": "Ross Dress for Less", "category": "variety_store", "tags": ["variety-store", "discount"], "sources": ["overture"], "website": "https://www.rossstores.com/", "phone": "+14254249213", "address": "17849 Garden Way NE"}, "geometry": {"type": "Point", "coordinates": [-122.1568985, 47.7568474]}}, {"type": "Feature", "properties": {"id": "3301b607-1264-4de8-9064-5a849c82a7b2", "name": "Aaron Brothers Art & Framing", "category": "art", "tags": ["art", "supply"], "sources": ["overture"], "phone": "4254870779", "address": "13970 NE 178th Pl"}, "geometry": {"type": "Point", "coordinates": [-122.1526031, 47.7584991]}}, {"type": "Feature", "properties": {"id": "1f6fce06-5bc0-452f-84ab-1c98a55ac17e", "name": "Bayernmoor Cellars", "category": "wine", "tags": ["wine", "winery"], "sources": ["overture"], "website": "http://www.bayernmoor.com/", "phone": "+14252163300", "address": "17140 135th Ave NE Ste 1040"}, "geometry": {"type": "Point", "coordinates": [-122.1590652, 47.7511902]}}, {"type": "Feature", "properties": {"id": "32006a72-beab-4abf-9240-fdbc58df7b23", "name": "Tsillan Cellars Woodinville", "category": "wine", "tags": ["wine", "winery"], "sources": ["overture"], "website": "http://www.tsillancellars.com/", "phone": "+14254825976", "address": "13550 NE Village Square Dr Unit 1070"}, "geometry": {"type": "Point", "coordinates": [-122.1586533, 47.7518845]}}, {"type": "Feature", "properties": {"id": "d0b54145-3fc2-4680-b673-236c34dd3c59", "name": "TruthTeller", "category": "wine", "tags": ["wine", "winery"], "sources": ["overture"], "website": "http://www.truthtellerwinery.com/", "phone": "+14259853568", "address": "13590 NE Village Square Dr Ste 1045"}, "geometry": {"type": "Point", "coordinates": [-122.1584778, 47.7518387]}}, {"type": "Feature", "properties": {"id": "0d548658-b6c6-4cbf-88ac-a3003a71b01b", "name": "Rooted Souls Winery", "category": "wine", "tags": ["wine", "winery"], "sources": ["overture"], "website": "http://www.rootedsoulswine.com/", "address": "13590 NE Village Square Dr Unit - 1020"}, "geometry": {"type": "Point", "coordinates": [-122.1584473, 47.7523804]}}, {"type": "Feature", "properties": {"id": "25609e3d-40b6-4ff4-a40a-4eed20b9a892", "name": "Woodinville Wine Country", "category": "wine", "tags": ["wine", "winery"], "sources": ["overture"], "website": "http://www.woodinvillewinecountry.com/", "phone": "+14252873298", "address": "13590 NE Village Square Dr"}, "geometry": {"type": "Point", "coordinates": [-122.1584396, 47.75214]}}, {"type": "Feature", "properties": {"id": "0ae718e0-800d-411e-9984-a4749d4990f0", "name": "Ancestry Cellars", "category": "wine", "tags": ["wine", "winery"], "sources": ["overture"], "website": "https://ancestrycellars.com", "phone": "(425) 435-6551", "address": "13590 NE Village Square Dr #1035"}, "geometry": {"type": "Point", "coordinates": [-122.1583099, 47.7517738]}}, {"type": "Feature", "properties": {"id": "1828f75d-21c5-43a1-a451-8ee444f73770", "name": "Danner Woodinville", "category": "shoes", "tags": ["shoes", "shoe"], "sources": ["overture"], "website": "http://danner.com/", "phone": "+14258182166", "address": "13620 NE 175th St #110"}, "geometry": {"type": "Point", "coordinates": [-122.157486, 47.7546654]}}, {"type": "Feature", "properties": {"id": "a21dee15-abed-4cb7-8ba1-7636fe22137f", "name": "Barnes and Noble", "category": "books", "tags": ["books"], "sources": ["overture"], "website": "http://www.barnesandnoble.com/", "phone": "+14253981990", "address": "18025 Garden Way NE"}, "geometry": {"type": "Point", "coordinates": [-122.1567612, 47.757782]}}, {"type": "Feature", "properties": {"id": "bf945457-7ca9-4b18-8037-a8393b4b7a30", "name": "Sleep Country USA", "category": "furniture", "tags": ["furniture"], "sources": ["overture"], "website": "http://www.sleepcountry.com", "phone": "+14254833566", "address": "17957 Garden Way NE"}, "geometry": {"type": "Point", "coordinates": [-122.156723, 47.7573929]}}, {"type": "Feature", "properties": {"id": "58630a2e-f641-4189-88a3-a456fa379bb1", "name": "Berg's Landscaping", "category": "doityourself", "tags": ["doityourself", "building", "supply"], "sources": ["overture"], "website": "http://www.bergslandscaping.com", "phone": "(425) 483-0717", "address": "17601 140th Ave NE Ste 201"}, "geometry": {"type": "Point", "coordinates": [-122.1530914, 47.7555199]}}, {"type": "Feature", "properties": {"id": "ed85dea5-485c-493e-bf70-93ffb2a1d876", "name": "Carter's Carter's Downtown Woodinville Shopping Center", "category": "clothes", "tags": ["clothes"], "sources": ["overture"], "website": "https://www.carters.com/l/wa/woodinville/carters-downtown-woodinville-shopping-center-1147", "address": "17953 Garden Way NE"}, "geometry": {"type": "Point", "coordinates": [-122.1539078, 47.7578621]}}, {"type": "Feature", "properties": {"id": "3781d8c6-e00e-4b67-891e-55335c89f2f9", "name": "Paula's Hallmark Shop", "category": "gift", "tags": ["gift"], "sources": ["overture"], "website": "https://stores.hallmark.com/wa/woodinville/paulas-hallmark-shop-woodinville-wa-043217.html?mc=T_P_G_NA_NA_ED_NA_GC_RIO-local", "phone": "4254810333", "address": "14130 NE Woodinville Duvall Rd"}, "geometry": {"type": "Point", "coordinates": [-122.150444, 47.7547035]}}, {"type": "Feature", "properties": {"id": "f35e9963-b400-4e35-b2fb-647385bca5ac", "name": "All Star Smoke Shop", "category": "tobacco", "tags": ["tobacco"], "sources": ["overture"], "phone": "+14254151301", "address": "14152 NE Woodinville Duvall Rd"}, "geometry": {"type": "Point", "coordinates": [-122.1511841, 47.7558594]}}, {"type": "Feature", "properties": {"id": 293718782, "name": "Haggen Pharmacy", "category": "pharmacy", "tags": ["pharmacy"], "sources": ["osm"]}, "geometry": {"type": "Point", "coordinates": [-122.1571279, 47.7557396]}}, {"type": "Feature", "properties": {"id": "b26e6ef2-bada-4d70-8c29-ca042b98b220", "name": "Cvs Pharmacy", "category": "pharmacy", "tags": ["pharmacy"], "sources": ["overture"], "website": "https://www.cvs.com", "phone": "14254921820", "address": "13950 NE 178th Pl"}, "geometry": {"type": "Point", "coordinates": [-122.15448, 47.7589035]}}, {"type": "Feature", "properties": {"id": 6371005783, "name": "UW Neighboorhood Woodinville Clinic", "category": "clinic", "tags": ["clinic"], "sources": ["osm"], "website": "https://www.uwmedicine.org/locations/primary-care-woodinville"}, "geometry": {"type": "Point", "coordinates": [-122.1518619, 47.75601]}}, {"type": "Feature", "properties": {"id": "11d13f6c-0c7a-43f6-966a-76573235f3cd", "name": "EvergreenHealth Urgent Care", "category": "clinic", "tags": ["clinic", "medical"], "sources": ["overture"], "website": "https://www.evergreenhealth.com/urgent-care-woodinville", "phone": "+14254882273", "address": "16916 140th Ave NE Suite 200"}, "geometry": {"type": "Point", "coordinates": [-122.1523819, 47.7506104]}}, {"type": "Feature", "properties": {"id": 9854085562, "name": "Woodinville Medical Center Pharmacy", "category": "pharmacy", "tags": ["pharmacy"], "sources": ["osm", "overture"], "website": "http://www.woodinvillepharmacy.com/", "phone": "+14254852900", "address": "17000 140th Ave NE Unit E101"}, "geometry": {"type": "Point", "coordinates": [-122.152082, 47.7511506]}}, {"type": "Feature", "properties": {"id": 13148490504, "name": "Zoomcare Urgent Care", "category": "clinic", "tags": ["clinic"], "sources": ["osm"]}, "geometry": {"type": "Point", "coordinates": [-122.15306, 47.756314]}}, {"type": "Feature", "properties": {"id": 105609684, "name": "EvergreenHealth", "category": "clinic", "tags": ["clinic"], "sources": ["osm"], "address": "16916 140th Avenue Northeast"}, "geometry": {"type": "Point", "coordinates": [-122.1521525, 47.7505646]}}, {"type": "Feature", "properties": {"id": "e95b232f-3368-4235-95b4-a8dca04b2557", "name": "Health Moves", "category": "clinic", "tags": ["clinic", "medical"], "sources": ["overture"], "website": "http://www.healthmoves.org", "phone": "(425) 402-9999", "address": "17311 135th Ave NE Ste C800"}, "geometry": {"type": "Point", "coordinates": [-122.1593475, 47.7523117]}}, {"type": "Feature", "properties": {"id": "0ba40b23-32e6-4072-aebc-5b86e2554998", "name": "University of Washington Medicine - Woodinville Clinic", "category": "clinic", "tags": ["clinic", "medical"], "sources": ["overture"], "website": "http://uwmedicine.org", "phone": "(425) 485-4100"}, "geometry": {"type": "Point", "coordinates": [-122.1518555, 47.7560959]}}, {"type": "Feature", "properties": {"id": "68fb3fef-8259-4c56-bdb2-9d3389b56993", "name": "Evergreen Medical Center In Woodinville", "category": "clinic", "tags": ["clinic", "medical"], "sources": ["overture"], "website": "http://evergreenhealth.com", "phone": "(425) 488-4900", "address": "16916 140th Ave NE"}, "geometry": {"type": "Point", "coordinates": [-122.152092, 47.7505684]}}, {"type": "Feature", "properties": {"id": "d3b38c1f-a03a-43e8-9e73-d8f1b96f9ac9", "name": "RediClinic Woodinville", "category": "clinic", "tags": ["clinic", "medical"], "sources": ["overture"], "website": "https://www.rediclinic.com/clinics/washington/woodinville/rediclinic-woodinville/", "phone": "8334237334", "address": "14035 NE Woodinville Duvall Rd"}, "geometry": {"type": "Point", "coordinates": [-122.150322, 47.7531471]}}, {"type": "Feature", "properties": {"id": 27916073, "name": "Bank of America", "category": "bank", "tags": ["bank"], "sources": ["osm"], "website": "https://locators.bankofamerica.com/wa/woodinville/financial-centers-woodinville-9207.html", "address": "14003 Northeast Woodinville Duvall Road"}, "geometry": {"type": "Point", "coordinates": [-122.1520496, 47.7541461]}}, {"type": "Feature", "properties": {"id": 3157335386, "name": "KeyBank", "category": "bank", "tags": ["bank", "credit", "union"], "sources": ["osm", "overture"], "website": "https://www.key.com/locations/WA/Woodinville/BRCH47310183/14040-Ne-Woodinville-Duvall-Rd?ppc=cmpyxt", "phone": "+14253814918", "address": "14040 NE Woodinville Duvall Rd"}, "geometry": {"type": "Point", "coordinates": [-122.15144, 47.7547479]}}, {"type": "Feature", "properties": {"id": 11196821038, "name": "U.S. Bank", "category": "bank", "tags": ["bank"], "sources": ["osm"]}, "geometry": {"type": "Point", "coordinates": [-122.1523758, 47.7575568]}}, {"type": "Feature", "properties": {"id": 27915924, "name": "Wells Fargo", "category": "bank", "tags": ["bank", "credit", "union"], "sources": ["osm", "overture"], "website": "http://www.wellsfargo.com", "phone": "+14254838201", "address": "13505 Ne 175 Th St"}, "geometry": {"type": "Point", "coordinates": [-122.1588757, 47.7540306]}}, {"type": "Feature", "properties": {"id": 27005817, "name": "Chase", "category": "bank", "tags": ["bank"], "sources": ["osm"], "website": "https://locator.chase.com/wa/woodinville/13425-ne-175th-st", "phone": "+1-425-483-9393", "address": "13425 Northeast 175th Street", "hours": "Mo-Fr 09:00-17:00; Sa 09:00-13:00; Su closed"}, "geometry": {"type": "Point", "coordinates": [-122.1594083, 47.7541501]}}, {"type": "Feature", "properties": {"id": 6371006487, "name": "BECU", "category": "bank", "tags": ["bank"], "sources": ["osm"], "website": "https://www.becu.org/locations/woodinville"}, "geometry": {"type": "Point", "coordinates": [-122.153146, 47.7561875]}}, {"type": "Feature", "properties": {"id": 3231711968, "name": "Washington Federal", "category": "bank", "tags": ["bank"], "sources": ["osm"]}, "geometry": {"type": "Point", "coordinates": [-122.1599259, 47.7542439]}}, {"type": "Feature", "properties": {"id": 27005764, "name": "Coastal Community Bank", "category": "bank", "tags": ["bank", "credit", "union"], "sources": ["osm", "overture"], "website": "https://www.coastalbank.com/woodinville/", "phone": "4254023100", "address": "17601 140th Ave NE Ste 100"}, "geometry": {"type": "Point", "coordinates": [-122.1530626, 47.7554389]}}, {"type": "Feature", "properties": {"id": "dbd497e5-6c83-42f0-a48b-7460ddc9d8be", "name": "United States Postal Service", "category": "post_office", "tags": ["post-office", "office"], "sources": ["overture"], "website": "https://tools.usps.com/find-location.htm?location=1388185", "phone": "(800) 275-8777", "address": "17610 Woodinville Snohomish Rd NE"}, "geometry": {"type": "Point", "coordinates": [-122.1597977, 47.7562447]}}, {"type": "Feature", "properties": {"id": "6e27c0a5-b9ea-4fcf-a077-d65e2c6d1103", "name": "Bank of America ATM", "category": "bank", "tags": ["bank", "credit", "union"], "sources": ["overture"], "phone": "8004426680", "address": "17641 Garden Way NE"}, "geometry": {"type": "Point", "coordinates": [-122.1579056, 47.7557487]}}, {"type": "Feature", "properties": {"id": "e533cd94-21bb-422c-af45-d434244cf0bd", "name": "Bank of America ATM", "category": "bank", "tags": ["bank", "credit", "union"], "sources": ["overture"], "website": "https://locators.bankofamerica.com/wa/woodinville/financial-centers-woodinville-9207.html", "phone": "8444018500", "address": "14003 NE Woodinville Duvall Rd"}, "geometry": {"type": "Point", "coordinates": [-122.1521683, 47.7544365]}}, {"type": "Feature", "properties": {"id": "d519ff1a-c603-4aa9-ad6d-348f44748b16", "name": "U.S. Bank Branch", "category": "bank", "tags": ["bank", "credit", "union"], "sources": ["overture"], "website": "https://www.usbank.com/locations/washington/woodinville/17922-140th-ave-ne-bank-atm/?utm_source=bing&utm_medium=organic&utm_campaign=bing_listing", "phone": "4254929315", "address": "17922 140th Ave NE"}, "geometry": {"type": "Point", "coordinates": [-122.1524048, 47.757576]}}, {"type": "Feature", "properties": {"id": "453a344c-08a1-49a2-86b7-b1a3ddb991c9", "name": "Chase ATM", "category": "bank", "tags": ["bank", "credit", "union"], "sources": ["overture"], "website": "https://www.chase.com/locator/banking/us/wa/woodinville/13425-ne-175th-st", "phone": "+18009359935", "address": "13425 NE 175th St"}, "geometry": {"type": "Point", "coordinates": [-122.1593857, 47.7541733]}}, {"type": "Feature", "properties": {"id": "da8aaaf7-f8be-46f6-872a-340c3b866e2c", "name": "First Financial Northwest Bank - Woodinville Branch", "category": "bank", "tags": ["bank", "credit", "union"], "sources": ["overture"], "website": "https://www.ffnwb.com/", "phone": "4254810820", "address": "17641 Garden Way NE"}, "geometry": {"type": "Point", "coordinates": [-122.1573257, 47.7557411]}}, {"type": "Feature", "properties": {"id": "2d4195b1-8047-4799-9418-92e0209eb1e8", "name": "Club Pilates", "category": "fitness_centre", "tags": ["fitness-centre", "pilates", "studio"], "sources": ["overture"], "website": "http://www.clubpilates.com/woodinville", "phone": "+14253263620", "address": "14039 NE Woodinville Duvall Rd"}, "geometry": {"type": "Point", "coordinates": [-122.1501923, 47.7534256]}}, {"type": "Feature", "properties": {"id": 7552117887, "name": "Planet Fitness", "category": "fitness_centre", "tags": ["fitness-centre", "gym"], "sources": ["osm", "overture"], "website": "https://www.planetfitness.com/gyms/woodinville-wa?utm_medium=organic&utm_source=extnet", "phone": "+14254080419", "address": "14025 NE Woodinville Duvall Rd"}, "geometry": {"type": "Point", "coordinates": [-122.15161, 47.7534101]}}, {"type": "Feature", "properties": {"id": 13074954680, "name": "JNL Personal Training", "category": "fitness_centre", "tags": ["fitness-centre"], "sources": ["osm"]}, "geometry": {"type": "Point", "coordinates": [-122.1517831, 47.7554546]}}, {"type": "Feature", "properties": {"id": "75a3fd63-df85-417d-95ee-d22e5800362b", "name": "Inovejas Fit For Life", "category": "fitness_centre", "tags": ["fitness-centre", "fitness", "trainer"], "sources": ["overture"], "website": "http://allaninovejas.isagenix.com/", "phone": "+12063105329", "address": "17614 140th Ave NE"}, "geometry": {"type": "Point", "coordinates": [-122.1519394, 47.7554588]}}, {"type": "Feature", "properties": {"id": "61f69720-5e31-4458-aeb0-20fe46de84c9", "name": "Koko FitClub", "category": "fitness_centre", "tags": ["fitness-centre", "gym"], "sources": ["overture"], "website": "http://kokofitclub.com/", "phone": "4253985656", "address": "17614 140th Ave NE"}, "geometry": {"type": "Point", "coordinates": [-122.1518021, 47.7553062]}}, {"type": "Feature", "properties": {"id": "eaeb5a98-b778-48a3-8f7d-c7c6faf89b23", "name": "The Pilates Company", "category": "fitness_centre", "tags": ["fitness-centre", "pilates", "studio"], "sources": ["overture"], "website": "https://www.woodinvillepilates.com", "phone": "14254855157", "address": "17632 140th Ave NE"}, "geometry": {"type": "Point", "coordinates": [-122.1516953, 47.7559471]}}]}