{"type": "FeatureCollection", "features": [{"type": "Feature", "properties": {"id": 44115568, "name": "Ardmore Park", "category": "park", "tags": ["park"], "sources": ["osm", "overture"], "website": "http://www.bellevuewa.gov/ardmore.htm", "phone": "+14254526885", "address": "16833 NE 30th St"}, "geometry": {"type": "Point", "coordinates": [-122.1152402, 47.6363978]}}, {"type": "Feature", "properties": {"id": 74295594, "name": "Ardmore Park", "category": "park", "tags": ["park"], "sources": ["osm"]}, "geometry": {"type": "Point", "coordinates": [-122.1135991, 47.6340294]}}]}