{"type": "FeatureCollection", "features": [{"type": "Feature", "properties": {"id": 182648409, "name": "Welcome Park", "category": "park", "tags": ["park"], "sources": ["osm"]}, "geometry": {"type": "Point", "coordinates": [-122.1523552, 47.6766614]}}, {"type": "Feature", "properties": {"id": 182648411, "name": "Scotts Pond Park", "category": "park", "tags": ["park"], "sources": ["osm"]}, "geometry": {"type": "Point", "coordinates": [-122.1523951, 47.6757822]}}, {"type": "Feature", "properties": {"id": "0463d809-e68b-479f-8d91-ea727d6099ba", "name": "El Jardin Studio", "category": "fitness_centre", "tags": ["fitness-centre", "yoga", "studio"], "sources": ["overture"], "phone": "+14259225722", "address": "7714 139th Pl NE"}, "geometry": {"type": "Point", "coordinates": [-122.153717, 47.6738853]}}]}