{"type": "FeatureCollection", "features": [{"type": "Feature", "properties": {"id": 42420681, "name": "Burger King", "category": "fast_food", "tags": ["fast-food", "burger", "takeaway", "drive-through", "air-conditioned", "wifi", "restaurant", "american"], "sources": ["osm", "overture"], "website": "https://burgerking.com/store-locator/store/10465", "phone": "+14252514988", "address": "110 SW 41st St", "hours": "Mo-Su 06:00-00:00"}, "geometry": {"type": "Point", "coordinates": [-122.2194343, 47.4440993]}}, {"type": "Feature", "properties": {"id": 3721662310, "name": "Fortune Poker Restaurant & Lounge", "category": "restaurant", "tags": ["restaurant"], "sources": ["osm"]}, "geometry": {"type": "Point", "coordinates": [-122.2168056, 47.4468942]}}, {"type": "Feature", "properties": {"id": 3725148350, "name": "Ma La Kor Thai", "category": "restaurant", "tags": ["restaurant", "thai"], "sources": ["osm"]}, "geometry": {"type": "Point", "coordinates": [-122.2189542, 47.4434534]}}, {"type": "Feature", "properties": {"id": 4137647959, "name": "Chopstick Teriyaki", "category": "restaurant", "tags": ["restaurant", "asian", "japanese", "chinese"], "sources": ["osm", "overture"], "website": "http://teriyakiboxrenton.gastrobars.com", "phone": "+14256568833", "address": "101 SW 41st St"}, "geometry": {"type": "Point", "coordinates": [-122.2189247, 47.4433015]}}, {"type": "Feature", "properties": {"id": 4137647960, "name": "Crown Pizza", "category": "restaurant", "tags": ["restaurant", "pizza", "italian"], "sources": ["osm", "overture"], "website": "http://Crownpizzawa.com/", "phone": "+12539813744", "address": "101 SW 41st St"}, "geometry": {"type": "Point", "coordinates": [-122.2189274, 47.4432525]}}, {"type": "Feature", "properties": {"id": "04827adc-b3a4-4878-bd8d-385130fb70c4", "name": "Round Table Pizza", "category": "restaurant", "tags": ["restaurant", "pizza"], "sources": ["overture"], "website": "http://roundtablepizza.com/order?id=481", "phone": "4252510606", "address": "302 S 43rd St"}, "geometry": {"type": "Point", "coordinates": [-122.2146454, 47.4411774]}}, {"type": "Feature", "properties": {"id": 200916574, "name": "Triumph Valley", "category": "restaurant", "tags": ["restaurant", "chinese", "asian"], "sources": ["osm", "overture"], "website": "http://triumphvalley.com/", "phone": "+14255726612", "address": "3750 E Valley Rd"}, "geometry": {"type": "Point", "coordinates": [-122.2174643, 47.445621]}}, {"type": "Feature", "properties": {"id": 654885065, "name": "The Spot", "category": "bar", "tags": ["bar"], "sources": ["osm"], "address": "4224 East Valley Road"}, "geometry": {"type": "Point", "coordinates": [-122.2185432, 47.4418974]}}, {"type": "Feature", "properties": {"id": 712100629, "name": "Good Vibes Espresso", "category": "cafe", "tags": ["cafe", "coffee-shop"], "sources": ["osm"]}, "geometry": {"type": "Point", "coordinates": [-122.2194131, 47.4408218]}}, {"type": "Feature", "properties": {"id": "0838f3ce-cf97-41ad-9f68-b4d6301cea66", "name": "Malakor Thai Restaurant", "category": "restaurant", "tags": ["restaurant", "thai", "asian"], "sources": ["overture"], "website": "http://www.malakorthai.com", "phone": "+14252511968", "address": "101 SW 41st St Unit G"}, "geometry": {"type": "Point", "coordinates": [-122.2189484, 47.4435234]}}, {"type": "Feature", "properties": {"id": "5f5b8103-a12b-47d8-ad46-eb7c6b0020c9", "name": "Blu Hong Kong Bistro", "category": "restaurant", "tags": ["restaurant", "chinese"], "sources": ["overture"], "website": "http://www.bluhongkong.com", "phone": "(425) 251-1968", "address": "101 SW 41st St"}, "geometry": {"type": "Point", "coordinates": [-122.2192078, 47.4434471]}}, {"type": "Feature", "properties": {"id": "162f90d6-1f29-4fcf-9248-1bfd853e20db", "name": "Lemon Leaf Restaurant", "category": "restaurant", "tags": ["restaurant"], "sources": ["overture"], "website": "https://lemonleafrestaurant.com", "address": "101 SW 41st St"}, "geometry": {"type": "Point", "coordinates": [-122.2191849, 47.4434395]}}, {"type": "Feature", "properties": {"id": "6a0612d7-05b0-473e-a820-2817f7b21284", "name": "Saigon Palms", "category": "restaurant", "tags": ["restaurant", "vietnamese"], "sources": ["overture"], "website": "http://www.saigonpalms.com", "phone": "+14252515033", "address": "101 SW 41st St"}, "geometry": {"type": "Point", "coordinates": [-122.219223, 47.4435158]}}, {"type": "Feature", "properties": {"id": "a08255d7-9d98-49cc-885d-b578a1273769", "name": "Casa D's Taqueria", "category": "restaurant", "tags": ["restaurant"], "sources": ["overture"], "website": "http://www.casads.com", "phone": "(425) 251-3576", "address": "101 SW 41st St"}, "geometry": {"type": "Point", "coordinates": [-122.2193756, 47.443428]}}, {"type": "Feature", "properties": {"id": "178d238e-9df2-4e99-89fe-4b4b0cb41f45", "name": "The Spot Sports Bar and Grill", "category": "bar", "tags": ["bar", "sports", "bar-and-grill"], "sources": ["overture"], "website": "http://www.allmenus.com/wa/renton/388084-spot-sports-bar--grill/menu", "phone": "+14252518053", "address": "4224 E Valley Rd"}, "geometry": {"type": "Point", "coordinates": [-122.2185745, 47.4418945]}}, {"type": "Feature", "properties": {"id": "1aa2fae0-f92f-4733-8518-dc7d24490674", "name": "AFK Elixirs & Eatery", "category": "restaurant", "tags": ["restaurant", "american"], "sources": ["overture"], "website": "http://afkeande.com", "phone": "(425) 738-0025", "address": "3750 E Valley Rd"}, "geometry": {"type": "Point", "coordinates": [-122.2175369, 47.4455643]}}, {"type": "Feature", "properties": {"id": "3ea6c9ff-6192-40cf-a9bb-9c87346bfb26", "name": "The Bar at Triumph Valley", "category": "bar", "tags": ["bar", "sports"], "sources": ["overture"], "website": "https://triumph-valley.com/", "phone": "+14255726612", "address": "3750 E Valley Rd"}, "geometry": {"type": "Point", "coordinates": [-122.2175522, 47.4457283]}}, {"type": "Feature", "properties": {"id": 200916573, "name": "Clarion Hotel", "category": "hotel", "tags": ["hotel", "wifi"], "sources": ["osm"], "address": "3700 East Valley Road"}, "geometry": {"type": "Point", "coordinates": [-122.2174724, 47.4463908]}}, {"type": "Feature", "properties": {"id": "8f1c7956-badb-4d36-ad82-d724856dea94", "name": "Clarion Inn Renton", "category": "hotel", "tags": ["hotel"], "sources": ["overture"], "website": "https://www.choicehotels.com/washington/renton/clarion-hotels/wa199?pmf=yext&mc=llyxyxpx", "phone": "+14253361011", "address": "3700 E Valley Rd"}, "geometry": {"type": "Point", "coordinates": [-122.217659, 47.4462776]}}, {"type": "Feature", "properties": {"id": 653691809, "name": "7-Eleven", "category": "convenience", "tags": ["convenience"], "sources": ["osm", "overture"], "website": "https://www.7-eleven.com/", "phone": "+14252516176", "address": "18010 E Valley Hwy", "hours": "24/7"}, "geometry": {"type": "Point", "coordinates": [-122.2196922, 47.4407072]}}, {"type": "Feature", "properties": {"id": 5029867182, "name": "Mary Jane's House of Glass", "category": "cannabis", "tags": ["cannabis"], "sources": ["osm"]}, "geometry": {"type": "Point", "coordinates": [-122.2187819, 47.4414888]}}, {"type": "Feature", "properties": {"id": 3725148351, "name": "Oberto Store & Deli", "category": "deli", "tags": ["deli"], "sources": ["osm"]}, "geometry": {"type": "Point", "coordinates": [-122.2193109, 47.4435096]}}, {"type": "Feature", "properties": {"id": 4137647964, "name": "Nomads Hookah Lounge", "category": "tobacco", "tags": ["tobacco"], "sources": ["osm"]}, "geometry": {"type": "Point", "coordinates": [-122.2189247, 47.44335]}}, {"type": "Feature", "properties": {"id": 4778231855, "name": "Evergreen Market", "category": "cannabis", "tags": ["cannabis"], "sources": ["osm", "overture"], "website": "https://theevergreenmarket.com/south-renton-online-menu-2/", "phone": "4253325246", "address": "4242 E Valley Rd Fl 2", "hours": "Mo-Sa 09:00-23:00; Su 09:00-21:00"}, "geometry": {"type": "Point", "coordinates": [-122.2187832, 47.4413418]}}, {"type": "Feature", "properties": {"id": "74133157-6de9-4c55-aad1-89f2c1d64343", "name": "Seattle Gold Grills", "category": "jewelry", "tags": ["jewelry"], "sources": ["overture"], "website": "http://seattlegoldgrills.com/", "phone": "+12062500833", "address": "3900 E Valley Rd"}, "geometry": {"type": "Point", "coordinates": [-122.2179337, 47.4442711]}}, {"type": "Feature", "properties": {"id": "ccf2edea-71ca-4c6e-8481-1956a28804d0", "name": "Books of the Bible Puzzle", "category": "books", "tags": ["books"], "sources": ["overture"], "website": "http://www.booksofthebiblepuzzle.com/", "phone": "+12064981386", "address": "3900 E Valley Rd #100"}, "geometry": {"type": "Point", "coordinates": [-122.2179489, 47.4442558]}}, {"type": "Feature", "properties": {"id": "951000f2-8180-4915-a59a-c9ebab174448", "name": "Northwest Gold and Diamond", "category": "jewelry", "tags": ["jewelry"], "sources": ["overture"], "website": "http://www.nwgoldanddiamond.com", "phone": "+12064593410", "address": "252 SW 43rd St"}, "geometry": {"type": "Point", "coordinates": [-122.2196274, 47.4421196]}}, {"type": "Feature", "properties": {"id": 4137647967, "name": "W.C. Acupuncture and Chiropractic", "category": "clinic", "tags": ["clinic"], "sources": ["osm"]}, "geometry": {"type": "Point", "coordinates": [-122.2189213, 47.4433936]}}, {"type": "Feature", "properties": {"id": 12219513158, "name": "Proliance Orthopedic Associates - Renton", "category": "clinic", "tags": ["clinic", "wheelchair-accessible", "wifi"], "sources": ["osm"], "phone": "+1-425-656-5060", "hours": "Mo-Fr 07:30-17:00"}, "geometry": {"type": "Point", "coordinates": [-122.2138172, 47.4438475]}}, {"type": "Feature", "properties": {"id": 485061269, "name": "Valley Medical Center", "category": "hospital", "tags": ["hospital", "emergency", "clinic", "medical"], "sources": ["osm", "overture"], "website": "http://local.elitehearingnetwork.com/renton-wi-hearing-center.html", "phone": "(206) 575-2602", "address": "4033 Talbot Rd S Ste 540", "hours": "24/7"}, "geometry": {"type": "Point", "coordinates": [-122.2138148, 47.4434502]}}, {"type": "Feature", "properties": {"id": "f1966918-d576-4977-886d-e5b3e35a316e", "name": "Valley Orthopedic Surgery Center", "category": "hospital", "tags": ["hospital"], "sources": ["overture"], "website": "http://www.valleymed.org", "phone": "+14252262041", "address": "4033 Talbot Rd S"}, "geometry": {"type": "Point", "coordinates": [-122.2147141, 47.4441605]}}, {"type": "Feature", "properties": {"id": "d99ef26c-a119-4dcc-b624-91026977be02", "name": "Valley Pediatrics", "category": "hospital", "tags": ["hospital"], "sources": ["overture"], "website": "http://danielobriendds.com", "phone": "+14252513223", "address": "3721 Talbot Rd S"}, "geometry": {"type": "Point", "coordinates": [-122.2117386, 47.4455376]}}, {"type": "Feature", "properties": {"id": "5cb7fe84-1aff-4ae0-aabd-063922fcbb3f", "name": "Lise Alexander, Md", "category": "clinic", "tags": ["clinic", "medical"], "sources": ["overture"], "phone": "+18884722633", "address": "601 S Carr Rd Ste Pacific"}, "geometry": {"type": "Point", "coordinates": [-122.2101669, 47.4413681]}}, {"type": "Feature", "properties": {"id": "c331f9b4-ad0b-4214-a5ac-d3197e43c0d0", "name": "Maxor National Pharmacy", "category": "pharmacy", "tags": ["pharmacy"], "sources": ["overture"], "phone": "14252273122", "address": "601 S Carr Rd"}, "geometry": {"type": "Point", "coordinates": [-122.2101669, 47.4413681]}}, {"type": "Feature", "properties": {"id": "8e525557-9052-45be-b362-79d6f30f6592", "name": "UW Valley Medical Center Endoscopy Center", "category": "clinic", "tags": ["clinic", "medical"], "sources": ["overture"], "address": "17820 Talbot Rd S"}, "geometry": {"type": "Point", "coordinates": [-122.2119598, 47.4422684]}}, {"type": "Feature", "properties": {"id": "b73552dc-06e4-4c47-a4ca-59b8ef64ab98", "name": "Prescription Pad Pharmacy North \u2013 Valley Medical Center", "category": "pharmacy", "tags": ["pharmacy"], "sources": ["overture"], "website": "https://www.valleymed.org", "phone": "14256903551", "address": "3915 Talbot Rd S  Ste 201"}, "geometry": {"type": "Point", "coordinates": [-122.2122421, 47.4443169]}}, {"type": "Feature", "properties": {"id": "a8b363d9-66a2-4768-8855-164a115bb41f", "name": "Valley Professional Center", "category": "clinic", "tags": ["clinic", "medical"], "sources": ["overture"], "website": "https://www.valleymed.org", "address": "3915 Talbot Rd S"}, "geometry": {"type": "Point", "coordinates": [-122.2122421, 47.4443169]}}, {"type": "Feature", "properties": {"id": "26e4f0e1-0379-4239-ba48-684c50124a13", "name": "Valley Ear Nose Throat Clinic", "category": "hospital", "tags": ["hospital"], "sources": ["overture"], "website": "http://www.valleymed.org", "phone": "+12065752602", "address": "4033 Talbot Rd S"}, "geometry": {"type": "Point", "coordinates": [-122.2144394, 47.4441833]}}, {"type": "Feature", "properties": {"id": "adaca5ac-a312-4199-8d5f-0e450b5062bd", "name": "Gastrointestinal Clinic", "category": "hospital", "tags": ["hospital"], "sources": ["overture"], "address": "4011 Talbot Rd S"}, "geometry": {"type": "Point", "coordinates": [-122.2141418, 47.4439583]}}, {"type": "Feature", "properties": {"id": "da7ade75-4318-4c3f-8655-951be7085b01", "name": "VMC Joint/Spine Center", "category": "hospital", "tags": ["hospital"], "sources": ["overture"], "website": "http://www.valleymed.org/birth", "phone": "+14252283440", "address": "400 S 43rd St"}, "geometry": {"type": "Point", "coordinates": [-122.2139282, 47.4427528]}}, {"type": "Feature", "properties": {"id": "2a04a382-4afb-4285-9f96-1e2717501622", "name": "Children First Pediatrics", "category": "hospital", "tags": ["hospital"], "sources": ["overture"], "website": "http://childrenfirstpediatricsri.com/", "phone": "+14257931100", "address": "4361 Talbot Rd S # 103"}, "geometry": {"type": "Point", "coordinates": [-122.2134399, 47.4400101]}}, {"type": "Feature", "properties": {"id": 640771575, "name": "Puget Sound Cooperative Credit Union", "category": "bank", "tags": ["bank"], "sources": ["osm"], "address": "17620 Talbot Road South"}, "geometry": {"type": "Point", "coordinates": [-122.2111825, 47.4441355]}}, {"type": "Feature", "properties": {"id": "8e94fd8b-0f50-4a56-8dc4-6baa88488ba6", "name": "Valley Fitness Center", "category": "fitness_centre", "tags": ["fitness-centre", "gym"], "sources": ["overture"], "website": "http://www.valleymed.org", "phone": "(425) 656-4006", "address": "4011 Talbot Rd S"}, "geometry": {"type": "Point", "coordinates": [-122.2139816, 47.443779]}}, {"type": "Feature", "properties": {"id": "fd5dd353-58ce-4e9d-8ef0-fd85c9c49031", "name": "The Fitness Center", "category": "fitness_centre", "tags": ["fitness-centre", "gym"], "sources": ["overture"], "website": "http://www.valleymed.org/", "phone": "+14256903520", "address": "talbot professional center, 4011 Talbot Rd S 1st Floor"}, "geometry": {"type": "Point", "coordinates": [-122.2137299, 47.443737]}}]}