{"type": "FeatureCollection", "features": [{"type": "Feature", "properties": {"id": "04470070-73bf-4ce2-b88b-4eacc5f8d6d7", "name": "Toshi's Teriyaki", "category": "restaurant", "tags": ["restaurant", "japanese"], "sources": ["overture"], "phone": "14254836318", "address": "6830 NE Bothell Way"}, "geometry": {"type": "Point", "coordinates": [-122.261673, 47.7560501]}}, {"type": "Feature", "properties": {"id": "a3584580-8778-4fa1-afeb-bc35c960fbbc", "name": "MOD Pizza", "category": "fast_food", "tags": ["fast-food", "fast", "food", "pizza"], "sources": ["overture"], "website": "https://modpizza.com/locations/lake-forest-park/", "phone": "2062047760", "address": "17171 Bothell Way NE Ste A004"}, "geometry": {"type": "Point", "coordinates": [-122.2647018, 47.7583237]}}, {"type": "Feature", "properties": {"id": 5767154600, "name": "Buddha Bruddah", "category": "restaurant", "tags": ["restaurant", "asian", "fusion"], "sources": ["osm", "overture"], "website": "https://www.buddhabruddah.com/kirkland-location", "phone": "+14258771926", "address": "6016 NE Bothell Way"}, "geometry": {"type": "Point", "coordinates": [-122.2626835, 47.7587288]}}, {"type": "Feature", "properties": {"id": 5767154603, "name": "Acapulco Fresh", "category": "cafe", "tags": ["cafe", "mexican"], "sources": ["osm"], "address": "6016 Bothell Way Northeast"}, "geometry": {"type": "Point", "coordinates": [-122.2632192, 47.7587114]}}, {"type": "Feature", "properties": {"id": "0fe0a696-9db4-4a81-89ec-6d42d857b81c", "name": "Jack in the Box", "category": "restaurant", "tags": ["restaurant", "taco", "burger", "fast-food", "mexican"], "sources": ["overture"], "website": "http://www.jackinthebox.com/locations/8426", "phone": "4254866856", "address": "6100 NE Bothell Way"}, "geometry": {"type": "Point", "coordinates": [-122.262207, 47.7584419]}}, {"type": "Feature", "properties": {"id": 403701343, "name": "Savage Moose Sports Pub", "category": "bar", "tags": ["bar", "sports"], "sources": ["osm", "overture"], "phone": "+14254868021", "address": "18018 61st Ave NE"}, "geometry": {"type": "Point", "coordinates": [-122.2613869, 47.7591219]}}, {"type": "Feature", "properties": {"id": "4a591b14-1c27-4f56-bab7-cc00fbcb2553", "name": "Acapulco Fresh Mexican Grill", "category": "restaurant", "tags": ["restaurant", "mexican", "latin-american"], "sources": ["overture"], "website": "http://fresh-inc.com", "phone": "+14254820334", "address": "6016 Bothell Way NE"}, "geometry": {"type": "Point", "coordinates": [-122.263298, 47.7586555]}}, {"type": "Feature", "properties": {"id": "7ad2cac9-e7f8-4a72-ac0d-1874558817a7", "name": "HodgePodge Cafe", "category": "restaurant", "tags": ["restaurant", "comfort-food", "comfort", "food"], "sources": ["overture"], "website": "http://www.thehodgepodgecafe.com", "phone": "(425) 949-8802", "address": "6016 NE Bothell Way"}, "geometry": {"type": "Point", "coordinates": [-122.2630386, 47.75877]}}, {"type": "Feature", "properties": {"id": "e4291636-7080-45b3-b96a-2fc0317e4899", "name": "Seatown Sweets", "category": "bakery", "tags": ["bakery"], "sources": ["overture"], "website": "seatownsweets.com", "phone": "14256059537", "address": "6830 Ne Bothell Way  Ste A"}, "geometry": {"type": "Point", "coordinates": [-122.261673, 47.7560501]}}, {"type": "Feature", "properties": {"id": "7dc45b4c-d463-4d28-bab4-37610d0271e5", "name": "Lakepointe Bar & Grill", "category": "restaurant", "tags": ["restaurant"], "sources": ["overture"], "address": "18018 61st Ave NE"}, "geometry": {"type": "Point", "coordinates": [-122.2614136, 47.7590599]}}, {"type": "Feature", "properties": {"id": 9930866932, "name": "Flume", "category": "artwork", "tags": ["artwork"], "sources": ["osm"]}, "geometry": {"type": "Point", "coordinates": [-122.2657674, 47.7577224]}}, {"type": "Feature", "properties": {"id": "acc10943-d16b-489d-9a1e-f77f245adc14", "name": "Marina Cove Condominiums", "category": "attraction", "tags": ["attraction", "landmark", "historical", "building"], "sources": ["overture"], "address": "6125 NE 175th St"}, "geometry": {"type": "Point", "coordinates": [-122.2615738, 47.7574921]}}, {"type": "Feature", "properties": {"id": 158623285, "name": "Log Boom Park", "category": "park", "tags": ["park"], "sources": ["osm"]}, "geometry": {"type": "Point", "coordinates": [-122.2659349, 47.7572474]}}, {"type": "Feature", "properties": {"id": "f75a18aa-023d-4f8e-9961-533fcd449078", "name": "Log Boom Park", "category": "park", "tags": ["park"], "sources": ["overture"], "website": "http://www.ci.kenmore.wa.us/dept/parks/Parks/tracyowen.html", "phone": "+14253988900", "address": "17415 61st Ave NE"}, "geometry": {"type": "Point", "coordinates": [-122.264328, 47.7577477]}}, {"type": "Feature", "properties": {"id": "66e2c1d8-8ba3-48d7-9330-7da6dc594ed8", "name": "Tracy Owen Station", "category": "park", "tags": ["park"], "sources": ["overture"], "website": "http://www.cityofkenmore.com/content/tracy-owen-station-log-boom-park", "phone": "+14253988900", "address": "17415 61st Ave NE"}, "geometry": {"type": "Point", "coordinates": [-122.2642288, 47.7577362]}}, {"type": "Feature", "properties": {"id": 5767154606, "name": "Uplake Grocery", "category": "convenience", "tags": ["convenience"], "sources": ["osm"], "address": "6016 Bothell Way Northeast"}, "geometry": {"type": "Point", "coordinates": [-122.2626335, 47.7588135]}}, {"type": "Feature", "properties": {"id": "b2aa552b-8c3e-4202-8b89-4a32d3e681d9", "name": "Uplake Grocery and Deli", "category": "supermarket", "tags": ["supermarket"], "sources": ["overture"], "phone": "+14253751213", "address": "6016 NE Bothell Way"}, "geometry": {"type": "Point", "coordinates": [-122.2627029, 47.7587547]}}, {"type": "Feature", "properties": {"id": "f0c7cb36-32bc-427a-b794-a571302899aa", "name": "Reign Fitness", "category": "fitness_centre", "tags": ["fitness-centre", "gym"], "sources": ["overture"], "website": "http://TrainReign.com/", "phone": "+12068171694", "address": "6134 NE Bothell Way"}, "geometry": {"type": "Point", "coordinates": [-122.2606812, 47.7585945]}}]}