{"type": "FeatureCollection", "features": [{"type": "Feature", "properties": {"id": 45778038, "name": "Starbucks", "category": "cafe", "tags": ["cafe", "coffee-shop", "takeaway", "coffee"], "sources": ["osm", "overture"], "website": "https://www.starbucks.com/store-locator/store/15232/", "phone": "+14258257372", "address": "9721 NE 119th Way"}, "geometry": {"type": "Point", "coordinates": [-122.21186, 47.7065598]}}, {"type": "Feature", "properties": {"id": 699849823, "name": "Cafe Juanita", "category": "restaurant", "tags": ["restaurant", "italian"], "sources": ["osm", "overture"], "website": "http://www.cafejuanita.com/", "phone": "+14258231505", "address": "9702 NE 120th Pl", "hours": "Tu-We 05:00-09:00; Fr-Sa 05:00-09:30"}, "geometry": {"type": "Point", "coordinates": [-122.2124295, 47.7076146]}}, {"type": "Feature", "properties": {"id": 325653936, "name": "Pagliacci Pizza", "category": "fast_food", "tags": ["fast-food", "pizza", "delivery", "restaurant", "italian"], "sources": ["osm", "overture"], "website": "http://www.pagliacci.com/", "phone": "+12067261717", "address": "11640 98th Ave NE", "hours": "Su-Th 11:00-22:00; Fr-Sa 11:00-23:00"}, "geometry": {"type": "Point", "coordinates": [-122.2100119, 47.705388]}}, {"type": "Feature", "properties": {"id": 3321144018, "name": "Top Pot Doughnuts", "category": "cafe", "tags": ["cafe", "donut", "coffee-shop"], "sources": ["osm"], "phone": "+1-425-307-1540", "address": "11701 97th Lane Northeast", "hours": "Mo-Fr 06:00-19:00; Sa 07:00-19:00; Su 07:00-18:00"}, "geometry": {"type": "Point", "coordinates": [-122.2118043, 47.7056406]}}, {"type": "Feature", "properties": {"id": 1258946564, "name": "Secret Burger", "category": "restaurant", "tags": ["restaurant", "burger", "takeaway", "delivery"], "sources": ["osm"]}, "geometry": {"type": "Point", "coordinates": [-122.2114406, 47.7067684]}}, {"type": "Feature", "properties": {"id": 1258947151, "name": "Urban Coffee Lounge", "category": "cafe", "tags": ["cafe", "coffee-shop", "coffee"], "sources": ["osm", "overture"], "website": "http://www.urbanCOFFEElounge.com/", "phone": "+14258207788", "address": "9744 NE 119th Way", "hours": "Mo-Fr 06:30-19:00; Sa,Su 07:00-18:00"}, "geometry": {"type": "Point", "coordinates": [-122.2114708, 47.7071707]}}, {"type": "Feature", "properties": {"id": 1639988283, "name": "Royal India", "category": "restaurant", "tags": ["restaurant", "indian"], "sources": ["osm"], "website": "https://royalindiaseattle.com", "phone": "+1-425-820-2303", "address": "9714 Northeast Juanita Drive"}, "geometry": {"type": "Point", "coordinates": [-122.2122541, 47.705099]}}, {"type": "Feature", "properties": {"id": 4963081907, "name": "Mongolian Grill", "category": "fast_food", "tags": ["fast-food", "mongolian-grill"], "sources": ["osm"], "website": "https://www.mongoliangrillkirkland.com/", "address": "9736 Northeast 117th Lane", "hours": "11:00-21:30"}, "geometry": {"type": "Point", "coordinates": [-122.2110986, 47.7057339]}}, {"type": "Feature", "properties": {"id": 3321144015, "name": "Jersey Mike's Subs", "category": "fast_food", "tags": ["fast-food", "sandwich", "takeaway"], "sources": ["osm"], "address": "11631 98th Avenue Northeast"}, "geometry": {"type": "Point", "coordinates": [-122.2109415, 47.7053664]}}, {"type": "Feature", "properties": {"id": 3231711963, "name": "AA Sushi", "category": "restaurant", "tags": ["restaurant", "sushi", "vegetarian", "child-friendly", "air-conditioned", "japanese", "asian"], "sources": ["osm", "overture"], "website": "http://www.aasushi.com/", "phone": "+14258217989", "address": "9730 NE 119th Way", "hours": "Mo-Su 11:00-20:00"}, "geometry": {"type": "Point", "coordinates": [-122.2117774, 47.7070245]}}, {"type": "Feature", "properties": {"id": 3231711965, "name": "Padria", "category": "restaurant", "tags": ["restaurant", "mediterranean", "persian"], "sources": ["osm"], "address": "9708 Northeast 119th Way"}, "geometry": {"type": "Point", "coordinates": [-122.2124503, 47.706611]}}, {"type": "Feature", "properties": {"id": 3231711966, "name": "Ding Tea+ & 36th Streets Vietnamese Coffee", "category": "cafe", "tags": ["cafe", "bubble-tea", "takeaway"], "sources": ["osm"], "phone": "+1-425-628-6966", "address": "9712 Northeast 119th Way", "hours": "Mo-Su 08:00-21:00"}, "geometry": {"type": "Point", "coordinates": [-122.2122723, 47.7067122]}}, {"type": "Feature", "properties": {"id": 3321144014, "name": "Oto Sushi", "category": "restaurant", "tags": ["restaurant", "sushi", "japanese", "asian"], "sources": ["osm", "overture"], "website": "http://www.otosushiusa.com/", "phone": "+14258258899", "address": "11628 97th Ln NE"}, "geometry": {"type": "Point", "coordinates": [-122.2113631, 47.7053746]}}, {"type": "Feature", "properties": {"id": 3321148495, "name": "Pochi", "category": "cafe", "tags": ["cafe", "bubble-tea"], "sources": ["osm"], "address": "11811 98th Avenue Northeast"}, "geometry": {"type": "Point", "coordinates": [-122.2107061, 47.7064072]}}, {"type": "Feature", "properties": {"id": 3321148747, "name": "Thirst Trap", "category": "bar", "tags": ["bar", "cocktails"], "sources": ["osm"], "website": "https://thirsttrapkirkland.com", "phone": "+1-425-242-0734", "address": "9749 Northeast 119th Way", "hours": "Mo-Th 16:00-23:00; Fr-Sa 16:00-23:00; Su 16:00-22:00"}, "geometry": {"type": "Point", "coordinates": [-122.2109008, 47.707094]}}, {"type": "Feature", "properties": {"id": 3321148793, "name": "Tandoori Corner", "category": "restaurant", "tags": ["restaurant", "indian", "vegetarian"], "sources": ["osm"], "address": "9733 Northeast 117th Lane"}, "geometry": {"type": "Point", "coordinates": [-122.211227, 47.7054832]}}, {"type": "Feature", "properties": {"id": 3321149393, "name": "Noppakao Thai Restaurant", "category": "restaurant", "tags": ["restaurant", "thai", "vegetarian"], "sources": ["osm"], "address": "9745 Northeast 117th Lane"}, "geometry": {"type": "Point", "coordinates": [-122.2109606, 47.7054837]}}, {"type": "Feature", "properties": {"id": 3321149394, "name": "Edible Arrangements", "category": "fast_food", "tags": ["fast-food", "gift"], "sources": ["osm"], "address": "9745 Northeast 119th Way", "hours": "Mo-Sa 09:00-19:00; 09:00-15:00"}, "geometry": {"type": "Point", "coordinates": [-122.2111094, 47.7069934]}}, {"type": "Feature", "properties": {"id": "5bd5ac0a-3fc4-41be-aec1-914e06045514", "name": "Brix Wine Cafe", "category": "bar", "tags": ["bar", "wine"], "sources": ["overture"], "website": "http://www.brixwinecafe.com/", "phone": "4252420280", "address": "9749 NE 119th Way"}, "geometry": {"type": "Point", "coordinates": [-122.2112732, 47.7070389]}}, {"type": "Feature", "properties": {"id": "f2331248-2d02-441c-ac0f-56dffe0e5113", "name": "Spud Fish & Chips", "category": "restaurant", "tags": ["restaurant", "seafood", "fish-and-chips"], "sources": ["overture"], "website": "http://spudfishandchips.com/", "phone": "+14258230607", "address": "9702 NE Juanita Dr"}, "geometry": {"type": "Point", "coordinates": [-122.2129288, 47.705307]}}, {"type": "Feature", "properties": {"id": 12697727599, "name": "Caf\u00e9 Organique", "category": "restaurant", "tags": ["restaurant", "cafe"], "sources": ["osm", "overture"], "website": "http://cafeorganique.us/", "phone": "+14252984575", "address": "11656 98th Ave NE"}, "geometry": {"type": "Point", "coordinates": [-122.2102022, 47.7055653]}}, {"type": "Feature", "properties": {"id": 45778055, "name": "Spud Fish and Chips", "category": "restaurant", "tags": ["restaurant", "seafood"], "sources": ["osm"], "website": "https://spudfishandchips.com", "address": "9702 Northeast Juanita Drive", "hours": "Tu-Sa 11:00-20:00; Su 11:00-19:00"}, "geometry": {"type": "Point", "coordinates": [-122.2128192, 47.7052968]}}, {"type": "Feature", "properties": {"id": 45778473, "name": "Kathakali", "category": "restaurant", "tags": ["restaurant", "indian"], "sources": ["osm"], "address": "11451 98th Avenue Northeast", "hours": "Tu-Th 11:00-14:00,17:00-21:00; Sa,Su 11:00-15:00,17:00-21:00"}, "geometry": {"type": "Point", "coordinates": [-122.2106857, 47.7036184]}}, {"type": "Feature", "properties": {"id": 325444155, "name": "Sparrow", "category": "restaurant", "tags": ["restaurant", "american", "breakfast", "seafood", "steak-house", "takeaway", "delivery", "has-bar"], "sources": ["osm", "overture"], "website": "https://sparrowkirkland.com/", "phone": "+14256868231", "address": "9736 NE 120th Pl", "hours": "Th-Fr 11:00-22:00; Sa 10:00-22:00; Su 10:00-21:00; Mo-We 11:00-21:00"}, "geometry": {"type": "Point", "coordinates": [-122.2113834, 47.7081589]}}, {"type": "Feature", "properties": {"id": 325460106, "name": "Midnight Cookie Co.", "category": "cafe", "tags": ["cafe", "bakery"], "sources": ["osm", "overture"], "website": "http://midnightcookieco.com", "phone": "+14255225769", "address": "9714 NE Juanita Dr Ste A", "hours": "Mo-Su 16:00-24:00"}, "geometry": {"type": "Point", "coordinates": [-122.2125228, 47.7050861]}}, {"type": "Feature", "properties": {"id": 499049963, "name": "Divinity Coffee Co.", "category": "cafe", "tags": ["cafe", "coffee-shop", "coffee", "theme"], "sources": ["osm", "overture"], "address": "11630 98th Ave NE", "hours": "Mo-Fr 06:00-14:00; Sa 06:30-14:00; Su 07:00-14:00"}, "geometry": {"type": "Point", "coordinates": [-122.2101918, 47.7045788]}}, {"type": "Feature", "properties": {"id": "ba59052c-4834-4588-9888-5546ac944eda", "name": "Jersey Mike's", "category": "restaurant", "tags": ["restaurant", "sandwich", "fast-food"], "sources": ["overture"], "website": "https://www.jerseymikes.com/18036/kirkland-wa", "phone": "+14258967421", "address": "11631 98th Avenue NE"}, "geometry": {"type": "Point", "coordinates": [-122.2108612, 47.7054024]}}, {"type": "Feature", "properties": {"id": "c3ee8c5d-c17e-41e6-acae-4275558b710b", "name": "\u83d3\u5b50\u51e6 \u7c73\u7d0d\u6d25\u5c4b \u5f25\u5f66\u795e\u793e\u99d0\u8eca\u5834\u524d\u5e97", "category": "cafe", "tags": ["cafe", "tea", "room"], "sources": ["overture"], "phone": "+81256944813", "address": "\u5f25\u5f66\u795e\u793e\u99d0\u8eca\u5834\u524d"}, "geometry": {"type": "Point", "coordinates": [-122.2111206, 47.7061806]}}, {"type": "Feature", "properties": {"id": "8831d615-9e46-40aa-bb21-70e2e1f98f59", "name": "Noppakao Thai", "category": "restaurant", "tags": ["restaurant", "thai", "asian"], "sources": ["overture"], "website": "http://noppakaothai.com/", "phone": "+14258210199", "address": "9745 NE 117th Ln"}, "geometry": {"type": "Point", "coordinates": [-122.2109604, 47.7054901]}}, {"type": "Feature", "properties": {"id": "8d2e5c0d-fc4a-410a-9d59-ed5cb3b8e2e0", "name": "Mom\u2019s Table & Shibu Ramen Kirkland", "category": "restaurant", "tags": ["restaurant", "asian", "pan"], "sources": ["overture"], "website": "https://shiburamenkirkland.com", "phone": "14252027459", "address": "9733 NE 117th Ln"}, "geometry": {"type": "Point", "coordinates": [-122.2112198, 47.7054863]}}, {"type": "Feature", "properties": {"id": "55976bc1-059a-423c-9ec6-3661c800120e", "name": "Salmon Creek", "category": "restaurant", "tags": ["restaurant"], "sources": ["overture"], "website": "http://salmoncreeksushi.com/", "phone": "(425) 821-8290", "address": "11628 97th Ln NE"}, "geometry": {"type": "Point", "coordinates": [-122.2111893, 47.7054443]}}, {"type": "Feature", "properties": {"id": "17c30eea-4a7e-4e53-be0b-4a73ad6fdc2d", "name": "Mongolian Grill Kirkland", "category": "restaurant", "tags": ["restaurant", "mongolian", "asian", "japanese"], "sources": ["overture"], "website": "http://www.mongoliangrillkirkland.com", "phone": "+14258209700", "address": "9738 NE 117th Ln Ste c"}, "geometry": {"type": "Point", "coordinates": [-122.2111511, 47.7057037]}}, {"type": "Feature", "properties": {"id": "fc42f967-e195-4392-9a00-ff52c1b007cd", "name": "Deja Moo Burger Bar", "category": "restaurant", "tags": ["restaurant"], "sources": ["overture"], "website": "http://dejamooburger.com/", "phone": "4253850299", "address": "9749 NE 119th Way"}, "geometry": {"type": "Point", "coordinates": [-122.2108841, 47.7070656]}}, {"type": "Feature", "properties": {"id": "dca5760f-0b5c-4bea-a017-f61fab6a3c71", "name": "Las Garnachas", "category": "fast_food", "tags": ["fast-food", "food", "truck", "mexican"], "sources": ["overture"], "website": "http://www.lasgarnachaskirkland.com/", "phone": "+12068538008", "address": "northeast, 11920 98th Ave NE"}, "geometry": {"type": "Point", "coordinates": [-122.2101059, 47.7072868]}}, {"type": "Feature", "properties": {"id": "ae14b4e2-a19d-4fcb-a9e0-4e2d85e8cb61", "name": "Pub At Juanita Bay", "category": "restaurant", "tags": ["restaurant"], "sources": ["overture"], "address": "9736 NE 120th Pl"}, "geometry": {"type": "Point", "coordinates": [-122.2114105, 47.7081451]}}, {"type": "Feature", "properties": {"id": "e0dfe01e-c185-45a2-bd1a-93ef55e546e7", "name": "Mezcal Grill Mexican Restaurant", "category": "restaurant", "tags": ["restaurant", "mexican"], "sources": ["overture"], "website": "https://mezcalgrill.com", "phone": "14258208448", "address": "9739 NE 119th Way"}, "geometry": {"type": "Point", "coordinates": [-122.2114029, 47.7067986]}}, {"type": "Feature", "properties": {"id": "28866ba7-6d2f-45a2-9167-d6aa628011c8", "name": "Aguayo's Restaurant Llc", "category": "restaurant", "tags": ["restaurant"], "sources": ["overture"], "website": "https://mezcalgrill.com", "address": "9739 NE 119th Way"}, "geometry": {"type": "Point", "coordinates": [-122.2114029, 47.7067986]}}, {"type": "Feature", "properties": {"id": "13d342c0-ccbd-43ad-b56f-32d622bbfae6", "name": "Ding Tea+ & 36 Streets Vietnamese Coffee", "category": "cafe", "tags": ["cafe", "coffee"], "sources": ["overture"], "website": "https://36streetsofficial.com", "phone": "+14256286988", "address": "9712 NE 119th Way"}, "geometry": {"type": "Point", "coordinates": [-122.2123413, 47.7067108]}}, {"type": "Feature", "properties": {"id": "fe777afc-2fc2-4f64-96d7-c57cfea073a6", "name": "Padria Mediterranean Cafe", "category": "restaurant", "tags": ["restaurant", "mediterranean", "middle-eastern"], "sources": ["overture"], "website": "http://padriacafe.com/", "phone": "+14258141693", "address": "9708 NE 119th Way"}, "geometry": {"type": "Point", "coordinates": [-122.2123032, 47.7065735]}}, {"type": "Feature", "properties": {"id": "f7af66c3-a1af-412c-8ec3-8877190a83ed", "name": "Mia Cafe and Wine Bar", "category": "cafe", "tags": ["cafe"], "sources": ["overture"], "website": "http://miacafeandwinebar.com/", "phone": "+14252420221", "address": "9714 Juanita Dr NE"}, "geometry": {"type": "Point", "coordinates": [-122.2122955, 47.705101]}}, {"type": "Feature", "properties": {"id": "80bf7776-b722-492f-bf5f-4840a5869012", "name": "Royal India Fine Dining & Catering", "category": "restaurant", "tags": ["restaurant", "pakistani", "asian"], "sources": ["overture"], "website": "https://www.royalindiaseattle.com/", "phone": "4258202303", "address": "9714 NE Juanita Dr"}, "geometry": {"type": "Point", "coordinates": [-122.2122345, 47.7051811]}}, {"type": "Feature", "properties": {"id": "628f1fa9-b6b1-46e4-af32-3fdba480e42a", "name": "Juanita Cantina & Grill", "category": "restaurant", "tags": ["restaurant", "mexican", "latin-american"], "sources": ["overture"], "website": "http://www.juanitacantina.com/", "phone": "+14255224393", "address": "9714 NE Juanita Dr"}, "geometry": {"type": "Point", "coordinates": [-122.2122192, 47.7052879]}}, {"type": "Feature", "properties": {"id": "3cc6a842-aeb4-420a-b9b7-f3cc551a7e65", "name": "Bungalow At Juanita Beach", "category": "bar", "tags": ["bar"], "sources": ["overture"], "website": "http://www.jbbungalow.com", "phone": "(425) 307-1214", "address": "9714 NE Juanita Dr"}, "geometry": {"type": "Point", "coordinates": [-122.2122192, 47.7053185]}}, {"type": "Feature", "properties": {"id": "87815f2a-aeaa-43a3-98f0-f2c412793b8a", "name": "Lil' Brick", "category": "cafe", "tags": ["cafe", "coffee"], "sources": ["overture"], "website": "http://www.leesbrickhouse.com/lil-brick", "phone": "(425) 559-4968", "address": "9714 NE Juanita Dr"}, "geometry": {"type": "Point", "coordinates": [-122.2122116, 47.7052078]}}, {"type": "Feature", "properties": {"id": "baf133c0-652b-4285-8169-a3f36f88b1e6", "name": "Lee's Brickhouse Pub", "category": "pub", "tags": ["pub", "burger"], "sources": ["overture"], "phone": "4258901156", "address": "9714 NE Juanita Dr"}, "geometry": {"type": "Point", "coordinates": [-122.2128601, 47.7051697]}}, {"type": "Feature", "properties": {"id": "ee0fbfad-96c2-4e41-bd8a-39d589fd80be", "name": "Mighty Mighty Llc", "category": "restaurant", "tags": ["restaurant"], "sources": ["overture"], "address": "9714 NE Juanita Dr"}, "geometry": {"type": "Point", "coordinates": [-122.2124481, 47.7052536]}}, {"type": "Feature", "properties": {"id": "2b4e79d0-9014-4185-a091-d75939601c39", "name": "Java Mama's Espresso", "category": "cafe", "tags": ["cafe", "tea", "room"], "sources": ["overture"], "phone": "4258205282", "address": "9714 NE Juanita Dr"}, "geometry": {"type": "Point", "coordinates": [-122.2124481, 47.7052536]}}, {"type": "Feature", "properties": {"id": "433c67e4-0161-4bb0-9f66-404360e76018", "name": "Kathakali An Indian Eatery", "category": "restaurant", "tags": ["restaurant", "indian", "asian"], "sources": ["overture"], "website": "http://www.kathakali-juanita.com/", "phone": "+14258218188", "address": "11451 98th Ave NE"}, "geometry": {"type": "Point", "coordinates": [-122.2106628, 47.7035446]}}, {"type": "Feature", "properties": {"id": 4787311977, "name": "Ontar", "category": "artwork", "tags": ["artwork"], "sources": ["osm"]}, "geometry": {"type": "Point", "coordinates": [-122.2107447, 47.7044316]}}, {"type": "Feature", "properties": {"id": 4787340924, "name": "Symbiosis", "category": "artwork", "tags": ["artwork"], "sources": ["osm"]}, "geometry": {"type": "Point", "coordinates": [-122.2146828, 47.7046035]}}, {"type": "Feature", "properties": {"id": "c0882df5-2df5-4189-b06b-a4a28cc707cc", "name": "Sailhouse", "category": "attraction", "tags": ["attraction", "landmark", "historical", "building"], "sources": ["overture"], "website": "https://www.sailhouseapts.com/?utm_knock=sm", "phone": "+14255374217", "address": "9740 NE 119th Way"}, "geometry": {"type": "Point", "coordinates": [-122.2118454, 47.7073898]}}, {"type": "Feature", "properties": {"id": "9d8ecc27-db91-4d13-a0c8-0800a5043aa7", "name": "Waterscape at Juanita Village", "category": "attraction", "tags": ["attraction", "landmark", "historical", "building"], "sources": ["overture"], "website": "https://www.waterscapeapts.com/", "phone": "+14258148439", "address": "11801 97th Ln NE"}, "geometry": {"type": "Point", "coordinates": [-122.2118149, 47.7061348]}}, {"type": "Feature", "properties": {"id": "4fb434ad-2a2a-4296-9226-730ee30aab7f", "name": "Chelsea at Juanita Village", "category": "attraction", "tags": ["attraction", "landmark", "historical", "building"], "sources": ["overture"], "website": "https://liveatchelseaapartments.com/?utm_knock=sm", "phone": "+14255339999", "address": "11718 97th Ln NE"}, "geometry": {"type": "Point", "coordinates": [-122.2114868, 47.7061577]}}, {"type": "Feature", "properties": {"id": "5fdfca64-bd73-43a6-be4f-fe9c217dd0d3", "name": "Juanita Village 6", "category": "attraction", "tags": ["attraction", "landmark", "historical", "building"], "sources": ["overture"], "website": "http://www.waterscapejuanita.com", "phone": "+14258232677", "address": "11718 97th Ln NE"}, "geometry": {"type": "Point", "coordinates": [-122.2113953, 47.7059479]}}, {"type": "Feature", "properties": {"id": "5cacae28-0b64-4004-8e40-1ebe007eaa06", "name": "Starboard Apartments", "category": "attraction", "tags": ["attraction", "landmark", "historical", "building"], "sources": ["overture"], "website": "https://www.starboardapts.com/?utm_knock=sm", "phone": "+14253995171", "address": "9311 NE 118th Ln"}, "geometry": {"type": "Point", "coordinates": [-122.2177124, 47.7064629]}}, {"type": "Feature", "properties": {"id": "db2ed09f-814d-456b-8312-fb15f61ce5ce", "name": "Juanita Shores Condo", "category": "attraction", "tags": ["attraction", "landmark", "historical", "building"], "sources": ["overture"], "phone": "+14252421532", "address": "9727 NE Juanita Dr"}, "geometry": {"type": "Point", "coordinates": [-122.2128754, 47.7036171]}}, {"type": "Feature", "properties": {"id": "ffd49309-cf2e-41d4-a17a-062ce3c55338", "name": "Weidner Apartment Homes", "category": "attraction", "tags": ["attraction", "landmark", "historical", "building"], "sources": ["overture"], "website": "https://www.weidner.com/home.aspx", "phone": "+14258213844", "address": "9757 NE Juanita Dr"}, "geometry": {"type": "Point", "coordinates": [-122.2117004, 47.7042542]}}, {"type": "Feature", "properties": {"id": 26802962, "name": "Juanita Beach Park", "category": "park", "tags": ["park"], "sources": ["osm", "overture"], "website": "http://www.kirklandwa.gov/depart/parks/Online_Parks_Guide/Parks_Pop-up_Main/Parks_and_Community_Services__Juanita_Beach_Park.htm", "phone": "+14255873300", "address": "9703 NE Juanita Dr", "hours": "sunrise-22:00"}, "geometry": {"type": "Point", "coordinates": [-122.2152988, 47.705185]}}, {"type": "Feature", "properties": {"id": 3321149391, "name": "Just Food For Dogs", "category": "pet", "tags": ["pet"], "sources": ["osm", "overture"], "phone": "4252985958", "address": "9743 NE 119th Way"}, "geometry": {"type": "Point", "coordinates": [-122.2111636, 47.7069637]}}, {"type": "Feature", "properties": {"id": "cf564280-2569-413e-9191-dbad938dda99", "name": "ExtraMile", "category": "convenience", "tags": ["convenience"], "sources": ["overture"], "website": "https://www.chevronextramile.com/station-finder/9800-ne-116th-street-kirkland-wa-98034-id377277", "phone": "4258238106", "address": "9800 NW 116th St"}, "geometry": {"type": "Point", "coordinates": [-122.2100067, 47.7040443]}}, {"type": "Feature", "properties": {"id": 325653967, "name": "Super 24", "category": "convenience", "tags": ["convenience"], "sources": ["osm"], "address": "11852 98th Avenue Northeast"}, "geometry": {"type": "Point", "coordinates": [-122.2100703, 47.7071714]}}, {"type": "Feature", "properties": {"id": "8157900b-b870-48d3-9607-67ff64a55202", "name": "Scoop Marketplace", "category": "supermarket", "tags": ["supermarket"], "sources": ["overture"], "website": "https://www.scoopmarketplace.com", "phone": "+12063391383", "address": "9743 NE 119th Way"}, "geometry": {"type": "Point", "coordinates": [-122.211174, 47.7069206]}}, {"type": "Feature", "properties": {"id": "f701a116-26e5-4869-b69e-ca06b6d0c3dc", "name": "Filtercorp", "category": "supermarket", "tags": ["supermarket"], "sources": ["overture"], "website": "https://www.filtrox.com", "phone": "14258204850", "address": "9805 NE 116th St"}, "geometry": {"type": "Point", "coordinates": [-122.2100296, 47.7038078]}}, {"type": "Feature", "properties": {"id": "ba9067af-5782-48f4-9fc5-cbedeff7c8d3", "name": "Brittany Flowers Of Kirkland", "category": "florist", "tags": ["florist"], "sources": ["overture"], "website": "https://brittanyflowers.com", "phone": "14258271414", "address": "9805 NE 116th St PMB 7449"}, "geometry": {"type": "Point", "coordinates": [-122.2100296, 47.7038078]}}, {"type": "Feature", "properties": {"id": 12966506170, "name": "Walgreens", "category": "pharmacy", "tags": ["pharmacy"], "sources": ["osm"], "hours": "Mo-Fr 08:00-22:00; Sa 09:00-18:00; Su 10:00-18:00"}, "geometry": {"type": "Point", "coordinates": [-122.2112677, 47.7051202]}}, {"type": "Feature", "properties": {"id": 3231711158, "name": "Eastside Spine And Wellness", "category": "clinic", "tags": ["clinic"], "sources": ["osm"]}, "geometry": {"type": "Point", "coordinates": [-122.2124937, 47.7065793]}}, {"type": "Feature", "properties": {"id": "8097ae40-a688-4b66-b71b-b574f498ebcf", "name": "Walgreens Pharmacy", "category": "pharmacy", "tags": ["pharmacy"], "sources": ["overture"], "website": "https://www.walgreens.com", "phone": "+14258258841", "address": "11607 98th Ave NE"}, "geometry": {"type": "Point", "coordinates": [-122.2110443, 47.7048531]}}, {"type": "Feature", "properties": {"id": "69ee027c-3196-4ebe-8874-fcc1bfbd63c2", "name": "Comprehensive Medical Center", "category": "clinic", "tags": ["clinic", "medical"], "sources": ["overture"], "website": "http://www.comprehensivemedicalcenter.com", "phone": "+14258238818", "address": "11656 98th Ave NE"}, "geometry": {"type": "Point", "coordinates": [-122.2102432, 47.7056122]}}, {"type": "Feature", "properties": {"id": 43410396, "name": "Bank of America", "category": "bank", "tags": ["bank", "credit", "union"], "sources": ["osm", "overture"], "website": "https://locators.bankofamerica.com/wa/kirkland/financial-centers-kirkland-12650.html", "phone": "+14258232400", "address": "11617 97th Ln NE"}, "geometry": {"type": "Point", "coordinates": [-122.2117863, 47.7050924]}}, {"type": "Feature", "properties": {"id": 3321149399, "name": "Wells Fargo", "category": "bank", "tags": ["bank"], "sources": ["osm"], "address": "9750 Northeast 117th Lane", "hours": "Mo-Fr 09:00-17:00"}, "geometry": {"type": "Point", "coordinates": [-122.2107227, 47.7057523]}}, {"type": "Feature", "properties": {"id": 4428266489, "name": "Pony Express Juanita", "category": "post_office", "tags": ["post-office"], "sources": ["osm"], "address": "9805 Northeast 116th Street", "hours": "Mo-Th 09:00-17:30; Fr 09:00-17:00; Sa 09:30-13:00"}, "geometry": {"type": "Point", "coordinates": [-122.2100518, 47.7038115]}}, {"type": "Feature", "properties": {"id": "0c9bba51-8e92-4918-a31d-b79c8e555dc3", "name": "Wells Fargo Bank", "category": "bank", "tags": ["bank", "credit", "union"], "sources": ["overture"], "website": "https://www.wellsfargo.com/locator/bank/9750__NE__117TH__LN_KIRKLAND_WA_98034/", "phone": "4258205250", "address": "9750 NE 117th Ln"}, "geometry": {"type": "Point", "coordinates": [-122.2108917, 47.7057533]}}, {"type": "Feature", "properties": {"id": 3321149400, "name": "Bala Yoga", "category": "fitness_centre", "tags": ["fitness-centre", "yoga"], "sources": ["osm"], "address": "9750 Northeast 119th Way"}, "geometry": {"type": "Point", "coordinates": [-122.2111918, 47.7072616]}}, {"type": "Feature", "properties": {"id": 3321149403, "name": "The Pursuit A lagree fitness studio", "category": "fitness_centre", "tags": ["fitness-centre"], "sources": ["osm"], "address": "9758 Northeast 119th Way"}, "geometry": {"type": "Point", "coordinates": [-122.2109056, 47.7074216]}}, {"type": "Feature", "properties": {"id": 3321149404, "name": "Bala Yoga studio B", "category": "fitness_centre", "tags": ["fitness-centre", "yoga"], "sources": ["osm"], "address": "9760 Northeast 119th Way"}, "geometry": {"type": "Point", "coordinates": [-122.2108582, 47.7074464]}}, {"type": "Feature", "properties": {"id": "2611a7e9-a04b-4790-a10b-7fe9f65f424b", "name": "Alloy Personal Training Juanita-Kirkland", "category": "fitness_centre", "tags": ["fitness-centre", "fitness", "trainer"], "sources": ["overture"], "website": "https://alloypersonaltraining.com/location/juanita-kirkland-wa", "phone": "+14256551661", "address": "11623 98th Ave NE"}, "geometry": {"type": "Point", "coordinates": [-122.2109222, 47.7053261]}}, {"type": "Feature", "properties": {"id": "516f412f-0b05-45d8-84e1-6a6bc1ebf4fd", "name": "Embody Health", "category": "fitness_centre", "tags": ["fitness-centre", "gym"], "sources": ["overture"], "website": "http://www.iembodyhealth.com", "phone": "(425) 307-1241", "address": "11803 98th Ave NE"}, "geometry": {"type": "Point", "coordinates": [-122.2107773, 47.7064171]}}, {"type": "Feature", "properties": {"id": "d8c1e026-dbe2-4b22-956d-83402a30defa", "name": "Arise Yoga Movement", "category": "fitness_centre", "tags": ["fitness-centre", "yoga", "studio"], "sources": ["overture"], "website": "http://ariseyogamovement.com/", "phone": "+12068640443", "address": "9750 NE 119th Way"}, "geometry": {"type": "Point", "coordinates": [-122.211174, 47.7072983]}}, {"type": "Feature", "properties": {"id": "c0b253ce-b384-4436-bb82-3b5b5ee6a9ad", "name": "Bala Yoga Kirkland", "category": "fitness_centre", "tags": ["fitness-centre", "yoga", "studio"], "sources": ["overture"], "website": "http://www.balayoga.com", "phone": "14258984347", "address": "9750 NE 119th Way"}, "geometry": {"type": "Point", "coordinates": [-122.2111664, 47.7073021]}}, {"type": "Feature", "properties": {"id": "c6e185a0-6b9a-4f32-84e1-94627e705d82", "name": "The Union Method", "category": "fitness_centre", "tags": ["fitness-centre", "yoga", "studio"], "sources": ["overture"], "website": "http://www.theunionmethod.com", "phone": "(425) 298-8504", "address": "9718 NE Juanita Dr"}, "geometry": {"type": "Point", "coordinates": [-122.2122192, 47.7053185]}}]}