{"type": "FeatureCollection", "features": [{"type": "Feature", "properties": {"id": 277088932, "name": "The Lighthouse", "category": "pub", "tags": ["pub"], "sources": ["osm"]}, "geometry": {"type": "Point", "coordinates": [-122.3248177, 47.4019984]}}, {"type": "Feature", "properties": {"id": 3649406313, "name": "Tea Cup", "category": "cafe", "tags": ["cafe", "tea", "asian"], "sources": ["osm", "overture"], "website": "https://www.teacupcafes.com/", "phone": "+12064292791", "address": "22309 7th Ave S #1D"}, "geometry": {"type": "Point", "coordinates": [-122.326366, 47.4014753]}}, {"type": "Feature", "properties": {"id": 5659087902, "name": "Athens Pizza & Pasta", "category": "restaurant", "tags": ["restaurant", "pizza", "italian", "greek"], "sources": ["osm", "overture"], "website": "http://athens-pizza-pasta.com/", "phone": "+12068244454", "address": "22340 Marine View Dr S"}, "geometry": {"type": "Point", "coordinates": [-122.3241662, 47.4008045]}}, {"type": "Feature", "properties": {"id": 5659087900, "name": "New Tokyo Teriyaki", "category": "restaurant", "tags": ["restaurant", "japanese", "asian"], "sources": ["osm", "overture"], "website": "http://www.menuism.com", "phone": "+12068240327", "address": "22340 Marine View Dr S"}, "geometry": {"type": "Point", "coordinates": [-122.3241644, 47.4006332]}}, {"type": "Feature", "properties": {"id": 5659087904, "name": "Waterside Bistro", "category": "restaurant", "tags": ["restaurant"], "sources": ["osm"]}, "geometry": {"type": "Point", "coordinates": [-122.3248101, 47.4016436]}}, {"type": "Feature", "properties": {"id": 5659087905, "name": "All Star Sports Bar", "category": "restaurant", "tags": ["restaurant", "american", "indoor-seating", "bar", "sports", "bar-and-grill"], "sources": ["osm", "overture"], "website": "https://www.allstardesmoines.com/", "phone": "+12062126740", "address": "22303 Marine View Dr S", "hours": "Mo-Su 11:00-02:00"}, "geometry": {"type": "Point", "coordinates": [-122.3248285, 47.401713]}}, {"type": "Feature", "properties": {"id": 5659087912, "name": "Arturo's Mexican Restaurant", "category": "restaurant", "tags": ["restaurant", "mexican", "latin-american"], "sources": ["osm", "overture"], "website": "http://arturomexicanrestaurant.com/", "phone": "+12068241155", "address": "22204 Marine View Dr S"}, "geometry": {"type": "Point", "coordinates": [-122.3242494, 47.402924]}}, {"type": "Feature", "properties": {"id": 5659087980, "name": "Fish & Chicken House", "category": "restaurant", "tags": ["restaurant", "fish-and-chips", "indian", "american", "chicken"], "sources": ["osm"], "phone": "+1-206-627-5156", "address": "21919 Marine View Drive South", "hours": "Tu-Su 10:30-15:00,16:00-21:00; Mo off"}, "geometry": {"type": "Point", "coordinates": [-122.325161, 47.4053491]}}, {"type": "Feature", "properties": {"id": 5659087993, "name": "Anchor Espresso & Lounge", "category": "bar", "tags": ["bar"], "sources": ["osm"]}, "geometry": {"type": "Point", "coordinates": [-122.3245639, 47.4056867]}}, {"type": "Feature", "properties": {"id": 5659088000, "name": "Pho Dinh Vietnamese Cuisine", "category": "restaurant", "tags": ["restaurant", "vietnamese", "indoor-seating", "wheelchair-accessible"], "sources": ["osm"], "address": "21831 Marine View Drive South"}, "geometry": {"type": "Point", "coordinates": [-122.3255597, 47.406213]}}, {"type": "Feature", "properties": {"id": 6865324085, "name": "T&D Coffee House", "category": "cafe", "tags": ["cafe", "coffee-shop"], "sources": ["osm"]}, "geometry": {"type": "Point", "coordinates": [-122.3254261, 47.4016604]}}, {"type": "Feature", "properties": {"id": 11048431230, "name": "Pizza Addict", "category": "fast_food", "tags": ["fast-food", "pizza", "outdoor-seating", "restaurant"], "sources": ["osm", "overture"], "website": "http://pizza-addict.com", "address": "21937 Marine View Dr S"}, "geometry": {"type": "Point", "coordinates": [-122.3249651, 47.4049062]}}, {"type": "Feature", "properties": {"id": 11048452134, "name": "Cubanos On Wheels", "category": "fast_food", "tags": ["fast-food", "sandwich"], "sources": ["osm"], "hours": "Mo-We closed,Th-Fr 15:00-19:30,Sa 12:00-18:00,Su 12:00-16:00"}, "geometry": {"type": "Point", "coordinates": [-122.3249503, 47.400575]}}, {"type": "Feature", "properties": {"id": "846d2323-779e-4cbd-b544-b1546729271e", "name": "MoMo's Kebab", "category": "restaurant", "tags": ["restaurant"], "sources": ["overture"], "website": "https://www.momoskebabseattle.com", "phone": "(206) 468-3516", "address": "21935 Marine View Dr S"}, "geometry": {"type": "Point", "coordinates": [-122.325058, 47.4046974]}}, {"type": "Feature", "properties": {"id": 210706262, "name": "Alberto Jr", "category": "fast_food", "tags": ["fast-food", "mexican", "outdoor-seating", "indoor-seating", "vegetarian"], "sources": ["osm"], "address": "21851 Marine View Drive South"}, "geometry": {"type": "Point", "coordinates": [-122.3253058, 47.4059514]}}, {"type": "Feature", "properties": {"id": 241077921, "name": "Des Moines Doghouse", "category": "restaurant", "tags": ["restaurant", "sausage", "hot-dog", "hot", "dog", "american"], "sources": ["osm", "overture"], "website": "http://www.thedesmoinesdoghouse.com/", "phone": "+12068241794", "address": "22302 Marine View Dr S", "hours": "Mo-Sa 11:00-18:00; Fr-Sa 23:00-02:00"}, "geometry": {"type": "Point", "coordinates": [-122.3242429, 47.4017105]}}, {"type": "Feature", "properties": {"id": 241077924, "name": "Auntie Irene's Coffee Shop", "category": "cafe", "tags": ["cafe", "coffee-shop", "sandwich", "soup", "outdoor-seating", "drive-through", "wifi", "coffee"], "sources": ["osm", "overture"], "website": "http://www.auntieirenes.com/", "phone": "+12068240249", "address": "22504 Marine View Dr S", "hours": "Mo-Fr 06:00-17:00; Sa-Su 06:30-17:00"}, "geometry": {"type": "Point", "coordinates": [-122.3239864, 47.400343]}}, {"type": "Feature", "properties": {"id": 242677631, "name": "Cloud Coffee", "category": "cafe", "tags": ["cafe", "coffee-shop", "takeaway", "coffee"], "sources": ["osm", "overture"], "phone": "+12066380702", "address": "21853 Marine View Dr S"}, "geometry": {"type": "Point", "coordinates": [-122.3251141, 47.4061841]}}, {"type": "Feature", "properties": {"id": 242761038, "name": "Des Moines Public House", "category": "restaurant", "tags": ["restaurant", "barbecue", "indoor-seating"], "sources": ["osm"], "address": "22315 Marine View Drive South", "hours": "Mo,Tu,Th,Fr,Sa 16:00-22:00,We 16:00-24:00,Su 16:00-21:00"}, "geometry": {"type": "Point", "coordinates": [-122.3249065, 47.4013423]}}, {"type": "Feature", "properties": {"id": 544280744, "name": "Kaihana Sushi & Teriyaki", "category": "restaurant", "tags": ["restaurant", "sushi"], "sources": ["osm"], "address": "21816 Marine View Drive South"}, "geometry": {"type": "Point", "coordinates": [-122.3244311, 47.4067974]}}, {"type": "Feature", "properties": {"id": 544280745, "name": "Dee Des Moines Thai Cuisine", "category": "restaurant", "tags": ["restaurant", "thai", "asian"], "sources": ["osm", "overture"], "website": "http://www.desmoinesthaicuisine.com/", "phone": "+12068781205", "address": "21630 7th Pl S"}, "geometry": {"type": "Point", "coordinates": [-122.3244135, 47.4075892]}}, {"type": "Feature", "properties": {"id": 653706711, "name": "Tuscany at Des Moines Creek", "category": "restaurant", "tags": ["restaurant", "italian"], "sources": ["osm", "overture"], "website": "http://www.cybercoupons.com/Tuscany-At-Des-Moines-Creek--Des_Moines_Washington-Home.html", "phone": "(206) 878-3855", "address": "21830 Marine View Dr S"}, "geometry": {"type": "Point", "coordinates": [-122.3242841, 47.4062708]}}, {"type": "Feature", "properties": {"id": 1022173059, "name": "The Quarterdeck", "category": "pub", "tags": ["pub"], "sources": ["osm"]}, "geometry": {"type": "Point", "coordinates": [-122.3294231, 47.4016655]}}, {"type": "Feature", "properties": {"id": "0f915dfb-de90-4bfd-9eaa-ddba5b49c66b", "name": "Quarterdeck", "category": "bar", "tags": ["bar"], "sources": ["overture"], "website": "http://www.quarterdeckdmm.com/", "phone": "+12062126573", "address": "22307 Dock Ave S"}, "geometry": {"type": "Point", "coordinates": [-122.3294296, 47.4016495]}}, {"type": "Feature", "properties": {"id": "f7f0ae04-74ad-4e48-86fa-7d79d7b20d62", "name": "Sugars Gelato", "category": "fast_food", "tags": ["fast-food", "food", "truck"], "sources": ["overture"], "website": "http://sugarsgelato.com", "phone": "(206) 940-3997", "address": "22307 Dock Ave S"}, "geometry": {"type": "Point", "coordinates": [-122.3292084, 47.4013596]}}, {"type": "Feature", "properties": {"id": "491d71f4-1605-4f1d-b698-295261bac2d8", "name": "Seungyoon Service Co", "category": "restaurant", "tags": ["restaurant"], "sources": ["overture"], "address": "22340 Marine View Dr S Ste C"}, "geometry": {"type": "Point", "coordinates": [-122.3241043, 47.4006805]}}, {"type": "Feature", "properties": {"id": "8e510af8-3719-4384-80bf-932a20229624", "name": "Kukas", "category": "cafe", "tags": ["cafe"], "sources": ["overture"], "address": "22504 Marine View Dr S"}, "geometry": {"type": "Point", "coordinates": [-122.3239594, 47.4003448]}}, {"type": "Feature", "properties": {"id": "4b73bfe2-3aac-45f5-9a30-f5f2cfaf13b0", "name": "Lighthouse Bar", "category": "bar", "tags": ["bar"], "sources": ["overture"], "website": "https://www.desmoineslighthouselounge.com", "phone": "(206) 824-4920", "address": "22239 Marine View Dr S"}, "geometry": {"type": "Point", "coordinates": [-122.3248825, 47.4020691]}}, {"type": "Feature", "properties": {"id": "28eb0e4b-bb00-4ab2-80a6-8b82bfd6fa7c", "name": "Second Love Coffee Roasters", "category": "cafe", "tags": ["cafe", "coffee"], "sources": ["overture"], "website": "http://secondlovecoffeeroasters.com/", "phone": "+12062586659", "address": "22331 Marine View Dr S"}, "geometry": {"type": "Point", "coordinates": [-122.3248215, 47.400959]}}, {"type": "Feature", "properties": {"id": "8277b3fc-d4a0-4ce2-9c8d-bc8defbfde31", "name": "Jamar\u2019s Sports Bar and Grill", "category": "bar", "tags": ["bar", "sports", "bar-and-grill", "american"], "sources": ["overture"], "website": "http://www.jamarsportsbar.com/", "phone": "+12066276068", "address": "22315 Marine View Dr S"}, "geometry": {"type": "Point", "coordinates": [-122.324913, 47.4013252]}}, {"type": "Feature", "properties": {"id": "ea83ea27-0cc5-4a8e-bc04-353d13dee24e", "name": "Dragon Gate", "category": "restaurant", "tags": ["restaurant"], "sources": ["overture"], "website": "https://dragongate.business.site/", "phone": "2068787481", "address": "22315 Marine View Dr S"}, "geometry": {"type": "Point", "coordinates": [-122.3249359, 47.4013252]}}, {"type": "Feature", "properties": {"id": "29caf75d-53b7-4c27-bd08-6f8fd4545612", "name": "Origin Vietnamese Bistro", "category": "restaurant", "tags": ["restaurant"], "sources": ["overture"], "website": "http://www.originvietnamesebistro.com/", "phone": "2065922637", "address": "727 S 223rd St"}, "geometry": {"type": "Point", "coordinates": [-122.3254089, 47.4016342]}}, {"type": "Feature", "properties": {"id": "d8df6b8f-56bc-4fd5-b14b-8dcfd52af35e", "name": "PortoVino Ristorante Italiano", "category": "restaurant", "tags": ["restaurant", "italian"], "sources": ["overture"], "website": "http://www.portovinopnw.com/", "phone": "+12064292315", "address": "727 S 223rd St"}, "geometry": {"type": "Point", "coordinates": [-122.3254242, 47.4016495]}}, {"type": "Feature", "properties": {"id": "fae524c8-5440-4de8-a063-a282ea424f8f", "name": "CreoleSoul", "category": "restaurant", "tags": ["restaurant", "cajun-and-creole", "cajun", "creole"], "sources": ["overture"], "website": "http://datcreolesoul.com/", "phone": "+12068788622", "address": "We are located in the Alley, 22341 Marine View Dr S Ste D"}, "geometry": {"type": "Point", "coordinates": [-122.3250122, 47.4006386]}}, {"type": "Feature", "properties": {"id": "a2d14986-336d-44b2-a704-11f6ac148356", "name": "The Scotch and Vine", "category": "bar", "tags": ["bar", "wine"], "sources": ["overture"], "website": "http://www.scotchandvine.com/", "phone": "2065922139", "address": "22341 Marine View Dr S"}, "geometry": {"type": "Point", "coordinates": [-122.3249054, 47.4005966]}}, {"type": "Feature", "properties": {"id": "83d7dbfc-cea2-44fd-b00d-225b962a0382", "name": "Cubanos On Wheels Food Truck And Cafe", "category": "restaurant", "tags": ["restaurant", "cuban"], "sources": ["overture"], "website": "https://cubanosonwheelsllc.com", "phone": "2533261244", "address": "22341 Marine View Dr S  Ste E"}, "geometry": {"type": "Point", "coordinates": [-122.3249054, 47.4006042]}}, {"type": "Feature", "properties": {"id": "d52e93c5-926c-40dc-8e57-e8721dd59926", "name": "Madi's", "category": "bar", "tags": ["bar"], "sources": ["overture"], "website": "http://www.madisgrill.com/", "phone": "2062126344", "address": "22341 Maine View Dr S"}, "geometry": {"type": "Point", "coordinates": [-122.3248825, 47.4006042]}}, {"type": "Feature", "properties": {"id": "432ad3bb-e4b0-400b-b7b4-c2e823195bcc", "name": "Spyro's Gyro & Etc", "category": "restaurant", "tags": ["restaurant", "greek"], "sources": ["overture"], "website": "http://www.spyrosgyrosetc.com/", "phone": "(206) 870-1699", "address": "21851 Marine View Dr S"}, "geometry": {"type": "Point", "coordinates": [-122.3253098, 47.4059639]}}, {"type": "Feature", "properties": {"id": "5ffd5ccf-e58c-4e64-8dd8-cb532d2ef366", "name": "Alberto Jr Mexican Food", "category": "restaurant", "tags": ["restaurant", "mexican", "taco", "fast-food"], "sources": ["overture"], "website": "http://Instagram.com/albertojrwa", "phone": "+12068701699", "address": "21851 Marine View Dr S"}, "geometry": {"type": "Point", "coordinates": [-122.325325, 47.4059525]}}, {"type": "Feature", "properties": {"id": "6f3586bc-deab-452a-af45-cb3cd8df8072", "name": "Pho Dinh Restaurant", "category": "restaurant", "tags": ["restaurant", "vietnamese", "asian"], "sources": ["overture"], "website": "http://www.phodinhrestaurant.com/", "phone": "+12062126553", "address": "21831 Marine View Dr S"}, "geometry": {"type": "Point", "coordinates": [-122.3254547, 47.4060287]}}, {"type": "Feature", "properties": {"id": "83cd8b7c-6250-4bb2-98ab-1d05c9937397", "name": "Thai Nana", "category": "restaurant", "tags": ["restaurant"], "sources": ["overture"], "address": "21630 7th Pl S"}, "geometry": {"type": "Point", "coordinates": [-122.3243866, 47.4075851]}}, {"type": "Feature", "properties": {"id": "50b5ad3e-0ae7-4e6e-af10-83a69a3c076a", "name": "Phra Khun Thai Bistro", "category": "restaurant", "tags": ["restaurant", "thai"], "sources": ["overture"], "website": "http://www.thaiondesmoines.weebly.com", "phone": "(206) 878-1205", "address": "21630 7th Pl S"}, "geometry": {"type": "Point", "coordinates": [-122.3243866, 47.4075432]}}, {"type": "Feature", "properties": {"id": "d45f64f8-855f-41e5-b1f8-d63b4bbfd2c2", "name": "Kaihana", "category": "restaurant", "tags": ["restaurant", "sushi"], "sources": ["overture"], "website": "https://www.kaihanasushi.com/?utm_source=bing&utm_medium=websiteurl&utm_campaign=search", "phone": "2068241776", "address": "21816 Marine View Dr S"}, "geometry": {"type": "Point", "coordinates": [-122.3244476, 47.4067841]}}, {"type": "Feature", "properties": {"id": "00a1dd58-3ea3-4f2c-b3ef-9ee13693ea7a", "name": "Crow's Nest", "category": "restaurant", "tags": ["restaurant"], "sources": ["overture"], "phone": "+12068783855", "address": "21830 Marine View Dr S"}, "geometry": {"type": "Point", "coordinates": [-122.3242722, 47.4062653]}}, {"type": "Feature", "properties": {"id": "afe85c5b-7928-4bdb-b7b9-295fd01e3f89", "name": "Anchor's Cafe", "category": "restaurant", "tags": ["restaurant"], "sources": ["overture"], "website": "https://anchorespresso.com", "address": "21904 Marine View Dr S  Ste B"}, "geometry": {"type": "Point", "coordinates": [-122.3245087, 47.4056053]}}, {"type": "Feature", "properties": {"id": "1211dbf0-0aeb-4b31-88c8-cf4ce994fcc6", "name": "Marine View Espresso", "category": "cafe", "tags": ["cafe"], "sources": ["overture"], "website": "http://marineviewespresso.net", "phone": "(206) 249-8543", "address": "21904 Marine View Dr S"}, "geometry": {"type": "Point", "coordinates": [-122.3244858, 47.405571]}}, {"type": "Feature", "properties": {"id": 5762224253, "name": "Blackfish", "category": "artwork", "tags": ["artwork"], "sources": ["osm"]}, "geometry": {"type": "Point", "coordinates": [-122.3288452, 47.4026833]}}, {"type": "Feature", "properties": {"id": 10830839179, "name": "Big Catch", "category": "artwork", "tags": ["artwork"], "sources": ["osm"]}, "geometry": {"type": "Point", "coordinates": [-122.325281, 47.4071503]}}, {"type": "Feature", "properties": {"id": 13030540231, "name": "Joy", "category": "artwork", "tags": ["artwork"], "sources": ["osm"]}, "geometry": {"type": "Point", "coordinates": [-122.329541, 47.4017998]}}, {"type": "Feature", "properties": {"id": 13030540232, "name": "Inflight", "category": "artwork", "tags": ["artwork"], "sources": ["osm"]}, "geometry": {"type": "Point", "coordinates": [-122.3295221, 47.4017715]}}, {"type": "Feature", "properties": {"id": 653706016, "name": "Des Moines Historical Society", "category": "museum", "tags": ["museum", "history"], "sources": ["osm", "overture"], "website": "http://dmhs.org/", "phone": "+12068245226", "address": "730 S 225th St", "hours": "Sa 13:00-16:00"}, "geometry": {"type": "Point", "coordinates": [-122.3253389, 47.4006174]}}, {"type": "Feature", "properties": {"id": "e3d73e1e-ce33-4705-84c7-aece28277889", "name": "Village Frame & Gallery", "category": "gallery", "tags": ["gallery", "art"], "sources": ["overture"], "website": "http://www.yelp.com/biz/village-frame-and-gallery-des-moines", "phone": "+12068243068", "address": "22507 Marine View Dr S"}, "geometry": {"type": "Point", "coordinates": [-122.324852, 47.4001427]}}, {"type": "Feature", "properties": {"id": "87e511a6-19ee-4157-a365-0262017f1e2f", "name": "South Shores Condominium", "category": "attraction", "tags": ["attraction", "landmark", "historical", "building"], "sources": ["overture"], "phone": "+12068240684", "address": "22315 6th Ave S Unit 100"}, "geometry": {"type": "Point", "coordinates": [-122.3275681, 47.4013329]}}, {"type": "Feature", "properties": {"id": "f6015d10-27b9-4af7-96ba-008f66a8f161", "name": "Villa Des Moines Apartments", "category": "attraction", "tags": ["attraction", "landmark", "historical", "building"], "sources": ["overture"], "website": "https://www.allianceapts.com/villadesmoines", "phone": "+12068245167", "address": "750 S 216th St"}, "geometry": {"type": "Point", "coordinates": [-122.3238373, 47.4085732]}}, {"type": "Feature", "properties": {"id": 25424129, "name": "Overlook I Park", "category": "park", "tags": ["park"], "sources": ["osm"], "address": "501 South 223rd Street"}, "geometry": {"type": "Point", "coordinates": [-122.3281679, 47.4017886]}}, {"type": "Feature", "properties": {"id": 25424193, "name": "Des Moines Beach Park", "category": "park", "tags": ["park"], "sources": ["osm"], "address": "22030 Cliff Avenue South"}, "geometry": {"type": "Point", "coordinates": [-122.3294698, 47.4040293]}}, {"type": "Feature", "properties": {"id": 25424896, "name": "Big Catch Plaza", "category": "park", "tags": ["park"], "sources": ["osm"], "address": "21634, 21640 Marine View Drive South"}, "geometry": {"type": "Point", "coordinates": [-122.3253678, 47.4071681]}}, {"type": "Feature", "properties": {"id": 172869451, "name": "Field House Park", "category": "park", "tags": ["park"], "sources": ["osm"]}, "geometry": {"type": "Point", "coordinates": [-122.3212003, 47.4052376]}}, {"type": "Feature", "properties": {"id": 437181883, "name": "Overlook II Park", "category": "park", "tags": ["park"], "sources": ["osm"]}, "geometry": {"type": "Point", "coordinates": [-122.3291185, 47.4028148]}}, {"type": "Feature", "properties": {"id": 544280748, "name": "Des Moines Memorial Park", "category": "park", "tags": ["park"], "sources": ["osm"]}, "geometry": {"type": "Point", "coordinates": [-122.3265851, 47.4087527]}}, {"type": "Feature", "properties": {"id": 1083836572, "name": "Sound View Park", "category": "park", "tags": ["park"], "sources": ["osm"], "address": "402 South 222nd Street"}, "geometry": {"type": "Point", "coordinates": [-122.3291462, 47.4033812]}}, {"type": "Feature", "properties": {"id": "65216f66-5f06-49f3-bdf5-a8010d23064b", "name": "Overlook I", "category": "park", "tags": ["park"], "sources": ["overture"], "website": "http://overlook-i-park.placestars.com", "address": "Overlook Park I, 22201 5th Ave S"}, "geometry": {"type": "Point", "coordinates": [-122.3285217, 47.4026985]}}, {"type": "Feature", "properties": {"id": "3b95e118-cd23-4db6-bca4-a5d8316c21fc", "name": "The Tag Zone", "category": "playground", "tags": ["playground"], "sources": ["overture"], "website": "http://www.thetagzone.com", "phone": "(206) 719-4632", "address": "605 S 223rd St"}, "geometry": {"type": "Point", "coordinates": [-122.326828, 47.4014511]}}, {"type": "Feature", "properties": {"id": 4215736445, "name": "The Vista Del Mar Bungalows", "category": "guest_house", "tags": ["guest-house"], "sources": ["osm"]}, "geometry": {"type": "Point", "coordinates": [-122.325456, 47.400291]}}, {"type": "Feature", "properties": {"id": 272578300, "name": "Marina Inn", "category": "motel", "tags": ["motel", "hotel"], "sources": ["osm", "overture"], "website": "http://www.SeattleMarinaInn.com/", "phone": "+12068249920", "address": "22300 7th Ave S"}, "geometry": {"type": "Point", "coordinates": [-122.325401, 47.4010518]}}, {"type": "Feature", "properties": {"id": 271212001, "name": "Dollar Tree", "category": "variety_store", "tags": ["variety-store", "wheelchair-accessible", "discount"], "sources": ["osm", "overture"], "website": "https://locations.dollartree.com/wa/des-moines/21815-marine-view-dr-s", "phone": "+15095887833", "address": "21815 Marine View Dr S", "hours": "Mo-Su 08:00-22:00"}, "geometry": {"type": "Point", "coordinates": [-122.3257791, 47.4066651]}}, {"type": "Feature", "properties": {"id": 3649406310, "name": "ABC Grocery", "category": "convenience", "tags": ["convenience"], "sources": ["osm"]}, "geometry": {"type": "Point", "coordinates": [-122.3263732, 47.4016524]}}, {"type": "Feature", "properties": {"id": 3649406314, "name": "The Scale Boutique", "category": "clothes", "tags": ["clothes"], "sources": ["osm"]}, "geometry": {"type": "Point", "coordinates": [-122.32636, 47.4014103]}}, {"type": "Feature", "properties": {"id": 5659087897, "name": "Marina Market & Deli", "category": "convenience", "tags": ["convenience"], "sources": ["osm"]}, "geometry": {"type": "Point", "coordinates": [-122.324908, 47.4000317]}}, {"type": "Feature", "properties": {"id": 5659087901, "name": "Smoke Vape & Toke", "category": "tobacco", "tags": ["tobacco"], "sources": ["osm"]}, "geometry": {"type": "Point", "coordinates": [-122.3241625, 47.4007245]}}, {"type": "Feature", "properties": {"id": 5659087929, "name": "Snack Shop", "category": "convenience", "tags": ["convenience"], "sources": ["osm"]}, "geometry": {"type": "Point", "coordinates": [-122.3241736, 47.4035655]}}, {"type": "Feature", "properties": {"id": 5659087960, "name": "Van Wild Home Furnishings", "category": "furniture", "tags": ["furniture"], "sources": ["osm"]}, "geometry": {"type": "Point", "coordinates": [-122.3256294, 47.4037396]}}, {"type": "Feature", "properties": {"id": 5659088006, "name": "Des Moines Smoke Shop", "category": "tobacco", "tags": ["tobacco"], "sources": ["osm", "overture"], "phone": "12068703353", "address": "21636 Marine View Dr S"}, "geometry": {"type": "Point", "coordinates": [-122.3244075, 47.4073749]}}, {"type": "Feature", "properties": {"id": 13171564574, "name": "Iris & Peony", "category": "florist", "tags": ["florist"], "sources": ["osm"], "phone": "+1-206-242-3205", "address": "22330 Backstage Alley", "hours": "Mo-Fr 09:00-18:00, Sa 10:00-16:00"}, "geometry": {"type": "Point", "coordinates": [-122.3251294, 47.4008538]}}, {"type": "Feature", "properties": {"id": 242678788, "name": "EZ Mart", "category": "convenience", "tags": ["convenience"], "sources": ["osm"], "address": "21620 Marine View Drive South"}, "geometry": {"type": "Point", "coordinates": [-122.325374, 47.4080179]}}, {"type": "Feature", "properties": {"id": 242761037, "name": "Eight - Seattle Diving Co.", "category": "sports", "tags": ["sports"], "sources": ["osm"], "address": "22311 Marine View Drive South", "hours": "Tu-Fr 12:00-18:00,Sa 10:00-17:00"}, "geometry": {"type": "Point", "coordinates": [-122.3248697, 47.4014878]}}, {"type": "Feature", "properties": {"id": 272578290, "name": "Marina Mercantile", "category": "deli", "tags": ["deli"], "sources": ["osm"], "website": "https://marinamercantile.com/", "address": "22341 Marine View Drive South", "hours": "We-Th 13:30-22:00; Fr-Sa 13:30-23:00; Su 11:00-15:00"}, "geometry": {"type": "Point", "coordinates": [-122.3248489, 47.4006396]}}, {"type": "Feature", "properties": {"id": "39548c91-9ad9-4262-b2dd-8ec7036717eb", "name": "Don Gregorio's Taco Truck", "category": "supermarket", "tags": ["supermarket"], "sources": ["overture"], "website": "http://dongregorios.co.com", "phone": "(253) 886-0043", "address": "22307 Dock Ave S"}, "geometry": {"type": "Point", "coordinates": [-122.3292007, 47.4014244]}}, {"type": "Feature", "properties": {"id": "54b8155c-4566-4d26-a306-66f07c0eacab", "name": "The Largest Landscape & Construction LLC", "category": "doityourself", "tags": ["doityourself", "building", "supply"], "sources": ["overture"], "website": "https://www.thelargestconstructionlandscaping.com", "phone": "(206) 429-1168", "address": "Service Area"}, "geometry": {"type": "Point", "coordinates": [-122.324585, 47.401886]}}, {"type": "Feature", "properties": {"id": "b43d4d78-1c0a-4af6-ad51-26375fb6ca0b", "name": "A Dog's Dream Des Moines", "category": "pet", "tags": ["pet"], "sources": ["overture"], "website": "http://adogsdreamseattle.com/", "phone": "+12063028394", "address": "22327 Marine View Dr S"}, "geometry": {"type": "Point", "coordinates": [-122.3248291, 47.4010544]}}, {"type": "Feature", "properties": {"id": "cec0bf84-28ec-40de-b9c0-81b079d5d1d9", "name": "ABC Convenience Grocery", "category": "convenience", "tags": ["convenience"], "sources": ["overture"], "phone": "+12068784144", "address": "22309 7th Ave S #1a"}, "geometry": {"type": "Point", "coordinates": [-122.3263245, 47.40168]}}, {"type": "Feature", "properties": {"id": "dc2798b9-4393-4704-b7c4-2210d8c86ed9", "name": "7th Scale Boutique", "category": "clothes", "tags": ["clothes", "womens"], "sources": ["overture"], "website": "http://www.7thscale.com", "phone": "12062126209", "address": "22309 7th Ave S  Ste 1e"}, "geometry": {"type": "Point", "coordinates": [-122.3264618, 47.401535]}}, {"type": "Feature", "properties": {"id": "ee8f2752-6c49-440c-a0d9-1b31d4c1cfd6", "name": "Biblesoft", "category": "books", "tags": ["books"], "sources": ["overture"], "website": "https://www.biblesoft.com", "phone": "+12068240682", "address": "22014 7th Ave S Ste 105"}, "geometry": {"type": "Point", "coordinates": [-122.3256607, 47.4041214]}}, {"type": "Feature", "properties": {"id": "d1437928-8201-4db4-a719-b5d6758a8dff", "name": "Kimberley's Exquisite Jewelry", "category": "jewelry", "tags": ["jewelry"], "sources": ["overture"], "phone": "2068244946", "address": "22221 7th Ave S Ste C"}, "geometry": {"type": "Point", "coordinates": [-122.3259811, 47.4026642]}}, {"type": "Feature", "properties": {"id": "0edf1be3-989d-48a5-81c8-0082cb915afe", "name": "Sister's Closet Beautique", "category": "clothes", "tags": ["clothes", "womens"], "sources": ["overture"], "address": "22024 Marine View Dr S"}, "geometry": {"type": "Point", "coordinates": [-122.3252106, 47.4049034]}}, {"type": "Feature", "properties": {"id": "13a581ca-2b4e-4ae9-b5f7-aabdcd00f4e6", "name": "Mar Bel Events Boutique", "category": "clothes", "tags": ["clothes"], "sources": ["overture"], "phone": "+12063802825", "address": "21917 Marine View Dr S"}, "geometry": {"type": "Point", "coordinates": [-122.3252335, 47.4053993]}}, {"type": "Feature", "properties": {"id": "3c64a3ea-5031-4937-a97e-726d44d5ab6b", "name": "Des Moines Florist", "category": "florist", "tags": ["florist"], "sources": ["overture"], "phone": "2068245920", "address": "721 S 219th St"}, "geometry": {"type": "Point", "coordinates": [-122.3257446, 47.4057693]}}, {"type": "Feature", "properties": {"id": 272503375, "name": "KeyBank", "category": "bank", "tags": ["bank"], "sources": ["osm"], "address": "22033 Marine View Drive South"}, "geometry": {"type": "Point", "coordinates": [-122.3250368, 47.4035662]}}, {"type": "Feature", "properties": {"id": 653706687, "name": "Wells Fargo", "category": "bank", "tags": ["bank"], "sources": ["osm"], "address": "22037 7th Avenue South"}, "geometry": {"type": "Point", "coordinates": [-122.3265367, 47.4033381]}}, {"type": "Feature", "properties": {"id": 242781232, "name": "Chase", "category": "bank", "tags": ["bank"], "sources": ["osm"], "address": "22240 Marine View Drive South", "hours": "Mo-Fr 09:00-18:00; Sa 09:00-13:00"}, "geometry": {"type": "Point", "coordinates": [-122.3242602, 47.4020821]}}, {"type": "Feature", "properties": {"id": 518378738, "name": "Anytime Fitness", "category": "fitness_centre", "tags": ["fitness-centre", "gym"], "sources": ["osm", "overture"], "website": "https://www.anytimefitness.com/locations/des-moines-washington-4796/", "phone": "+12064601212", "address": "21819 Marine View Dr S"}, "geometry": {"type": "Point", "coordinates": [-122.3257719, 47.4063457]}}, {"type": "Feature", "properties": {"id": 4405142390, "name": "Karuna Arts Yoga", "category": "fitness_centre", "tags": ["fitness-centre", "yoga"], "sources": ["osm"]}, "geometry": {"type": "Point", "coordinates": [-122.3267716, 47.401618]}}, {"type": "Feature", "properties": {"id": 5659087982, "name": "Shiva Yoga", "category": "fitness_centre", "tags": ["fitness-centre", "yoga", "studio"], "sources": ["osm", "overture"], "website": "http://www.shivayoga.love/", "phone": "+12063557193", "address": "21915 Marine View Dr S"}, "geometry": {"type": "Point", "coordinates": [-122.3251703, 47.4054851]}}, {"type": "Feature", "properties": {"id": "c2c78850-777a-4346-87dd-2d397530539e", "name": "Soundview Strength & Conditioning", "category": "fitness_centre", "tags": ["fitness-centre", "gym"], "sources": ["overture"], "website": "http://www.soundviewstrength.com/", "phone": "+12065891112", "address": "22316 6th Ave S"}, "geometry": {"type": "Point", "coordinates": [-122.3270874, 47.4012489]}}, {"type": "Feature", "properties": {"id": "4b62543b-dc2e-46d0-be7e-4d39ff18856c", "name": "Sky Yoga Llc", "category": "fitness_centre", "tags": ["fitness-centre", "yoga", "studio"], "sources": ["overture"], "website": "https://skyyoga.net", "phone": "2066183829", "address": "22021 7th Ave S  Ste 3"}, "geometry": {"type": "Point", "coordinates": [-122.3265762, 47.4037933]}}, {"type": "Feature", "properties": {"id": "216583de-fa21-4b04-a1d6-f199aaa5dc73", "name": "PLS Fitness Pilates Loft", "category": "fitness_centre", "tags": ["fitness-centre", "pilates", "studio"], "sources": ["overture"], "website": "http://www.plsfitness.com/", "phone": "+12532049673", "address": "22021 7th Ave S Suite #208"}, "geometry": {"type": "Point", "coordinates": [-122.3264465, 47.403862]}}, {"type": "Feature", "properties": {"id": "e30512c1-3ca3-4136-a69e-f52f65904602", "name": "Sukha Massage and Yoga", "category": "fitness_centre", "tags": ["fitness-centre", "yoga", "studio"], "sources": ["overture"], "website": "http://www.sukhahappens.com/", "phone": "+12064292782", "address": "22021 7th Ave S"}, "geometry": {"type": "Point", "coordinates": [-122.3263855, 47.4038734]}}, {"type": "Feature", "properties": {"id": "eb3cca42-91b5-40e7-be7a-33904353e5ac", "name": "Training Wheelz", "category": "fitness_centre", "tags": ["fitness-centre", "gym"], "sources": ["overture"], "website": "http://www.training-wheelz.com/", "phone": "+12069095659", "address": "21907 Marine View Dr S"}, "geometry": {"type": "Point", "coordinates": [-122.3252411, 47.4055328]}}]}