{"type": "FeatureCollection", "features": [{"type": "Feature", "properties": {"id": 4835794204, "name": "Chicago's Pizza With a Twist", "category": "fast_food", "tags": ["fast-food", "pizza"], "sources": ["osm"]}, "geometry": {"type": "Point", "coordinates": [-122.2598174, 47.8084413]}}, {"type": "Feature", "properties": {"id": "0034e73b-1722-40f6-a466-45a22fd76050", "name": "Pizza Twist", "category": "restaurant", "tags": ["restaurant", "pizza", "italian"], "sources": ["overture"], "website": "https://www.pizzatwist.com/locations/best-pizza-in-lynnwood-wa", "phone": "+14256163393", "address": "20925 Cypress Way"}, "geometry": {"type": "Point", "coordinates": [-122.2598114, 47.8083916]}}, {"type": "Feature", "properties": {"id": "c5c0b48c-76b4-4999-b255-2f922f4bef43", "name": "Malwa Pizza Llc", "category": "restaurant", "tags": ["restaurant"], "sources": ["overture"], "address": "20925 Cypress Way Unit 2"}, "geometry": {"type": "Point", "coordinates": [-122.2596893, 47.8083458]}}, {"type": "Feature", "properties": {"id": 242430019, "name": "Logan Park", "category": "park", "tags": ["park"], "sources": ["osm"]}, "geometry": {"type": "Point", "coordinates": [-122.2529473, 47.8082711]}}, {"type": "Feature", "properties": {"id": "25534dcb-4f69-404b-8088-56df6187671a", "name": "Logan Park Playground", "category": "playground", "tags": ["playground"], "sources": ["overture"], "website": "http://www1.co.snohomish.wa.us/Departments/Parks/Park_Information/Park_Directory/Community_Parks/Logan_Park.htm", "address": "1411 Logan Rd"}, "geometry": {"type": "Point", "coordinates": [-122.2528534, 47.8080101]}}, {"type": "Feature", "properties": {"id": 491477659, "name": "7-Eleven", "category": "convenience", "tags": ["convenience", "delivery"], "sources": ["osm", "overture"], "website": "https://www.7-eleven.com/", "phone": "+14253611754", "address": "1901 Larch Way", "hours": "Mo-Su,PH 00:00+"}, "geometry": {"type": "Point", "coordinates": [-122.2589887, 47.8084793]}}, {"type": "Feature", "properties": {"id": 8685588008, "name": "Cypress Mini Mart", "category": "convenience", "tags": ["convenience", "supermarket"], "sources": ["osm", "overture"], "website": "http://www.agr.wa.gov", "phone": "+14257750290", "address": "20925 Cypress Way", "hours": "Mo-Su 06:00-26:00"}, "geometry": {"type": "Point", "coordinates": [-122.2593875, 47.8084304]}}, {"type": "Feature", "properties": {"id": "75c50f0b-4baa-4ad5-9008-7b3f1dfbb469", "name": "Euphorium Lynnwood", "category": "cannabis", "tags": ["cannabis"], "sources": ["overture"], "website": "http://www.euphorium502.com", "phone": "14259673189", "address": "20925 Cypress Way"}, "geometry": {"type": "Point", "coordinates": [-122.2596893, 47.8083458]}}]}