{"type": "FeatureCollection", "features": [{"type": "Feature", "properties": {"id": "e049a011-ee40-4111-bb1a-26107ea0dcbc", "name": "Inscape Gallery", "category": "gallery", "tags": ["gallery", "art"], "sources": ["overture"], "website": "http://inscapegallery.org/", "address": "12300 Woodinville Redmond Rd NE"}, "geometry": {"type": "Point", "coordinates": [-122.1313324, 47.7098885]}}, {"type": "Feature", "properties": {"id": 185227446, "name": "Sixty Acres North", "category": "park", "tags": ["park"], "sources": ["osm"], "address": "15200 Northeast 116th Street"}, "geometry": {"type": "Point", "coordinates": [-122.1382953, 47.7058686]}}, {"type": "Feature", "properties": {"id": 479199365, "name": "Sixty Acres South", "category": "park", "tags": ["park"], "sources": ["osm"], "address": "15101 Northeast 116th Street"}, "geometry": {"type": "Point", "coordinates": [-122.1394687, 47.7028323]}}, {"type": "Feature", "properties": {"id": "aaf0789c-dc32-410b-b1ac-5f629237a61d", "name": "Sammamish Valley Park And Soccer Complex Redmond", "category": "park", "tags": ["park"], "sources": ["overture"], "address": "15221 NE 116th St"}, "geometry": {"type": "Point", "coordinates": [-122.1382599, 47.7039413]}}, {"type": "Feature", "properties": {"id": "b9d1286b-8d22-4eef-95d7-4b3d21743d41", "name": "Sammamish River Regional Park", "category": "park", "tags": ["park"], "sources": ["overture"], "website": "https://www.discovertheforest.org/", "phone": "+12062968687", "address": "15200 NE 116th St"}, "geometry": {"type": "Point", "coordinates": [-122.1382141, 47.7056656]}}, {"type": "Feature", "properties": {"id": "e8cc9814-d1ce-4735-923d-b8047199d452", "name": "Angelina Pilates", "category": "fitness_centre", "tags": ["fitness-centre", "pilates", "studio"], "sources": ["overture"], "website": "http://www.angelinapilates.com/", "phone": "4257531645", "address": "13219 NE 20th St Ste 203"}, "geometry": {"type": "Point", "coordinates": [-122.1319427, 47.7039642]}}]}