{"type": "FeatureCollection", "features": [{"type": "Feature", "properties": {"id": 10297474216, "name": "Birrieria La Santa", "category": "restaurant", "tags": ["restaurant", "mexican", "outdoor-seating", "takeaway"], "sources": ["osm"], "phone": "+1-206-257-0764", "address": "18205 Des Moines Memorial Drive South", "hours": "Mo-Fr 08:30-17:30"}, "geometry": {"type": "Point", "coordinates": [-122.3239159, 47.4394062]}}, {"type": "Feature", "properties": {"id": "06892b6a-9a02-4e28-bf9f-16e7573f174f", "name": "Birrieria La Santa Tacos & More", "category": "restaurant", "tags": ["restaurant", "mexican", "taco"], "sources": ["overture"], "website": "http://birrierialasanta.com/", "phone": "+12062570764", "address": "18205 Des Moines Memorial Dr S"}, "geometry": {"type": "Point", "coordinates": [-122.3240356, 47.4394493]}}, {"type": "Feature", "properties": {"id": "1722c06a-5260-44e9-88b2-51bc388c7e4b", "name": "Langskip Coffee Roasters", "category": "cafe", "tags": ["cafe", "coffee"], "sources": ["overture"], "website": "https://www.langskipcoffee.com/", "phone": "+12065884300", "address": "19111 Des Moines Memorial Dr Suite H"}, "geometry": {"type": "Point", "coordinates": [-122.3204422, 47.4320793]}}, {"type": "Feature", "properties": {"id": 542489256, "name": "Westwood Park", "category": "park", "tags": ["park"], "sources": ["osm", "overture"], "website": "https://www.desmoineswa.gov/Facilities/Facility/Details/21", "phone": "+12068706527", "address": "19213 6th Ave S"}, "geometry": {"type": "Point", "coordinates": [-122.3279262, 47.4303272]}}, {"type": "Feature", "properties": {"id": 703793732, "name": "Manhattan Park & Playfield", "category": "park", "tags": ["park"], "sources": ["osm"], "address": "18386 4th Avenue South"}, "geometry": {"type": "Point", "coordinates": [-122.328231, 47.4377621]}}, {"type": "Feature", "properties": {"id": "d28dc7d3-9088-4fb5-b457-02ecf0eb0bfc", "name": "Dpi Specialty Foods", "category": "supermarket", "tags": ["supermarket"], "sources": ["overture"], "website": "http://www.davispropertiesllc.com", "phone": "+12062420970", "address": "18900 8th Ave S"}, "geometry": {"type": "Point", "coordinates": [-122.3241806, 47.4333076]}}, {"type": "Feature", "properties": {"id": "36a6370e-1f21-4750-9c1d-8354f5ba9805", "name": "Burien Sand and Gravel", "category": "doityourself", "tags": ["doityourself", "building", "supply"], "sources": ["overture"], "website": "http://www.buriensandandgravel.com/", "phone": "+12062467000", "address": "18203 Des Moines Memorial Dr"}, "geometry": {"type": "Point", "coordinates": [-122.3243179, 47.4396286]}}]}