{"type": "FeatureCollection", "features": [{"type": "Feature", "properties": {"id": "b644aafc-17e7-4d99-bf25-3eb472ec3850", "name": "Macrina Bakery & Cafe", "category": "cafe", "tags": ["cafe"], "sources": ["overture"], "website": "https://www.macrinabakery.com/mcgraw-cafe.php", "phone": "12533958017", "address": "19215 66th Ave S"}, "geometry": {"type": "Point", "coordinates": [-122.2518692, 47.4302483]}}, {"type": "Feature", "properties": {"id": "0b163ca7-21f4-4c0f-a254-08f1e26f9c80", "name": "La Panzanella", "category": "bakery", "tags": ["bakery"], "sources": ["overture"], "website": "http://lapanzanella.com", "phone": "12069030500", "address": "18475 Olympic Ave S"}, "geometry": {"type": "Point", "coordinates": [-122.2528992, 47.4345818]}}, {"type": "Feature", "properties": {"id": "acca03b9-7109-40f1-bc8b-7ecad8adf308", "name": "Madrona Specialty Foods", "category": "bakery", "tags": ["bakery"], "sources": ["overture"], "website": "http://lapanzanella.com/", "phone": "+12069030500", "address": "18621 Olympic Ave S"}, "geometry": {"type": "Point", "coordinates": [-122.2526016, 47.4345093]}}, {"type": "Feature", "properties": {"id": "ca0c432a-155e-4a1a-8d2c-89e3d360e3b2", "name": "Bakery Chef", "category": "bakery", "tags": ["bakery"], "sources": ["overture"], "phone": "+14252912000", "address": "6320 S 190th St"}, "geometry": {"type": "Point", "coordinates": [-122.2543182, 47.4325142]}}, {"type": "Feature", "properties": {"id": 26227562, "name": "Briscoe Park", "category": "park", "tags": ["park"], "sources": ["osm"], "website": "https://www.kentwa.gov/departments/kent-parks/parks-places/parks-trails/briscoe-park", "phone": "+1-253-856-5000", "address": "1901 62nd Avenue South", "hours": "dawn-dusk"}, "geometry": {"type": "Point", "coordinates": [-122.2593631, 47.4334224]}}, {"type": "Feature", "properties": {"id": "53c3d6ae-579f-4854-a963-6e388a42b5be", "name": "Grainger Industrial Supply", "category": "hardware", "tags": ["hardware"], "sources": ["overture"], "website": "https://www.grainger.com", "phone": "18004724643", "address": "6725 S Todd Blvd"}, "geometry": {"type": "Point", "coordinates": [-122.2510681, 47.4357681]}}, {"type": "Feature", "properties": {"id": "66e12924-0bfc-4b12-82b6-1800e9dfb980", "name": "Seattle Gourmet Foods", "category": "supermarket", "tags": ["supermarket"], "sources": ["overture"], "website": "https://www.seattlegourmetfoods.com/", "phone": "+14256569076", "address": "18200 Segale Park Drive B"}, "geometry": {"type": "Point", "coordinates": [-122.2574921, 47.4386292]}}, {"type": "Feature", "properties": {"id": "33097a85-59a1-4268-b431-74748b5dff59", "name": "Winroc", "category": "doityourself", "tags": ["doityourself", "building", "supply"], "sources": ["overture"], "website": "winroc.com", "phone": "12538720800", "address": "18270 Segale Park Drive B"}, "geometry": {"type": "Point", "coordinates": [-122.2569885, 47.4380379]}}, {"type": "Feature", "properties": {"id": "20d1488b-baa0-40ca-bdc5-e6b95491b875", "name": "Therm-All", "category": "doityourself", "tags": ["doityourself", "building", "supply"], "sources": ["overture"], "website": "https://therm-all.com/", "phone": "2538724100", "address": "18300 Segale Park Drive B"}, "geometry": {"type": "Point", "coordinates": [-122.2582474, 47.4374657]}}, {"type": "Feature", "properties": {"id": "9fd65248-0622-48d6-b453-4316bbd6b4bb", "name": "Pacific Lighting Systems", "category": "doityourself", "tags": ["doityourself", "home", "improvement"], "sources": ["overture"], "website": "http://www.plswa.com", "phone": "(206) 436-8800", "address": "6004 S 190th St Ste 203"}, "geometry": {"type": "Point", "coordinates": [-122.2584229, 47.4323959]}}, {"type": "Feature", "properties": {"id": "631fe7d8-9e34-400e-b523-02075f2ff644", "name": "Greenington LLC", "category": "furniture", "tags": ["furniture"], "sources": ["overture"], "website": "http://www.greenington.com/", "phone": "+12538675460", "address": "6540 S Glacier St"}, "geometry": {"type": "Point", "coordinates": [-122.2541656, 47.4349174]}}, {"type": "Feature", "properties": {"id": "ed86f565-82ac-4336-b61a-c8b1e13b0b5f", "name": "Rainier Shade", "category": "hardware", "tags": ["hardware"], "sources": ["overture"], "website": "http://www.rainiershade.com/", "phone": "+14253727766", "address": "18375 Olympic Ave S"}, "geometry": {"type": "Point", "coordinates": [-122.2525558, 47.4368095]}}, {"type": "Feature", "properties": {"id": "ae3786f1-6e01-43a9-95ac-b02340c58ffe", "name": "Alside", "category": "doityourself", "tags": ["doityourself", "building", "supply"], "sources": ["overture"], "website": "https://www.alside.com/", "phone": "4252919161", "address": "6701 S Glacier St"}, "geometry": {"type": "Point", "coordinates": [-122.2507553, 47.4338379]}}, {"type": "Feature", "properties": {"id": "91beb4f6-c880-444d-8883-46bf60c73561", "name": "Discount Direct Liquidation Outlet", "category": "variety_store", "tags": ["variety-store", "discount"], "sources": ["overture"], "website": "https://discountdirectoutlet.com/", "phone": "+14256562890", "address": "18340 Olympic Ave S"}, "geometry": {"type": "Point", "coordinates": [-122.2507172, 47.4381027]}}]}