{"type": "FeatureCollection", "features": [{"type": "Feature", "properties": {"id": "735b93f6-0509-4cc6-afc6-b30697f3da1b", "name": "Subway", "category": "restaurant", "tags": ["restaurant", "sandwich", "fast-food"], "sources": ["overture"], "website": "http://www.subway.com", "phone": "+14252609786"}, "geometry": {"type": "Point", "coordinates": [-122.1885986, 47.7056732]}}, {"type": "Feature", "properties": {"id": 5231664665, "name": "Starbucks", "category": "cafe", "tags": ["cafe", "coffee-shop", "takeaway"], "sources": ["osm"], "website": "https://www.starbucks.com/store-locator/store/63080/fred-meyer-kirkland-391-12221-120th-ave-ne-kirkland-wa-980346905-us", "phone": "+1-425-820-3200", "address": "12221 120th Avenue Northeast"}, "geometry": {"type": "Point", "coordinates": [-122.1837945, 47.7081029]}}, {"type": "Feature", "properties": {"id": 3325938669, "name": "Jimmy John's", "category": "fast_food", "tags": ["fast-food", "sandwich", "takeaway", "delivery", "restaurant"], "sources": ["osm", "overture"], "website": "https://locations.jimmyjohns.com/wa/kirkland/sandwiches-1856.html", "phone": "+14255808800", "address": "12305 120th Ave Ne Ste. E", "hours": "Mo-Su 11:00-21:00"}, "geometry": {"type": "Point", "coordinates": [-122.1850293, 47.7090757]}}, {"type": "Feature", "properties": {"id": "f60a025e-f7c7-47aa-8017-5c267e363849", "name": "Papa Murphy's", "category": "restaurant", "tags": ["restaurant", "pizza"], "sources": ["overture"], "website": "http://www.papamurphys.com", "phone": "(425) 825-7272", "address": "12231 120th Ave NE"}, "geometry": {"type": "Point", "coordinates": [-122.1842575, 47.7077522]}}, {"type": "Feature", "properties": {"id": 3325938666, "name": "Spicy Talk Bistro", "category": "restaurant", "tags": ["restaurant", "chinese", "sichuan", "asian"], "sources": ["osm", "overture"], "website": "http://www.spicytalkbistro.com", "phone": "+14258218898", "address": "12305 120th Ave NE"}, "geometry": {"type": "Point", "coordinates": [-122.185093, 47.7088394]}}, {"type": "Feature", "properties": {"id": 3325938671, "name": "The Box and Burgers Eatery", "category": "restaurant", "tags": ["restaurant", "burger", "asian", "american"], "sources": ["osm", "overture"], "website": "http://www.theboxonwheels.com/", "phone": "+14258210777", "address": "12305 120th Ave NE # C", "hours": "Mo 17:00-20:00; Tu-Sa 11:00-20:00"}, "geometry": {"type": "Point", "coordinates": [-122.1851058, 47.7091886]}}, {"type": "Feature", "properties": {"id": "6f0b3a63-8af2-42ff-8ca9-0ef67b8b1602", "name": "Joe's Burgers", "category": "restaurant", "tags": ["restaurant", "burger"], "sources": ["overture"], "website": "https://www.joesburgers.com", "phone": "14255760003", "address": "11910 NE Village Plz"}, "geometry": {"type": "Point", "coordinates": [-122.1821823, 47.7046127]}}, {"type": "Feature", "properties": {"id": "b397ae31-a7e3-4cea-8cc4-b23a68b8a856", "name": "Starbucks Coffee Company", "category": "cafe", "tags": ["cafe", "coffee"], "sources": ["overture"], "website": "https://www.starbucks.com/store-locator/store/63080", "phone": "+14258203200", "address": "12221 120th Ave NE"}, "geometry": {"type": "Point", "coordinates": [-122.1838226, 47.7079964]}}, {"type": "Feature", "properties": {"id": "5c4dc8bb-f3d0-40ed-8784-7bbeda418ed8", "name": "Pinckney Cookie Cafe", "category": "bakery", "tags": ["bakery"], "sources": ["overture"], "website": "http://www.lovethesecookies.com/", "phone": "+14252839993", "address": "11251 120th Ave NE"}, "geometry": {"type": "Point", "coordinates": [-122.1818085, 47.7012558]}}, {"type": "Feature", "properties": {"id": "4da1de47-b6eb-4020-a9b2-9b45e50a0206", "name": "Nasai Teriyaki - Totem Lake", "category": "restaurant", "tags": ["restaurant", "thai"], "sources": ["overture"], "website": "http://nasaiteriyaki.com", "phone": "42582578448", "address": "12237 120th Ave NE"}, "geometry": {"type": "Point", "coordinates": [-122.1839905, 47.7085304]}}, {"type": "Feature", "properties": {"id": "f90c1f6f-ce94-44e3-a171-b1f34344939d", "name": "Northern Dumpling House", "category": "restaurant", "tags": ["restaurant", "chinese", "dim-sum", "fast-food"], "sources": ["overture"], "website": "https://northern-dumpling-house.business.site/", "phone": "+12068546688", "address": "11251 120th Ave NE"}, "geometry": {"type": "Point", "coordinates": [-122.1815033, 47.7014084]}}, {"type": "Feature", "properties": {"id": "8304f8ea-2dcd-4ca3-9bc9-f17f5b0df5d8", "name": "Juliana Bakery", "category": "bakery", "tags": ["bakery"], "sources": ["overture"], "website": "https://bit.ly/2Y9q5kX", "phone": "+14252235893", "address": "11251 120th Ave NE"}, "geometry": {"type": "Point", "coordinates": [-122.1818771, 47.7012253]}}, {"type": "Feature", "properties": {"id": 4787340925, "name": "Crane in its Vigilance", "category": "artwork", "tags": ["artwork"], "sources": ["osm"]}, "geometry": {"type": "Point", "coordinates": [-122.1847605, 47.7066967]}}, {"type": "Feature", "properties": {"id": "da392912-9ffe-40d5-b161-1d92990c4557", "name": "The Bridges", "category": "attraction", "tags": ["attraction", "landmark", "historical", "building"], "sources": ["overture"], "website": "https://www.thebridgeskirkland.com/", "phone": "+14252054005", "address": "11431 NE 116th St"}, "geometry": {"type": "Point", "coordinates": [-122.1884689, 47.7027664]}}, {"type": "Feature", "properties": {"id": "90109341-0027-46d0-83cf-2008e1e41e89", "name": "Windsor Totem Lake Apartments", "category": "attraction", "tags": ["attraction", "landmark", "historical", "building"], "sources": ["overture"], "website": "https://www.windsortotemlake.com/?utm_campaign=facebook.com", "phone": "+13603221676", "address": "11723 NE 117th Ct"}, "geometry": {"type": "Point", "coordinates": [-122.1843109, 47.7051201]}}, {"type": "Feature", "properties": {"id": 31884070, "name": "Fred Meyer", "category": "supermarket", "tags": ["supermarket"], "sources": ["osm", "overture"], "website": "https://www.fredmeyer.com/stores/grocery/wa/kirkland/fred-meyer-kirkland/701/00391?cid=loc_70100391_fb", "phone": "+14258203200", "address": "12221 120th Ave NE", "hours": "07:00-23:00"}, "geometry": {"type": "Point", "coordinates": [-122.1840868, 47.7077022]}}, {"type": "Feature", "properties": {"id": 3339250830, "name": "Hy Kitchen Cabinet & Stone", "category": "furniture", "tags": ["furniture"], "sources": ["osm"], "website": "https://hykitchen.com", "address": "11251 120th Avenue Northeast"}, "geometry": {"type": "Point", "coordinates": [-122.1815919, 47.7014314]}}, {"type": "Feature", "properties": {"id": 3339250833, "name": "Acadia Craft", "category": "furniture", "tags": ["furniture"], "sources": ["osm"], "website": "https://acadiacraft.com", "address": "11251 120th Avenue Northeast"}, "geometry": {"type": "Point", "coordinates": [-122.1816021, 47.7013212]}}, {"type": "Feature", "properties": {"id": 3339250842, "name": "RSD - Refrigeration Supplies Distributor", "category": "hardware", "tags": ["hardware"], "sources": ["osm"], "website": "https://www.rsd.net", "address": "11251 120th Avenue Northeast"}, "geometry": {"type": "Point", "coordinates": [-122.1817123, 47.7006626]}}, {"type": "Feature", "properties": {"id": 3339250844, "name": "Power Equipment Services", "category": "hardware", "tags": ["hardware"], "sources": ["osm"], "address": "11332 120th Avenue Northeast"}, "geometry": {"type": "Point", "coordinates": [-122.1808397, 47.7017774]}}, {"type": "Feature", "properties": {"id": "652862eb-0037-48df-a0db-77cec300ce2e", "name": "Fred Meyer Jewelers", "category": "jewelry", "tags": ["jewelry"], "sources": ["overture"], "website": "https://www.fredmeyerjewelers.com", "phone": "14258203215", "address": "12221 120th Ave NE"}, "geometry": {"type": "Point", "coordinates": [-122.1842117, 47.7083588]}}, {"type": "Feature", "properties": {"id": 161678108, "name": "Dunn Lumber", "category": "hardware", "tags": ["hardware"], "sources": ["osm", "overture"], "website": "https://www.dunnlumber.com", "phone": "+14258234455", "address": "11835 120th Ave NE", "hours": "Mo-Fr 07:00-18:00; Sa 08:00-17:00"}, "geometry": {"type": "Point", "coordinates": [-122.182284, 47.7067733]}}, {"type": "Feature", "properties": {"id": "5a131f62-9964-402d-a67c-b282e02ac01c", "name": "Cricket Wireless Authorized Retailer", "category": "mobile_phone", "tags": ["mobile-phone", "mobile"], "sources": ["overture"], "website": "https://www.att.com", "address": "12221 120th Ave NE"}, "geometry": {"type": "Point", "coordinates": [-122.1842117, 47.7083588]}}, {"type": "Feature", "properties": {"id": "e29b4835-e8e8-43a6-904f-91101a086422", "name": "Miller Paint", "category": "hardware", "tags": ["hardware"], "sources": ["overture"], "website": "http://www.millerpaint.com/", "phone": "+14258226092", "address": "11730 118th Ave NE"}, "geometry": {"type": "Point", "coordinates": [-122.1836624, 47.7059288]}}, {"type": "Feature", "properties": {"id": "47ddd941-734e-4ec0-b1d5-0908ae11fc37", "name": "Evergreen Building Products", "category": "doityourself", "tags": ["doityourself", "building", "supply"], "sources": ["overture"], "website": "https://www.bankevergreenpark.com", "phone": "+14258286121", "address": "11609 NE 116th St"}, "geometry": {"type": "Point", "coordinates": [-122.1856232, 47.7033119]}}, {"type": "Feature", "properties": {"id": "478e4c86-8ac7-4c13-936c-4ebace95a78a", "name": "Pacific Nail and Staple", "category": "hardware", "tags": ["hardware"], "sources": ["overture"], "website": "http://www.pacificnail.com/", "phone": "+14258286694", "address": "11332 120th Ave NE"}, "geometry": {"type": "Point", "coordinates": [-122.1805954, 47.7018356]}}, {"type": "Feature", "properties": {"id": "1b263e98-3e83-44fe-83db-9fdf54c210b3", "name": "The Panzer Depot", "category": "gift", "tags": ["gift"], "sources": ["overture"], "website": "http://www.thepanzerdepot.com/", "phone": "+14258238201", "address": "11232 120th Ave NE"}, "geometry": {"type": "Point", "coordinates": [-122.180687, 47.7013512]}}, {"type": "Feature", "properties": {"id": 3325938673, "name": "Prime Spine", "category": "clinic", "tags": ["clinic"], "sources": ["osm"], "website": "https://www.primespines.com/", "address": "12305 120th Avenue Northeast"}, "geometry": {"type": "Point", "coordinates": [-122.185177, 47.70929]}}, {"type": "Feature", "properties": {"id": 6154431775, "name": "Fred Meyer Pharmacy", "category": "pharmacy", "tags": ["pharmacy"], "sources": ["osm", "overture"], "website": "https://www.fredmeyer.com/rx/pharmacy/details/701/00391?cid=loc_70100391P_fb", "phone": "+14258203233", "address": "12221 120th Ave NE", "hours": "Mo-Fr 09:00-13:00,13:30-20:00; Sa 09:00-13:00,13:30-18:00; Su 10:00-13:00,13:30-17:00"}, "geometry": {"type": "Point", "coordinates": [-122.1841154, 47.7085209]}}, {"type": "Feature", "properties": {"id": "0200e754-59da-4837-913b-27d70f1d755b", "name": "Visiting Angels Eastside", "category": "clinic", "tags": ["clinic", "medical"], "sources": ["overture"], "website": "http://www.visitingangels.com/kirkland/home", "phone": "(425) 828-4500", "address": "12015 115th Avenue Northeast Bldg E #105"}, "geometry": {"type": "Point", "coordinates": [-122.1885452, 47.707859]}}, {"type": "Feature", "properties": {"id": "087bc737-93ab-49b8-8d1f-1d482c586859", "name": "Longevity Medical Clinic", "category": "clinic", "tags": ["clinic", "medical"], "sources": ["overture"], "website": "http://www.longevitymedicalclinic.com/", "phone": "+14255769272", "address": "11335 NE 122nd Way #250"}, "geometry": {"type": "Point", "coordinates": [-122.1893768, 47.7087517]}}, {"type": "Feature", "properties": {"id": "be49ffa5-f7e6-45a6-8b7c-cb1f120fb492", "name": "Bank of America ATM", "category": "bank", "tags": ["bank", "credit", "union"], "sources": ["overture"], "phone": "8004426680", "address": "11831 120th Ave NE"}, "geometry": {"type": "Point", "coordinates": [-122.1839828, 47.7065659]}}, {"type": "Feature", "properties": {"id": 9708031188, "name": "Pump It Up", "category": "sports_centre", "tags": ["sports-centre"], "sources": ["osm"], "website": "https://www.pumpitupparty.com/kirkland-wa/", "phone": "+1-425-820-2297"}, "geometry": {"type": "Point", "coordinates": [-122.185844, 47.7037006]}}, {"type": "Feature", "properties": {"id": "0ba687aa-c20e-47ed-9459-c2e84f70c50c", "name": "Eastside Basketball Club", "category": "sports_centre", "tags": ["sports-centre", "sports", "club", "league"], "sources": ["overture"], "website": "https://www.eastsidebasketballclub.org", "phone": "4258618800", "address": "11611 NE 116th St"}, "geometry": {"type": "Point", "coordinates": [-122.1855469, 47.7030182]}}, {"type": "Feature", "properties": {"id": "85d0a257-95ba-4e58-b53b-d0de14ecbc6e", "name": "Skyfit Kirkland", "category": "fitness_centre", "tags": ["fitness-centre", "gym"], "sources": ["overture"], "website": "http://www.skymaniatrampolines.com/pageSports", "phone": "+14258257599", "address": "11801 NE 116th St"}, "geometry": {"type": "Point", "coordinates": [-122.1846924, 47.7033195]}}, {"type": "Feature", "properties": {"id": "48eb28a7-108a-43ac-b816-d51f5f81f6a5", "name": "Livewell Usa Llc", "category": "fitness_centre", "tags": ["fitness-centre", "fitness", "trainer"], "sources": ["overture"], "website": "http://www.livewellusa.com", "phone": "12067349355", "address": "12305 120th Ave NE"}, "geometry": {"type": "Point", "coordinates": [-122.1852417, 47.7086868]}}, {"type": "Feature", "properties": {"id": "7fe9810c-6e7d-4cf4-b94d-36b53d5f98a2", "name": "Brad Peterson Baseball Academy", "category": "fitness_centre", "tags": ["fitness-centre", "fitness", "trainer"], "sources": ["overture"], "website": "http://www.bradpetersonbaseball.com", "phone": "+14258020638", "address": "11836 NE 112th St"}, "geometry": {"type": "Point", "coordinates": [-122.1831284, 47.7026329]}}]}