{"type": "FeatureCollection", "features": [{"type": "Feature", "properties": {"id": 1730897392, "name": "Subway", "category": "fast_food", "tags": ["fast-food", "sandwich", "takeaway", "restaurant"], "sources": ["osm", "overture"], "website": "https://www.subway.com", "phone": "2063255632", "address": "2240 Eastlake Ave E", "hours": "Mo-Fr 09:00-19:00; Sa-Su 10:00-19:00"}, "geometry": {"type": "Point", "coordinates": [-122.325516, 47.6394411]}}, {"type": "Feature", "properties": {"id": 1730897401, "name": "14 Carrot Cafe", "category": "restaurant", "tags": ["restaurant", "wheelchair-accessible", "cafe", "breakfast-and-brunch", "american"], "sources": ["osm", "overture"], "website": "http://14carrotcafe.com", "phone": "+12063241442", "address": "2305 Eastlake Ave E"}, "geometry": {"type": "Point", "coordinates": [-122.3260931, 47.6399433]}}, {"type": "Feature", "properties": {"id": 1730897404, "name": "Eastlake Zoo Tavern", "category": "bar", "tags": ["bar", "dive"], "sources": ["osm", "overture"], "website": "http://www.eastlakezoo.com/", "phone": "+12063293277", "address": "2301 Eastlake Ave E", "hours": "Mo-Su 14:00-02:00"}, "geometry": {"type": "Point", "coordinates": [-122.3260998, 47.6398557]}}, {"type": "Feature", "properties": {"id": 1735751039, "name": "Serafina", "category": "restaurant", "tags": ["restaurant", "italian"], "sources": ["osm", "overture"], "website": "http://serafinaseattle.com/", "phone": "+12063230807", "address": "2043 Eastlake Ave E", "hours": "Mo-Su 17:00-23:30"}, "geometry": {"type": "Point", "coordinates": [-122.326077, 47.6380666]}}, {"type": "Feature", "properties": {"id": 1735751042, "name": "Son of a Butcher", "category": "restaurant", "tags": ["restaurant", "korean", "barbecue", "asian"], "sources": ["osm", "overture"], "website": "http://www.sobseattle.com", "phone": "+12069466574", "address": "2236 Eastlake Ave E"}, "geometry": {"type": "Point", "coordinates": [-122.325512, 47.6393506]}}, {"type": "Feature", "properties": {"id": 1735751044, "name": "Eastlake Coffee & Cafe", "category": "cafe", "tags": ["cafe", "coffee-shop", "wheelchair-accessible", "wifi", "coffee"], "sources": ["osm", "overture"], "website": "http://eastlake-coffee.com/", "phone": "+12063242778", "address": "2245 Eastlake Ave E", "hours": "Mo-Fr 06:00-17:00; Sa-Su 07:00-17:00"}, "geometry": {"type": "Point", "coordinates": [-122.326075, 47.6396282]}}, {"type": "Feature", "properties": {"id": 2323780969, "name": "Cicchetti", "category": "restaurant", "tags": ["restaurant", "mediterranean"], "sources": ["osm", "overture"], "website": "http://www.cicchettiseattle.com/", "phone": "+12068594155", "address": "121 E Boston St", "hours": "Mo-Su 17:00-24:00; Tu-Th 17:00-23:00"}, "geometry": {"type": "Point", "coordinates": [-122.3261136, 47.6381408]}}, {"type": "Feature", "properties": {"id": "96eb527a-4e43-4090-86a2-75fdddd48e3c", "name": "Voxx Coffee", "category": "cafe", "tags": ["cafe", "coffee"], "sources": ["overture"], "website": "http://voxxseattle.com", "phone": "(206) 324-2778", "address": "2245 Eastlake Ave E"}, "geometry": {"type": "Point", "coordinates": [-122.3259735, 47.6396675]}}, {"type": "Feature", "properties": {"id": 5680765222, "name": "Moriyama", "category": "restaurant", "tags": ["restaurant", "sushi"], "sources": ["osm"], "address": "1823 Eastlake Avenue East"}, "geometry": {"type": "Point", "coordinates": [-122.3257894, 47.6357623]}}, {"type": "Feature", "properties": {"id": 5818837557, "name": "Le Messe", "category": "restaurant", "tags": ["restaurant", "pasta"], "sources": ["osm"], "address": "1903 Yale Place East"}, "geometry": {"type": "Point", "coordinates": [-122.3262636, 47.6362365]}}, {"type": "Feature", "properties": {"id": 9161445227, "name": "Armistice", "category": "cafe", "tags": ["cafe", "coffee-shop"], "sources": ["osm"], "address": "2201 Eastlake Avenue East"}, "geometry": {"type": "Point", "coordinates": [-122.3261181, 47.6384288]}}, {"type": "Feature", "properties": {"id": 11637192225, "name": "C\u1ecf May b\u00e1nh m\u00ec & tea", "category": "cafe", "tags": ["cafe", "bubble-tea", "sandwich", "vietnamese"], "sources": ["osm"], "website": "https://www.comaybistro.com/", "phone": "+1-206-259-8983", "address": "1823 Eastlake Avenue East"}, "geometry": {"type": "Point", "coordinates": [-122.3255865, 47.6353221]}}, {"type": "Feature", "properties": {"id": 13270742943, "name": "Otherside Market & Deli", "category": "fast_food", "tags": ["fast-food", "sandwich"], "sources": ["osm"]}, "geometry": {"type": "Point", "coordinates": [-122.3256914, 47.638536]}}, {"type": "Feature", "properties": {"id": 13545147780, "name": "Yoksod", "category": "restaurant", "tags": ["restaurant", "thai"], "sources": ["osm"], "phone": "+1-206-420-3134", "address": "1903 Yale Place East"}, "geometry": {"type": "Point", "coordinates": [-122.3259919, 47.6359165]}}, {"type": "Feature", "properties": {"id": 13545147783, "name": "Siam", "category": "restaurant", "tags": ["restaurant", "thai"], "sources": ["osm"]}, "geometry": {"type": "Point", "coordinates": [-122.3256001, 47.6347192]}}, {"type": "Feature", "properties": {"id": "43c1c453-feb2-4a70-85ab-e0cad4781efb", "name": "Azteca Mexican Restaurant", "category": "restaurant", "tags": ["restaurant", "mexican"], "sources": ["overture"], "website": "http://www.aztecamex.com/", "phone": "(206) 324-4941", "address": "1823 Eastlake Ave E"}, "geometry": {"type": "Point", "coordinates": [-122.3257828, 47.6356506]}}, {"type": "Feature", "properties": {"id": "784dfdd3-a95a-4d13-8b9b-fc9c69693c61", "name": "Grand Central Bakery", "category": "bakery", "tags": ["bakery"], "sources": ["overture"], "website": "http://grandcentralbakery.com/", "phone": "(206) 957-9505", "address": "1616 Eastlake Ave E"}, "geometry": {"type": "Point", "coordinates": [-122.3251419, 47.634491]}}, {"type": "Feature", "properties": {"id": "048a1627-5fdb-4511-9664-05318a2ad921", "name": "Lucerna", "category": "restaurant", "tags": ["restaurant"], "sources": ["overture"], "website": "http://lucernaseattle.com/", "phone": "+12062950099", "address": "1201 Eastlake Ave E"}, "geometry": {"type": "Point", "coordinates": [-122.3277893, 47.6307983]}}, {"type": "Feature", "properties": {"id": "42d1f453-4bbd-4dd6-b076-e0cd596f78b6", "name": "Siam On Eastlake", "category": "restaurant", "tags": ["restaurant", "thai", "asian"], "sources": ["overture"], "website": "http://Www.siamoneastlake.com/", "phone": "+12063226174", "address": "1629 Eastlake Ave E"}, "geometry": {"type": "Point", "coordinates": [-122.3255005, 47.6346703]}}, {"type": "Feature", "properties": {"id": "5f7edfa4-571a-4b11-a7af-917decf55409", "name": "Babirusa", "category": "bar", "tags": ["bar"], "sources": ["overture"], "website": "http://blindpigbistro.com", "phone": "(206) 329-2744", "address": "2236 Eastlake Ave E"}, "geometry": {"type": "Point", "coordinates": [-122.3257065, 47.6392937]}}, {"type": "Feature", "properties": {"id": "06d92be9-4774-49a8-af9a-a021cea4dcc6", "name": "Porta Greek Tavern", "category": "restaurant", "tags": ["restaurant", "greek"], "sources": ["overture"], "website": "http://www.portataverna.com/", "phone": "(206) 860-0284", "address": "2245 Eastlake Ave E"}, "geometry": {"type": "Point", "coordinates": [-122.3262711, 47.639534]}}, {"type": "Feature", "properties": {"id": "1f1a84e6-2eaf-48df-9152-914f8acd9f0e", "name": "Armistice Coffee Roaster", "category": "cafe", "tags": ["cafe", "coffee"], "sources": ["overture"], "website": "https://www.armisticecoffeeco.com", "phone": "+12066776695", "address": "2201 Eastlake Ave E Ste C"}, "geometry": {"type": "Point", "coordinates": [-122.3260727, 47.6384239]}}, {"type": "Feature", "properties": {"id": "18c9b533-3b64-432e-8317-4f5fca4f356d", "name": "Blind Pig Bistro", "category": "restaurant", "tags": ["restaurant"], "sources": ["overture"], "phone": "2063292744", "address": "2238 Eastlake Ave E"}, "geometry": {"type": "Point", "coordinates": [-122.3258133, 47.6386337]}}, {"type": "Feature", "properties": {"id": "2dd477ed-502b-4921-8f22-b121beaf6aff", "name": "Poke Square", "category": "restaurant", "tags": ["restaurant", "poke"], "sources": ["overture"], "website": "http://www.pokesquareseattle.com", "phone": "(206) 535-8252", "address": "1823 Eastlake Ave E"}, "geometry": {"type": "Point", "coordinates": [-122.3259201, 47.6356354]}}, {"type": "Feature", "properties": {"id": "edf0df22-8b67-4380-a24f-2160e2b3f87f", "name": "Yoksod Noodles and Thai", "category": "restaurant", "tags": ["restaurant", "thai", "asian", "noodles"], "sources": ["overture"], "website": "http://www.yoksodnoodles.com/", "phone": "+12064203134", "address": "1903 Yale Pl E"}, "geometry": {"type": "Point", "coordinates": [-122.32621, 47.635952]}}, {"type": "Feature", "properties": {"id": "f7b806f6-6c69-4218-9c62-7f4186827601", "name": "Moriyama Sushi", "category": "restaurant", "tags": ["restaurant", "sushi", "japanese", "asian"], "sources": ["overture"], "website": "http://moriyamasushi.com/", "phone": "+12062599569", "address": "1823 Eastlake Ave E #153"}, "geometry": {"type": "Point", "coordinates": [-122.3256683, 47.6357231]}}, {"type": "Feature", "properties": {"id": "ccce299a-0d26-4dc1-90b9-4ce45ff3f03a", "name": "Co May Bistro", "category": "restaurant", "tags": ["restaurant", "vietnamese", "asian"], "sources": ["overture"], "website": "http://comaybistro.com/", "phone": "+12062598983", "address": "1823 Eastlake Ave E #160"}, "geometry": {"type": "Point", "coordinates": [-122.3255692, 47.6353912]}}, {"type": "Feature", "properties": {"id": 3211770234, "name": "Cornerstones", "category": "artwork", "tags": ["artwork"], "sources": ["osm"]}, "geometry": {"type": "Point", "coordinates": [-122.3263432, 47.6321164]}}, {"type": "Feature", "properties": {"id": 3957622063, "name": "Penny-Farthing Posters", "category": "artwork", "tags": ["artwork"], "sources": ["osm"]}, "geometry": {"type": "Point", "coordinates": [-122.3230325, 47.6357897]}}, {"type": "Feature", "properties": {"id": 12860871332, "name": "Otemma Glacier", "category": "artwork", "tags": ["artwork"], "sources": ["osm"]}, "geometry": {"type": "Point", "coordinates": [-122.3205647, 47.6318235]}}, {"type": "Feature", "properties": {"id": "b78d6118-8feb-42d7-9778-a6b859497fba", "name": "Riva Condominium", "category": "attraction", "tags": ["attraction", "landmark", "historical", "building"], "sources": ["overture"], "phone": "+12063231947", "address": "1550 Eastlake Ave E"}, "geometry": {"type": "Point", "coordinates": [-122.3253632, 47.6337318]}}, {"type": "Feature", "properties": {"id": "9d6256ad-71a9-42ea-b879-39e539c4271d", "name": "Lake Union Terrace Apartments", "category": "attraction", "tags": ["attraction", "landmark", "historical", "building"], "sources": ["overture"], "website": "http://www.lakeunionterrace.com/", "phone": "+12063238559", "address": "210 E Blaine St"}, "geometry": {"type": "Point", "coordinates": [-122.3245773, 47.6350327]}}, {"type": "Feature", "properties": {"id": "74599a82-f2f1-4717-8feb-bf8c8f1227f2", "name": "Lakeview Boulevard Townhomes", "category": "attraction", "tags": ["attraction", "landmark", "historical", "building"], "sources": ["overture"], "website": "https://post.craigslist.org/manage/6464737766?action=display&go=display", "phone": "+12066968860", "address": "1515 Lakeview Blvd E"}, "geometry": {"type": "Point", "coordinates": [-122.323082, 47.6329536]}}, {"type": "Feature", "properties": {"id": "524b860c-9409-4a72-a0b9-2f4508e0d6da", "name": "Gage Academy of Art", "category": "gallery", "tags": ["gallery", "art"], "sources": ["overture"], "website": "https://gageacademy.org/", "phone": "2063234243", "address": "1501 10th Ave E"}, "geometry": {"type": "Point", "coordinates": [-122.3209915, 47.6321945]}}, {"type": "Feature", "properties": {"id": "161306f2-d0f0-4ab9-ac4d-2265cda0284e", "name": "Gatsby Apartments", "category": "attraction", "tags": ["attraction", "landmark", "historical", "building"], "sources": ["overture"], "website": "https://gatsbyseattle.com/?utm_source=businessprofile&utm_medium=search&utm_campaign=general", "phone": "+18444491138", "address": "1145 10th Ave E"}, "geometry": {"type": "Point", "coordinates": [-122.3205032, 47.6301918]}}, {"type": "Feature", "properties": {"id": "9f278c4e-85fa-4334-8edf-433687096aff", "name": "P. P. Ferry House", "category": "attraction", "tags": ["attraction", "landmark", "historical", "building"], "sources": ["overture"], "address": "1531 10th Ave E"}, "geometry": {"type": "Point", "coordinates": [-122.3202896, 47.6330566]}}, {"type": "Feature", "properties": {"id": "27d4abe1-19ff-4990-b1fa-8a3d651bc44d", "name": "Uscg-11 / Tiburon / Uscg-83366 Foundation", "category": "museum", "tags": ["museum"], "sources": ["overture"], "website": "http://www.uscg11.org", "phone": "14256812311", "address": "1801 Fairview Ave E"}, "geometry": {"type": "Point", "coordinates": [-122.3279037, 47.6355934]}}, {"type": "Feature", "properties": {"id": "18d576ae-5d67-4b5d-bb20-6a93cdbf7dd4", "name": "Waterside Eastlake", "category": "attraction", "tags": ["attraction", "landmark", "historical", "building"], "sources": ["overture"], "website": "http://www.WatersideEastlake.com/", "phone": "+12067924200", "address": "67 E Lynn St"}, "geometry": {"type": "Point", "coordinates": [-122.3289413, 47.6396599]}}, {"type": "Feature", "properties": {"id": "d6abe72c-fb63-4fe7-809e-e9e846287179", "name": "Waterton Apartments", "category": "attraction", "tags": ["attraction", "landmark", "historical", "building"], "sources": ["overture"], "website": "http://watertonseattle.com/", "phone": "+12066737170", "address": "2201 Eastlake Ave E Ste C"}, "geometry": {"type": "Point", "coordinates": [-122.3260651, 47.638401]}}, {"type": "Feature", "properties": {"id": "17f81a54-4428-4ccc-90b4-28d7206d8dca", "name": "East Howe Steps", "category": "attraction", "tags": ["attraction", "landmark", "historical", "building"], "sources": ["overture"], "website": "https://www.easthowesteps.com", "phone": "+12064855305", "address": "1823 Eastlake Ave E"}, "geometry": {"type": "Point", "coordinates": [-122.325592, 47.6354828]}}, {"type": "Feature", "properties": {"id": "da86f346-9073-4383-908a-03d84cd1c8e0", "name": "Enve on Eastlake", "category": "attraction", "tags": ["attraction", "landmark", "historical", "building"], "sources": ["overture"], "website": "https://enveeastlake.com/", "phone": "+18448877756", "address": "1901 Franklin Ave E"}, "geometry": {"type": "Point", "coordinates": [-122.325119, 47.6359711]}}, {"type": "Feature", "properties": {"id": 32144206, "name": "I-5 Colonnade Park", "category": "park", "tags": ["park"], "sources": ["osm"], "website": "https://www.seattle.gov/parks/allparks/i-5-colonnade"}, "geometry": {"type": "Point", "coordinates": [-122.3235136, 47.6350441]}}, {"type": "Feature", "properties": {"id": 49734705, "name": "Terry Pettus Park", "category": "park", "tags": ["park"], "sources": ["osm", "overture"], "website": "http://seattle.gov/parks/park_detail.asp?id=3889", "phone": "+12066844075", "address": "2001 Fairview Ave E"}, "geometry": {"type": "Point", "coordinates": [-122.3292301, 47.6367193]}}, {"type": "Feature", "properties": {"id": 56241429, "name": "Lynn Street Park", "category": "park", "tags": ["park"], "sources": ["osm"], "website": "https://www.seattle.gov/parks/allparks/lynn-street-mini-park"}, "geometry": {"type": "Point", "coordinates": [-122.3295835, 47.6397871]}}, {"type": "Feature", "properties": {"id": 292125577, "name": "Streissguth Gardens", "category": "garden", "tags": ["garden"], "sources": ["osm"], "website": "https://streissguthgardens.com/"}, "geometry": {"type": "Point", "coordinates": [-122.3208578, 47.6345949]}}, {"type": "Feature", "properties": {"id": 293941088, "name": "East Boston Street End", "category": "park", "tags": ["park"], "sources": ["osm"]}, "geometry": {"type": "Point", "coordinates": [-122.329543, 47.6382815]}}, {"type": "Feature", "properties": {"id": 295867977, "name": "Saint Mark's Greenbelt", "category": "park", "tags": ["park"], "sources": ["osm"], "website": "https://www.seattle.gov/parks/allparks/st-marks-greenbelt"}, "geometry": {"type": "Point", "coordinates": [-122.3219852, 47.6310695]}}, {"type": "Feature", "properties": {"id": "9c19e6a3-f732-4179-bc52-a922a7dc8aa6", "name": "Fairview Walkway", "category": "park", "tags": ["park"], "sources": ["overture"], "website": "http://seattle.gov/parks/park_detail.asp?id=4155", "phone": "+12066844075", "address": "1251 Fairview Ave N"}, "geometry": {"type": "Point", "coordinates": [-122.3289566, 47.6303253]}}, {"type": "Feature", "properties": {"id": "577c19e7-0923-481a-8397-c1aae36d8488", "name": "I-5 Colonnade", "category": "park", "tags": ["park", "dog"], "sources": ["overture"], "website": "http://www.seattle.gov/parks/find/parks/i-5-colonnade", "phone": "2066844075", "address": "1701 Lakeview Blvd E"}, "geometry": {"type": "Point", "coordinates": [-122.3239517, 47.6348724]}}, {"type": "Feature", "properties": {"id": "9aa14b2e-41f1-4c37-b2ae-e7fb8cf85902", "name": "Lynn Street Mini Park", "category": "park", "tags": ["park"], "sources": ["overture"], "website": "http://www.seattle.gov/parks", "phone": "+12066844075", "address": "2291 Fairview Ave E"}, "geometry": {"type": "Point", "coordinates": [-122.3294678, 47.6397972]}}, {"type": "Feature", "properties": {"id": 1730897374, "name": "Eastlake Market", "category": "convenience", "tags": ["convenience"], "sources": ["osm", "overture"], "website": "http://lostinseattle.com/", "phone": "+12063252117", "address": "2244 Eastlake Ave E"}, "geometry": {"type": "Point", "coordinates": [-122.325518, 47.6396272]}}, {"type": "Feature", "properties": {"id": 2138561950, "name": "Pete's Wine Shop And Groceries", "category": "convenience", "tags": ["convenience"], "sources": ["osm"], "website": "https://www.peteswineshop.com/", "address": "58 East Lynn Street", "hours": "Mo-Su 07:00-21:30"}, "geometry": {"type": "Point", "coordinates": [-122.3292677, 47.6399452]}}, {"type": "Feature", "properties": {"id": 2439830150, "name": "Patrick's Fly Shop", "category": "sports", "tags": ["sports", "fishing"], "sources": ["osm"]}, "geometry": {"type": "Point", "coordinates": [-122.3260929, 47.6393811]}}, {"type": "Feature", "properties": {"id": "158cd566-447d-46a8-bc7f-5b8a6225f2ad", "name": "Eastlake Specialty Market", "category": "deli", "tags": ["deli", "delicatessen"], "sources": ["overture"], "website": "http://lostinseattle.com", "phone": "(206) 324-6613", "address": "1540 Eastlake Ave E"}, "geometry": {"type": "Point", "coordinates": [-122.3254395, 47.6333923]}}, {"type": "Feature", "properties": {"id": "05ba62b3-87fa-4101-b407-ac3e8224d5a7", "name": "Bush, Roed & Hitchings, Inc.", "category": "doityourself", "tags": ["doityourself", "building", "supply"], "sources": ["overture"], "website": "https://www.brhinc.com", "phone": "(206) 323-4144", "address": "2009 Minor Ave E"}, "geometry": {"type": "Point", "coordinates": [-122.3286667, 47.637188]}}, {"type": "Feature", "properties": {"id": "36805645-0ef7-49d9-ae46-5e3eefa96a75", "name": "Pete's Supermarket", "category": "supermarket", "tags": ["supermarket"], "sources": ["overture"], "website": "https://www.peteswineshop.com/", "phone": "+12063222660", "address": "58 E Lynn St"}, "geometry": {"type": "Point", "coordinates": [-122.3292618, 47.6399384]}}, {"type": "Feature", "properties": {"id": "5a5e5b96-7b11-4ee9-a2d8-b9ee4dc8624b", "name": "Tipp And Co", "category": "jewelry", "tags": ["jewelry"], "sources": ["overture"], "phone": "+12069314282", "address": "2226 Eastlake Ave E PMB 153"}, "geometry": {"type": "Point", "coordinates": [-122.3256226, 47.6389656]}}, {"type": "Feature", "properties": {"id": "d29534ae-4119-4709-a9fe-74784f80c392", "name": "Infiniti Window Blinds", "category": "doityourself", "tags": ["doityourself", "home", "improvement"], "sources": ["overture"], "website": "http://www.infinitiwindowcoverings.com/", "phone": "4254876151", "address": "2226 Eastlake Ave E"}, "geometry": {"type": "Point", "coordinates": [-122.3256226, 47.6389542]}}, {"type": "Feature", "properties": {"id": "5e673b9a-5397-4dc6-a02a-79563274d933", "name": "R David Adams Associates", "category": "doityourself", "tags": ["doityourself", "building", "supply"], "sources": ["overture"], "website": "http://www.rdavidadamsassoc.com", "phone": "(206) 324-9492", "address": "2200 Eastlake Ave E"}, "geometry": {"type": "Point", "coordinates": [-122.3255539, 47.6384506]}}, {"type": "Feature", "properties": {"id": "0fff1a34-0d74-4c9a-9ce6-895c65bcdcb3", "name": "Precept Wine", "category": "wine", "tags": ["wine", "winery"], "sources": ["overture"], "website": "www.skyfallvineyard.com", "phone": "+12062675252", "address": "1910 Fairview Ave E Ste 400"}, "geometry": {"type": "Point", "coordinates": [-122.3270416, 47.6360893]}}, {"type": "Feature", "properties": {"id": "8ab6e337-91c2-4623-a454-b4ddb06a4e01", "name": "Faraday Pharmaceuticals", "category": "pharmacy", "tags": ["pharmacy"], "sources": ["overture"], "website": "http://www.faradaypharmaceuticals.com", "phone": "(206) 420-7213", "address": "1616 Eastlake Ave E Ste 560"}, "geometry": {"type": "Point", "coordinates": [-122.324707, 47.6344528]}}, {"type": "Feature", "properties": {"id": "967441fe-5589-452c-bcb1-54b10fe537fc", "name": "Union Center Pharmacy", "category": "pharmacy", "tags": ["pharmacy"], "sources": ["overture"], "website": "http://www.mygnp.com/store-locator?utm_source=bing&utm_medium=local&utm_campaign=localmaps&utm_content=4907929", "phone": "2064419174", "address": "2324 Eastlake Ave E Ste 405"}, "geometry": {"type": "Point", "coordinates": [-122.3258133, 47.6399994]}}, {"type": "Feature", "properties": {"id": 217604488, "name": "Bank of America", "category": "bank", "tags": ["bank"], "sources": ["osm"], "address": "1600 Eastlake Avenue East"}, "geometry": {"type": "Point", "coordinates": [-122.3251901, 47.6340904]}}, {"type": "Feature", "properties": {"id": "a00a491e-3568-4f9c-9f9d-ad454690dc64", "name": "Umpqua Bank", "category": "bank", "tags": ["bank", "credit", "union"], "sources": ["overture"], "website": "http://umpquabank.com/locations/washington/seattle/capitol-hill/", "phone": "2067497441", "address": "539 Broadway E Ste 12"}, "geometry": {"type": "Point", "coordinates": [-122.3216858, 47.6342888]}}, {"type": "Feature", "properties": {"id": 4869290068, "name": "Washington State Employees Credit Union", "category": "bank", "tags": ["bank"], "sources": ["osm"], "website": "https://wsecu.org/our-locations/seattle-fairview", "address": "1500 Fairview Avenue East", "hours": "Mo-Fr 09:00-17:30; Sa 09:30-14:00"}, "geometry": {"type": "Point", "coordinates": [-122.3266759, 47.6323778]}}, {"type": "Feature", "properties": {"id": 13126587326, "name": "F45 Training", "category": "fitness_centre", "tags": ["fitness-centre"], "sources": ["osm"]}, "geometry": {"type": "Point", "coordinates": [-122.3250099, 47.6349994]}}, {"type": "Feature", "properties": {"id": 1735843878, "name": "Eastlake Fitness", "category": "fitness_centre", "tags": ["fitness-centre"], "sources": ["osm"], "address": "2228 Eastlake Avenue East"}, "geometry": {"type": "Point", "coordinates": [-122.3256831, 47.6390214]}}, {"type": "Feature", "properties": {"id": 9161445219, "name": "Datza", "category": "fitness_centre", "tags": ["fitness-centre", "yoga"], "sources": ["osm"], "website": "https://datzastudios.com", "address": "2201 Eastlake Avenue East"}, "geometry": {"type": "Point", "coordinates": [-122.3261132, 47.6385188]}}, {"type": "Feature", "properties": {"id": "dc74cc71-20fd-4e9d-ac9f-b9dfc06e0a88", "name": "Laura Martin's Personal Training", "category": "fitness_centre", "tags": ["fitness-centre", "gym"], "sources": ["overture"], "website": "http://www.lauramartintraining.com", "phone": "(206) 409-8449", "address": "1617 Broadway E"}, "geometry": {"type": "Point", "coordinates": [-122.3213654, 47.6344604]}}, {"type": "Feature", "properties": {"id": "b12d81c8-5d93-46b3-bfeb-703c2ffebb63", "name": "Datza Studios", "category": "fitness_centre", "tags": ["fitness-centre", "yoga", "studio"], "sources": ["overture"], "website": "https://www.datzastudios.com", "phone": "+12068299338", "address": "2201 Eastlake Ave E"}, "geometry": {"type": "Point", "coordinates": [-122.3260498, 47.6384048]}}, {"type": "Feature", "properties": {"id": "7bab4a11-e3f1-41e3-a892-ab576e2a8185", "name": "Howe Street Stairs", "category": "fitness_centre", "tags": ["fitness-centre", "gym"], "sources": ["overture"], "website": "http://www.theupstairsseattle.com", "address": "810 E Howe St"}, "geometry": {"type": "Point", "coordinates": [-122.3205795, 47.635952]}}]}