{"type": "FeatureCollection", "features": [{"type": "Feature", "properties": {"id": 8019854885, "name": "Clutch", "category": "bar", "tags": ["bar"], "sources": ["osm"]}, "geometry": {"type": "Point", "coordinates": [-122.2208766, 47.4992844]}}, {"type": "Feature", "properties": {"id": "a445fcd1-0262-4cef-b544-1c6e55b66ba1", "name": "Bokara By the Lake", "category": "attraction", "tags": ["attraction", "landmark", "historical", "building"], "sources": ["overture"], "phone": "+12067728866", "address": "801 Rainier Ave S"}, "geometry": {"type": "Point", "coordinates": [-122.220871, 47.4965134]}}, {"type": "Feature", "properties": {"id": 3912048005, "name": "Green Life NW", "category": "cannabis", "tags": ["cannabis", "wheelchair-accessible", "smoking"], "sources": ["osm", "overture"], "website": "http://www.greenlifenw.com/", "phone": "12064665388", "address": "11463 Rainier Ave S  Ste A", "hours": "Mo-Sa 10:00-22:00; Su 10:00-20:00"}, "geometry": {"type": "Point", "coordinates": [-122.2211475, 47.4994644]}}, {"type": "Feature", "properties": {"id": 6177394186, "name": "Feleg Food Mart", "category": "convenience", "tags": ["convenience"], "sources": ["osm"]}, "geometry": {"type": "Point", "coordinates": [-122.2209679, 47.4993934]}}, {"type": "Feature", "properties": {"id": 6177471486, "name": "Why? Grocery", "category": "convenience", "tags": ["convenience"], "sources": ["osm"]}, "geometry": {"type": "Point", "coordinates": [-122.2211189, 47.4997624]}}, {"type": "Feature", "properties": {"id": 8019854785, "name": "The Shop", "category": "convenience", "tags": ["convenience"], "sources": ["osm"]}, "geometry": {"type": "Point", "coordinates": [-122.221157, 47.4998722]}}, {"type": "Feature", "properties": {"id": "5cc8542b-3743-4299-9f11-4d53aeb97943", "name": "Seattle Plumbing and Rooter Pros", "category": "doityourself", "tags": ["doityourself", "building", "supply"], "sources": ["overture"], "website": "https://seattleplumbingrooterpros.com", "phone": "(206) 274-5400", "address": "865 Rainier Ave N"}, "geometry": {"type": "Point", "coordinates": [-122.221077, 47.4968338]}}, {"type": "Feature", "properties": {"id": "983181bb-14ac-472c-b29b-5c5192d55529", "name": "Clutch Cannabis", "category": "cannabis", "tags": ["cannabis", "clinic"], "sources": ["overture"], "website": "http://clutchcannabis.com/", "phone": "+12064578301", "address": "11537 Rainier Ave S"}, "geometry": {"type": "Point", "coordinates": [-122.2211075, 47.499218]}}, {"type": "Feature", "properties": {"id": "2b926a89-43bb-4118-8cc7-d5ff0ba52a29", "name": "Canna Republic", "category": "cannabis", "tags": ["cannabis", "clinic"], "sources": ["overture"], "phone": "+12064665388", "address": "11463 Rainier Ave S"}, "geometry": {"type": "Point", "coordinates": [-122.2210617, 47.4994011]}}, {"type": "Feature", "properties": {"id": "eb2a718c-49a9-4d81-a916-58b7c6af5357", "name": "Feleg Llc", "category": "supermarket", "tags": ["supermarket"], "sources": ["overture"], "address": "11463 Rainier Ave S Ste B"}, "geometry": {"type": "Point", "coordinates": [-122.2210617, 47.4994011]}}, {"type": "Feature", "properties": {"id": "6c9056fc-0d6f-4ce4-9a8a-100044c82dbf", "name": "Ounce King Cannabis", "category": "cannabis", "tags": ["cannabis", "clinic"], "sources": ["overture"], "phone": "+12064665388", "address": "11463 Rainier Ave S"}, "geometry": {"type": "Point", "coordinates": [-122.2211304, 47.4995079]}}, {"type": "Feature", "properties": {"id": "cd10f45b-a1a8-44a6-8a84-8ded026a2724", "name": "Hi Five Corporation", "category": "supermarket", "tags": ["supermarket"], "sources": ["overture"], "website": "hifiveus.com", "phone": "+12067727527", "address": "11449 Rainier Ave S"}, "geometry": {"type": "Point", "coordinates": [-122.2212219, 47.4997482]}}, {"type": "Feature", "properties": {"id": "981ec175-2c2b-4901-8ab9-d5c41d7ac657", "name": "Dunia Health Clinic", "category": "clinic", "tags": ["clinic", "medical"], "sources": ["overture"], "website": "http://www.Duniahealthclinic.com/", "phone": "+12062680427", "address": "11625 Rainier Ave S #102"}, "geometry": {"type": "Point", "coordinates": [-122.2206421, 47.4985733]}}, {"type": "Feature", "properties": {"id": "dd2c11b0-ccbb-4dcf-b0dd-7b167970fc18", "name": "Rain City Medical", "category": "clinic", "tags": ["clinic", "medical"], "sources": ["overture"], "website": "http://www.raincitymedical.com", "phone": "(206) 772-0023", "address": "11537 Rainier Ave S"}, "geometry": {"type": "Point", "coordinates": [-122.2210159, 47.4993057]}}, {"type": "Feature", "properties": {"id": "db6e2179-a62a-4df0-b113-ff5612a3227e", "name": "UPS Access Point location", "category": "post_office", "tags": ["post-office", "office"], "sources": ["overture"], "website": "https://locations.ups.com/wa/seattle/access-point-location-135953.html?utm_source=bing&utm_medium=organic&utm_campaign=rio", "phone": "2067727527", "address": "11449 Rainier Ave S"}, "geometry": {"type": "Point", "coordinates": [-122.221283, 47.499752]}}]}