{"type": "FeatureCollection", "features": [{"type": "Feature", "properties": {"id": 12964741741, "name": "El Oasis Taqueria", "category": "fast_food", "tags": ["fast-food"], "sources": ["osm"]}, "geometry": {"type": "Point", "coordinates": [-122.2584999, 47.4870954]}}, {"type": "Feature", "properties": {"id": "e7305ae2-6d84-419b-bdb6-83b678d265a4", "name": "El Oasis", "category": "restaurant", "tags": ["restaurant", "mexican"], "sources": ["overture"], "phone": "+12064585165", "address": "Martin Luther King Jr Way S &, S 129th St"}, "geometry": {"type": "Point", "coordinates": [-122.2584229, 47.4871826]}}, {"type": "Feature", "properties": {"id": "aaa61f52-4bdd-4986-8ed7-c047235372eb", "name": "Habibi Mediterranean & Greek Restaurant", "category": "restaurant", "tags": ["restaurant"], "sources": ["overture"], "address": "12925 Martin Luther King Jr Way S"}, "geometry": {"type": "Point", "coordinates": [-122.2579117, 47.4867096]}}, {"type": "Feature", "properties": {"id": 651811491, "name": "7-Eleven", "category": "convenience", "tags": ["convenience"], "sources": ["osm", "overture"], "website": "https://www.7-eleven.com/", "phone": "+12069458593", "address": "12848 Martin Luther King Jr Way S"}, "geometry": {"type": "Point", "coordinates": [-122.2580896, 47.4877843]}}, {"type": "Feature", "properties": {"id": 651809024, "name": "Food Mart", "category": "convenience", "tags": ["convenience"], "sources": ["osm"], "address": "12911 Martin Luther King Junior Way South"}, "geometry": {"type": "Point", "coordinates": [-122.2583406, 47.4869071]}}, {"type": "Feature", "properties": {"id": 651811462, "name": "Have a Heart", "category": "cannabis", "tags": ["cannabis", "clinic"], "sources": ["osm", "overture"], "website": "https://haveaheartcc.com/dispensaries/wa/skyway-seatac/", "phone": "+12062583331", "address": "12833 Martin Luther King Jr Way S"}, "geometry": {"type": "Point", "coordinates": [-122.2590593, 47.4876411]}}, {"type": "Feature", "properties": {"id": 3428129193, "name": "Kings", "category": "cannabis", "tags": ["cannabis"], "sources": ["osm"]}, "geometry": {"type": "Point", "coordinates": [-122.2578529, 47.4866761]}}, {"type": "Feature", "properties": {"id": 9532742217, "name": "PTS Parts", "category": "hardware", "tags": ["hardware"], "sources": ["osm"]}, "geometry": {"type": "Point", "coordinates": [-122.259533, 47.4886841]}}, {"type": "Feature", "properties": {"id": 13431303774, "name": "Smoke Royale", "category": "tobacco", "tags": ["tobacco"], "sources": ["osm"]}, "geometry": {"type": "Point", "coordinates": [-122.2579184, 47.4867243]}}, {"type": "Feature", "properties": {"id": 651810190, "name": "Equipment Share", "category": "hardware", "tags": ["hardware"], "sources": ["osm"], "address": "13535 68th Avenue South"}, "geometry": {"type": "Point", "coordinates": [-122.2502855, 47.4822406]}}, {"type": "Feature", "properties": {"id": "7bb19c9a-1084-46ae-b664-640c791004c9", "name": "Kings Recreational Cannabis Dispensary", "category": "cannabis", "tags": ["cannabis", "clinic"], "sources": ["overture"], "website": "https://kingsdispo.com/", "phone": "+12064533445", "address": "12927 Martin Luther King Jr Way S"}, "geometry": {"type": "Point", "coordinates": [-122.2578049, 47.4867172]}}, {"type": "Feature", "properties": {"id": "aa7926ae-18ab-4776-b31e-984273bf59c5", "name": "Skyway Strength", "category": "fitness_centre", "tags": ["fitness-centre", "gym"], "sources": ["overture"], "phone": "+12063841023", "address": "12803 66th Ave S"}, "geometry": {"type": "Point", "coordinates": [-122.2527771, 47.4883804]}}]}