{"type": "FeatureCollection", "features": [{"type": "Feature", "properties": {"id": "313fd1f7-38eb-4cc7-9efe-6df10e258ac2", "name": "Tokyo Japanese Steak House", "category": "restaurant", "tags": ["restaurant", "japanese", "sushi"], "sources": ["overture"], "website": "https://linktr.ee/tokyosteakhouse", "phone": "+12535080557", "address": "1404 S 320th St", "stations": [{"stopCode": 68, "lines": "1", "name": "Federal Way Downtown Station", "walkingMeters": 458, "walkingSeconds": 330, "band": 10}]}, "geometry": {"type": "Point", "coordinates": [-122.3155365, 47.3154869]}}, {"type": "Feature", "properties": {"id": 5857345096, "name": "Subway", "category": "fast_food", "tags": ["fast-food", "sandwich", "takeaway", "restaurant"], "sources": ["osm", "overture"], "website": "https://www.subway.com", "phone": "12539411625", "address": "32225 Pacific Hwy S  Ste 201", "hours": "Mo-Fr 08:00-21:00; Sa-Su 09:00-21:00", "stations": [{"stopCode": 68, "lines": "1", "name": "Federal Way Downtown Station", "walkingMeters": 615, "walkingSeconds": 443, "band": 10}]}, "geometry": {"type": "Point", "coordinates": [-122.3140834, 47.312976]}}, {"type": "Feature", "properties": {"id": 5857343982, "name": "Domino's", "category": "fast_food", "tags": ["fast-food", "pizza", "takeaway"], "sources": ["osm"], "website": "https://pizza.dominos.com/washington/federal-way/1426-s-324th-street-suite-a108", "phone": "+1-253-946-9494", "address": "1426 South 324th Street", "hours": "Mo-Th 10:00-01:00; Fr-Sa 10:00-02:00; Su 10:00-24:00", "stations": [{"stopCode": 68, "lines": "1", "name": "Federal Way Downtown Station", "walkingMeters": 702, "walkingSeconds": 505, "band": 10}]}, "geometry": {"type": "Point", "coordinates": [-122.3146078, 47.3122168]}}, {"type": "Feature", "properties": {"id": "da9566b2-097d-4f1b-b498-aeb18916c5e5", "name": "Pho Tai", "category": "restaurant", "tags": ["restaurant", "vietnamese", "asian", "noodles"], "sources": ["overture"], "website": "http://www.phoquynh.com", "phone": "+12539414979", "address": "31513 Pacific Hwy S", "stations": [{"stopCode": 68, "lines": "1", "name": "Federal Way Downtown Station", "walkingMeters": 572, "walkingSeconds": 411, "band": 10}]}, "geometry": {"type": "Point", "coordinates": [-122.3151703, 47.3195763]}}, {"type": "Feature", "properties": {"id": 1732810021, "name": "Starbucks", "category": "cafe", "tags": ["cafe", "coffee-shop", "takeaway", "coffee"], "sources": ["osm", "overture"], "website": "https://www.starbucks.com/store-locator/store/1025250", "phone": "+12538394999", "address": "1301 S 320th St", "stations": [{"stopCode": 68, "lines": "1", "name": "Federal Way Downtown Station", "walkingMeters": 698, "walkingSeconds": 502, "band": 10}]}, "geometry": {"type": "Point", "coordinates": [-122.3164129, 47.3147483]}}, {"type": "Feature", "properties": {"id": 6178125237, "name": "Starbucks", "category": "cafe", "tags": ["cafe", "coffee-shop", "takeaway", "wheelchair-accessible", "vegetarian", "coffee"], "sources": ["osm", "overture"], "website": "https://www.starbucks.com/store-locator/store/14230/safeway-federal-way-1555-1207-s-320th-st-federal-way-wa-980035339-us", "phone": "2538398503", "address": "1207 S 320th St Safeway-Federal Way # 1555", "hours": "Mo-Su 05:30-19:00", "stations": [{"stopCode": 68, "lines": "1", "name": "Federal Way Downtown Station", "walkingMeters": 753, "walkingSeconds": 541, "band": 10}]}, "geometry": {"type": "Point", "coordinates": [-122.317864, 47.3138571]}}, {"type": "Feature", "properties": {"id": 1732810015, "name": "Qdoba", "category": "fast_food", "tags": ["fast-food", "mexican", "takeaway"], "sources": ["osm"], "stations": [{"stopCode": 68, "lines": "1", "name": "Federal Way Downtown Station", "walkingMeters": 692, "walkingSeconds": 497, "band": 10}]}, "geometry": {"type": "Point", "coordinates": [-122.3165363, 47.3147737]}}, {"type": "Feature", "properties": {"id": 6084952757, "name": "Papa Murphy's", "category": "fast_food", "tags": ["fast-food", "pizza", "takeaway"], "sources": ["osm"], "address": "31653 Pacific Highway South", "stations": [{"stopCode": 68, "lines": "1", "name": "Federal Way Downtown Station", "walkingMeters": 337, "walkingSeconds": 242, "band": 5}]}, "geometry": {"type": "Point", "coordinates": [-122.3151075, 47.3174519]}}, {"type": "Feature", "properties": {"id": 242674966, "name": "Chipotle", "category": "fast_food", "tags": ["fast-food", "mexican", "takeaway"], "sources": ["osm"], "website": "https://locations.chipotle.com/wa/federal-way/31827-pacific-hwy-s", "phone": "+1-253-945-8287", "address": "31827 Pacific Highway South", "hours": "Mo-Su 11:00-22:00", "stations": [{"stopCode": 68, "lines": "1", "name": "Federal Way Downtown Station", "walkingMeters": 380, "walkingSeconds": 274, "band": 5}]}, "geometry": {"type": "Point", "coordinates": [-122.3138652, 47.3162822]}}, {"type": "Feature", "properties": {"id": 1732809969, "name": "Scoreboard Pub", "category": "pub", "tags": ["pub"], "sources": ["osm"], "stations": [{"stopCode": 68, "lines": "1", "name": "Federal Way Downtown Station", "walkingMeters": 1026, "walkingSeconds": 739, "band": 15}]}, "geometry": {"type": "Point", "coordinates": [-122.3178559, 47.3119801]}}, {"type": "Feature", "properties": {"id": 1732809970, "name": "Poverty Bay Cafe", "category": "cafe", "tags": ["cafe", "coffee-shop", "wifi", "coffee"], "sources": ["osm", "overture"], "website": "http://fusionhousing.org/poverty-bay-cafe", "phone": "+12539450012", "address": "1108 S 322nd Pl", "stations": [{"stopCode": 68, "lines": "1", "name": "Federal Way Downtown Station", "walkingMeters": 1020, "walkingSeconds": 734, "band": 15}]}, "geometry": {"type": "Point", "coordinates": [-122.318843, 47.3130316]}}, {"type": "Feature", "properties": {"id": 1736128574, "name": "Golden Spoon Buffet & Banquet", "category": "restaurant", "tags": ["restaurant"], "sources": ["osm"], "stations": [{"stopCode": 68, "lines": "1", "name": "Federal Way Downtown Station", "walkingMeters": 179, "walkingSeconds": 129, "band": 5}]}, "geometry": {"type": "Point", "coordinates": [-122.310066, 47.3167409]}}, {"type": "Feature", "properties": {"id": 1758233833, "name": "Monster Burger", "category": "fast_food", "tags": ["fast-food", "burger", "restaurant", "american"], "sources": ["osm", "overture"], "website": "https://www.zomato.com/federal-way-wa/monster-burger-federal-way", "phone": "+12535175851", "address": "1703 S 324th St", "stations": [{"stopCode": 68, "lines": "1", "name": "Federal Way Downtown Station", "walkingMeters": 810, "walkingSeconds": 584, "band": 10}]}, "geometry": {"type": "Point", "coordinates": [-122.3116897, 47.3113067]}}, {"type": "Feature", "properties": {"id": 1780970500, "name": "Koharu", "category": "restaurant", "tags": ["restaurant", "japanese"], "sources": ["osm"], "stations": [{"stopCode": 68, "lines": "1", "name": "Federal Way Downtown Station", "walkingMeters": 231, "walkingSeconds": 166, "band": 5}]}, "geometry": {"type": "Point", "coordinates": [-122.3122617, 47.3161585]}}, {"type": "Feature", "properties": {"id": 1781387398, "name": "Vince's Italian Restaurant & Pizzeria", "category": "restaurant", "tags": ["restaurant", "italian", "pizza"], "sources": ["osm", "overture"], "website": "http://www.vincesrestaurants.com/", "phone": "2538391496", "address": "32411 Pacific Hwy S", "stations": [{"stopCode": 68, "lines": "1", "name": "Federal Way Downtown Station", "walkingMeters": 824, "walkingSeconds": 593, "band": 10}]}, "geometry": {"type": "Point", "coordinates": [-122.3146146, 47.3112864]}}, {"type": "Feature", "properties": {"id": 1781387402, "name": "Vince's Sports Bar", "category": "bar", "tags": ["bar"], "sources": ["osm"], "stations": [{"stopCode": 68, "lines": "1", "name": "Federal Way Downtown Station", "walkingMeters": 845, "walkingSeconds": 608, "band": 10}]}, "geometry": {"type": "Point", "coordinates": [-122.3143356, 47.3112809]}}, {"type": "Feature", "properties": {"id": 1783034120, "name": "Ph\u1edf Qu\u1ef3nh Restaurant", "category": "restaurant", "tags": ["restaurant", "vietnamese"], "sources": ["osm"], "stations": [{"stopCode": 68, "lines": "1", "name": "Federal Way Downtown Station", "walkingMeters": 478, "walkingSeconds": 345, "band": 10}]}, "geometry": {"type": "Point", "coordinates": [-122.3129739, 47.3197015]}}, {"type": "Feature", "properties": {"id": 264859737, "name": "Panda Express", "category": "fast_food", "tags": ["fast-food", "chinese", "takeaway", "restaurant", "asian"], "sources": ["osm", "overture"], "website": "http://www.pandaexpress.com/", "phone": "+12539413323", "address": "31827 Pacific Hwy S", "hours": "10:00-22:00", "stations": [{"stopCode": 68, "lines": "1", "name": "Federal Way Downtown Station", "walkingMeters": 399, "walkingSeconds": 288, "band": 5}]}, "geometry": {"type": "Point", "coordinates": [-122.3138637, 47.3164898]}}, {"type": "Feature", "properties": {"id": 5857343913, "name": "Katsu Burger", "category": "restaurant", "tags": ["restaurant", "japanese", "burger", "asian"], "sources": ["osm", "overture"], "website": "https://www.katsuburger.com/federal-way", "phone": "+12535333399", "address": "1706 S 320th St #A", "hours": "Mo-Su 11:00-21:00", "stations": [{"stopCode": 68, "lines": "1", "name": "Federal Way Downtown Station", "walkingMeters": 173, "walkingSeconds": 125, "band": 5}]}, "geometry": {"type": "Point", "coordinates": [-122.3115809, 47.3157483]}}, {"type": "Feature", "properties": {"id": "72948c81-b626-466d-b0fc-1c8744cfb2cf", "name": "Sizzle&Crunch", "category": "restaurant", "tags": ["restaurant", "vietnamese"], "sources": ["overture"], "website": "http://www.sizzleandcrunch.com", "phone": "(206) 429-2237", "address": "31448 Pacific Hwy S", "stations": [{"stopCode": 68, "lines": "1", "name": "Federal Way Downtown Station", "walkingMeters": 412, "walkingSeconds": 297, "band": 5}]}, "geometry": {"type": "Point", "coordinates": [-122.3129883, 47.3193054]}}, {"type": "Feature", "properties": {"id": "01cbe271-fdbb-47a7-b0b0-1213289ce08e", "name": "Wingstop", "category": "restaurant", "tags": ["restaurant", "wings", "chicken"], "sources": ["overture"], "website": "https://www.wingstop.com/location/wingstop-2857-federal-way-wa-98003/menu?y_source=1_MTA4MzYxMTgwNy00ODMtbG9jYXRpb24ud2Vic2l0ZQ%3D%3D", "phone": "2533082200", "address": "31653 Pacific Highway S Ste A", "stations": [{"stopCode": 68, "lines": "1", "name": "Federal Way Downtown Station", "walkingMeters": 520, "walkingSeconds": 374, "band": 10}]}, "geometry": {"type": "Point", "coordinates": [-122.3155518, 47.3176575]}}, {"type": "Feature", "properties": {"id": 5857343960, "name": "Yi Fang Tea", "category": "cafe", "tags": ["cafe", "bubble-tea", "takeaway"], "sources": ["osm"], "stations": [{"stopCode": 68, "lines": "1", "name": "Federal Way Downtown Station", "walkingMeters": 572, "walkingSeconds": 411, "band": 10}]}, "geometry": {"type": "Point", "coordinates": [-122.315152, 47.319645]}}, {"type": "Feature", "properties": {"id": 11986398570, "name": "Little Caesars", "category": "fast_food", "tags": ["fast-food", "pizza", "takeaway", "restaurant"], "sources": ["osm", "overture"], "website": "https://littlecaesars.com/en-us/store/12615", "phone": "+12064605144", "address": "31830 Pacific Hwy S", "stations": [{"stopCode": 68, "lines": "1", "name": "Federal Way Downtown Station", "walkingMeters": 186, "walkingSeconds": 134, "band": 5}]}, "geometry": {"type": "Point", "coordinates": [-122.3126411, 47.3164303]}}, {"type": "Feature", "properties": {"id": "c6b99b77-c4b0-407c-b353-4cb1b71e7b89", "name": "Toast Mi", "category": "restaurant", "tags": ["restaurant", "vietnamese"], "sources": ["overture"], "website": "http://www.toastmi.com", "address": "1805 S 316th St Ste A101", "stations": [{"stopCode": 68, "lines": "1", "name": "Federal Way Downtown Station", "walkingMeters": 266, "walkingSeconds": 199, "band": 10}]}, "geometry": {"type": "Point", "coordinates": [-122.310463, 47.3185158]}}, {"type": "Feature", "properties": {"id": 1430649396, "name": "Taco Bell", "category": "fast_food", "tags": ["fast-food", "tex-mex", "takeaway", "drive-through", "restaurant", "taco"], "sources": ["osm", "overture"], "website": "https://locations.tacobell.com/wa/federal-way/31533-pacific-hwy-s.html?utm_source=yext&utm_campaign=yextpowerlistings&utm_medium=referral&utm_term=038732&utm_content=website&y_source=1_MTA5Nzg5NDU3Ni00ODMtbG9jYXRpb24ud2Vic2l0ZQ%3D%3D", "phone": "2082735226", "address": "31533 Pacific Hwy S", "hours": "Mo-Th,Su 07:00-02:00; Fr-Sa 07:00-03:00", "stations": [{"stopCode": 68, "lines": "1", "name": "Federal Way Downtown Station", "walkingMeters": 554, "walkingSeconds": 398, "band": 5}]}, "geometry": {"type": "Point", "coordinates": [-122.3137713, 47.3190357]}}, {"type": "Feature", "properties": {"id": 5857343905, "name": "Dough Zone", "category": "restaurant", "tags": ["restaurant", "chinese"], "sources": ["osm"], "website": "https://www.doughzonedumplinghouse.com/federal-way", "phone": "+1-206-429-2855", "address": "1706 South 320th Street", "stations": [{"stopCode": 68, "lines": "1", "name": "Federal Way Downtown Station", "walkingMeters": 66, "walkingSeconds": 47, "band": 5}]}, "geometry": {"type": "Point", "coordinates": [-122.3115742, 47.3164938]}}, {"type": "Feature", "properties": {"id": 5857343910, "name": "Ichi Teriyaki", "category": "restaurant", "tags": ["restaurant", "japanese", "asian"], "sources": ["osm", "overture"], "website": "http://3day.com", "phone": "+12535293435", "address": "1706 S 320th St F", "stations": [{"stopCode": 68, "lines": "1", "name": "Federal Way Downtown Station", "walkingMeters": 147, "walkingSeconds": 106, "band": 5}]}, "geometry": {"type": "Point", "coordinates": [-122.3115769, 47.3160283]}}, {"type": "Feature", "properties": {"id": 5857345097, "name": "L&L Hawaiian Barbecue", "category": "fast_food", "tags": ["fast-food", "hawaiian", "takeaway", "restaurant", "barbecue"], "sources": ["osm", "overture"], "website": "https://www.hawaiianbarbecue.com/locations/federal-way", "phone": "+12539460788", "address": "32225 Pacific Hwy S Ste. 104", "hours": "Mo-Su 10:00-21:00", "stations": [{"stopCode": 68, "lines": "1", "name": "Federal Way Downtown Station", "walkingMeters": 655, "walkingSeconds": 471, "band": 10}]}, "geometry": {"type": "Point", "coordinates": [-122.314171, 47.3126496]}}, {"type": "Feature", "properties": {"id": 61951467, "name": "Tokyo Steak House", "category": "restaurant", "tags": ["restaurant", "japanese"], "sources": ["osm"], "address": "1404 South 320th Street", "stations": [{"stopCode": 68, "lines": "1", "name": "Federal Way Downtown Station", "walkingMeters": 496, "walkingSeconds": 357, "band": 10}]}, "geometry": {"type": "Point", "coordinates": [-122.315658, 47.3155202]}}, {"type": "Feature", "properties": {"id": 5857343957, "name": "85\u00b0C Bakery Cafe", "category": "cafe", "tags": ["cafe", "coffee-shop", "chinese", "takeaway", "bakery"], "sources": ["osm", "overture"], "website": "http://www.85cbakerycafe.com/", "phone": "+12064292506", "address": "31503 Pacific Hwy S", "stations": [{"stopCode": 68, "lines": "1", "name": "Federal Way Downtown Station", "walkingMeters": 585, "walkingSeconds": 421, "band": 10}]}, "geometry": {"type": "Point", "coordinates": [-122.315272, 47.3198364]}}, {"type": "Feature", "properties": {"id": 5640190521, "name": "Legendary Doughnuts - Federal Way", "category": "cafe", "tags": ["cafe", "donut", "indoor-seating", "wheelchair-accessible", "vegetarian"], "sources": ["osm"], "website": "https://www.legendarydoughnuts.com/", "phone": "+1-206-460-5942", "address": "32085 Pacific Highway South", "hours": "Su-Th 05:00-18:00; Fr-Sa 05:00-19:00", "stations": [{"stopCode": 68, "lines": "1", "name": "Federal Way Downtown Station", "walkingMeters": 656, "walkingSeconds": 472, "band": 10}]}, "geometry": {"type": "Point", "coordinates": [-122.3153222, 47.3130801]}}, {"type": "Feature", "properties": {"id": 5857343902, "name": "Linh Son Restaurant", "category": "restaurant", "tags": ["restaurant", "vietnamese"], "sources": ["osm", "overture"], "website": "https://linh-son-restaurant.business.site", "phone": "+12539456294", "address": "31830 Pacific Hwy S Ste K", "stations": [{"stopCode": 68, "lines": "1", "name": "Federal Way Downtown Station", "walkingMeters": 203, "walkingSeconds": 146, "band": 5}]}, "geometry": {"type": "Point", "coordinates": [-122.3124111, 47.3164303]}}, {"type": "Feature", "properties": {"id": 5857343934, "name": "BobaLust Tea House", "category": "cafe", "tags": ["cafe", "bubble-tea"], "sources": ["osm"], "address": "1770 South 320th Street", "stations": [{"stopCode": 68, "lines": "1", "name": "Federal Way Downtown Station", "walkingMeters": 129, "walkingSeconds": 93, "band": 5}]}, "geometry": {"type": "Point", "coordinates": [-122.310732, 47.3167248]}}, {"type": "Feature", "properties": {"id": 5857343958, "name": "Tokyo-Ya", "category": "restaurant", "tags": ["restaurant", "japanese"], "sources": ["osm"], "stations": [{"stopCode": 68, "lines": "1", "name": "Federal Way Downtown Station", "walkingMeters": 579, "walkingSeconds": 416, "band": 10}]}, "geometry": {"type": "Point", "coordinates": [-122.3152207, 47.3197387]}}, {"type": "Feature", "properties": {"id": 5857343959, "name": "Bangkok Garden Thai Restaurant", "category": "restaurant", "tags": ["restaurant", "thai"], "sources": ["osm"], "stations": [{"stopCode": 68, "lines": "1", "name": "Federal Way Downtown Station", "walkingMeters": 572, "walkingSeconds": 411, "band": 10}]}, "geometry": {"type": "Point", "coordinates": [-122.3151831, 47.3196859]}}, {"type": "Feature", "properties": {"id": 5857343961, "name": "Pho Thai Restaurant", "category": "restaurant", "tags": ["restaurant", "asian"], "sources": ["osm"], "stations": [{"stopCode": 68, "lines": "1", "name": "Federal Way Downtown Station", "walkingMeters": 572, "walkingSeconds": 411, "band": 10}]}, "geometry": {"type": "Point", "coordinates": [-122.3150772, 47.319545]}}, {"type": "Feature", "properties": {"id": 13360736265, "name": "Dave's Hot Chicken", "category": "fast_food", "tags": ["fast-food", "chicken", "takeaway", "fast", "food"], "sources": ["osm", "overture"], "address": "1701 S Commons, Suite M7G", "stations": [{"stopCode": 68, "lines": "1", "name": "Federal Way Downtown Station", "walkingMeters": 687, "walkingSeconds": 494, "band": 10}]}, "geometry": {"type": "Point", "coordinates": [-122.3116721, 47.3126934]}}, {"type": "Feature", "properties": {"id": 6084953296, "name": "Sub Zero", "category": "ice_cream", "tags": ["ice-cream", "sandwich"], "sources": ["osm"], "address": "31653 Pacific Highway South", "stations": [{"stopCode": 68, "lines": "1", "name": "Federal Way Downtown Station", "walkingMeters": 383, "walkingSeconds": 276, "band": 5}]}, "geometry": {"type": "Point", "coordinates": [-122.31511, 47.3178582]}}, {"type": "Feature", "properties": {"id": 6084953369, "name": "Los Amigos Taqueria #2", "category": "restaurant", "tags": ["restaurant", "mexican"], "sources": ["osm", "overture"], "website": "https://losamigostaqueria2wa.com", "phone": "12064293344", "address": "31847 Pacific Hwy S", "stations": [{"stopCode": 68, "lines": "1", "name": "Federal Way Downtown Station", "walkingMeters": 406, "walkingSeconds": 292, "band": 5}]}, "geometry": {"type": "Point", "coordinates": [-122.3141469, 47.3158476]}}, {"type": "Feature", "properties": {"id": 6178125214, "name": "Shin Sung Korean Cuisine", "category": "restaurant", "tags": ["restaurant"], "sources": ["osm"], "stations": [{"stopCode": 68, "lines": "1", "name": "Federal Way Downtown Station", "walkingMeters": 524, "walkingSeconds": 377, "band": 10}]}, "geometry": {"type": "Point", "coordinates": [-122.310294, 47.3184631]}}, {"type": "Feature", "properties": {"id": 6178125218, "name": "La Princesa Taqueria", "category": "restaurant", "tags": ["restaurant"], "sources": ["osm"], "stations": [{"stopCode": 68, "lines": "1", "name": "Federal Way Downtown Station", "walkingMeters": 496, "walkingSeconds": 357, "band": 10}]}, "geometry": {"type": "Point", "coordinates": [-122.310791, 47.3185486]}}, {"type": "Feature", "properties": {"id": 6178125223, "name": "Jasmine Mongolian Grill", "category": "restaurant", "tags": ["restaurant", "mongolian-grill", "wheelchair-accessible", "mongolian", "asian", "buffet"], "sources": ["osm", "overture"], "phone": "+12066517663", "address": "31515 Pete von Reichbauer Way S", "stations": [{"stopCode": 68, "lines": "1", "name": "Federal Way Downtown Station", "walkingMeters": 566, "walkingSeconds": 407, "band": 10}]}, "geometry": {"type": "Point", "coordinates": [-122.3108822, 47.3190832]}}, {"type": "Feature", "properties": {"id": 6178125231, "name": "Boba Factory", "category": "cafe", "tags": ["cafe"], "sources": ["osm"], "stations": [{"stopCode": 68, "lines": "1", "name": "Federal Way Downtown Station", "walkingMeters": 564, "walkingSeconds": 406, "band": 10}]}, "geometry": {"type": "Point", "coordinates": [-122.3170754, 47.3153246]}}, {"type": "Feature", "properties": {"id": 6178125259, "name": "May May Hong Kong BBQ", "category": "restaurant", "tags": ["restaurant", "barbecue", "chinese", "asian"], "sources": ["osm", "overture"], "website": "https://www.maymayhongkongbbq.com/", "phone": "+12065922859", "address": "1414 South 324th St Ste B111", "stations": [{"stopCode": 68, "lines": "1", "name": "Federal Way Downtown Station", "walkingMeters": 779, "walkingSeconds": 560, "band": 10}]}, "geometry": {"type": "Point", "coordinates": [-122.3151002, 47.3122141]}}, {"type": "Feature", "properties": {"id": 6178125263, "name": "Billy McHale's Restaurant", "category": "restaurant", "tags": ["restaurant"], "sources": ["osm"], "stations": [{"stopCode": 68, "lines": "1", "name": "Federal Way Downtown Station", "walkingMeters": 790, "walkingSeconds": 569, "band": 10}]}, "geometry": {"type": "Point", "coordinates": [-122.3166221, 47.3128042]}}, {"type": "Feature", "properties": {"id": 6178125795, "name": "Can-Am Pizza", "category": "restaurant", "tags": ["restaurant", "pizza", "italian"], "sources": ["osm", "overture"], "website": "http://www.canampizza.com/", "phone": "+12536617722", "address": "32510 Pacific Hwy S", "stations": [{"stopCode": 68, "lines": "1", "name": "Federal Way Downtown Station", "walkingMeters": 878, "walkingSeconds": 634, "band": 10}]}, "geometry": {"type": "Point", "coordinates": [-122.3128176, 47.310208]}}, {"type": "Feature", "properties": {"id": 9255106990, "name": "Trapper's Sushi Co", "category": "restaurant", "tags": ["restaurant", "wheelchair-accessible"], "sources": ["osm"], "stations": [{"stopCode": 68, "lines": "1", "name": "Federal Way Downtown Station", "walkingMeters": 459, "walkingSeconds": 330, "band": 10}]}, "geometry": {"type": "Point", "coordinates": [-122.3151796, 47.3161497]}}, {"type": "Feature", "properties": {"id": 10076133601, "name": "La Michoacana", "category": "ice_cream", "tags": ["ice-cream"], "sources": ["osm"], "stations": [{"stopCode": 68, "lines": "1", "name": "Federal Way Downtown Station", "walkingMeters": 795, "walkingSeconds": 572, "band": 10}]}, "geometry": {"type": "Point", "coordinates": [-122.316655, 47.3126392]}}, {"type": "Feature", "properties": {"id": "f76e3d2b-a954-4c32-bf62-fe8f05e7b2e4", "name": "Round Table Pizza", "category": "restaurant", "tags": ["restaurant", "pizza"], "sources": ["overture"], "website": "http://www.roundtablepizza.com", "phone": "(253) 941-4000", "address": "1414 S 324th St Ste 213", "stations": [{"stopCode": 68, "lines": "1", "name": "Federal Way Downtown Station", "walkingMeters": 731, "walkingSeconds": 526, "band": 10}]}, "geometry": {"type": "Point", "coordinates": [-122.3151779, 47.3122826]}}, {"type": "Feature", "properties": {"id": "87659780-aba7-468d-a264-2d21be8273d8", "name": "Cubanos On Wheels", "category": "fast_food", "tags": ["fast-food", "food", "truck"], "sources": ["overture"], "website": "https://cubanosonwheelsllc.com", "phone": "+12533261244", "address": "1045 S 320th St", "stations": [{"stopCode": 68, "lines": "1", "name": "Federal Way Downtown Station", "walkingMeters": 751, "walkingSeconds": 560, "band": 10}]}, "geometry": {"type": "Point", "coordinates": [-122.3189468, 47.3148117]}}, {"type": "Feature", "properties": {"id": 12871689418, "name": "Snowy Village", "category": "ice_cream", "tags": ["ice-cream", "shaved-ice", "wheelchair-accessible", "air-conditioned"], "sources": ["osm"], "phone": "+1-425-542-3762", "address": "32210 Pacific Highway South", "hours": "Mo-Th 15:00-21:45; Fr-Sa 13:00-22:45; Su 13:00-21:45", "stations": [{"stopCode": 68, "lines": "1", "name": "Federal Way Downtown Station", "walkingMeters": 555, "walkingSeconds": 399, "band": 10}]}, "geometry": {"type": "Point", "coordinates": [-122.3128954, 47.3128715]}}, {"type": "Feature", "properties": {"id": 13025879897, "name": "Pal-Man Kitchen", "category": "restaurant", "tags": ["restaurant", "ukrainian", "slavic", "takeaway", "delivery", "reservations"], "sources": ["osm"], "phone": "+1-253-294-3284", "address": "1727 South 316th Street", "hours": "We-Mo 12:30-21:30", "stations": [{"stopCode": 68, "lines": "1", "name": "Federal Way Downtown Station", "walkingMeters": 468, "walkingSeconds": 337, "band": 10}]}, "geometry": {"type": "Point", "coordinates": [-122.3112611, 47.318597]}}, {"type": "Feature", "properties": {"id": 659871881, "name": "Chick-fil-A", "category": "fast_food", "tags": ["fast-food", "chicken", "indoor-seating", "takeaway", "delivery", "drive-through", "wifi", "restaurant"], "sources": ["osm", "overture"], "website": "https://www.chick-fil-a.com/locations/wa/celebration-at-federal-way?utm_source=yext&utm_medium=link", "phone": "+12064292093", "address": "32025 Pacific Hwy S", "hours": "Mo-Sa 06:30-22:00; Su off", "stations": [{"stopCode": 68, "lines": "1", "name": "Federal Way Downtown Station", "walkingMeters": 440, "walkingSeconds": 317, "band": 5}]}, "geometry": {"type": "Point", "coordinates": [-122.3140066, 47.3141828]}}, {"type": "Feature", "properties": {"id": 13124136000, "name": "Honey Bear", "category": "restaurant", "tags": ["restaurant", "vietnamese"], "sources": ["osm"], "website": "https://honeybear-vs.com/", "address": "1640 South 318th Place", "stations": [{"stopCode": 68, "lines": "1", "name": "Federal Way Downtown Station", "walkingMeters": 136, "walkingSeconds": 98, "band": 5}]}, "geometry": {"type": "Point", "coordinates": [-122.3125635, 47.3168581]}}, {"type": "Feature", "properties": {"id": 13124171262, "name": "Engimono Ramen", "category": "restaurant", "tags": ["restaurant", "japanese"], "sources": ["osm"], "website": "https://engimonoramendimsumfederalway.com/", "address": "1426 South 324th Street", "stations": [{"stopCode": 68, "lines": "1", "name": "Federal Way Downtown Station", "walkingMeters": 696, "walkingSeconds": 501, "band": 10}]}, "geometry": {"type": "Point", "coordinates": [-122.3146651, 47.3123425]}}, {"type": "Feature", "properties": {"id": 13787309116, "name": "Caf\u00e9 Seoul", "category": "cafe", "tags": ["cafe", "coffee-shop", "wifi"], "sources": ["osm"], "stations": [{"stopCode": 68, "lines": "1", "name": "Federal Way Downtown Station", "walkingMeters": 498, "walkingSeconds": 358, "band": 10}]}, "geometry": {"type": "Point", "coordinates": [-122.3107822, 47.3184845]}}, {"type": "Feature", "properties": {"id": 161286845, "name": "Applebee's", "category": "restaurant", "tags": ["restaurant", "american", "bar-and-grill"], "sources": ["osm", "overture"], "website": "http://www.applebees.com", "phone": "+12538392828", "address": "1801 S. 320th Ave", "stations": [{"stopCode": 68, "lines": "1", "name": "Federal Way Downtown Station", "walkingMeters": 434, "walkingSeconds": 312, "band": 5}]}, "geometry": {"type": "Point", "coordinates": [-122.3104283, 47.3147958]}}, {"type": "Feature", "properties": {"id": 42238013, "name": "Cafe Rio", "category": "restaurant", "tags": ["restaurant", "mexican", "latin-american", "texmex"], "sources": ["osm", "overture"], "website": "https://www.caferio.com/locations/federal-way", "phone": "+12536424925", "address": "1700 S 320th St", "stations": [{"stopCode": 68, "lines": "1", "name": "Federal Way Downtown Station", "walkingMeters": 166, "walkingSeconds": 120, "band": 5}]}, "geometry": {"type": "Point", "coordinates": [-122.3116773, 47.3154943]}}, {"type": "Feature", "properties": {"id": 42391068, "name": "Kum Kang San B.B.Q. Grill Buffet", "category": "restaurant", "tags": ["restaurant", "korean", "buffet", "barbecue"], "sources": ["osm", "overture"], "website": "http://www.kumkangsanbuffet.com/", "phone": "+12539419292", "address": "31656 Pacific Hwy S", "stations": [{"stopCode": 68, "lines": "1", "name": "Federal Way Downtown Station", "walkingMeters": 257, "walkingSeconds": 185, "band": 5}]}, "geometry": {"type": "Point", "coordinates": [-122.3123274, 47.3172555]}}, {"type": "Feature", "properties": {"id": 42391070, "name": "California Burrito", "category": "fast_food", "tags": ["fast-food", "mexican", "takeaway"], "sources": ["osm"], "address": "31646 Pacific Highway South", "stations": [{"stopCode": 68, "lines": "1", "name": "Federal Way Downtown Station", "walkingMeters": 223, "walkingSeconds": 160, "band": 5}]}, "geometry": {"type": "Point", "coordinates": [-122.3130185, 47.3174753]}}, {"type": "Feature", "properties": {"id": 42640670, "name": "Sushi Hiro Asian Grill", "category": "restaurant", "tags": ["restaurant"], "sources": ["osm"], "address": "31448 Pacific Highway South", "stations": [{"stopCode": 68, "lines": "1", "name": "Federal Way Downtown Station", "walkingMeters": 412, "walkingSeconds": 297, "band": 5}]}, "geometry": {"type": "Point", "coordinates": [-122.3129214, 47.3193031]}}, {"type": "Feature", "properties": {"id": 61951463, "name": "Church's Chicken", "category": "fast_food", "tags": ["fast-food", "chicken", "takeaway"], "sources": ["osm"], "website": "https://locations.churchs.com/wa/federal-way/31717-pacific-highway", "phone": "+1-253-946-0596", "address": "31717 Pacific Highway South", "stations": [{"stopCode": 68, "lines": "1", "name": "Federal Way Downtown Station", "walkingMeters": 290, "walkingSeconds": 209, "band": 5}]}, "geometry": {"type": "Point", "coordinates": [-122.3138224, 47.3168905]}}, {"type": "Feature", "properties": {"id": 61951469, "name": "Village Inn", "category": "restaurant", "tags": ["restaurant", "american", "breakfast-and-brunch", "breakfast", "brunch", "theme"], "sources": ["osm", "overture"], "website": "https://www.villageinn.com/federal-way-wa", "phone": "+12539419860", "address": "31711 Pacific Hwy S", "stations": [{"stopCode": 68, "lines": "1", "name": "Federal Way Downtown Station", "walkingMeters": 267, "walkingSeconds": 192, "band": 5}]}, "geometry": {"type": "Point", "coordinates": [-122.3138316, 47.3170664]}}, {"type": "Feature", "properties": {"id": 67489344, "name": "Black Bear Diner", "category": "restaurant", "tags": ["restaurant", "american", "diner", "theme"], "sources": ["osm", "overture"], "website": "https://blackbeardiner.com/location/federal-way/", "phone": "+12539458332", "address": "32065 Pacific Hwy S", "stations": [{"stopCode": 68, "lines": "1", "name": "Federal Way Downtown Station", "walkingMeters": 537, "walkingSeconds": 386, "band": 10}]}, "geometry": {"type": "Point", "coordinates": [-122.3140119, 47.3132868]}}, {"type": "Feature", "properties": {"id": 85670700, "name": "Chosun Korean BBQ", "category": "restaurant", "tags": ["restaurant", "korean", "barbecue", "asian"], "sources": ["osm", "overture"], "website": "http://chosunkbbq.com/", "phone": "+12535175355", "address": "1616 S 325th St", "stations": [{"stopCode": 68, "lines": "1", "name": "Federal Way Downtown Station", "walkingMeters": 860, "walkingSeconds": 619, "band": 10}]}, "geometry": {"type": "Point", "coordinates": [-122.3122038, 47.3109869]}}, {"type": "Feature", "properties": {"id": "80c8f974-34d9-4bf5-bc66-7c50239084de", "name": "Arby's", "category": "fast_food", "tags": ["fast-food", "fast", "food"], "sources": ["overture"], "website": "http://www.Arbys.com", "phone": "(253) 941-4255", "address": "31675 Pacific Hwy S", "stations": [{"stopCode": 68, "lines": "1", "name": "Federal Way Downtown Station", "walkingMeters": 262, "walkingSeconds": 188, "band": 5}]}, "geometry": {"type": "Point", "coordinates": [-122.3139343, 47.3173523]}}, {"type": "Feature", "properties": {"id": "10511ccf-da93-44b0-b98c-4fb0a91d34eb", "name": "California Burrito Taco Shop", "category": "restaurant", "tags": ["restaurant", "taco", "mexican", "texmex"], "sources": ["overture"], "website": "http://caburritos.com", "phone": "+12539465387", "address": "31646 Pacific Hwy S", "stations": [{"stopCode": 68, "lines": "1", "name": "Federal Way Downtown Station", "walkingMeters": 221, "walkingSeconds": 159, "band": 5}]}, "geometry": {"type": "Point", "coordinates": [-122.3130417, 47.3175049]}}, {"type": "Feature", "properties": {"id": "1dd18179-3e2d-41a1-8a46-eb6bb05a27d8", "name": "Caf\u00e9 Elite", "category": "cafe", "tags": ["cafe", "coffee"], "sources": ["overture"], "website": "http://www.cafeelite.com/", "phone": "+12535891060", "address": "1045 S 320th St", "stations": [{"stopCode": 68, "lines": "1", "name": "Federal Way Downtown Station", "walkingMeters": 804, "walkingSeconds": 578, "band": 10}]}, "geometry": {"type": "Point", "coordinates": [-122.319046, 47.3148079]}}, {"type": "Feature", "properties": {"id": "c39faa99-3ac6-475a-807e-57a6dfa7a7da", "name": "Trapper's Sushi", "category": "restaurant", "tags": ["restaurant", "sushi", "japanese", "asian"], "sources": ["overture"], "website": "https://www.trapperssushi.com/federalway", "phone": "+12065926702", "address": "31835 Pacific Hwy S Ste A", "stations": [{"stopCode": 68, "lines": "1", "name": "Federal Way Downtown Station", "walkingMeters": 501, "walkingSeconds": 360, "band": 10}]}, "geometry": {"type": "Point", "coordinates": [-122.3153305, 47.3161469]}}, {"type": "Feature", "properties": {"id": "b1b0d777-5c5e-4c59-aaf4-423175173b95", "name": "Dick's Drive-In", "category": "restaurant", "tags": ["restaurant", "burger"], "sources": ["overture"], "website": "http://www.ddir.com/federalway", "phone": "(206) 634-0300", "address": "32048 Pacific Hwy S", "stations": [{"stopCode": 68, "lines": "1", "name": "Federal Way Downtown Station", "walkingMeters": 319, "walkingSeconds": 230, "band": 5}]}, "geometry": {"type": "Point", "coordinates": [-122.3128204, 47.3149033]}}, {"type": "Feature", "properties": {"id": "d7e4ef20-8981-403f-9fae-0fe2d05b3d63", "name": "ZENSHI Handcrafted Sushi", "category": "restaurant", "tags": ["restaurant", "sushi", "japanese", "asian"], "sources": ["overture"], "website": "https://www.zenshisushi.com/", "phone": "+12538398503", "address": "1207 S 320th St", "stations": [{"stopCode": 68, "lines": "1", "name": "Federal Way Downtown Station", "walkingMeters": 772, "walkingSeconds": 576, "band": 10}]}, "geometry": {"type": "Point", "coordinates": [-122.3183517, 47.313839]}}, {"type": "Feature", "properties": {"id": "e1a307bd-0ea3-471e-bb77-2cfe85b152c3", "name": "Pizza Takeout & Delivery", "category": "fast_food", "tags": ["fast-food", "fast", "food"], "sources": ["overture"], "website": "https://locations.papamurphys.com/wa/federal-way/31653-pacific-hwy-south", "stations": [{"stopCode": 68, "lines": "1", "name": "Federal Way Downtown Station", "walkingMeters": 315, "walkingSeconds": 235, "band": 5}]}, "geometry": {"type": "Point", "coordinates": [-122.3151474, 47.3174438]}}, {"type": "Feature", "properties": {"id": "845f1fc8-5854-4d89-98df-c56e5428f1c2", "name": "Chipotle Mexican Grill", "category": "restaurant", "tags": ["restaurant", "mexican", "taco", "fast-food"], "sources": ["overture"], "website": "https://locations.chipotle.com/wa/federal-way/31827-pacific-hwy-s?utm_source=facebook&utm_medium=yext&utm_campaign=yext_listings%3Frestaurant%3D743", "phone": "+12539458287", "address": "31827 Pacific Hwy S Ste A", "stations": [{"stopCode": 68, "lines": "1", "name": "Federal Way Downtown Station", "walkingMeters": 384, "walkingSeconds": 276, "band": 5}]}, "geometry": {"type": "Point", "coordinates": [-122.3139191, 47.3162231]}}, {"type": "Feature", "properties": {"id": "c6404508-244d-4a4e-bd34-53ac969c5b3d", "name": "QDOBA Mexican Eats", "category": "fast_food", "tags": ["fast-food", "fast", "food", "mexican"], "sources": ["overture"], "website": "https://locations.qdoba.com/us/wa/federal-way/1301-s-320th-st.html?utm_source=Listings", "phone": "2538391456", "address": "1301 S 320th St Unit D4", "stations": [{"stopCode": 68, "lines": "1", "name": "Federal Way Downtown Station", "walkingMeters": 691, "walkingSeconds": 497, "band": 10}]}, "geometry": {"type": "Point", "coordinates": [-122.3165436, 47.314743]}}, {"type": "Feature", "properties": {"id": "c07e50e3-4ee4-47fd-8ff2-8e82d0f84bd9", "name": "Pho Quynh", "category": "restaurant", "tags": ["restaurant", "vietnamese", "asian"], "sources": ["overture"], "website": "http://phoquynh.com/", "phone": "+12535292241", "address": "31434 Pacific Hwy S", "stations": [{"stopCode": 68, "lines": "1", "name": "Federal Way Downtown Station", "walkingMeters": 474, "walkingSeconds": 342, "band": 10}]}, "geometry": {"type": "Point", "coordinates": [-122.3130264, 47.3197327]}}, {"type": "Feature", "properties": {"id": "e551743c-b8eb-4b3d-9c83-40e29bf4fcdd", "name": "Sushi Hiro", "category": "restaurant", "tags": ["restaurant", "sushi", "japanese", "asian"], "sources": ["overture"], "website": "https://sushihirofederalway.com/menu/", "phone": "+12062126576", "address": "31448 Pacific Hwy S", "stations": [{"stopCode": 68, "lines": "1", "name": "Federal Way Downtown Station", "walkingMeters": 410, "walkingSeconds": 296, "band": 5}]}, "geometry": {"type": "Point", "coordinates": [-122.312912, 47.3192825]}}, {"type": "Feature", "properties": {"id": "e752949b-27e4-4654-ac28-35546d03d66f", "name": "Jay's Asian Grill Way", "category": "restaurant", "tags": ["restaurant", "mongolian"], "sources": ["overture"], "website": "http://www.jaysasiangrill.com/", "phone": "2535294050", "address": "31448 Pacific Highway S", "stations": [{"stopCode": 68, "lines": "1", "name": "Federal Way Downtown Station", "walkingMeters": 410, "walkingSeconds": 296, "band": 5}]}, "geometry": {"type": "Point", "coordinates": [-122.3129501, 47.3192825]}}, {"type": "Feature", "properties": {"id": "7d89862e-15a9-46c5-830b-eb911ca68ca3", "name": "Shin Sung Restaurant", "category": "restaurant", "tags": ["restaurant", "korean", "asian"], "sources": ["overture"], "website": "http://www.chow.com/profile/242387", "phone": "+12538399292", "address": "1805 S 316th St", "stations": [{"stopCode": 68, "lines": "1", "name": "Federal Way Downtown Station", "walkingMeters": 506, "walkingSeconds": 364, "band": 10}]}, "geometry": {"type": "Point", "coordinates": [-122.3103256, 47.3184662]}}, {"type": "Feature", "properties": {"id": "fdf6a844-21de-4370-89f8-6163829551c2", "name": "UnderGround Kitchen", "category": "restaurant", "tags": ["restaurant", "asian", "korean"], "sources": ["overture"], "phone": "+12538393013", "address": "1805 S 316th St", "stations": [{"stopCode": 68, "lines": "1", "name": "Federal Way Downtown Station", "walkingMeters": 524, "walkingSeconds": 377, "band": 10}]}, "geometry": {"type": "Point", "coordinates": [-122.3103027, 47.3184509]}}, {"type": "Feature", "properties": {"id": "bff5d1e5-ce1b-42a8-be50-19267d96bf03", "name": "Red Stone Tofu House", "category": "restaurant", "tags": ["restaurant", "korean", "vegetarian"], "sources": ["overture"], "website": "http://redstonetofuhouse.com/", "phone": "+12535175355", "address": "1616 S 325th St", "stations": [{"stopCode": 68, "lines": "1", "name": "Federal Way Downtown Station", "walkingMeters": 891, "walkingSeconds": 642, "band": 10}]}, "geometry": {"type": "Point", "coordinates": [-122.3123398, 47.3109169]}}, {"type": "Feature", "properties": {"id": "5b21a6d2-0ec3-44aa-9d25-1416160401a6", "name": "Noel 2017 Food Inc", "category": "restaurant", "tags": ["restaurant"], "sources": ["overture"], "address": "1616 S 325th St", "stations": [{"stopCode": 68, "lines": "1", "name": "Federal Way Downtown Station", "walkingMeters": 870, "walkingSeconds": 649, "band": 10}]}, "geometry": {"type": "Point", "coordinates": [-122.3122253, 47.3109818]}}, {"type": "Feature", "properties": {"id": "e85436de-7cdd-4107-9027-eb26d847bef4", "name": "Great Harvest Bread Co.", "category": "bakery", "tags": ["bakery"], "sources": ["overture"], "website": "http://www.greatharvest.com/", "phone": "(253) 529-2177", "address": "1770 S 320th St", "stations": [{"stopCode": 68, "lines": "1", "name": "Federal Way Downtown Station", "walkingMeters": 172, "walkingSeconds": 124, "band": 5}]}, "geometry": {"type": "Point", "coordinates": [-122.3107071, 47.3162727]}}, {"type": "Feature", "properties": {"id": "65d04e91-8820-4075-9ec5-590afd012395", "name": "Billy McHale's", "category": "restaurant", "tags": ["restaurant", "american"], "sources": ["overture"], "website": "http://billymchalesfw.com", "phone": "(253) 839-4200", "address": "1800 S 320th St", "stations": [{"stopCode": 68, "lines": "1", "name": "Federal Way Downtown Station", "walkingMeters": 300, "walkingSeconds": 216, "band": 5}]}, "geometry": {"type": "Point", "coordinates": [-122.3102722, 47.3155556]}}, {"type": "Feature", "properties": {"id": "bb0908e4-8086-423d-a111-bfc24cd6009f", "name": "Billy McHale's", "category": "restaurant", "tags": ["restaurant", "bar-and-grill", "bar", "grill", "american"], "sources": ["overture"], "website": "http://www.billymchales.com/", "phone": "+12538394200", "address": "Celebration Center, 1320 South 324th St Apt A10", "stations": [{"stopCode": 68, "lines": "1", "name": "Federal Way Downtown Station", "walkingMeters": 759, "walkingSeconds": 566, "band": 10}]}, "geometry": {"type": "Point", "coordinates": [-122.3165894, 47.312767]}}, {"type": "Feature", "properties": {"id": "c04a7e7f-d039-48ef-a90d-84491c120960", "name": "Linh Son Corp", "category": "restaurant", "tags": ["restaurant"], "sources": ["overture"], "address": "31830 Pacific Hwy S Ste K", "stations": [{"stopCode": 68, "lines": "1", "name": "Federal Way Downtown Station", "walkingMeters": 118, "walkingSeconds": 88, "band": 5}]}, "geometry": {"type": "Point", "coordinates": [-122.3125458, 47.3162689]}}, {"type": "Feature", "properties": {"id": "e1629573-b518-45e7-a519-7d1ebbaadfdb", "name": "Ma Boulangerie", "category": "cafe", "tags": ["cafe", "coffee"], "sources": ["overture"], "website": "http://www.federalwaybakery.com/", "phone": "2066537444", "address": "1770 S 320th St", "stations": [{"stopCode": 68, "lines": "1", "name": "Federal Way Downtown Station", "walkingMeters": 180, "walkingSeconds": 130, "band": 5}]}, "geometry": {"type": "Point", "coordinates": [-122.3120575, 47.3152313]}}, {"type": "Feature", "properties": {"id": "76178880-5b0f-4377-b490-f8d998f11788", "name": "Stacks", "category": "restaurant", "tags": ["restaurant", "burger"], "sources": ["overture"], "website": "http://stacksburgers.com", "phone": "(253) 941-3307", "address": "1706 S 320th St Ste A", "stations": [{"stopCode": 68, "lines": "1", "name": "Federal Way Downtown Station", "walkingMeters": 168, "walkingSeconds": 121, "band": 5}]}, "geometry": {"type": "Point", "coordinates": [-122.311615, 47.315834]}}, {"type": "Feature", "properties": {"id": "9bd05dd3-2f71-4a67-aaa7-0568b0536a6d", "name": "GRAND PEKING", "category": "restaurant", "tags": ["restaurant", "asian", "fusion"], "sources": ["overture"], "website": "https://www.grandpekingorder.com/?utm_source=bing&utm_medium=websiteurl&utm_campaign=search", "phone": "2538391787", "address": "1706 S 320th St", "stations": [{"stopCode": 68, "lines": "1", "name": "Federal Way Downtown Station", "walkingMeters": 98, "walkingSeconds": 71, "band": 5}]}, "geometry": {"type": "Point", "coordinates": [-122.3116608, 47.3161011]}}, {"type": "Feature", "properties": {"id": "adcd4852-11af-4f29-9d1c-9d10f409bd8b", "name": "AJI Koharu Sushi & Grill", "category": "restaurant", "tags": ["restaurant", "japanese", "sushi", "asian"], "sources": ["overture"], "website": "http://www.ajikoharusushi.com/", "phone": "+12062126909", "address": "31840 Pacific Hwy S Ste c", "stations": [{"stopCode": 68, "lines": "1", "name": "Federal Way Downtown Station", "walkingMeters": 225, "walkingSeconds": 162, "band": 5}]}, "geometry": {"type": "Point", "coordinates": [-122.3121109, 47.3162155]}}, {"type": "Feature", "properties": {"id": "a798c5e3-7253-48db-9c38-b968998a2059", "name": "Herfy's Burger", "category": "restaurant", "tags": ["restaurant", "burger"], "sources": ["overture"], "website": "http://www.herfysburgers24wa.com", "phone": "(253) 946-7288", "address": "1640 S 318th Pl Ste A", "stations": [{"stopCode": 68, "lines": "1", "name": "Federal Way Downtown Station", "walkingMeters": 279, "walkingSeconds": 200, "band": 5}]}, "geometry": {"type": "Point", "coordinates": [-122.3124084, 47.3169174]}}, {"type": "Feature", "properties": {"id": "f2b8721b-5a6f-4b56-b2e5-dac94f73b3c0", "name": "Honey Bear Vietnamese Sandwich", "category": "restaurant", "tags": ["restaurant", "vietnamese", "asian"], "sources": ["overture"], "website": "https://honeybear-vs.com/", "phone": "+12539467288", "address": "1640 S 318th Pl Ste. A", "stations": [{"stopCode": 68, "lines": "1", "name": "Federal Way Downtown Station", "walkingMeters": 126, "walkingSeconds": 91, "band": 5}]}, "geometry": {"type": "Point", "coordinates": [-122.3125687, 47.3167725]}}, {"type": "Feature", "properties": {"id": "916be866-90a5-41ac-abc7-d7ee8cc866c0", "name": "Crab and More", "category": "restaurant", "tags": ["restaurant", "seafood"], "sources": ["overture"], "website": "http://crabandmorewa.com/", "phone": "+12062126957", "address": "31830 Pacific Hwy S Ste k", "stations": [{"stopCode": 68, "lines": "1", "name": "Federal Way Downtown Station", "walkingMeters": 180, "walkingSeconds": 130, "band": 5}]}, "geometry": {"type": "Point", "coordinates": [-122.312706, 47.3164825]}}, {"type": "Feature", "properties": {"id": "1270cf75-e65b-41cc-94c8-9749366c871d", "name": "Church's Texas Chicken", "category": "fast_food", "tags": ["fast-food", "fast", "food", "chicken", "american"], "sources": ["overture"], "website": "https://locations.churchs.com/wa/federal-way/31717-pacific-highway", "phone": "+12539460596", "address": "31717 Pacific Highway", "stations": [{"stopCode": 68, "lines": "1", "name": "Federal Way Downtown Station", "walkingMeters": 281, "walkingSeconds": 202, "band": 5}]}, "geometry": {"type": "Point", "coordinates": [-122.3136826, 47.3168831]}}, {"type": "Feature", "properties": {"id": "b91194e9-f428-4739-b707-651eb6771c22", "name": "Los Amigos TQ 2", "category": "restaurant", "tags": ["restaurant", "mexican", "taco", "latin-american"], "sources": ["overture"], "phone": "+12064293344", "address": "31847 Pacific Hwy S", "stations": [{"stopCode": 68, "lines": "1", "name": "Federal Way Downtown Station", "walkingMeters": 377, "walkingSeconds": 272, "band": 5}]}, "geometry": {"type": "Point", "coordinates": [-122.3139877, 47.3158531]}}, {"type": "Feature", "properties": {"id": "e2c669f1-4bea-4ebc-9d5f-107857ea6d34", "name": "Paris Baguette", "category": "bakery", "tags": ["bakery", "flatbread"], "sources": ["overture"], "website": "https://parisbaguette.com/locations/wa/federal-way/32225-pacific-hwy-s/", "address": "32225 Pacific Hwy S.", "stations": [{"stopCode": 68, "lines": "1", "name": "Federal Way Downtown Station", "walkingMeters": 640, "walkingSeconds": 478, "band": 10}]}, "geometry": {"type": "Point", "coordinates": [-122.3139954, 47.3127861]}}, {"type": "Feature", "properties": {"id": "9c618b26-6c77-4af3-8603-228050d49ea3", "name": "Engimono Ramen & Dim Sum", "category": "restaurant", "tags": ["restaurant", "japanese", "dim-sum", "asian"], "sources": ["overture"], "website": "https://www.engimonoramendimsumfederalway.com/", "phone": "+12538399988", "address": "1426 South 324th St", "stations": [{"stopCode": 68, "lines": "1", "name": "Federal Way Downtown Station", "walkingMeters": 690, "walkingSeconds": 496, "band": 10}]}, "geometry": {"type": "Point", "coordinates": [-122.314621, 47.3123665]}}, {"type": "Feature", "properties": {"id": "1a169d00-33bb-4ea6-a79c-2461afa0002c", "name": "China Express", "category": "restaurant", "tags": ["restaurant", "chinese"], "sources": ["overture"], "website": "http://www.chinaexpresstysons.com", "phone": "(253) 941-9645", "address": "32057 Pacific Hwy S # S-6001", "stations": [{"stopCode": 68, "lines": "1", "name": "Federal Way Downtown Station", "walkingMeters": 583, "walkingSeconds": 420, "band": 10}]}, "geometry": {"type": "Point", "coordinates": [-122.3154526, 47.3137321]}}, {"type": "Feature", "properties": {"id": "36201466-f022-4c17-bf85-f1b275bb8c32", "name": "Mika Inc", "category": "restaurant", "tags": ["restaurant"], "sources": ["overture"], "address": "1426 S 324th St # B-201", "stations": [{"stopCode": 68, "lines": "1", "name": "Federal Way Downtown Station", "walkingMeters": 690, "walkingSeconds": 497, "band": 10}]}, "geometry": {"type": "Point", "coordinates": [-122.3152618, 47.3122749]}}, {"type": "Feature", "properties": {"id": "277f2818-c030-488e-83d6-59d30759d7b6", "name": "Qdoba Mexican Grill", "category": "restaurant", "tags": ["restaurant", "mexican"], "sources": ["overture"], "website": "https://locations.qdoba.com/us/wa/federal-way/1301-s-320th-st.html", "phone": "(253) 839-1456", "address": "1301 S 320th St Unit D4", "stations": [{"stopCode": 68, "lines": "1", "name": "Federal Way Downtown Station", "walkingMeters": 691, "walkingSeconds": 497, "band": 10}]}, "geometry": {"type": "Point", "coordinates": [-122.3165436, 47.314724]}}, {"type": "Feature", "properties": {"id": "3a836824-0de9-42c1-9a22-9017de1dc2be", "name": "Papa Murphy's Take 'N' Bake Pizza", "category": "restaurant", "tags": ["restaurant", "pizza"], "sources": ["overture"], "website": "https://order.papamurphys.com/menu/papa-murphys-pacific-hwy-south", "phone": "2539413161", "address": "31653 Pacific Highway S Ste F", "stations": [{"stopCode": 68, "lines": "1", "name": "Federal Way Downtown Station", "walkingMeters": 355, "walkingSeconds": 265, "band": 10}]}, "geometry": {"type": "Point", "coordinates": [-122.3153076, 47.3180008]}}, {"type": "Feature", "properties": {"id": "51e0acb4-5870-455a-b78c-19a70510e6ba", "name": "Alpha Male Health And Testosterone Clinic", "category": "restaurant", "tags": ["restaurant"], "sources": ["overture"], "website": "https://alphamalehealthandtestosteroneclinic.com", "phone": "12062126554", "address": "1045 S 320th St  # 7", "stations": [{"stopCode": 68, "lines": "1", "name": "Federal Way Downtown Station", "walkingMeters": 751, "walkingSeconds": 560, "band": 10}]}, "geometry": {"type": "Point", "coordinates": [-122.3189468, 47.3148117]}}, {"type": "Feature", "properties": {"id": "b7c0bce9-1c64-4187-ac41-dacbbb1ccd4f", "name": "Scoreboard", "category": "bar", "tags": ["bar", "sports", "bar-and-grill"], "sources": ["overture"], "website": "http://scoreboardfw.com/", "phone": "+12538394791", "address": "1200 South 324th St", "stations": [{"stopCode": 68, "lines": "1", "name": "Federal Way Downtown Station", "walkingMeters": 1006, "walkingSeconds": 723, "band": 15}]}, "geometry": {"type": "Point", "coordinates": [-122.3177109, 47.3119087]}}, {"type": "Feature", "properties": {"id": "68bfe434-5ffb-4a08-81fb-76d681a99c5c", "name": "Vinces Sports Bar Federal Way", "category": "bar", "tags": ["bar", "italian", "pizza"], "sources": ["overture"], "website": "http://vincesrestaurants.com/", "phone": "+12538391496", "address": "32411 Pacific Hwy S", "stations": [{"stopCode": 68, "lines": "1", "name": "Federal Way Downtown Station", "walkingMeters": 817, "walkingSeconds": 590, "band": 10}]}, "geometry": {"type": "Point", "coordinates": [-122.3141251, 47.311203]}}, {"type": "Feature", "properties": {"id": "d28b68b1-3bcd-4492-bfe2-99e8e1a9c155", "name": "Tokyo-ya Ramen", "category": "restaurant", "tags": ["restaurant", "japanese", "asian"], "sources": ["overture"], "website": "http://tokyoyaramen.com/", "phone": "+12065926552", "address": "31507 Pacific Hwy S", "stations": [{"stopCode": 68, "lines": "1", "name": "Federal Way Downtown Station", "walkingMeters": 582, "walkingSeconds": 419, "band": 10}]}, "geometry": {"type": "Point", "coordinates": [-122.3152542, 47.319767]}}, {"type": "Feature", "properties": {"id": "19f06097-200e-423c-a7e2-06dbf4cf3c08", "name": "Blimpie Subs & Sandwiches", "category": "restaurant", "tags": ["restaurant", "sandwich"], "sources": ["overture"], "website": "http://www.blimpie.com/", "phone": "(253) 839-6658", "address": "31517 Pacific Hwy S", "stations": [{"stopCode": 68, "lines": "1", "name": "Federal Way Downtown Station", "walkingMeters": 541, "walkingSeconds": 389, "band": 10}]}, "geometry": {"type": "Point", "coordinates": [-122.3146439, 47.3194923]}}, {"type": "Feature", "properties": {"id": 8063570971, "name": "Salmon sculpture", "category": "artwork", "tags": ["artwork"], "sources": ["osm"], "stations": [{"stopCode": 68, "lines": "1", "name": "Federal Way Downtown Station", "walkingMeters": 340, "walkingSeconds": 245, "band": 5}]}, "geometry": {"type": "Point", "coordinates": [-122.3136959, 47.3149677]}}, {"type": "Feature", "properties": {"id": "45c76251-7260-4897-b55d-9c003e1cb4ef", "name": "Uptown Square Apartments", "category": "attraction", "tags": ["attraction", "landmark", "historical", "building"], "sources": ["overture"], "website": "http://www.uptownwa.com/index.aspx?utm_knock=fb", "phone": "+12532528823", "address": "1066 S 320th St", "stations": [{"stopCode": 68, "lines": "1", "name": "Federal Way Downtown Station", "walkingMeters": 738, "walkingSeconds": 531, "band": 15}]}, "geometry": {"type": "Point", "coordinates": [-122.3192902, 47.3165588]}}, {"type": "Feature", "properties": {"id": "bb3cbcb3-788a-47dd-b015-95fd14c59b58", "name": "Trinidad S Condominium Owners Association", "category": "attraction", "tags": ["attraction", "landmark", "historical", "building"], "sources": ["overture"], "phone": "+12538398810", "address": "1040 S 320th St", "stations": [{"stopCode": 68, "lines": "1", "name": "Federal Way Downtown Station", "walkingMeters": 839, "walkingSeconds": 603, "band": 15}]}, "geometry": {"type": "Point", "coordinates": [-122.3199387, 47.3164482]}}, {"type": "Feature", "properties": {"id": "9717329a-03ec-40f9-ac7c-9004c8eb68d7", "name": "Celebration Park Apartments", "category": "attraction", "tags": ["attraction", "landmark", "historical", "building"], "sources": ["overture"], "website": "https://www.forrent.com/apartment-community-profile/1007789", "phone": "+12534998241", "address": "32205 11th Pl S", "stations": [{"stopCode": 68, "lines": "1", "name": "Federal Way Downtown Station", "walkingMeters": 954, "walkingSeconds": 686, "band": 15}]}, "geometry": {"type": "Point", "coordinates": [-122.3194733, 47.3128319]}}, {"type": "Feature", "properties": {"id": 5857345085, "name": "Little Gym", "category": "playground", "tags": ["playground"], "sources": ["osm"], "stations": [{"stopCode": 68, "lines": "1", "name": "Federal Way Downtown Station", "walkingMeters": 791, "walkingSeconds": 569, "band": 10}]}, "geometry": {"type": "Point", "coordinates": [-122.3152643, 47.3122132]}}, {"type": "Feature", "properties": {"id": 42391090, "name": "Comfort Inn & Suites", "category": "hotel", "tags": ["hotel"], "sources": ["osm"], "website": "https://www.choicehotels.com/washington/tukwila/woodspring-hotels", "phone": "+1-253-237-1519", "address": "31622 Pacific Highway South", "stations": [{"stopCode": 68, "lines": "1", "name": "Federal Way Downtown Station", "walkingMeters": 466, "walkingSeconds": 335, "band": 5}]}, "geometry": {"type": "Point", "coordinates": [-122.3110219, 47.3176627]}}, {"type": "Feature", "properties": {"id": "06879c5c-b218-4e90-bd49-8730852b6070", "name": "Federal way hotel area", "category": "hotel", "tags": ["hotel"], "sources": ["overture"], "website": "https://www.choicehotels.com/washington/federal-way/comfort-inn-hotels/wa114", "phone": "+12535290101", "address": "31622 S 316th Pl", "stations": [{"stopCode": 68, "lines": "1", "name": "Federal Way Downtown Station", "walkingMeters": 450, "walkingSeconds": 324, "band": 5}]}, "geometry": {"type": "Point", "coordinates": [-122.3112411, 47.3177109]}}, {"type": "Feature", "properties": {"id": "d908cb79-b51e-417b-9d55-654c3218fbe9", "name": "Comfort Inn Federal Way", "category": "hotel", "tags": ["hotel"], "sources": ["overture"], "website": "https://www.choicehotels.com/washington/federal-way/comfort-inn-hotels/wa114?pmf=yext&mc=llyxyxpx", "phone": "+12532371519", "address": "31622 Pacific Hwy S", "stations": [{"stopCode": 68, "lines": "1", "name": "Federal Way Downtown Station", "walkingMeters": 480, "walkingSeconds": 345, "band": 5}]}, "geometry": {"type": "Point", "coordinates": [-122.3109055, 47.3177261]}}, {"type": "Feature", "properties": {"id": 61951462, "name": "Best Buy", "category": "electronics", "tags": ["electronics", "wheelchair-accessible"], "sources": ["osm"], "website": "https://stores.bestbuy.com/wa/federal-way/31601-pacific-hwy-s-372.html", "phone": "+1-253-945-0073", "address": "31601 Pacific Highway South", "hours": "Mo-Sa 10:00-20:00; Su 11:00-19:00", "stations": [{"stopCode": 68, "lines": "1", "name": "Federal Way Downtown Station", "walkingMeters": 583, "walkingSeconds": 419, "band": 10}]}, "geometry": {"type": "Point", "coordinates": [-122.315384, 47.3182618]}}, {"type": "Feature", "properties": {"id": 1736128578, "name": "Trader Joe's", "category": "supermarket", "tags": ["supermarket", "wheelchair-accessible"], "sources": ["osm"], "website": "https://locations.traderjoes.com/wa/federal-way/134/", "phone": "+1-253-941-6138", "address": "1758 South 320th Street", "hours": "Mo-Su 09:00-21:00", "stations": [{"stopCode": 68, "lines": "1", "name": "Federal Way Downtown Station", "walkingMeters": 117, "walkingSeconds": 84, "band": 5}]}, "geometry": {"type": "Point", "coordinates": [-122.3108877, 47.3167766]}}, {"type": "Feature", "properties": {"id": 11298999307, "name": "Old Navy", "category": "clothes", "tags": ["clothes"], "sources": ["osm", "overture"], "website": "https://oldnavy.gap.com/", "phone": "+12537337138", "address": "32021 Pacific Hwy S", "stations": [{"stopCode": 68, "lines": "1", "name": "Federal Way Downtown Station", "walkingMeters": 563, "walkingSeconds": 405, "band": 10}]}, "geometry": {"type": "Point", "coordinates": [-122.3152841, 47.3139188]}}, {"type": "Feature", "properties": {"id": 5857345095, "name": "T-Mobile", "category": "mobile_phone", "tags": ["mobile-phone", "mobile"], "sources": ["osm", "overture"], "website": "https://www.t-mobile.com/stores/bd/t-mobile-federal-way-wa-98003-2918?utm_source=facebook&utm_medium=lastmile&utm_campaign=2918", "phone": "+12532049788", "address": "32225 Pacific Hwy S", "stations": [{"stopCode": 68, "lines": "1", "name": "Federal Way Downtown Station", "walkingMeters": 630, "walkingSeconds": 453, "band": 10}]}, "geometry": {"type": "Point", "coordinates": [-122.3140794, 47.3128778]}}, {"type": "Feature", "properties": {"id": 5857343912, "name": "Mud Bay", "category": "pet", "tags": ["pet"], "sources": ["osm", "overture"], "website": "http://www.mudbay.com/pet-store/FED-federal-way-WA", "phone": "2536816270", "address": "1706 S 320th St", "stations": [{"stopCode": 68, "lines": "1", "name": "Federal Way Downtown Station", "walkingMeters": 168, "walkingSeconds": 121, "band": 5}]}, "geometry": {"type": "Point", "coordinates": [-122.311576, 47.3158419]}}, {"type": "Feature", "properties": {"id": 1732810018, "name": "Heaven Sent", "category": "clothes", "tags": ["clothes"], "sources": ["osm"], "stations": [{"stopCode": 68, "lines": "1", "name": "Federal Way Downtown Station", "walkingMeters": 1019, "walkingSeconds": 733, "band": 15}]}, "geometry": {"type": "Point", "coordinates": [-122.3173651, 47.3120205]}}, {"type": "Feature", "properties": {"id": "b92132ba-9c03-4ccc-8b77-42a621c734c0", "name": "Island Pacific", "category": "supermarket", "tags": ["supermarket"], "sources": ["overture"], "website": "https://islandpacificmarket.com/stores/federal-way", "address": "31811 Pacific Hwy S", "stations": [{"stopCode": 68, "lines": "1", "name": "Federal Way Downtown Station", "walkingMeters": 437, "walkingSeconds": 315, "band": 10}]}, "geometry": {"type": "Point", "coordinates": [-122.3154221, 47.3165359]}}, {"type": "Feature", "properties": {"id": 135850956, "name": "Safeway", "category": "supermarket", "tags": ["supermarket", "wheelchair-accessible"], "sources": ["osm", "overture"], "website": "https://local.safeway.com/safeway/wa/federal-way/1207-s-320th-st.html", "phone": "+12538398503", "address": "1207 S 320th St", "hours": "Mo-Su 05:00-01:00", "stations": [{"stopCode": 68, "lines": "1", "name": "Federal Way Downtown Station", "walkingMeters": 859, "walkingSeconds": 618, "band": 10}]}, "geometry": {"type": "Point", "coordinates": [-122.3179873, 47.3136033]}}, {"type": "Feature", "properties": {"id": 61950614, "name": "ampm", "category": "convenience", "tags": ["convenience"], "sources": ["osm", "overture"], "website": "https://www.ampm.com/", "phone": "+12539416459", "address": "31855 Pacific Hwy S", "stations": [{"stopCode": 68, "lines": "1", "name": "Federal Way Downtown Station", "walkingMeters": 367, "walkingSeconds": 264, "band": 5}]}, "geometry": {"type": "Point", "coordinates": [-122.3141062, 47.3155259]}}, {"type": "Feature", "properties": {"id": 6178125229, "name": "Cricket Wireless", "category": "mobile_phone", "tags": ["mobile-phone"], "sources": ["osm"], "address": "31721 Pacific Highway South", "stations": [{"stopCode": 68, "lines": "1", "name": "Federal Way Downtown Station", "walkingMeters": 357, "walkingSeconds": 257, "band": 5}]}, "geometry": {"type": "Point", "coordinates": [-122.314522, 47.3168521]}}, {"type": "Feature", "properties": {"id": 5898045588, "name": "Dick's Sporting Goods", "category": "sports", "tags": ["sports"], "sources": ["osm"], "website": "https://stores.dickssportinggoods.com/wa/federal-way/1036/", "phone": "+1-206-400-2811", "address": "1819 South Commons", "hours": "Mo-Sa 09:00-21:00; Su 10:00-19:00", "stations": [{"stopCode": 68, "lines": "1", "name": "Federal Way Downtown Station", "walkingMeters": 796, "walkingSeconds": 573, "band": 10}]}, "geometry": {"type": "Point", "coordinates": [-122.3104927, 47.3131406]}}, {"type": "Feature", "properties": {"id": 42238014, "name": "Ulta Beauty", "category": "cosmetics", "tags": ["cosmetics"], "sources": ["osm"], "website": "https://www.ulta.com/stores/federal-way-wa-1006", "phone": "+1-253-839-1439", "address": "1800 South 320th Street", "hours": "Mo-We 10:00-20:00; Th-Sa 10:00-21:00; Su 11:00-18:00", "stations": [{"stopCode": 68, "lines": "1", "name": "Federal Way Downtown Station", "walkingMeters": 248, "walkingSeconds": 179, "band": 5}]}, "geometry": {"type": "Point", "coordinates": [-122.3104021, 47.3155464]}}, {"type": "Feature", "properties": {"id": 5857343980, "name": "Ross", "category": "department_store", "tags": ["department-store"], "sources": ["osm"], "phone": "+1-253-941-2122", "address": "32075 Pacific Highway", "hours": "Mo-Th 09:00-22:00; Fr-Sa 09:00-22:30; Su 09:00-22:00", "stations": [{"stopCode": 68, "lines": "1", "name": "Federal Way Downtown Station", "walkingMeters": 635, "walkingSeconds": 457, "band": 10}]}, "geometry": {"type": "Point", "coordinates": [-122.31527, 47.3132734]}}, {"type": "Feature", "properties": {"id": 5857343981, "name": "Total Wine", "category": "alcohol", "tags": ["alcohol", "wifi"], "sources": ["osm"], "website": "https://www.totalwine.com/store-info/1407", "phone": "+1-253-941-4017", "address": "32095 Pacific Highway", "hours": "Mo-Su 09:00-22:00", "stations": [{"stopCode": 68, "lines": "1", "name": "Federal Way Downtown Station", "walkingMeters": 680, "walkingSeconds": 490, "band": 10}]}, "geometry": {"type": "Point", "coordinates": [-122.3152542, 47.3128678]}}, {"type": "Feature", "properties": {"id": "e1c4a2f8-2443-43d0-a6f1-274dec7f5c9b", "name": "Carter's", "category": "clothes", "tags": ["clothes", "childrens"], "sources": ["overture"], "website": "https://locations.carters.com/wa/federal-way/carters-federal-way-wa", "phone": "2532963100", "address": "1824 S 320th St Ste 1824B", "stations": [{"stopCode": 68, "lines": "1", "name": "Federal Way Downtown Station", "walkingMeters": 180, "walkingSeconds": 130, "band": 5}]}, "geometry": {"type": "Point", "coordinates": [-122.3103104, 47.3168221]}}, {"type": "Feature", "properties": {"id": 42238009, "name": "Harbor Freight Tools", "category": "hardware", "tags": ["hardware", "wheelchair-accessible"], "sources": ["osm", "overture"], "website": "https://go.harborfreight.com/store00392", "phone": "+12539414028", "address": "31858 Pacific Hwy S", "hours": "Mo-Sa 08:00-20:00; Su 08:00-18:00", "stations": [{"stopCode": 68, "lines": "1", "name": "Federal Way Downtown Station", "walkingMeters": 234, "walkingSeconds": 168, "band": 5}]}, "geometry": {"type": "Point", "coordinates": [-122.312746, 47.3156302]}}, {"type": "Feature", "properties": {"id": 61951465, "name": "PetSmart", "category": "pet", "tags": ["pet", "wheelchair-accessible"], "sources": ["osm", "overture"], "website": "https://www.petsmart.com/stores/us/wa/federal-way-store1106.html", "phone": "+12535294693", "address": "31705 Pacific Hwy S", "hours": "Mo-Sa 09:00-21:00; Su 10:00-19:00", "stations": [{"stopCode": 68, "lines": "1", "name": "Federal Way Downtown Station", "walkingMeters": 474, "walkingSeconds": 342, "band": 5}]}, "geometry": {"type": "Point", "coordinates": [-122.31542, 47.3172482]}}, {"type": "Feature", "properties": {"id": 5857343898, "name": "Batteries Plus Bulbs", "category": "electronics", "tags": ["electronics"], "sources": ["osm"], "stations": [{"stopCode": 68, "lines": "1", "name": "Federal Way Downtown Station", "walkingMeters": 157, "walkingSeconds": 113, "band": 5}]}, "geometry": {"type": "Point", "coordinates": [-122.313028, 47.3164303]}}, {"type": "Feature", "properties": {"id": 166651457, "name": "Safeway Convenience Store", "category": "convenience", "tags": ["convenience"], "sources": ["osm"], "stations": [{"stopCode": 68, "lines": "1", "name": "Federal Way Downtown Station", "walkingMeters": 733, "walkingSeconds": 527, "band": 10}]}, "geometry": {"type": "Point", "coordinates": [-122.3180158, 47.314925]}}, {"type": "Feature", "properties": {"id": 5857343935, "name": "Daiso Japan", "category": "variety_store", "tags": ["variety-store"], "sources": ["osm"], "hours": "Mo-Sa 09:00-21:00; Su 10:00-20:00", "stations": [{"stopCode": 68, "lines": "1", "name": "Federal Way Downtown Station", "walkingMeters": 26, "walkingSeconds": 19, "band": 5}]}, "geometry": {"type": "Point", "coordinates": [-122.311678, 47.3167848]}}, {"type": "Feature", "properties": {"id": 5857343966, "name": "Olympic Sports & Spine", "category": "sports", "tags": ["sports"], "sources": ["osm"], "address": "31653 Pacific Highway South", "stations": [{"stopCode": 68, "lines": "1", "name": "Federal Way Downtown Station", "walkingMeters": 354, "walkingSeconds": 255, "band": 5}]}, "geometry": {"type": "Point", "coordinates": [-122.3151075, 47.317746]}}, {"type": "Feature", "properties": {"id": 42640673, "name": "Willy's Discount Workwear", "category": "clothes", "tags": ["clothes"], "sources": ["osm", "overture"], "website": "https://www.willysdiscountworkwear.com", "phone": "12539414191", "address": "31430 Pacific Hwy S", "stations": [{"stopCode": 68, "lines": "1", "name": "Federal Way Downtown Station", "walkingMeters": 513, "walkingSeconds": 370, "band": 10}]}, "geometry": {"type": "Point", "coordinates": [-122.3129163, 47.3199542]}}, {"type": "Feature", "properties": {"id": 6084952747, "name": "Sole Perfection", "category": "shoes", "tags": ["shoes"], "sources": ["osm"], "address": "31653 Pacific Highway South", "stations": [{"stopCode": 68, "lines": "1", "name": "Federal Way Downtown Station", "walkingMeters": 332, "walkingSeconds": 239, "band": 5}]}, "geometry": {"type": "Point", "coordinates": [-122.3151095, 47.3175419]}}, {"type": "Feature", "properties": {"id": 6108906298, "name": "Teso Life", "category": "department_store", "tags": ["department-store", "variety-store", "discount"], "sources": ["osm", "overture"], "website": "http://tesolife.com", "address": "32015 Pacific Highway South", "stations": [{"stopCode": 68, "lines": "1", "name": "Federal Way Downtown Station", "walkingMeters": 507, "walkingSeconds": 365, "band": 10}]}, "geometry": {"type": "Point", "coordinates": [-122.3154088, 47.3144264]}}, {"type": "Feature", "properties": {"id": 10059822628, "name": "Burlington", "category": "department_store", "tags": ["department-store", "clothes"], "sources": ["osm", "overture"], "website": "https://stores.burlington.com/wa/federal-way/1401/", "phone": "+12535289151", "address": "1701 S Commons - MGP Unit 729-M9 Federal Way, WA 98003", "stations": [{"stopCode": 68, "lines": "1", "name": "Federal Way Downtown Station", "walkingMeters": 555, "walkingSeconds": 399, "band": 10}]}, "geometry": {"type": "Point", "coordinates": [-122.3111019, 47.3135137]}}, {"type": "Feature", "properties": {"id": 6178125271, "name": "Jeffrey's Jewelry Design Studio", "category": "jewelry", "tags": ["jewelry"], "sources": ["osm"], "stations": [{"stopCode": 68, "lines": "1", "name": "Federal Way Downtown Station", "walkingMeters": 1019, "walkingSeconds": 734, "band": 15}]}, "geometry": {"type": "Point", "coordinates": [-122.3171961, 47.3120186]}}, {"type": "Feature", "properties": {"id": 10076144288, "name": "Pet Supplies Plus", "category": "pet", "tags": ["pet"], "sources": ["osm"], "stations": [{"stopCode": 68, "lines": "1", "name": "Federal Way Downtown Station", "walkingMeters": 726, "walkingSeconds": 523, "band": 10}]}, "geometry": {"type": "Point", "coordinates": [-122.311653, 47.312861]}}, {"type": "Feature", "properties": {"id": "ec1bc5e1-4157-4b5f-ac68-d4c67f03bb8a", "name": "Macy's", "category": "department_store", "tags": ["department-store", "department"], "sources": ["overture"], "website": "http://www.macys.com/", "phone": "2535296000", "address": "1901 S Seatac Mall", "stations": [{"stopCode": 68, "lines": "1", "name": "Federal Way Downtown Station", "walkingMeters": 841, "walkingSeconds": 606, "band": 10}]}, "geometry": {"type": "Point", "coordinates": [-122.3102036, 47.3128204]}}, {"type": "Feature", "properties": {"id": 1416869804, "name": "Federal Way Custom Jewelers", "category": "jewelry", "tags": ["jewelry"], "sources": ["osm", "overture"], "website": "http://www.fwcj.com", "phone": "+12538397389", "address": "1810 S 320th St Ste B", "hours": "Tu-Sa 10:00-18:00; Su,Mo off", "stations": [{"stopCode": 68, "lines": "1", "name": "Federal Way Downtown Station", "walkingMeters": 150, "walkingSeconds": 108, "band": 5}]}, "geometry": {"type": "Point", "coordinates": [-122.3104479, 47.316807]}}, {"type": "Feature", "properties": {"id": "9f06016b-cd99-431a-9881-671589295bb0", "name": "Ross Dress for Less", "category": "department_store", "tags": ["department-store", "department"], "sources": ["overture"], "website": "https://www.rossstores.com/", "phone": "+12539412122", "address": "32075 Pacific Hwy S", "stations": [{"stopCode": 68, "lines": "1", "name": "Federal Way Downtown Station", "walkingMeters": 629, "walkingSeconds": 453, "band": 10}]}, "geometry": {"type": "Point", "coordinates": [-122.3154526, 47.3133278]}}, {"type": "Feature", "properties": {"id": "be154261-7f6a-4a59-bdf7-ab4ca718f001", "name": "Cricket Wireless Authorized Retailer", "category": "mobile_phone", "tags": ["mobile-phone", "mobile"], "sources": ["overture"], "website": "https://www.cricketwireless.com/stores/wa/federal-way/31721-pacific-hwy-s-space-b?utm_source=Facebook&utm_medium=Organic_Search&utm_campaign=Yext_Listings", "phone": "+12538391695", "address": "31721 Pacific Hwy S Spc B", "stations": [{"stopCode": 68, "lines": "1", "name": "Federal Way Downtown Station", "walkingMeters": 238, "walkingSeconds": 178, "band": 5}]}, "geometry": {"type": "Point", "coordinates": [-122.3144226, 47.3168564]}}, {"type": "Feature", "properties": {"id": "92916f69-0711-4970-a291-658cd61fc5b8", "name": "Payless ShoeSource", "category": "shoes", "tags": ["shoes", "shoe"], "sources": ["overture"], "website": "http://payless.com/", "phone": "2539413097", "address": "31853 Pacific Highway S", "stations": [{"stopCode": 68, "lines": "1", "name": "Federal Way Downtown Station", "walkingMeters": 356, "walkingSeconds": 256, "band": 5}]}, "geometry": {"type": "Point", "coordinates": [-122.3139572, 47.315731]}}, {"type": "Feature", "properties": {"id": "b11b4219-77cc-4b0a-bdcb-5b0499455dc3", "name": "Total Wireless", "category": "mobile_phone", "tags": ["mobile-phone", "mobile"], "sources": ["overture"], "website": "https://www.totalwireless.com/stores/wa/federal-way/32225-pacific-hwy-s?utm_campaign=list", "phone": "2064292385", "address": "32225 Pacific Highway S Ste 101", "stations": [{"stopCode": 68, "lines": "1", "name": "Federal Way Downtown Station", "walkingMeters": 579, "walkingSeconds": 417, "band": 10}]}, "geometry": {"type": "Point", "coordinates": [-122.3134842, 47.312767]}}, {"type": "Feature", "properties": {"id": "0d5196fc-fe08-4f27-af53-93a8529a8d83", "name": "Sears", "category": "department_store", "tags": ["department-store", "department"], "sources": ["overture"], "phone": "2535298200", "address": "1701S S Commons", "stations": [{"stopCode": 68, "lines": "1", "name": "Federal Way Downtown Station", "walkingMeters": 1150, "walkingSeconds": 827, "band": 15}]}, "geometry": {"type": "Point", "coordinates": [-122.319519, 47.3174362]}}, {"type": "Feature", "properties": {"id": "4f38cf00-5cc9-400b-a36d-1f0e4520d40a", "name": "Mallory Paint Store", "category": "hardware", "tags": ["hardware"], "sources": ["overture"], "website": "http://www.mallorypaint.com/", "phone": "+12065922314", "address": "31853 Pacific Hwy S", "stations": [{"stopCode": 68, "lines": "1", "name": "Federal Way Downtown Station", "walkingMeters": 356, "walkingSeconds": 256, "band": 5}]}, "geometry": {"type": "Point", "coordinates": [-122.3139954, 47.3157425]}}, {"type": "Feature", "properties": {"id": "72810759-6a8b-42dc-8cdc-b4e1139925d9", "name": "Work World", "category": "shoes", "tags": ["shoes", "shoe"], "sources": ["overture"], "website": "https://www.willysdiscountworkwear.com/", "phone": "+12539414191", "address": "31430 Pacific Hwy S", "stations": [{"stopCode": 68, "lines": "1", "name": "Federal Way Downtown Station", "walkingMeters": 515, "walkingSeconds": 371, "band": 10}]}, "geometry": {"type": "Point", "coordinates": [-122.3128891, 47.3199692]}}, {"type": "Feature", "properties": {"id": "8f67f7bb-a3db-4197-ae5e-45eaeba1586e", "name": "Federal Way Public Market", "category": "supermarket", "tags": ["supermarket"], "sources": ["overture"], "website": "adelmannsdelibar.four-food.com", "phone": "2532142999", "address": "1715 S 324th Pl  Ste 250", "stations": [{"stopCode": 68, "lines": "1", "name": "Federal Way Downtown Station", "walkingMeters": 892, "walkingSeconds": 666, "band": 15}]}, "geometry": {"type": "Point", "coordinates": [-122.3111267, 47.3108559]}}, {"type": "Feature", "properties": {"id": "e581dc32-e4ec-4d30-85d0-4f6e5c79a972", "name": "Verizon Authorized Retailer - A Wireless - Closed", "category": "mobile_phone", "tags": ["mobile-phone", "mobile"], "sources": ["overture"], "website": "http://www.awireless.com", "phone": "(253) 529-5505", "address": "1812 S 320th St", "stations": [{"stopCode": 68, "lines": "1", "name": "Federal Way Downtown Station", "walkingMeters": 180, "walkingSeconds": 130, "band": 5}]}, "geometry": {"type": "Point", "coordinates": [-122.310257, 47.3168411]}}, {"type": "Feature", "properties": {"id": "fe34f38f-5226-457f-b7b9-f4cbca762415", "name": "Local Boys Christmas Tree Lot", "category": "variety_store", "tags": ["variety-store", "discount"], "sources": ["overture"], "website": "http://Www.localboygh.com/", "phone": "+12538585355", "address": "32000 Pacific Hwy S", "stations": [{"stopCode": 68, "lines": "1", "name": "Federal Way Downtown Station", "walkingMeters": 376, "walkingSeconds": 271, "band": 5}]}, "geometry": {"type": "Point", "coordinates": [-122.3128128, 47.3147926]}}, {"type": "Feature", "properties": {"id": "f3114c9e-2ad2-4337-b119-fd68840c1985", "name": "Sole Perfection Shoes", "category": "shoes", "tags": ["shoes", "shoe"], "sources": ["overture"], "website": "http://www.soleperfectionshoes.com", "phone": "+12539463400", "address": "31653 Pacific Hwy S", "stations": [{"stopCode": 68, "lines": "1", "name": "Federal Way Downtown Station", "walkingMeters": 336, "walkingSeconds": 242, "band": 5}]}, "geometry": {"type": "Point", "coordinates": [-122.315094, 47.3175812]}}, {"type": "Feature", "properties": {"id": "e1fb478b-2b96-4df4-a224-95ab0a4facdd", "name": "SKECHERS Warehouse Outlet", "category": "shoes", "tags": ["shoes", "shoe"], "sources": ["overture"], "website": "https://local.skechers.com/wa/federal-way/1136/", "phone": "+12532042229", "address": "32031 Pacific Hwy S", "stations": [{"stopCode": 68, "lines": "1", "name": "Federal Way Downtown Station", "walkingMeters": 568, "walkingSeconds": 409, "band": 10}]}, "geometry": {"type": "Point", "coordinates": [-122.3152924, 47.3138695]}}, {"type": "Feature", "properties": {"id": "f08c3867-8bbe-4967-ba7e-8b6b90cd0782", "name": "Total Wine & More", "category": "alcohol", "tags": ["alcohol"], "sources": ["overture"], "website": "https://www.totalwine.com/store-info/washington-federal-way/1407?cid=referral%3Awebsite_link%3A%3Amomentfeed%3A1407_federal_way_store_details_page%3A", "phone": "+12539414017", "address": "32095 Pacific Hwy S", "stations": [{"stopCode": 68, "lines": "1", "name": "Federal Way Downtown Station", "walkingMeters": 671, "walkingSeconds": 483, "band": 10}]}, "geometry": {"type": "Point", "coordinates": [-122.3152771, 47.3129501]}}, {"type": "Feature", "properties": {"id": "59e34d1a-005d-4abd-a1f9-4304a5225bb1", "name": "Bricks & Minifigs Federal Way", "category": "gift", "tags": ["gift"], "sources": ["overture"], "website": "https://linktr.ee/bamfederalway.wa?fbclid=PAQ0xDSwKqxxRleHRuA2FlbQIxMQABp0RwMhv_sSgnNiQN1mTD_Z1tRJ5lKuncEtal8210v-c3TLgRwNAl2D5xtEPD_aem_kIKpmGE4F7aJPRklZu3YeA", "phone": "+12533130880", "address": "1414 S 324th St", "stations": [{"stopCode": 68, "lines": "1", "name": "Federal Way Downtown Station", "walkingMeters": 765, "walkingSeconds": 551, "band": 10}]}, "geometry": {"type": "Point", "coordinates": [-122.3156357, 47.3124008]}}, {"type": "Feature", "properties": {"id": "9b303f40-254a-41ac-a688-29a0286cbe7f", "name": "Washington \u2212 Federal Way", "category": "toys", "tags": ["toys"], "sources": ["overture"], "website": "https://bricksandminifigs.com/federalway-wa/", "address": "1414 S 324th St., STE B 201", "stations": [{"stopCode": 68, "lines": "1", "name": "Federal Way Downtown Station", "walkingMeters": 754, "walkingSeconds": 563, "band": 10}]}, "geometry": {"type": "Point", "coordinates": [-122.3156509, 47.3124123]}}, {"type": "Feature", "properties": {"id": "de3edbc1-79c9-4f1a-ae60-276704721b14", "name": "Maristas Coffee Inc", "category": "supermarket", "tags": ["supermarket"], "sources": ["overture"], "address": "1301 S 320th St", "stations": [{"stopCode": 68, "lines": "1", "name": "Federal Way Downtown Station", "walkingMeters": 695, "walkingSeconds": 500, "band": 10}]}, "geometry": {"type": "Point", "coordinates": [-122.3165207, 47.3147507]}}, {"type": "Feature", "properties": {"id": "388b82c4-a6a6-47a1-a0c7-d93aad853e00", "name": "Mattress Depot USA", "category": "doityourself", "tags": ["doityourself", "home", "improvement"], "sources": ["overture"], "website": "http://www.mattressdepotusa.com/", "phone": "2539412286", "address": "31653 Pacific Highway S Ste D", "stations": [{"stopCode": 68, "lines": "1", "name": "Federal Way Downtown Station", "walkingMeters": 361, "walkingSeconds": 269, "band": 10}]}, "geometry": {"type": "Point", "coordinates": [-122.3155518, 47.3176575]}}, {"type": "Feature", "properties": {"id": "19189c26-b302-48f3-8970-8d1c24b8f644", "name": "Furniture World Nw", "category": "furniture", "tags": ["furniture"], "sources": ["overture"], "website": "http://www.furnitureworldnw.com", "phone": "12066517726", "address": "1209 S 320th St", "stations": [{"stopCode": 68, "lines": "1", "name": "Federal Way Downtown Station", "walkingMeters": 699, "walkingSeconds": 522, "band": 10}]}, "geometry": {"type": "Point", "coordinates": [-122.3171005, 47.3136177]}}, {"type": "Feature", "properties": {"id": "fc75cadb-b895-4c7b-8276-5a217f021be7", "name": "Brez Clothing", "category": "clothes", "tags": ["clothes"], "sources": ["overture"], "website": "https://www.brezclothing.com/", "phone": "+12068237582", "address": "1200 South 324th St Suite 6", "stations": [{"stopCode": 68, "lines": "1", "name": "Federal Way Downtown Station", "walkingMeters": 997, "walkingSeconds": 717, "band": 15}]}, "geometry": {"type": "Point", "coordinates": [-122.3175354, 47.3119698]}}, {"type": "Feature", "properties": {"id": 61951461, "name": "Concentra Urgent Care", "category": "clinic", "tags": ["clinic", "medical"], "sources": ["osm", "overture"], "website": "https://www.concentra.com/urgent-care-centers/washington/portland/federal-way-urgent-care/?utm_source=Yext&utm_medium=Referral&utm_campaign=LocalPage", "phone": "+12538392727", "address": "1300 S 320th St B", "stations": [{"stopCode": 68, "lines": "1", "name": "Federal Way Downtown Station", "walkingMeters": 618, "walkingSeconds": 445, "band": 10}]}, "geometry": {"type": "Point", "coordinates": [-122.316287, 47.3155638]}}, {"type": "Feature", "properties": {"id": 5857345090, "name": "Bloodworks Northwest Federal Way Center", "category": "clinic", "tags": ["clinic"], "sources": ["osm"], "website": "https://www.bloodworksnw.org/", "phone": "+1-253-945-8660", "address": "1414 South 324th Street", "stations": [{"stopCode": 68, "lines": "1", "name": "Federal Way Downtown Station", "walkingMeters": 842, "walkingSeconds": 606, "band": 10}]}, "geometry": {"type": "Point", "coordinates": [-122.3158985, 47.3121945]}}, {"type": "Feature", "properties": {"id": 6178125209, "name": "High Land Pharmacy", "category": "pharmacy", "tags": ["pharmacy"], "sources": ["osm"], "stations": [{"stopCode": 68, "lines": "1", "name": "Federal Way Downtown Station", "walkingMeters": 214, "walkingSeconds": 154, "band": 5}]}, "geometry": {"type": "Point", "coordinates": [-122.3122601, 47.316312]}}, {"type": "Feature", "properties": {"id": 6178125232, "name": "Cornerstone Clinic", "category": "clinic", "tags": ["clinic"], "sources": ["osm"], "stations": [{"stopCode": 68, "lines": "1", "name": "Federal Way Downtown Station", "walkingMeters": 800, "walkingSeconds": 575, "band": 10}]}, "geometry": {"type": "Point", "coordinates": [-122.3197657, 47.3156756]}}, {"type": "Feature", "properties": {"id": 6178125790, "name": "Innovative Men's Clinic", "category": "clinic", "tags": ["clinic"], "sources": ["osm"], "stations": [{"stopCode": 68, "lines": "1", "name": "Federal Way Downtown Station", "walkingMeters": 915, "walkingSeconds": 659, "band": 10}]}, "geometry": {"type": "Point", "coordinates": [-122.3110794, 47.3109802]}}, {"type": "Feature", "properties": {"id": 13360736270, "name": "Carbon Health", "category": "clinic", "tags": ["clinic"], "sources": ["osm"], "stations": [{"stopCode": 68, "lines": "1", "name": "Federal Way Downtown Station", "walkingMeters": 484, "walkingSeconds": 348, "band": 5}]}, "geometry": {"type": "Point", "coordinates": [-122.3110719, 47.3146627]}}, {"type": "Feature", "properties": {"id": 61951474, "name": "CHI Franciscan Urgent Care", "category": "clinic", "tags": ["clinic"], "sources": ["osm"], "address": "31675 Pacific Highway South", "stations": [{"stopCode": 68, "lines": "1", "name": "Federal Way Downtown Station", "walkingMeters": 254, "walkingSeconds": 183, "band": 5}]}, "geometry": {"type": "Point", "coordinates": [-122.3138374, 47.3173865]}}, {"type": "Feature", "properties": {"id": "7ec11ebf-cd71-48c8-8d74-120213201b5b", "name": "Safeway Pharmacy", "category": "pharmacy", "tags": ["pharmacy"], "sources": ["overture"], "website": "https://local.pharmacy.safeway.com/safeway/wa/federal-way/1207-s-320th-st.html", "phone": "2539461505", "address": "1207 S 320th St", "stations": [{"stopCode": 68, "lines": "1", "name": "Federal Way Downtown Station", "walkingMeters": 744, "walkingSeconds": 555, "band": 10}]}, "geometry": {"type": "Point", "coordinates": [-122.3176117, 47.31353]}}, {"type": "Feature", "properties": {"id": "09b1cf78-099b-4669-9e3d-10fca9052229", "name": "Innovative Men's Clinic - Federal Way", "category": "clinic", "tags": ["clinic", "medical"], "sources": ["overture"], "website": "innovativemen.com", "phone": "+12538397000", "address": "1715 S 324th Pl Ste 100", "stations": [{"stopCode": 68, "lines": "1", "name": "Federal Way Downtown Station", "walkingMeters": 892, "walkingSeconds": 666, "band": 15}]}, "geometry": {"type": "Point", "coordinates": [-122.3111267, 47.3108559]}}, {"type": "Feature", "properties": {"id": "f564f952-142a-4754-b5d2-988cbf33fc39", "name": "Franciscan Urgent Care - Federal Way", "category": "hospital", "tags": ["hospital"], "sources": ["overture"], "website": "https://www.citymd.com/urgent-care-locations/wa/federal-way/federal-way/048", "phone": "2532151093", "address": "31675 Pacific Highway S", "stations": [{"stopCode": 68, "lines": "1", "name": "Federal Way Downtown Station", "walkingMeters": 262, "walkingSeconds": 188, "band": 5}]}, "geometry": {"type": "Point", "coordinates": [-122.3139343, 47.3173828]}}, {"type": "Feature", "properties": {"id": "5c5ba39c-3cf1-4491-93ab-455d7982f773", "name": "Iora Primary Care", "category": "clinic", "tags": ["clinic", "medical"], "sources": ["overture"], "website": "https://www.amazon.com", "phone": "+12532203121", "address": "1414 S 324th St Ste B207", "stations": [{"stopCode": 68, "lines": "1", "name": "Federal Way Downtown Station", "walkingMeters": 743, "walkingSeconds": 535, "band": 10}]}, "geometry": {"type": "Point", "coordinates": [-122.3152237, 47.31213]}}, {"type": "Feature", "properties": {"id": 67489178, "name": "Bank of America", "category": "bank", "tags": ["bank", "credit", "union"], "sources": ["osm", "overture"], "website": "https://locators.bankofamerica.com/wa/federalway/financial-centers-federal-way-7856.html", "phone": "+12063582750", "address": "32011 Pacific Hwy S", "stations": [{"stopCode": 68, "lines": "1", "name": "Federal Way Downtown Station", "walkingMeters": 474, "walkingSeconds": 341, "band": 5}]}, "geometry": {"type": "Point", "coordinates": [-122.3139855, 47.314757]}}, {"type": "Feature", "properties": {"id": 85675214, "name": "KeyBank", "category": "bank", "tags": ["bank", "drive-through"], "sources": ["osm"], "address": "32400 Pacific Highway South", "stations": [{"stopCode": 68, "lines": "1", "name": "Federal Way Downtown Station", "walkingMeters": 815, "walkingSeconds": 589, "band": 10}]}, "geometry": {"type": "Point", "coordinates": [-122.312933, 47.3110778]}}, {"type": "Feature", "properties": {"id": 5857343976, "name": "The UPS Store", "category": "post_office", "tags": ["post-office", "wheelchair-accessible"], "sources": ["osm"], "stations": [{"stopCode": 68, "lines": "1", "name": "Federal Way Downtown Station", "walkingMeters": 444, "walkingSeconds": 320, "band": 10}]}, "geometry": {"type": "Point", "coordinates": [-122.31516, 47.3162829]}}, {"type": "Feature", "properties": {"id": 61951471, "name": "Wells Fargo", "category": "bank", "tags": ["bank", "drive-through", "credit", "union"], "sources": ["osm", "overture"], "website": "http://www.wellsfargo.com", "phone": "+12538394312", "address": "1424 S 320 Th St", "stations": [{"stopCode": 68, "lines": "1", "name": "Federal Way Downtown Station", "walkingMeters": 494, "walkingSeconds": 355, "band": 5}]}, "geometry": {"type": "Point", "coordinates": [-122.3147868, 47.3157178]}}, {"type": "Feature", "properties": {"id": 39683187, "name": "Chase", "category": "bank", "tags": ["bank"], "sources": ["osm"], "website": "https://locator.chase.com/wa/federal-way/32000-pacific-hwy-s", "phone": "+1-253-839-0681", "address": "32000 Pacific Highway South", "hours": "Mo-Fr 09:00-17:00; Sa 09:00-13:00; Su closed", "stations": [{"stopCode": 68, "lines": "1", "name": "Federal Way Downtown Station", "walkingMeters": 373, "walkingSeconds": 269, "band": 5}]}, "geometry": {"type": "Point", "coordinates": [-122.3128459, 47.3148041]}}, {"type": "Feature", "properties": {"id": 6084950932, "name": "Unibank", "category": "bank", "tags": ["bank"], "sources": ["osm"], "address": "31433 Pacific Highway South", "stations": [{"stopCode": 68, "lines": "1", "name": "Federal Way Downtown Station", "walkingMeters": 505, "walkingSeconds": 363, "band": 10}]}, "geometry": {"type": "Point", "coordinates": [-122.3139853, 47.3197843]}}, {"type": "Feature", "properties": {"id": 67489320, "name": "Heritage Bank", "category": "bank", "tags": ["bank", "drive-through", "credit", "union"], "sources": ["osm", "overture"], "website": "https://local.heritagebanknw.com/wa/federal-way/32303-pacific-highway-s", "phone": "+12539418541", "address": "32303 Pacific Hwy S", "stations": [{"stopCode": 68, "lines": "1", "name": "Federal Way Downtown Station", "walkingMeters": 680, "walkingSeconds": 490, "band": 10}]}, "geometry": {"type": "Point", "coordinates": [-122.3140241, 47.3123222]}}, {"type": "Feature", "properties": {"id": 5857345086, "name": "Ukrainian Credit Union", "category": "bank", "tags": ["bank"], "sources": ["osm"], "stations": [{"stopCode": 68, "lines": "1", "name": "Federal Way Downtown Station", "walkingMeters": 804, "walkingSeconds": 578, "band": 10}]}, "geometry": {"type": "Point", "coordinates": [-122.3154284, 47.3122122]}}, {"type": "Feature", "properties": {"id": 12871689417, "name": "Harborstone Credit Union", "category": "bank", "tags": ["bank", "wheelchair-accessible"], "sources": ["osm"], "hours": "Mo-Th 09:00-17:00; Fr 09:00-18:00; Sa 09:00-13:00; Su off", "stations": [{"stopCode": 68, "lines": "1", "name": "Federal Way Downtown Station", "walkingMeters": 557, "walkingSeconds": 401, "band": 10}]}, "geometry": {"type": "Point", "coordinates": [-122.3128661, 47.3128735]}}, {"type": "Feature", "properties": {"id": 10076144290, "name": "Global Federal Credit Union", "category": "bank", "tags": ["bank"], "sources": ["osm"], "stations": [{"stopCode": 68, "lines": "1", "name": "Federal Way Downtown Station", "walkingMeters": 485, "walkingSeconds": 348, "band": 5}]}, "geometry": {"type": "Point", "coordinates": [-122.3110792, 47.3147649]}}, {"type": "Feature", "properties": {"id": 264859736, "name": "Bank of Hope", "category": "bank", "tags": ["bank"], "sources": ["osm"], "address": "31827 Pacific Highway South", "stations": [{"stopCode": 68, "lines": "1", "name": "Federal Way Downtown Station", "walkingMeters": 399, "walkingSeconds": 288, "band": 5}]}, "geometry": {"type": "Point", "coordinates": [-122.3138535, 47.3163861]}}, {"type": "Feature", "properties": {"id": "351bcfa4-bad2-4ae6-94d3-694bbda33c32", "name": "Sterling Bank", "category": "bank", "tags": ["bank", "credit", "union"], "sources": ["overture"], "website": "http://www.bankwithsterling.com/", "phone": "2535293311", "address": "1700 S 320th St", "stations": [{"stopCode": 68, "lines": "1", "name": "Federal Way Downtown Station", "walkingMeters": 299, "walkingSeconds": 215, "band": 5}]}, "geometry": {"type": "Point", "coordinates": [-122.3117065, 47.3152046]}}, {"type": "Feature", "properties": {"id": 67487481, "name": "Planet Fitness", "category": "fitness_centre", "tags": ["fitness-centre", "gym"], "sources": ["osm", "overture"], "website": "https://www.planetfitness.com/gyms/federal-way-wa?utm_medium=organic&utm_source=extnet", "phone": "+12064297429", "address": "1211 S 320th St", "stations": [{"stopCode": 68, "lines": "1", "name": "Federal Way Downtown Station", "walkingMeters": 688, "walkingSeconds": 494, "band": 10}]}, "geometry": {"type": "Point", "coordinates": [-122.3165925, 47.3136013]}}, {"type": "Feature", "properties": {"id": 6178125262, "name": "Freedom Fitness", "category": "fitness_centre", "tags": ["fitness-centre"], "sources": ["osm"], "stations": [{"stopCode": 68, "lines": "1", "name": "Federal Way Downtown Station", "walkingMeters": 786, "walkingSeconds": 566, "band": 10}]}, "geometry": {"type": "Point", "coordinates": [-122.3163968, 47.3128151]}}, {"type": "Feature", "properties": {"id": "eadd3b6b-5e2d-4a09-988f-a8cf8de35575", "name": "FreeStar Fitness", "category": "fitness_centre", "tags": ["fitness-centre", "gym"], "sources": ["overture"], "website": "http://freestarfitness.com/", "phone": "+12062126039", "address": "1320 South 324th St A11", "stations": [{"stopCode": 68, "lines": "1", "name": "Federal Way Downtown Station", "walkingMeters": 788, "walkingSeconds": 567, "band": 10}]}, "geometry": {"type": "Point", "coordinates": [-122.3164291, 47.3127899]}}, {"type": "Feature", "properties": {"id": "d001dae4-cb26-426d-bb42-a091468a6657", "name": "True Edge Fitness", "category": "fitness_centre", "tags": ["fitness-centre", "gym"], "sources": ["overture"], "website": "http://Www.trueedgefit.com/", "phone": "+12532672196", "address": "1706 S Commons Unit 730-A001", "stations": [{"stopCode": 68, "lines": "1", "name": "Federal Way Downtown Station", "walkingMeters": 721, "walkingSeconds": 519, "band": 10}]}, "geometry": {"type": "Point", "coordinates": [-122.3105621, 47.3137283]}}, {"type": "Feature", "properties": {"id": "ee990afd-201b-4f1b-8682-88c838dbca24", "name": "Prana Yoga", "category": "fitness_centre", "tags": ["fitness-centre", "yoga", "studio"], "sources": ["overture"], "website": "https://www.prana-apts.com", "phone": "+12537973942", "address": "1414 S 324th St", "stations": [{"stopCode": 68, "lines": "1", "name": "Federal Way Downtown Station", "walkingMeters": 772, "walkingSeconds": 576, "band": 10}]}, "geometry": {"type": "Point", "coordinates": [-122.3152237, 47.31213]}}]}