{"type": "FeatureCollection", "features": [{"type": "Feature", "properties": {"id": 25421003, "name": "Cecil Powell Neighborhood Park", "category": "park", "tags": ["park"], "sources": ["osm"], "address": "1320 South 250th Street"}, "geometry": {"type": "Point", "coordinates": [-122.3161547, 47.3778628]}}, {"type": "Feature", "properties": {"id": "c992cfd8-f0a3-48c0-94d2-986f74ded48f", "name": "Fitness To Go", "category": "fitness_centre", "tags": ["fitness-centre", "yoga", "studio"], "sources": ["overture"], "website": "http://fitness-to-go.com", "phone": "(206) 909-4361", "address": "25005 18th Ave S"}, "geometry": {"type": "Point", "coordinates": [-122.311264, 47.3776474]}}]}