{"type": "FeatureCollection", "features": [{"type": "Feature", "properties": {"id": 1316317967, "name": "Liturgy Coffee", "category": "cafe", "tags": ["cafe", "coffee"], "sources": ["osm", "overture"], "website": "http://www.liturgycoffeehouse.com/", "phone": "+12064851277", "address": "203 NE 185th St", "stations": [{"stopCode": 42, "lines": "1,2", "name": "Shoreline North/185th Station", "walkingMeters": 484, "walkingSeconds": 348, "band": 10}]}, "geometry": {"type": "Point", "coordinates": [-122.3280224, 47.7630755]}}, {"type": "Feature", "properties": {"id": "87291db3-dd10-48b2-a67e-8ae2f65561e7", "name": "White Moustache Urban Adventure Co.", "category": "restaurant", "tags": ["restaurant"], "sources": ["overture"], "website": "http://whitemoustache.com/", "phone": "2065520950", "address": "19011 8th Ave NE", "stations": [{"stopCode": 42, "lines": "1,2", "name": "Shoreline North/185th Station", "walkingMeters": 650, "walkingSeconds": 467, "band": 5}]}, "geometry": {"type": "Point", "coordinates": [-122.3214645, 47.7670059]}}, {"type": "Feature", "properties": {"id": "1ca47b2a-071a-4451-96db-2c66d40e397c", "name": "Burgers by Ming", "category": "fast_food", "tags": ["fast-food", "food", "truck"], "sources": ["overture"], "website": "http://burgersbyming.com/", "phone": "+12063355166", "address": "18504 8th Ave NE", "stations": [{"stopCode": 42, "lines": "1,2", "name": "Shoreline North/185th Station", "walkingMeters": 200, "walkingSeconds": 144, "band": 5}]}, "geometry": {"type": "Point", "coordinates": [-122.3212585, 47.7634201]}}, {"type": "Feature", "properties": {"id": 300980157, "name": "North City Park", "category": "park", "tags": ["park"], "sources": ["osm"], "stations": [{"stopCode": 42, "lines": "1,2", "name": "Shoreline North/185th Station", "walkingMeters": 795, "walkingSeconds": 572, "band": 10}]}, "geometry": {"type": "Point", "coordinates": [-122.3203317, 47.768708]}}, {"type": "Feature", "properties": {"id": 775388801, "name": "Shoreline Park", "category": "park", "tags": ["park"], "sources": ["osm", "overture"], "website": "http://www.shorelinecenter.com/directions.php?page=directions", "phone": "+12068012700", "address": "19030 1st Ave NE", "stations": [{"stopCode": 42, "lines": "1,2", "name": "Shoreline North/185th Station", "walkingMeters": 986, "walkingSeconds": 709, "band": 15}]}, "geometry": {"type": "Point", "coordinates": [-122.328349, 47.7675495]}}, {"type": "Feature", "properties": {"id": 395677657, "name": "Spartan Recreation Center", "category": "sports_centre", "tags": ["sports-centre"], "sources": ["osm"], "website": "https://www.shorelinewa.gov/government/departments/parks-recreation-cultural-services/recreation-facilities/spartan-recreation-center", "phone": "+1-206-801-2600", "address": "202 Northeast 185th Street", "hours": "Mo-Th 07:00-20:00; Fr 07:00-17:00; Sa 08:00-15:00; Jul-Aug Sa 08:00-12:00; Su off", "stations": [{"stopCode": 42, "lines": "1,2", "name": "Shoreline North/185th Station", "walkingMeters": 532, "walkingSeconds": 383, "band": 10}]}, "geometry": {"type": "Point", "coordinates": [-122.3272408, 47.7647493]}}]}