{"type": "FeatureCollection", "features": [{"type": "Feature", "properties": {"id": "cdee8f83-cf1a-4dc0-afb4-25a460ac8a8f", "name": "Thrifty Trading Post Llc", "category": "restaurant", "tags": ["restaurant"], "sources": ["overture"], "address": "12135 SE Kent Kangley Rd"}, "geometry": {"type": "Point", "coordinates": [-122.1789474, 47.3628082]}}, {"type": "Feature", "properties": {"id": 640703453, "name": "Bricks & Wheels", "category": "toys", "tags": ["toys"], "sources": ["osm"], "website": "https://bricksandwheels.com/", "phone": "+1-253-277-4085", "address": "12135 Southeast Kent Kangley Road"}, "geometry": {"type": "Point", "coordinates": [-122.1789277, 47.3639446]}}]}