{"type": "FeatureCollection", "features": [{"type": "Feature", "properties": {"id": "949e8db1-2b77-4ad9-ae47-344d84f9a78f", "name": "Starbucks", "category": "cafe", "tags": ["cafe", "coffee"], "sources": ["overture"], "phone": "4255568000", "address": "17667 NE 76th St (Fred Meyer - Redmond, #664)"}, "geometry": {"type": "Point", "coordinates": [-122.105072, 47.67136]}}, {"type": "Feature", "properties": {"id": 1243260800, "name": "Yummy Teriyaki", "category": "restaurant", "tags": ["restaurant", "asian", "wheelchair-accessible", "japanese", "sushi"], "sources": ["osm", "overture"], "website": "http://yummyteriyaki.bite2go.com", "phone": "+14258611010", "address": "17218 Redmond Wy", "stations": [{"stopCode": 65, "lines": "2", "name": "Downtown Redmond Station", "walkingMeters": 1269, "walkingSeconds": 918, "band": 15}]}, "geometry": {"type": "Point", "coordinates": [-122.1099678, 47.6726114]}}, {"type": "Feature", "properties": {"id": "aada409c-fa89-419b-9328-e1e8d1cd67b2", "name": "Zenshi Handcrafted Sushi", "category": "restaurant", "tags": ["restaurant", "sushi", "japanese", "asian"], "sources": ["overture"], "website": "https://www.zenshisushi.com/", "phone": "+14258853323", "address": "17246 Redmond Wy E", "stations": [{"stopCode": 65, "lines": "2", "name": "Downtown Redmond Station", "walkingMeters": 1452, "walkingSeconds": 1084, "band": 15}]}, "geometry": {"type": "Point", "coordinates": [-122.109993, 47.6720009]}}, {"type": "Feature", "properties": {"id": "3615cb63-7db3-415a-81cb-ac041b7aa064", "name": "Elevation Apartments", "category": "attraction", "tags": ["attraction", "landmark", "historical", "building"], "sources": ["overture"], "website": "http://clicks.superpages.com/ct/clickThrough?SRC=&target=SP&PN=1&FP=profile&PGID=yp609.8082.1460734714160.121552243466&ALG=113&TS=nbt&OF=1&ACTION=log", "phone": "+14254345200", "address": "17202 NE 85th Pl"}, "geometry": {"type": "Point", "coordinates": [-122.1071472, 47.67976]}}, {"type": "Feature", "properties": {"id": 32544729, "name": "Bear Creek Park", "category": "park", "tags": ["park"], "sources": ["osm"], "website": "https://www.redmond.gov/facilities/facility/details/Bear-Creek-Park-33", "phone": "+1-425-556-2300", "hours": "dawn-dusk"}, "geometry": {"type": "Point", "coordinates": [-122.1085374, 47.6725302]}}, {"type": "Feature", "properties": {"id": 2633074679, "name": "Apna Bazar", "category": "supermarket", "tags": ["supermarket", "wheelchair-accessible"], "sources": ["osm"], "address": "17256 Northeast Redmond Way", "hours": "Mo-Su 10:00-21:00", "stations": [{"stopCode": 65, "lines": "2", "name": "Downtown Redmond Station", "walkingMeters": 1261, "walkingSeconds": 915, "band": 15}]}, "geometry": {"type": "Point", "coordinates": [-122.1099634, 47.6713565]}}, {"type": "Feature", "properties": {"id": "29e24b05-ac32-4c95-a02e-1cab75406741", "name": "Fred Meyer", "category": "supermarket", "tags": ["supermarket"], "sources": ["overture"], "website": "https://www.fredmeyer.com", "phone": "14255568000", "address": "17667 NE 76th St"}, "geometry": {"type": "Point", "coordinates": [-122.1044159, 47.6706848]}}, {"type": "Feature", "properties": {"id": 316353481, "name": "Target", "category": "department_store", "tags": ["department-store", "wheelchair-accessible"], "sources": ["osm"], "website": "https://www.target.com/sl/redmond/995", "phone": "+1-425-556-9533", "address": "17700 Northeast 76th Street", "hours": "Mo-Su 08:00-22:00"}, "geometry": {"type": "Point", "coordinates": [-122.1033473, 47.6725476]}}, {"type": "Feature", "properties": {"id": 137343012, "name": "Safeway", "category": "supermarket", "tags": ["supermarket", "wheelchair-accessible"], "sources": ["osm", "overture"], "website": "https://local.safeway.com/safeway/wa/redmond/17246-redmond-way.html", "phone": "+14258853323", "address": "17246 Redmond Way", "hours": "Mo-Su 05:00-24:00", "stations": [{"stopCode": 65, "lines": "2", "name": "Downtown Redmond Station", "walkingMeters": 1348, "walkingSeconds": 978, "band": 15}]}, "geometry": {"type": "Point", "coordinates": [-122.1096068, 47.6717331]}}, {"type": "Feature", "properties": {"id": 2633074372, "name": "Verizon", "category": "mobile_phone", "tags": ["mobile-phone", "mobile"], "sources": ["osm", "overture"], "website": "https://www.verizon.com", "phone": "18008801077", "address": "17258 Redmond Way", "hours": "Mo-Sa 10:00-19:00; Su 11:00-18:00", "stations": [{"stopCode": 65, "lines": "2", "name": "Downtown Redmond Station", "walkingMeters": 1250, "walkingSeconds": 907, "band": 15}]}, "geometry": {"type": "Point", "coordinates": [-122.109982, 47.6712571]}}, {"type": "Feature", "properties": {"id": "f95f890e-3de9-4ff0-8cb9-2bb88aa87fc9", "name": "Lane Bryant", "category": "clothes", "tags": ["clothes", "womens"], "sources": ["overture"], "website": "https://stores.lanebryant.com/wa/redmond/17256-redmond-way?y_source=1_MTE3NTU2NDctNTU5LWxvY2F0aW9uLndlYnNpdGU%3D", "phone": "+14256361212", "address": "17256 Redmond Way", "stations": [{"stopCode": 65, "lines": "2", "name": "Downtown Redmond Station", "walkingMeters": 1256, "walkingSeconds": 912, "band": 15}]}, "geometry": {"type": "Point", "coordinates": [-122.1098557, 47.671402]}}, {"type": "Feature", "properties": {"id": 32109886, "name": "Kohl's", "category": "department_store", "tags": ["department-store", "department"], "sources": ["osm", "overture"], "website": "https://www.kohls.com/stores/wa/redmond-1136.shtml?utm_source=rio&utm_medium=referral&utm_campaign=facebook", "phone": "+14258698700", "address": "17601 NE Union Hill Rd", "hours": "Mo-Sa 09:00-21:00; Su 09:00-20:00"}, "geometry": {"type": "Point", "coordinates": [-122.1047866, 47.6743934]}}, {"type": "Feature", "properties": {"id": 4350294294, "name": "Higher Leaf Cannabis Redmond - Avondale", "category": "cannabis", "tags": ["cannabis"], "sources": ["osm"], "website": "https://higherleaf.com/", "phone": "+1-425-242-0438", "address": "8210 Avondale Way Northeast"}, "geometry": {"type": "Point", "coordinates": [-122.1068359, 47.6763164]}}, {"type": "Feature", "properties": {"id": "e497437b-4976-4878-ad37-745c829ef3a0", "name": "Cricket Wireless Authorized Retailer", "category": "mobile_phone", "tags": ["mobile-phone", "mobile"], "sources": ["overture"], "website": "https://www.att.com", "phone": "+19512452533", "address": "17667 NE 76th St"}, "geometry": {"type": "Point", "coordinates": [-122.1044159, 47.6706848]}}, {"type": "Feature", "properties": {"id": "b567e433-9a3f-4115-85f5-b3f78ebb6a45", "name": "Wolverine World Wide", "category": "shoes", "tags": ["shoes", "shoe"], "sources": ["overture"], "website": "https://www.wolverineworldwide.com", "phone": "(425) 215-1610", "address": "17667 NE 76th St"}, "geometry": {"type": "Point", "coordinates": [-122.1045074, 47.6705551]}}, {"type": "Feature", "properties": {"id": "ebe160d5-e21d-479a-8433-741a2f86f3c3", "name": "Joto-vent System Usa, Inc.", "category": "doityourself", "tags": ["doityourself", "building", "supply"], "sources": ["overture"], "website": "https://www.joto-vent.com", "phone": "14252562210", "address": "17530 Ne Union Hill Rd  Ste 240"}, "geometry": {"type": "Point", "coordinates": [-122.1065521, 47.6752892]}}, {"type": "Feature", "properties": {"id": "cbe6cb3e-0509-410d-95aa-c4d1807935aa", "name": "Hashtag Cannabis", "category": "cannabis", "tags": ["cannabis", "clinic"], "sources": ["overture"], "website": "https://wheresweed.com/washington/seattle-burien/marijuana-dispensaries/wunderland-pipes-gifts-seattleburien-smoke-head-shop", "phone": "+14252563148", "address": "8296 Avondale Rd NE"}, "geometry": {"type": "Point", "coordinates": [-122.1064606, 47.6766281]}}, {"type": "Feature", "properties": {"id": "6ac9ea00-7ca3-4cac-94bb-9ffc4c250437", "name": "Go Taste Wine LLC", "category": "wine", "tags": ["wine", "winery"], "sources": ["overture"], "website": "http://www.gotastewine.com/", "phone": "4258946800", "address": "8215 172nd Ave NE"}, "geometry": {"type": "Point", "coordinates": [-122.1098862, 47.6766243]}}, {"type": "Feature", "properties": {"id": "de5ad8bc-7976-4489-9bea-d9384b9b47d5", "name": "Fred Meyer Pharmacy", "category": "pharmacy", "tags": ["pharmacy"], "sources": ["overture"], "website": "https://www.fredmeyerjewelers.com", "phone": "(425) 556-8015", "address": "17667 NE 76th St"}, "geometry": {"type": "Point", "coordinates": [-122.1051712, 47.6710281]}}, {"type": "Feature", "properties": {"id": "2ae6649c-ff41-495c-8943-80bf2a7c4534", "name": "USPS", "category": "post_office", "tags": ["post-office", "office"], "sources": ["overture"], "website": "https://www.usps.com", "phone": "+18002758777", "address": "17667 Ne 76 Th St"}, "geometry": {"type": "Point", "coordinates": [-122.1040344, 47.6706543]}}, {"type": "Feature", "properties": {"id": "09055851-0a5f-457e-8b70-69e71cb6e46e", "name": "Chase Bank", "category": "bank", "tags": ["bank", "credit", "union"], "sources": ["overture"], "website": "https://www.chase.com/locator/banking/us/wa/redmond/17667-ne-76th-st?jp_cmp=rb%2FLocalListings%2Faff%2Fbranch%2Fna&y_source=1_MjAzOTk2Ny00ODMtbG9jYXRpb24ud2Vic2l0ZQ%3D%3D", "phone": "4258834155", "address": "17667 NE 76th St"}, "geometry": {"type": "Point", "coordinates": [-122.1046524, 47.6704941]}}, {"type": "Feature", "properties": {"id": "c6c2c2cb-f9de-4906-b272-a4f22c636f2e", "name": "BECU ATM", "category": "bank", "tags": ["bank", "credit", "union"], "sources": ["overture"], "website": "http://www.becu.org/", "phone": "8002332328", "address": "17246 Redmond Way", "stations": [{"stopCode": 65, "lines": "2", "name": "Downtown Redmond Station", "walkingMeters": 1267, "walkingSeconds": 920, "band": 15}]}, "geometry": {"type": "Point", "coordinates": [-122.109642, 47.6718597]}}]}