{"type": "FeatureCollection", "features": [{"type": "Feature", "properties": {"id": 11048385272, "name": "Turtle Island Puget Sound", "category": "artwork", "tags": ["artwork"], "sources": ["osm"]}, "geometry": {"type": "Point", "coordinates": [-122.3196742, 47.4078884]}}, {"type": "Feature", "properties": {"id": 11647243822, "name": "Tailslip", "category": "artwork", "tags": ["artwork"], "sources": ["osm"]}, "geometry": {"type": "Point", "coordinates": [-122.3193323, 47.4075191]}}, {"type": "Feature", "properties": {"id": 11647243823, "name": "Dancer", "category": "artwork", "tags": ["artwork"], "sources": ["osm"]}, "geometry": {"type": "Point", "coordinates": [-122.3194749, 47.4075184]}}, {"type": "Feature", "properties": {"id": "2d6207b6-793b-4fa4-9640-b245bd2324e9", "name": "Spinnaker Apartments", "category": "attraction", "tags": ["attraction", "landmark", "historical", "building"], "sources": ["overture"], "website": "https://www.liveatspinnaker.com/", "phone": "+12068247795", "address": "1145 S 216th St"}, "geometry": {"type": "Point", "coordinates": [-122.3176117, 47.4079819]}}, {"type": "Feature", "properties": {"id": 653706428, "name": "Des Moines Library", "category": "library", "tags": ["library", "wheelchair-accessible"], "sources": ["osm", "overture"], "website": "http://www.kcls.org/desmoines", "phone": "+12068246066", "address": "21620 11th Ave S", "hours": "Mo-Th 10:00-21:00; Fr 10:00-18:00; Sa 10:00-17:00; Su 13:00-17:00"}, "geometry": {"type": "Point", "coordinates": [-122.3194992, 47.4081238]}}]}