{"type": "FeatureCollection", "features": [{"type": "Feature", "properties": {"id": 1267609528, "name": "5 Acre Wood", "category": "park", "tags": ["park"], "sources": ["osm"]}, "geometry": {"type": "Point", "coordinates": [-122.2852628, 47.7674382]}}, {"type": "Feature", "properties": {"id": "6b6832e4-0538-4b67-a2f5-cf0dfaa2f9bf", "name": "Cougar Soccer Camp", "category": "fitness_centre", "tags": ["fitness-centre", "fitness", "trainer"], "sources": ["overture"], "website": "http://www.cougarsoccercamp.com/", "phone": "+12068539333", "address": "3731 NE 192nd St"}, "geometry": {"type": "Point", "coordinates": [-122.2879486, 47.7675934]}}]}