{"type": "FeatureCollection", "features": [{"type": "Feature", "properties": {"id": 3322781980, "name": "Bella Balduccis", "category": "restaurant", "tags": ["restaurant", "mediterranean"], "sources": ["osm"], "phone": "+1-425-242-0597", "address": "11834 98th Avenue Northeast"}, "geometry": {"type": "Point", "coordinates": [-122.2098242, 47.7064232]}}, {"type": "Feature", "properties": {"id": 3322781985, "name": "Emerald Garden", "category": "restaurant", "tags": ["restaurant"], "sources": ["osm"], "address": "11842 98th Avenue Northeast"}, "geometry": {"type": "Point", "coordinates": [-122.2098179, 47.7067194]}}, {"type": "Feature", "properties": {"id": 3322781987, "name": "Wiskey Mile", "category": "bar", "tags": ["bar"], "sources": ["osm"], "address": "11848 98th Avenue Northeast"}, "geometry": {"type": "Point", "coordinates": [-122.2098154, 47.7068522]}}, {"type": "Feature", "properties": {"id": 12603492901, "name": "Pizzaiolo Wood Fired Pizza", "category": "restaurant", "tags": ["restaurant", "pizza", "italian"], "sources": ["osm", "overture"], "website": "http://www.pizzaiolowoodfiredpizza.com", "phone": "+14258207722", "address": "11836 98th Ave NE", "hours": "Tu-Th 15:00-20:00; Fr-Sa 11:00-21:00; Su 11:00-20:00"}, "geometry": {"type": "Point", "coordinates": [-122.2098208, 47.7064962]}}, {"type": "Feature", "properties": {"id": 13563433801, "name": "67.pizza", "category": "fast_food", "tags": ["fast-food", "pizza", "takeaway", "delivery", "vegetarian", "restaurant"], "sources": ["osm", "overture"], "website": "https://67.pizza/", "phone": "+14255155247", "address": "9800 NE 116th St", "hours": "Tu-Su 11:00-21:00"}, "geometry": {"type": "Point", "coordinates": [-122.2096396, 47.7042101]}}, {"type": "Feature", "properties": {"id": "e0a0ffcf-2686-479a-96a5-ac6a8c177e4c", "name": "Total Success Event Services", "category": "restaurant", "tags": ["restaurant"], "sources": ["overture"], "website": "http://totalsuccessstaffing.com", "address": "12040 98th Ave NE"}, "geometry": {"type": "Point", "coordinates": [-122.2089539, 47.7088585]}}, {"type": "Feature", "properties": {"id": "36a88459-e87e-4744-8853-8c1a45274293", "name": "Emerald Garden Restaurant and Lounge", "category": "restaurant", "tags": ["restaurant", "chinese", "asian"], "sources": ["overture"], "website": "https://theemeraldgarden.com/", "phone": "+14258214844", "address": "11842 98th Ave NE"}, "geometry": {"type": "Point", "coordinates": [-122.2098694, 47.7067108]}}, {"type": "Feature", "properties": {"id": "4409cb45-b7d7-45ee-a12c-2b2c61fbad48", "name": "The Whiskey Mile", "category": "bar", "tags": ["bar"], "sources": ["overture"], "website": "https://www.whiskeymile.com", "phone": "14253071640", "address": "11848 98th Ave NE"}, "geometry": {"type": "Point", "coordinates": [-122.2099228, 47.7066345]}}, {"type": "Feature", "properties": {"id": "31a13fec-5fa1-4a6b-85d2-62f36f39d9ab", "name": "Bishop's Alehouse", "category": "pub", "tags": ["pub"], "sources": ["overture"], "website": "http://www.bishopsalehouse.com", "phone": "(425) 825-5996", "address": "11848 98th Ave NE"}, "geometry": {"type": "Point", "coordinates": [-122.2098541, 47.7068176]}}, {"type": "Feature", "properties": {"id": "e2a76830-28b4-40f0-99ec-823dfc0eabf0", "name": "Bella Balducci's Mediterranean Cuisine", "category": "restaurant", "tags": ["restaurant", "mediterranean", "european"], "sources": ["overture"], "website": "http://bellabalducci.com/kirkland.html", "phone": "+14252420597", "address": "11834 98th Ave NE"}, "geometry": {"type": "Point", "coordinates": [-122.209877, 47.7064476]}}, {"type": "Feature", "properties": {"id": "106c9a25-1d3b-4380-b6d3-6b323d5d131f", "name": "Amonos! Taco Truck", "category": "fast_food", "tags": ["fast-food", "food", "truck"], "sources": ["overture"], "website": "http://www.amonosmex.com", "phone": "(425) 999-4788", "address": "1829 130th Ave"}, "geometry": {"type": "Point", "coordinates": [-122.2093048, 47.7046432]}}, {"type": "Feature", "properties": {"id": "619abcb6-9d6b-41db-ba75-105682df1139", "name": "Cocinas", "category": "restaurant", "tags": ["restaurant", "mexican"], "sources": ["overture"], "website": "http://www.cocinasfood.com", "phone": "(206) 372-1263", "address": "9800 NE 116th St"}, "geometry": {"type": "Point", "coordinates": [-122.2099304, 47.7044067]}}, {"type": "Feature", "properties": {"id": "b6ba68b7-224c-4701-9259-dbae0185e65d", "name": "Juanita View Apartments", "category": "attraction", "tags": ["attraction", "landmark", "historical", "building"], "sources": ["overture"], "website": "http://www.quantumms.com/kirkland-wa/juanita-view-apartments", "phone": "+14258239906", "address": "11807 101st Pl NE"}, "geometry": {"type": "Point", "coordinates": [-122.2063904, 47.705925]}}, {"type": "Feature", "properties": {"id": 324615210, "name": "Food Mart", "category": "convenience", "tags": ["convenience"], "sources": ["osm"], "address": "9800 Northeast 116th Street"}, "geometry": {"type": "Point", "coordinates": [-122.2098809, 47.7044322]}}, {"type": "Feature", "properties": {"id": 3322781983, "name": "Zakk's Smokes and Beverages", "category": "tobacco", "tags": ["tobacco"], "sources": ["osm"], "address": "11840 98th Avenue Northeast"}, "geometry": {"type": "Point", "coordinates": [-122.2098182, 47.7066628]}}, {"type": "Feature", "properties": {"id": "f4852b62-d52c-4b84-b09e-76dff5e4ee6b", "name": "Petite Cafe", "category": "supermarket", "tags": ["supermarket"], "sources": ["overture"], "address": "11600 98th Ave NE"}, "geometry": {"type": "Point", "coordinates": [-122.2099991, 47.7045746]}}, {"type": "Feature", "properties": {"id": 4428266390, "name": "Columbia Athletic Club", "category": "fitness_centre", "tags": ["fitness-centre"], "sources": ["osm"]}, "geometry": {"type": "Point", "coordinates": [-122.209787, 47.7035485]}}, {"type": "Feature", "properties": {"id": "84d0cddf-0c7a-4541-b117-0518d2da323c", "name": "Columbia Athletic Clubs - Juanita Bay", "category": "fitness_centre", "tags": ["fitness-centre", "gym"], "sources": ["overture"], "website": "http://www.columbiaathletic.com/", "phone": "+14258210882", "address": "11450 98th Ave NE"}, "geometry": {"type": "Point", "coordinates": [-122.2098999, 47.703434]}}]}