{"type": "FeatureCollection", "features": [{"type": "Feature", "properties": {"id": "9a41ce53-aedb-46a2-9c0f-c63432f263b7", "name": "Northpointe Highlands", "category": "attraction", "tags": ["attraction", "landmark", "historical", "building"], "sources": ["overture"], "website": "http://www.northpointehighlands.com/", "phone": "+14254835020", "address": "17512 83rd Pl NE Apt B406"}, "geometry": {"type": "Point", "coordinates": [-122.2290344, 47.7546158]}}, {"type": "Feature", "properties": {"id": "7f095cfb-50a0-433f-a3f0-7ade5e743f32", "name": "Ivorywood Apartments", "category": "attraction", "tags": ["attraction", "landmark", "historical", "building"], "sources": ["overture"], "website": "http://www.equityapartments.com/seattle/bothell/ivorywood-apartments", "phone": "+14254867600", "address": "8700 NE Bothell Way"}, "geometry": {"type": "Point", "coordinates": [-122.2243881, 47.7534637]}}, {"type": "Feature", "properties": {"id": 651839524, "name": "Stihl", "category": "hardware", "tags": ["hardware"], "sources": ["osm"], "address": "8516 Northeast Bothell Way"}, "geometry": {"type": "Point", "coordinates": [-122.2265293, 47.7534879]}}]}