{"type": "FeatureCollection", "features": [{"type": "Feature", "properties": {"id": 530040178, "name": "in.gredients", "category": "restaurant", "tags": ["restaurant"], "sources": ["osm"], "stations": [{"stopCode": 63, "lines": "2", "name": "Redmond Technology Center Station", "walkingMeters": 969, "walkingSeconds": 699, "band": 15}]}, "geometry": {"type": "Point", "coordinates": [-122.1248046, 47.6445681]}}, {"type": "Feature", "properties": {"id": "f017c56f-1349-46f6-b99a-a9a0a40d3966", "name": "In.gredients", "category": "restaurant", "tags": ["restaurant"], "sources": ["overture"], "website": "http://dining.azurewebsites.net/34", "address": "3720 159th Ave NE", "stations": [{"stopCode": 63, "lines": "2", "name": "Redmond Technology Center Station", "walkingMeters": 800, "walkingSeconds": 597, "band": 15}]}, "geometry": {"type": "Point", "coordinates": [-122.1255722, 47.6437721]}}, {"type": "Feature", "properties": {"id": "7ed8673a-dde0-411d-b4fe-7c744db18c77", "name": "Microsoft For Startups Europe", "category": "restaurant", "tags": ["restaurant"], "sources": ["overture"], "address": "1 Microsoft Way", "stations": [{"stopCode": 63, "lines": "2", "name": "Redmond Technology Center Station", "walkingMeters": 903, "walkingSeconds": 674, "band": 15}]}, "geometry": {"type": "Point", "coordinates": [-122.1256485, 47.6416664]}}, {"type": "Feature", "properties": {"id": "ef270bdd-96c8-4145-ba2e-20dcdafb07b5", "name": "Timberlawn Apartments", "category": "attraction", "tags": ["attraction", "landmark", "historical", "building"], "sources": ["overture"], "website": "http://www.timberlawnapartments.com", "phone": "+14258836801", "address": "15850 NE 40th St", "stations": [{"stopCode": 63, "lines": "2", "name": "Redmond Technology Center Station", "walkingMeters": 505, "walkingSeconds": 363, "band": 10}]}, "geometry": {"type": "Point", "coordinates": [-122.128891, 47.6466637]}}, {"type": "Feature", "properties": {"id": "2da68758-b4e8-413f-acb7-acad71653c50", "name": "eaves Redmond Campus", "category": "attraction", "tags": ["attraction", "landmark", "historical", "building"], "sources": ["overture"], "website": "https://www.avaloncommunities.com/washington/redmond-apartments/eaves-redmond-campus?utm_source=gmb&utm_medium=organic&utm_campaign=gmblist", "phone": "+14252163355", "address": "15606 NE 40th St", "stations": [{"stopCode": 63, "lines": "2", "name": "Redmond Technology Center Station", "walkingMeters": 598, "walkingSeconds": 430, "band": 15}]}, "geometry": {"type": "Point", "coordinates": [-122.1278381, 47.6488152]}}, {"type": "Feature", "properties": {"id": "f29521b9-524c-4e8d-bede-1b96f9fab04e", "name": "Cascade View Neighborhood Park", "category": "park", "tags": ["park"], "sources": ["overture"], "website": "http://www.ci.redmond.wa.us/cms/one.aspx?portalId=169&pageId=4089", "phone": "+14255562900", "address": "16202 NE 40th St", "stations": [{"stopCode": 63, "lines": "2", "name": "Redmond Technology Center Station", "walkingMeters": 956, "walkingSeconds": 689, "band": 15}]}, "geometry": {"type": "Point", "coordinates": [-122.1237411, 47.6465225]}}, {"type": "Feature", "properties": {"id": "f126ae3f-4fdd-4a3a-ac9f-4114c0cd9494", "name": "Microsoft Living Well Health Center", "category": "clinic", "tags": ["clinic", "medical"], "sources": ["overture"], "website": "http://www.mslwhc.com/index.html", "phone": "+14252160550", "address": "3925 159th Ave NE", "stations": [{"stopCode": 63, "lines": "2", "name": "Redmond Technology Center Station", "walkingMeters": 702, "walkingSeconds": 507, "band": 10}]}, "geometry": {"type": "Point", "coordinates": [-122.127594, 47.6453705]}}]}