{"type": "FeatureCollection", "features": [{"type": "Feature", "properties": {"id": 2429652125, "name": "Sonora Carne Asada House", "category": "restaurant", "tags": ["restaurant", "american"], "sources": ["osm"], "phone": "+1-206-856-1449", "address": "5901 Rainier Avenue South"}, "geometry": {"type": "Point", "coordinates": [-122.2773388, 47.5496208]}}, {"type": "Feature", "properties": {"id": 5729227921, "name": "Mawadda Cafe", "category": "restaurant", "tags": ["restaurant", "mediterranean", "middle-eastern"], "sources": ["osm", "overture"], "website": "http://www.mawaddacafe.com/", "phone": "+12067600911", "address": "4433 S Graham St", "stations": [{"stopCode": 60, "lines": "1", "name": "Othello Station", "walkingMeters": 1324, "walkingSeconds": 953, "band": 15}]}, "geometry": {"type": "Point", "coordinates": [-122.2767013, 47.545749]}}, {"type": "Feature", "properties": {"id": 228302558, "name": "\u00c1-Ch\u00e2u Cafe & Deli", "category": "cafe", "tags": ["cafe"], "sources": ["osm"], "address": "6902 Rainier Avenue South", "stations": [{"stopCode": 60, "lines": "1", "name": "Othello Station", "walkingMeters": 1100, "walkingSeconds": 790, "band": 15}]}, "geometry": {"type": "Point", "coordinates": [-122.2711928, 47.5405603]}}, {"type": "Feature", "properties": {"id": "b2259e84-debe-48aa-a1cc-60415a2a3cee", "name": "The City Hookah Lounge", "category": "bar", "tags": ["bar", "hookah"], "sources": ["overture"], "phone": "+12063172489", "address": "306 Washington Ave S"}, "geometry": {"type": "Point", "coordinates": [-122.2762833, 47.5458832]}}, {"type": "Feature", "properties": {"id": "ac75e865-3084-4dcb-a65c-af9698e779e6", "name": "Taqueria Los Potrillos", "category": "restaurant", "tags": ["restaurant", "mexican", "taco", "latin-american"], "sources": ["overture"], "website": "https://taquerialospotrillos1.negocio.site", "phone": "+12064513768", "address": "6815 Rainier Ave S", "stations": [{"stopCode": 60, "lines": "1", "name": "Othello Station", "walkingMeters": 1084, "walkingSeconds": 779, "band": 15}]}, "geometry": {"type": "Point", "coordinates": [-122.2721024, 47.5410881]}}, {"type": "Feature", "properties": {"id": "4260d88c-85ff-446d-976c-6956145b5d4e", "name": "Taqueria Los Potrillos", "category": "restaurant", "tags": ["restaurant", "mexican", "texmex"], "sources": ["overture"], "website": "https://www.restaurant.com/taqueria-los-potrillos-seattle-pid", "phone": "+12064225574", "address": "6211 Rainier Ave S"}, "geometry": {"type": "Point", "coordinates": [-122.2761612, 47.5462914]}}, {"type": "Feature", "properties": {"id": "1de636d8-c809-4358-a0ee-068e9f94a6b1", "name": "Honey\u2019s Espresso", "category": "cafe", "tags": ["cafe", "coffee"], "sources": ["overture"], "address": "6815 Rainier Ave S", "stations": [{"stopCode": 60, "lines": "1", "name": "Othello Station", "walkingMeters": 1014, "walkingSeconds": 757, "band": 15}]}, "geometry": {"type": "Point", "coordinates": [-122.2721786, 47.5409966]}}, {"type": "Feature", "properties": {"id": "ddd9a751-9c71-41de-b938-57392bcc190b", "name": "Los Potrillos - Taco Truck", "category": "fast_food", "tags": ["fast-food", "food", "truck"], "sources": ["overture"], "website": "http://www.thetacotruck.com", "phone": "(206) 422-5574", "address": "6815 Rainier Ave S", "stations": [{"stopCode": 60, "lines": "1", "name": "Othello Station", "walkingMeters": 1061, "walkingSeconds": 762, "band": 15}]}, "geometry": {"type": "Point", "coordinates": [-122.2717056, 47.54076]}}, {"type": "Feature", "properties": {"id": "e286e46f-8202-482e-a49e-989b09a291de", "name": "Cafe Avole", "category": "cafe", "tags": ["cafe"], "sources": ["overture"], "website": "http://www.avolecoffee.com", "phone": "(206) 472-4096", "address": "6630 Rainier Ave S", "stations": [{"stopCode": 60, "lines": "1", "name": "Othello Station", "walkingMeters": 1184, "walkingSeconds": 851, "band": 15}]}, "geometry": {"type": "Point", "coordinates": [-122.272644, 47.5425606]}}, {"type": "Feature", "properties": {"id": "4323cf6b-9764-4c3a-bde4-3dc42a8095aa", "name": "Taqueria La Original 2", "category": "restaurant", "tags": ["restaurant", "mexican", "taco", "latin-american"], "sources": ["overture"], "website": "https://www.yelp.com/biz/taqueria-la-original-2-seattle", "phone": "+12068522497", "address": "6230 Rainier Ave S"}, "geometry": {"type": "Point", "coordinates": [-122.2756271, 47.5462036]}}, {"type": "Feature", "properties": {"id": "047d1a4c-3e1e-4d9a-9368-dd5de31d2aea", "name": "Central Ethiopian Bar and Restaurant", "category": "restaurant", "tags": ["restaurant", "ethiopian", "african"], "sources": ["overture"], "phone": "+12065383464", "address": "4433 S Graham St", "stations": [{"stopCode": 60, "lines": "1", "name": "Othello Station", "walkingMeters": 1325, "walkingSeconds": 953, "band": 15}]}, "geometry": {"type": "Point", "coordinates": [-122.2766953, 47.545742]}}, {"type": "Feature", "properties": {"id": "4e9503c8-432f-45d2-8159-cffd741960b5", "name": "Sophie\u2019s Boulangerie", "category": "bakery", "tags": ["bakery"], "sources": ["overture"], "website": "http://Sophiesboulangerie.com/", "phone": "+12064273602", "address": "5954 44th Ave S"}, "geometry": {"type": "Point", "coordinates": [-122.2779007, 47.5487289]}}, {"type": "Feature", "properties": {"id": "adcdf5b4-2ab4-4f39-a56f-00fa7850d4cb", "name": "Iman", "category": "restaurant", "tags": ["restaurant", "ethiopian"], "sources": ["overture"], "website": "http://www.iman-wa.org", "phone": "(206) 721-1544", "address": "5903 Rainier Ave S"}, "geometry": {"type": "Point", "coordinates": [-122.2774429, 47.5495872]}}, {"type": "Feature", "properties": {"id": "1d10d183-50ac-450b-9c47-72b5918e7d19", "name": "African Cultural Arts Center Rainier Valley", "category": "attraction", "tags": ["attraction", "landmark", "historical", "building"], "sources": ["overture"], "website": "https://www.africanculturalartscenter.com/", "phone": "+12067226602", "address": "6716 Rainier Ave S", "stations": [{"stopCode": 60, "lines": "1", "name": "Othello Station", "walkingMeters": 1212, "walkingSeconds": 871, "band": 15}]}, "geometry": {"type": "Point", "coordinates": [-122.2721176, 47.542038]}}, {"type": "Feature", "properties": {"id": "6854ce39-6769-4d85-8aa1-b18f111c2db5", "name": "Brighton Apartments", "category": "attraction", "tags": ["attraction", "landmark", "historical", "building"], "sources": ["overture"], "website": "http://brightonapts.org/", "phone": "+12067223922", "address": "6727 Rainier Ave S", "stations": [{"stopCode": 60, "lines": "1", "name": "Othello Station", "walkingMeters": 1197, "walkingSeconds": 861, "band": 15}]}, "geometry": {"type": "Point", "coordinates": [-122.2734528, 47.5418854]}}, {"type": "Feature", "properties": {"id": "9aecd3a0-78bd-4449-a8d9-d0b12b6e73b3", "name": "Graham Place Apartments", "category": "attraction", "tags": ["attraction", "landmark", "historical", "building"], "sources": ["overture"], "website": "http://www.grahamplaceapts.com", "phone": "+12068298705", "address": "4601 S Graham St"}, "geometry": {"type": "Point", "coordinates": [-122.2745056, 47.5458832]}}, {"type": "Feature", "properties": {"id": "f77889f8-6d7a-4549-a830-e02447275447", "name": "Lakewood Seward Park Comm Club", "category": "park", "tags": ["park"], "sources": ["overture"], "website": "http://www.lspcc.org", "phone": "+12067231553", "address": "6315 Rainier Ave S"}, "geometry": {"type": "Point", "coordinates": [-122.2759628, 47.5454636]}}, {"type": "Feature", "properties": {"id": "1c632ea9-1f95-4c02-b2f2-a41b3c139ef8", "name": "7-Eleven", "category": "convenience", "tags": ["convenience"], "sources": ["overture"], "website": "https://www.7-eleven.com/locations/wa/seattle/6230-rainier-ave-s-39592", "phone": "2067211124", "address": "6230 Rainier Ave S"}, "geometry": {"type": "Point", "coordinates": [-122.2760849, 47.5460777]}}, {"type": "Feature", "properties": {"id": 7098348885, "name": "The City Smoke Shop", "category": "convenience", "tags": ["convenience", "tobacco"], "sources": ["osm", "overture"], "website": "http://www.thecityhookah.com", "phone": "+12064145566", "address": "6301 Rainier Ave S #1"}, "geometry": {"type": "Point", "coordinates": [-122.2761256, 47.5459179]}}, {"type": "Feature", "properties": {"id": 10096767159, "name": "Kebena Market", "category": "convenience", "tags": ["convenience", "supermarket"], "sources": ["osm", "overture"], "address": "5999 Rainier Ave S"}, "geometry": {"type": "Point", "coordinates": [-122.2769627, 47.5475951]}}, {"type": "Feature", "properties": {"id": 228300439, "name": "Seattle Wireless", "category": "mobile_phone", "tags": ["mobile-phone"], "sources": ["osm"], "address": "6326 Rainier Avenue South"}, "geometry": {"type": "Point", "coordinates": [-122.2748763, 47.5455185]}}, {"type": "Feature", "properties": {"id": 228302555, "name": "Lucky One Food Store", "category": "convenience", "tags": ["convenience"], "sources": ["osm", "overture"], "phone": "12067259902", "address": "6815 Rainier Ave S", "stations": [{"stopCode": 60, "lines": "1", "name": "Othello Station", "walkingMeters": 1069, "walkingSeconds": 768, "band": 15}]}, "geometry": {"type": "Point", "coordinates": [-122.272206, 47.5409114]}}, {"type": "Feature", "properties": {"id": "97edd35c-54cc-4921-aa78-cd3e67e3a460", "name": "CoinFlip Bitcoin ATM - Lucky One Food Store (Seattle)", "category": "convenience", "tags": ["convenience"], "sources": ["overture"], "website": "https://locations.coinflip.tech/us/wa/seattle/6815-rainier-ave.-s?utm_source=bing&utm_medium=yext", "phone": "7738000106", "address": "6815 Rainier Ave. S", "stations": [{"stopCode": 60, "lines": "1", "name": "Othello Station", "walkingMeters": 1070, "walkingSeconds": 768, "band": 15}]}, "geometry": {"type": "Point", "coordinates": [-122.2722473, 47.540905]}}, {"type": "Feature", "properties": {"id": "5ff18f9e-b490-424d-81a1-a53f35030fcc", "name": "Total Home Improvement", "category": "doityourself", "tags": ["doityourself", "home", "improvement"], "sources": ["overture"], "website": "http://www.totalhomeinc.com/", "phone": "+12069413791", "address": "6921 51st Ave S", "stations": [{"stopCode": 60, "lines": "1", "name": "Othello Station", "walkingMeters": 1162, "walkingSeconds": 867, "band": 15}]}, "geometry": {"type": "Point", "coordinates": [-122.2700577, 47.5400696]}}, {"type": "Feature", "properties": {"id": "4dea656b-322c-448f-868c-31ae9a818786", "name": "Idil International Market", "category": "supermarket", "tags": ["supermarket"], "sources": ["overture"], "address": "4433 S Graham St  Ste 103", "stations": [{"stopCode": 60, "lines": "1", "name": "Othello Station", "walkingMeters": 1222, "walkingSeconds": 912, "band": 15}]}, "geometry": {"type": "Point", "coordinates": [-122.2766647, 47.5457649]}}, {"type": "Feature", "properties": {"id": "499028ad-b130-4b71-9caa-7602b3a6f8c8", "name": "Cafe Kilimanjaro", "category": "supermarket", "tags": ["supermarket"], "sources": ["overture"], "address": "4433 S Graham St", "stations": [{"stopCode": 60, "lines": "1", "name": "Othello Station", "walkingMeters": 1222, "walkingSeconds": 912, "band": 15}]}, "geometry": {"type": "Point", "coordinates": [-122.2766647, 47.5457649]}}, {"type": "Feature", "properties": {"id": "15d5b0fc-6185-4b8a-8144-ac7775e0ec33", "name": "The Dog Spa of Seattle", "category": "pet", "tags": ["pet"], "sources": ["overture"], "website": "http://www.dogspaofseattle.com/", "phone": "+12067227297", "address": "4433 S Graham St", "stations": [{"stopCode": 60, "lines": "1", "name": "Othello Station", "walkingMeters": 1231, "walkingSeconds": 919, "band": 15}]}, "geometry": {"type": "Point", "coordinates": [-122.2766953, 47.5458412]}}, {"type": "Feature", "properties": {"id": "dfaba96e-46d0-49c7-b717-ef16bdeab59b", "name": "West African Market", "category": "supermarket", "tags": ["supermarket"], "sources": ["overture"], "phone": "+12067236218", "address": "5997 Rainier Ave S"}, "geometry": {"type": "Point", "coordinates": [-122.2770309, 47.547554]}}]}