{"type": "FeatureCollection", "features": [{"type": "Feature", "properties": {"id": 13030557781, "name": "Sunnydale Saloon", "category": "bar", "tags": ["bar"], "sources": ["osm"]}, "geometry": {"type": "Point", "coordinates": [-122.3151674, 47.4739559]}}, {"type": "Feature", "properties": {"id": "5a928fbc-5b69-4e4d-b9e0-2727d26ef51d", "name": "The Sunnydale", "category": "bar", "tags": ["bar", "dive"], "sources": ["overture"], "website": "http://thesunnydale.com", "phone": "+12062462029", "address": "14404 Des Moines Memorial Dr S"}, "geometry": {"type": "Point", "coordinates": [-122.3151474, 47.4739952]}}, {"type": "Feature", "properties": {"id": 558595508, "name": "Pacwest Little League", "category": "park", "tags": ["park"], "sources": ["osm"], "website": "https://www.pacwestlittleleague.com/"}, "geometry": {"type": "Point", "coordinates": [-122.313726, 47.471594]}}, {"type": "Feature", "properties": {"id": 409408246, "name": "757 Market", "category": "supermarket", "tags": ["supermarket"], "sources": ["osm"], "address": "14257 Des Moines Memorial Drive South"}, "geometry": {"type": "Point", "coordinates": [-122.3157753, 47.474354]}}]}