{"type": "FeatureCollection", "features": [{"type": "Feature", "properties": {"id": "2ad8b2db-4cb7-440a-9cfb-35a2138bf3f8", "name": "Middle Fork Roasters", "category": "cafe", "tags": ["cafe", "coffee"], "sources": ["overture"], "website": "http://www.middleforkroasters.com/", "phone": "+12062572221", "address": "420 S 96th St"}, "geometry": {"type": "Point", "coordinates": [-122.3280945, 47.5178566]}}, {"type": "Feature", "properties": {"id": "fac5a0ca-2f5e-49b5-9104-b633e86a050f", "name": "Grant Apartments", "category": "attraction", "tags": ["attraction", "landmark", "historical", "building"], "sources": ["overture"], "website": "https://www.grantseattle.com/?utm_knock=sm", "phone": "+12062089843", "address": "10102 8th Ave S"}, "geometry": {"type": "Point", "coordinates": [-122.32164, 47.5128174]}}, {"type": "Feature", "properties": {"id": 1305995983, "name": "Glendale Forest", "category": "park", "tags": ["park"], "sources": ["osm"], "website": "https://kingcounty.gov/en/legacy/services/parks-recreation/parks/parks-and-natural-lands/natural-lands/glendaleforest"}, "geometry": {"type": "Point", "coordinates": [-122.3225427, 47.5109909]}}, {"type": "Feature", "properties": {"id": "a382e3e6-7193-48cf-a827-c5db5b1f7795", "name": "Nudoors Llc", "category": "hardware", "tags": ["hardware"], "sources": ["overture"], "phone": "12067671132", "address": "720 S 96th St"}, "geometry": {"type": "Point", "coordinates": [-122.3241272, 47.5173988]}}]}