{"type": "FeatureCollection", "features": [{"type": "Feature", "properties": {"id": 53162304, "name": "Parkwood", "category": "artwork", "tags": ["artwork"], "sources": ["osm"]}, "geometry": {"type": "Point", "coordinates": [-122.3316727, 47.7373174]}}, {"type": "Feature", "properties": {"id": "8c59228a-c2ea-41fa-bb88-5e2e7701e377", "name": "Zinnia", "category": "attraction", "tags": ["attraction", "landmark", "historical", "building"], "sources": ["overture"], "website": "https://www.liveatzinnia.com/", "phone": "+12064919425", "address": "2318 N 147th St", "stations": [{"stopCode": 43, "lines": "1,2", "name": "Shoreline South/148th Station", "walkingMeters": 977, "walkingSeconds": 702, "band": 15}]}, "geometry": {"type": "Point", "coordinates": [-122.3308716, 47.7358017]}}, {"type": "Feature", "properties": {"id": 76744203, "name": "Twin Ponds Park", "category": "park", "tags": ["park"], "sources": ["osm"]}, "geometry": {"type": "Point", "coordinates": [-122.3317189, 47.7395461]}}]}