{"type": "FeatureCollection", "features": [{"type": "Feature", "properties": {"id": 10705551842, "name": "Cooper's Express", "category": "fast_food", "tags": ["fast-food"], "sources": ["osm"]}, "geometry": {"type": "Point", "coordinates": [-122.3505385, 47.6624152]}}, {"type": "Feature", "properties": {"id": 222420235, "name": "The Wild Cup", "category": "cafe", "tags": ["cafe", "coffee-shop"], "sources": ["osm"]}, "geometry": {"type": "Point", "coordinates": [-122.3504889, 47.6664918]}}, {"type": "Feature", "properties": {"id": "b323274a-06d4-43d6-9ffb-e4efeaecdf56", "name": "Vif Wine|coffee", "category": "restaurant", "tags": ["restaurant"], "sources": ["overture"], "website": "https://vifseattle.com", "address": "4401 Fremont Ave N"}, "geometry": {"type": "Point", "coordinates": [-122.350296, 47.6603317]}}, {"type": "Feature", "properties": {"id": "8f0401be-7817-42e1-bbbc-fe260afaee85", "name": "Purna Wellness", "category": "restaurant", "tags": ["restaurant"], "sources": ["overture"], "website": "http://www.purnawellness.com", "phone": "(206) 856-2034", "address": "4459 Fremont Ave N Ste 2"}, "geometry": {"type": "Point", "coordinates": [-122.3504333, 47.661129]}}, {"type": "Feature", "properties": {"id": 3211770280, "name": "The Bears", "category": "artwork", "tags": ["artwork"], "sources": ["osm"]}, "geometry": {"type": "Point", "coordinates": [-122.3500438, 47.6665894]}}, {"type": "Feature", "properties": {"id": 9393231484, "name": "African Lioness with Cubs", "category": "artwork", "tags": ["artwork"], "sources": ["osm"]}, "geometry": {"type": "Point", "coordinates": [-122.3501906, 47.6680607]}}, {"type": "Feature", "properties": {"id": 2143145038, "name": "Light Owl Shop", "category": "gift", "tags": ["gift"], "sources": ["osm"], "website": "https://www.lightowlshop.com", "address": "4803 Fremont Avenue North"}, "geometry": {"type": "Point", "coordinates": [-122.3502029, 47.6637285]}}, {"type": "Feature", "properties": {"id": 11820469773, "name": "Baskette", "category": "deli", "tags": ["deli", "cafe"], "sources": ["osm", "overture"], "website": "http://mybaskette.com", "phone": "+12064823449", "address": "4459 Fremont Ave N Ste 1", "hours": "Tu-Su 08:00-16:00"}, "geometry": {"type": "Point", "coordinates": [-122.3502249, 47.6610941]}}, {"type": "Feature", "properties": {"id": 234928689, "name": "Shell", "category": "convenience", "tags": ["convenience"], "sources": ["osm"], "website": "https://find.shell.com/us/fuel/10006137-4605-fremont-ave-n", "address": "4605 Fremont Avenue North"}, "geometry": {"type": "Point", "coordinates": [-122.350475, 47.6624216]}}, {"type": "Feature", "properties": {"id": "b7df5b0e-3c76-4d3e-a022-cd004e6d797d", "name": "Lux Pot Shop Fremont", "category": "gift", "tags": ["gift"], "sources": ["overture"], "website": "https://luxpotshop.com/?utm_source=GMBlisting_fremont&utm_medium=organic", "phone": "2064204123", "address": "4465 Fremont Ave N"}, "geometry": {"type": "Point", "coordinates": [-122.3500519, 47.6612854]}}, {"type": "Feature", "properties": {"id": "4f45db57-4b43-4da6-b5f6-251460e3646f", "name": "Pot Stop", "category": "cannabis", "tags": ["cannabis"], "sources": ["overture"], "phone": "2068830573", "address": "4465 Fremont Ave N"}, "geometry": {"type": "Point", "coordinates": [-122.3503189, 47.6612587]}}, {"type": "Feature", "properties": {"id": "8b017f34-c476-48c7-89cd-e9964ac18a95", "name": "Bossanova", "category": "clinic", "tags": ["clinic", "medical"], "sources": ["overture"], "website": "http://www.umaclinic.com", "phone": "(206) 632-3668", "address": "4425 Fremont Ave N"}, "geometry": {"type": "Point", "coordinates": [-122.3503952, 47.6609001]}}]}