{"type": "FeatureCollection", "features": [{"type": "Feature", "properties": {"id": 52542056, "name": "Mill Creek Canyon Earthworks Park", "category": "park", "tags": ["park"], "sources": ["osm"], "website": "https://www.kentwa.gov/departments/kent-parks/parks-places/parks-trails/mill-creek-canyon-earthworks-park", "address": "100 Reiten Road", "hours": "dawn-dusk"}, "geometry": {"type": "Point", "coordinates": [-122.2149922, 47.3732272]}}, {"type": "Feature", "properties": {"id": 442656741, "name": "Scenic Hill Park", "category": "park", "tags": ["park"], "sources": ["osm", "overture"], "website": "http://wildliferecreation.org/our-campaigns/wwrp-projects/projects/Scenic_Hill_Park", "phone": "+12538565000", "address": "25826 Woodland Way", "hours": "dawn-dusk"}, "geometry": {"type": "Point", "coordinates": [-122.2114907, 47.3701484]}}, {"type": "Feature", "properties": {"id": "9042415c-c52a-4f30-9066-ae0fdcbc37a9", "name": "Mill Creek Park", "category": "park", "tags": ["park"], "sources": ["overture"], "address": "9498 Canyon Dr"}, "geometry": {"type": "Point", "coordinates": [-122.2127609, 47.3757706]}}]}