{"type": "FeatureCollection", "features": [{"type": "Feature", "properties": {"id": "56738092-bda0-41b7-b291-151ecc73ff2c", "name": "Subway", "category": "restaurant", "tags": ["restaurant", "sandwich"], "sources": ["overture"], "website": "https://www.subway.com", "phone": "2065951555", "address": "20619 Military Rd S"}, "geometry": {"type": "Point", "coordinates": [-122.288208, 47.417038]}}, {"type": "Feature", "properties": {"id": 443809643, "name": "BigFoot Java", "category": "cafe", "tags": ["cafe", "coffee-shop", "takeaway", "vegetarian", "coffee", "theme"], "sources": ["osm", "overture"], "website": "https://bigfootjava.com/locations/seatac-bigfoot-java/", "phone": "+12064292112", "address": "20635 Military Rd S", "hours": "00:00-24:00"}, "geometry": {"type": "Point", "coordinates": [-122.2886755, 47.4167052]}}, {"type": "Feature", "properties": {"id": "fdf10bae-c6aa-4098-b079-f5d96ac62694", "name": "Aspens at Belvedere", "category": "attraction", "tags": ["attraction", "landmark", "historical", "building"], "sources": ["overture"], "website": "https://www.aspensatbelvedere.com/?utm_knock=fb", "phone": "+12065905749", "address": "21010 39th Way S"}, "geometry": {"type": "Point", "coordinates": [-122.2841263, 47.4165573]}}, {"type": "Feature", "properties": {"id": 242763572, "name": "Motel 6 Seattle South", "category": "motel", "tags": ["motel", "dog-friendly", "wifi"], "sources": ["osm"], "website": "https://www.motel6.com/en/home/property/seattle-south.html", "phone": "+1-206-824-9902", "address": "20651 Military Road South"}, "geometry": {"type": "Point", "coordinates": [-122.2886084, 47.4159751]}}, {"type": "Feature", "properties": {"id": "251a539c-1ea3-44d9-ab6b-9d29765586b1", "name": "Motel 6", "category": "motel", "tags": ["motel"], "sources": ["overture"], "website": "http://www.motel6.com/", "phone": "+12068249902", "address": "20651 Military Rd S"}, "geometry": {"type": "Point", "coordinates": [-122.2885971, 47.4162025]}}, {"type": "Feature", "properties": {"id": 521435608, "name": "Interstate 5 76", "category": "convenience", "tags": ["convenience", "wheelchair-accessible"], "sources": ["osm"], "address": "20619 Military Road South", "hours": "Mo-Su 06:00-01:00"}, "geometry": {"type": "Point", "coordinates": [-122.2881044, 47.4172236]}}]}