{"type": "FeatureCollection", "features": [{"type": "Feature", "properties": {"id": 4868815121, "name": "Mama\u2019s Crawfish and Seafood House", "category": "restaurant", "tags": ["restaurant", "american", "outdoor-seating", "wheelchair-accessible", "seafood", "cajun-and-creole"], "sources": ["osm", "overture"], "website": "https://www.mamascrawfishandseafoodhouse.com/order-online", "phone": "+12065665105", "address": "2630 1st Ave"}, "geometry": {"type": "Point", "coordinates": [-122.3502686, 47.6157536]}}, {"type": "Feature", "properties": {"id": "122da037-ae07-492c-a804-1eb7b94ebd8b", "name": "The Lucky Diner", "category": "restaurant", "tags": ["restaurant", "diner"], "sources": ["overture"], "website": "http://www.theluckydiner.com", "phone": "(206) 805-0133", "address": "2630 1st Ave"}, "geometry": {"type": "Point", "coordinates": [-122.3502426, 47.6156693]}}, {"type": "Feature", "properties": {"id": "4ee9c7b7-3e39-4d67-afd7-70d6cab66220", "name": "CJ's Eatery", "category": "restaurant", "tags": ["restaurant", "breakfast-and-brunch", "breakfast", "brunch"], "sources": ["overture"], "website": "http://cjseateryseattle.com", "phone": "(206) 728-1648", "address": "2619 1st Ave"}, "geometry": {"type": "Point", "coordinates": [-122.350563, 47.6157494]}}, {"type": "Feature", "properties": {"id": "c619dbd1-a025-4182-b72b-856daec3af23", "name": "Taqueria Cantina - Belltown", "category": "restaurant", "tags": ["restaurant", "mexican"], "sources": ["overture"], "website": "https://www.taqueriacantina.com", "phone": "12069958588", "address": "2630 1st Ave"}, "geometry": {"type": "Point", "coordinates": [-122.3500977, 47.6158981]}}, {"type": "Feature", "properties": {"id": 3211770178, "name": "Beckoning Cistern", "category": "artwork", "tags": ["artwork", "gallery", "art"], "sources": ["osm", "overture"], "website": "http://www.seattle.gov/arts/", "phone": "(206) 684-7171", "address": "81 Vine St", "stations": [{"stopCode": 50, "lines": "1,2", "name": "Westlake Station", "walkingMeters": 1322, "walkingSeconds": 955, "band": 15}]}, "geometry": {"type": "Point", "coordinates": [-122.350133, 47.61485]}}, {"type": "Feature", "properties": {"id": 3211770187, "name": "Olympic Iliad", "category": "artwork", "tags": ["artwork", "fitness-centre", "gym"], "sources": ["osm", "overture"], "website": "http://www.seattlecenter.com/explore/arts/public-art", "address": "378 Broad St"}, "geometry": {"type": "Point", "coordinates": [-122.3500573, 47.6193785]}}, {"type": "Feature", "properties": {"id": 394955903, "name": "Pacific Science Center", "category": "museum", "tags": ["museum"], "sources": ["osm"], "website": "https://www.pacificsciencecenter.org/", "phone": "+1-206-443-2001", "address": "200 Sue Bird Court North", "hours": "We-Su 10:00-17:00"}, "geometry": {"type": "Point", "coordinates": [-122.3513857, 47.6194208]}}, {"type": "Feature", "properties": {"id": "0ba86545-d7ff-4ecc-ae1f-261bc15668e7", "name": "Tropical Butterfly House", "category": "museum", "tags": ["museum"], "sources": ["overture"], "website": "https://pacificsciencecenter.org/exhibit/tropical-butterfly-house/", "phone": "+12064432001", "address": "200 2nd Ave"}, "geometry": {"type": "Point", "coordinates": [-122.3504868, 47.6190224]}}, {"type": "Feature", "properties": {"id": "b650b204-1097-4992-9b11-648fd74c9362", "name": "Chihully Glass Exibit", "category": "museum", "tags": ["museum", "art"], "sources": ["overture"], "website": "http://www.chihulygardenandglass.com", "address": "307 Broad St"}, "geometry": {"type": "Point", "coordinates": [-122.3504257, 47.6182709]}}, {"type": "Feature", "properties": {"id": "f34e2fac-4e98-476a-83ad-8e1a3063bda0", "name": "Cedars Apartments", "category": "attraction", "tags": ["attraction", "landmark", "historical", "building"], "sources": ["overture"], "website": "http://thecedarsapts.com", "phone": "+12064416100", "address": "2615 1st Ave"}, "geometry": {"type": "Point", "coordinates": [-122.3503265, 47.6155319]}}, {"type": "Feature", "properties": {"id": "a2f7d508-161f-437e-90fe-b34fdbd4ed9b", "name": "Banner Building Condos", "category": "attraction", "tags": ["attraction", "landmark", "historical", "building"], "sources": ["overture"], "website": "http://issuu.com/annetraver/docs/banner_building_-_80_vine_st-1-2", "phone": "+12067134710", "address": "80 Vine St"}, "geometry": {"type": "Point", "coordinates": [-122.3507004, 47.6149406]}}, {"type": "Feature", "properties": {"id": "d3eb1851-14b3-411a-b885-9f21d942faa4", "name": "Walton Lofts", "category": "attraction", "tags": ["attraction", "landmark", "historical", "building"], "sources": ["overture"], "website": "https://www.lifeatwalton.com/?referral=Social+Organic+-+Facebook", "phone": "+14153586338", "address": "75 Vine St"}, "geometry": {"type": "Point", "coordinates": [-122.3505707, 47.6143532]}}, {"type": "Feature", "properties": {"id": 50329129, "name": "Belltown Cottage Park", "category": "park", "tags": ["park"], "sources": ["osm"], "website": "https://www.seattle.gov/parks/allparks/belltown-cottage-park", "address": "2512 Elliott Avenue"}, "geometry": {"type": "Point", "coordinates": [-122.3509023, 47.6139584]}}, {"type": "Feature", "properties": {"id": "a24924da-bde6-4e07-a898-6bd3a3251880", "name": "Growing Vine Street", "category": "park", "tags": ["park"], "sources": ["overture"], "website": "http://growingvinestreet.org", "address": "81 Vine St", "stations": [{"stopCode": 50, "lines": "1,2", "name": "Westlake Station", "walkingMeters": 1331, "walkingSeconds": 961, "band": 15}]}, "geometry": {"type": "Point", "coordinates": [-122.3500061, 47.6146736]}}]}