{"type": "FeatureCollection", "features": [{"type": "Feature", "properties": {"id": "edfb21fa-6166-44a5-8226-fdac259ce3d8", "name": "Cucina Fresca", "category": "restaurant", "tags": ["restaurant", "italian"], "sources": ["overture"], "website": "http://www.cucinafresca.com/index.html", "phone": "(206) 903-0825"}, "geometry": {"type": "Point", "coordinates": [-122.2942886, 47.5285721]}}, {"type": "Feature", "properties": {"id": "ec686a94-f0bb-4196-8a16-2b188f31df8a", "name": "East Duwamish GS: S Chicago St", "category": "park", "tags": ["park"], "sources": ["overture"], "address": "S Chicago St"}, "geometry": {"type": "Point", "coordinates": [-122.2907715, 47.5271301]}}, {"type": "Feature", "properties": {"id": "d01b96c1-e7f9-4f97-aceb-e7d64ff6f16b", "name": "Fastenal Fulfillment Center", "category": "doityourself", "tags": ["doityourself", "building", "supply"], "sources": ["overture"], "website": "https://www.fastenal.com/", "phone": "2064202120", "address": "9124 E Marginal Way S"}, "geometry": {"type": "Point", "coordinates": [-122.2995377, 47.5211525]}}]}