{"type": "FeatureCollection", "features": [{"type": "Feature", "properties": {"id": 170359646, "name": "Caffe Ladro", "category": "cafe", "tags": ["cafe", "coffee"], "sources": ["osm", "overture"], "website": "http://CaffeLadro.com/", "phone": "+14254151202", "address": "18610 Bothell Way NE", "hours": "Mo-Fr 06:00-18:00; Sa-Su 07:00-18:00"}, "geometry": {"type": "Point", "coordinates": [-122.2072246, 47.7629947]}}, {"type": "Feature", "properties": {"id": 2086802276, "name": "Sushi Zone", "category": "restaurant", "tags": ["restaurant", "japanese", "sushi", "asian"], "sources": ["osm", "overture"], "website": "https://www.sushizonebothell.com/menu.aspx", "phone": "+14254029988", "address": "10024 Main St"}, "geometry": {"type": "Point", "coordinates": [-122.2065087, 47.7601688]}}, {"type": "Feature", "properties": {"id": 2367593985, "name": "Julio\u2019s", "category": "restaurant", "tags": ["restaurant", "mexican"], "sources": ["osm"], "phone": "+1-425-485-1769", "address": "10023 Northeast 183rd Street"}, "geometry": {"type": "Point", "coordinates": [-122.2062551, 47.7605351]}}, {"type": "Feature", "properties": {"id": 2367593994, "name": "Countryside Donut House", "category": "fast_food", "tags": ["fast-food", "donut"], "sources": ["osm"], "phone": "+1-425-485-4530", "address": "10032 Main Street"}, "geometry": {"type": "Point", "coordinates": [-122.206202, 47.7602128]}}, {"type": "Feature", "properties": {"id": 2367594011, "name": "Hana Sushi", "category": "restaurant", "tags": ["restaurant", "sushi", "japanese", "asian"], "sources": ["osm", "overture"], "website": "http://www.hanasushibothell.com", "phone": "+14254891963", "address": "10114 Main St"}, "geometry": {"type": "Point", "coordinates": [-122.2048169, 47.7602659]}}, {"type": "Feature", "properties": {"id": 2367594014, "name": "Alexa's Cafe & Catering", "category": "restaurant", "tags": ["restaurant"], "sources": ["osm"], "address": "10115 Main Street"}, "geometry": {"type": "Point", "coordinates": [-122.2047626, 47.7600051]}}, {"type": "Feature", "properties": {"id": 2367594018, "name": "Kro Bar", "category": "bar", "tags": ["bar"], "sources": ["osm"], "website": "https://krobarbothell.com/", "address": "10116 Main Street", "hours": "Tu-Th,Su 16:00-22:00; Fr-Sa 16:00-23:00"}, "geometry": {"type": "Point", "coordinates": [-122.2047428, 47.7602719]}}, {"type": "Feature", "properties": {"id": 2367594053, "name": "Zulu's Board Game Cafe", "category": "cafe", "tags": ["cafe", "grill", "outdoor-seating", "indoor-seating", "wheelchair-accessible", "wifi", "gift"], "sources": ["osm", "overture"], "website": "http://www.zulusgames.com/", "phone": "+14258188122", "address": "10234 Main St", "hours": "Mo-We 12:00-23:00, Th-Fr 12:00-24:00, Sa 10:00-24:00, Su 10:00-20:00"}, "geometry": {"type": "Point", "coordinates": [-122.2023639, 47.7604964]}}, {"type": "Feature", "properties": {"id": 2367594092, "name": "Teriyaki Best", "category": "restaurant", "tags": ["restaurant", "asian"], "sources": ["osm"], "address": "18219 101st Avenue Northeast"}, "geometry": {"type": "Point", "coordinates": [-122.2057237, 47.7606757]}}, {"type": "Feature", "properties": {"id": 2367888150, "name": "Tandem Wine & Cheese Bar", "category": "restaurant", "tags": ["restaurant"], "sources": ["osm"]}, "geometry": {"type": "Point", "coordinates": [-122.2045157, 47.7605149]}}, {"type": "Feature", "properties": {"id": 3985456853, "name": "The Wood Shop", "category": "pub", "tags": ["pub"], "sources": ["osm"]}, "geometry": {"type": "Point", "coordinates": [-122.2089444, 47.7627237]}}, {"type": "Feature", "properties": {"id": 3985457615, "name": "Tavern on the Square", "category": "restaurant", "tags": ["restaurant"], "sources": ["osm"]}, "geometry": {"type": "Point", "coordinates": [-122.2088, 47.7630265]}}, {"type": "Feature", "properties": {"id": 3985457616, "name": "The Shed", "category": "bar", "tags": ["bar", "pub"], "sources": ["osm", "overture"], "website": "http://www.mcmenamins.com/2077-anderson-school-shed", "phone": "+14253980122", "address": "18607 Bothell Way NE"}, "geometry": {"type": "Point", "coordinates": [-122.2085439, 47.7627833]}}, {"type": "Feature", "properties": {"id": 6441665180, "name": "Daily Grind Bothell", "category": "cafe", "tags": ["cafe", "coffee"], "sources": ["osm", "overture"], "website": "http://www.dailygrindbothell.com/", "phone": "+14254194257", "address": "18333 Bothell Way NE #103", "hours": "Mo-Fr 07:00-17:00; Sa-Su 08:00-17:00"}, "geometry": {"type": "Point", "coordinates": [-122.2080504, 47.7613428]}}, {"type": "Feature", "properties": {"id": 6441665181, "name": "Amaro Bistro", "category": "restaurant", "tags": ["restaurant", "italian", "pizza", "european"], "sources": ["osm", "overture"], "website": "https://amarorestaurant.com/", "phone": "+14254852300", "address": "18333 Bothell Way NE", "hours": "Mo-Th,Su 16:00-21:00; Fr-Sa 16:00-22:00"}, "geometry": {"type": "Point", "coordinates": [-122.2080428, 47.761519]}}, {"type": "Feature", "properties": {"id": 6441666988, "name": "Agave Cocina", "category": "restaurant", "tags": ["restaurant", "mexican"], "sources": ["osm"], "website": "https://agavecocina.com/", "phone": "+1-425-371-1977", "address": "18505 Bothell Way Northeast", "hours": "Mo-Th 11:00-22:00; Fr 11:00-23:00; Sa 10:00-23:00; Su 10:00-22:00"}, "geometry": {"type": "Point", "coordinates": [-122.2079972, 47.7618173]}}, {"type": "Feature", "properties": {"id": 6441666992, "name": "Stack 571", "category": "restaurant", "tags": ["restaurant", "burger"], "sources": ["osm"], "website": "https://stack571.com/bothell/"}, "geometry": {"type": "Point", "coordinates": [-122.2090838, 47.7617824]}}, {"type": "Feature", "properties": {"id": 6477043221, "name": "The Bine", "category": "pub", "tags": ["pub"], "sources": ["osm"], "website": "https://www.thebinebothell.com/", "address": "10127 Main Street"}, "geometry": {"type": "Point", "coordinates": [-122.204316, 47.7600471]}}, {"type": "Feature", "properties": {"id": 8828100572, "name": "The Cottage", "category": "restaurant", "tags": ["restaurant", "outdoor-seating", "bar", "cocktail"], "sources": ["osm", "overture"], "website": "https://linktr.ee/thecottagebothell", "phone": "+14252866332", "address": "10029 NE 183rd St", "hours": "Su 09:00-21:00;Tu,We,Th 08:00-21:00;Fr 08:00-22:00;Sa 09:00-22:00;Mo off"}, "geometry": {"type": "Point", "coordinates": [-122.2062846, 47.7607864]}}, {"type": "Feature", "properties": {"id": 12472118315, "name": "Bay Leaf", "category": "restaurant", "tags": ["restaurant", "indian", "mediterranean"], "sources": ["osm"], "address": "18505 Bothell Way Northeast", "hours": "11:30-21:30"}, "geometry": {"type": "Point", "coordinates": [-122.2079668, 47.7620539]}}, {"type": "Feature", "properties": {"id": 166289550, "name": "Ranch Drive-In", "category": "fast_food", "tags": ["fast-food", "burger", "fish-and-chips", "hot-dog", "chicken", "outdoor-seating", "takeaway", "delivery", "child-friendly", "air-conditioned", "restaurant", "theme", "american"], "sources": ["osm", "overture"], "website": "https://www.ranchdrivein.com/", "phone": "+14254862677", "address": "18218 Bothell Way NE", "hours": "Mo-Fr 10:00-22:00, Sa-Su 11:00-22:00"}, "geometry": {"type": "Point", "coordinates": [-122.2072508, 47.7605177]}}, {"type": "Feature", "properties": {"id": 651885202, "name": "Sparta's Pizza & Spaghetti House", "category": "restaurant", "tags": ["restaurant", "pizza"], "sources": ["osm"], "website": "https://www.spartaspizza.com/", "phone": "+1-425-485-1227", "address": "18817 Bothell Way Northeast"}, "geometry": {"type": "Point", "coordinates": [-122.2094462, 47.7649205]}}, {"type": "Feature", "properties": {"id": 651890078, "name": "Tubs Gourmet Subs", "category": "fast_food", "tags": ["fast-food", "sandwich", "restaurant"], "sources": ["osm", "overture"], "website": "http://www.tubssubs.com", "phone": "+12063611621", "address": "10415 Beardslee Blvd", "hours": "Mo-Sa 11:00-19:00; Su 11:00-17:00"}, "geometry": {"type": "Point", "coordinates": [-122.2003264, 47.7603437]}}, {"type": "Feature", "properties": {"id": "5d372821-fb0f-465a-9a98-d91a7c40baf8", "name": "Domino's Pizza", "category": "restaurant", "tags": ["restaurant", "pizza"], "sources": ["overture"], "phone": "4258060303", "address": "18811 Bothell Way NE Ste 101"}, "geometry": {"type": "Point", "coordinates": [-122.2088776, 47.7648354]}}, {"type": "Feature", "properties": {"id": "1d62f5c9-df37-4305-b0e4-78ee4f82d8c4", "name": "Ambakity Cocina Mexicana", "category": "restaurant", "tags": ["restaurant", "mexican", "latin-american", "taco"], "sources": ["overture"], "website": "https://ambakity.com", "phone": "+12064878316", "address": "18714 Bothell Way NE"}, "geometry": {"type": "Point", "coordinates": [-122.2077408, 47.7640266]}}, {"type": "Feature", "properties": {"id": "11ee0d28-a740-4cf1-8c4b-90555db17f1c", "name": "Sparta's Pizza and Pasta House", "category": "restaurant", "tags": ["restaurant", "pizza", "italian"], "sources": ["overture"], "website": "http://www.spartaspizza.com", "phone": "+14254851227", "address": "18817 Bothell Way NE"}, "geometry": {"type": "Point", "coordinates": [-122.2095337, 47.7649574]}}, {"type": "Feature", "properties": {"id": "63830ce5-b84c-43a0-be99-4323540b8b0b", "name": "Cafe El Gallo", "category": "cafe", "tags": ["cafe"], "sources": ["overture"], "address": "9614 NE 183rd St"}, "geometry": {"type": "Point", "coordinates": [-122.2099228, 47.7609901]}}, {"type": "Feature", "properties": {"id": "14354f2c-59dd-41ae-abe8-e5ce3553d510", "name": "Poquitos Bothell", "category": "restaurant", "tags": ["restaurant", "mexican"], "sources": ["overture"], "website": "https://poquitosbothell.com", "phone": "14254905544", "address": "18505 Bothell Way Ne  Ste 103"}, "geometry": {"type": "Point", "coordinates": [-122.2087708, 47.7620201]}}, {"type": "Feature", "properties": {"id": "ba1be6e6-fcf0-4f9c-8ec4-c522b764cba6", "name": "The Brick Oven", "category": "restaurant", "tags": ["restaurant", "pizza"], "sources": ["overture"], "website": "https://www.brickovenbothell.com", "phone": "(425) 949-7555", "address": "18505 Bothell Way NE Ste 105"}, "geometry": {"type": "Point", "coordinates": [-122.2088242, 47.7620049]}}, {"type": "Feature", "properties": {"id": "c51ecb22-dead-4ae2-828a-69048ec5685a", "name": "McMenamins The Woodshop", "category": "pub", "tags": ["pub"], "sources": ["overture"], "website": "http://www.mcmenamins.com", "phone": "+14253980122", "address": "18607 Bothell Way NE"}, "geometry": {"type": "Point", "coordinates": [-122.2086334, 47.7626991]}}, {"type": "Feature", "properties": {"id": "e54638ea-41f5-4174-a471-560682440490", "name": "McMenamins Tavern on the Square", "category": "restaurant", "tags": ["restaurant", "pub"], "sources": ["overture"], "website": "http://www.mcmenamins.com/anderson-school/tavern-on-the-square", "phone": "+14252194362", "address": "18607 Bothell Way NE"}, "geometry": {"type": "Point", "coordinates": [-122.2089005, 47.7629852]}}, {"type": "Feature", "properties": {"id": "264f42bd-0bc8-464a-9f6b-466dcbd2c8bf", "name": "McMenamins Nui Nui", "category": "pub", "tags": ["pub"], "sources": ["overture"], "website": "http://www.mcmenamins.com/2075-anderson-school-north-shore-lagoon", "phone": "+14252194349", "address": "9815 NE 188th St"}, "geometry": {"type": "Point", "coordinates": [-122.2084122, 47.7635651]}}, {"type": "Feature", "properties": {"id": "9f488113-d871-4fc6-a323-071ee8237db5", "name": "Principal's Office", "category": "bar", "tags": ["bar", "cocktail"], "sources": ["overture"], "website": "http://www.mcmenamins.com/2076-anderson-school-principal-s-office", "phone": "+14253980122", "address": "18607 Bothell Way NE"}, "geometry": {"type": "Point", "coordinates": [-122.2080154, 47.7626343]}}, {"type": "Feature", "properties": {"id": "97ec5629-fc56-4a68-84e0-cff05a0dbd36", "name": "Bay Leaf Bar & Grill", "category": "restaurant", "tags": ["restaurant", "indian", "mediterranean", "bar-and-grill"], "sources": ["overture"], "website": "http://bayleafbothell.com/", "phone": "+14259497555", "address": "18505 Bothell Way NE #105"}, "geometry": {"type": "Point", "coordinates": [-122.207962, 47.7619858]}}, {"type": "Feature", "properties": {"id": "3fdb0855-abd1-4160-85cf-690a56feb3d6", "name": "Agave Cocina & Tequila | Bothell", "category": "restaurant", "tags": ["restaurant", "mexican", "latin-american"], "sources": ["overture"], "website": "http://agavecocina.com/", "phone": "+14253711977", "address": "18505 Bothell Way NE"}, "geometry": {"type": "Point", "coordinates": [-122.2080231, 47.7618408]}}, {"type": "Feature", "properties": {"id": "53a1052a-0f64-4f0d-8c22-ba06d40cece2", "name": "Social Grounds Coffee & Tea Company, Llc", "category": "restaurant", "tags": ["restaurant"], "sources": ["overture"], "website": "https://socialgroundscoffee.com", "address": "18333 Bothell Way Ne Ste 103b"}, "geometry": {"type": "Point", "coordinates": [-122.2086792, 47.761219]}}, {"type": "Feature", "properties": {"id": "f3d57d53-5206-4aaf-a490-e00ed320037e", "name": "The Den Coffee Shop", "category": "cafe", "tags": ["cafe", "coffee", "breakfast-and-brunch"], "sources": ["overture"], "website": "http://www.thedencoffeeshop.com/", "phone": "+14254830764", "address": "10415 Beardslee Blvd"}, "geometry": {"type": "Point", "coordinates": [-122.2003708, 47.7604523]}}, {"type": "Feature", "properties": {"id": "acd82311-1700-4ec6-8538-23e451a9bb63", "name": "Hillcrest Bakery", "category": "bakery", "tags": ["bakery"], "sources": ["overture"], "website": "http://www.HillcrestBakery.com/", "phone": "+14254865292", "address": "10010 Main St"}, "geometry": {"type": "Point", "coordinates": [-122.2069473, 47.7600822]}}, {"type": "Feature", "properties": {"id": "aef1ca65-24aa-4672-ba5a-d70dd0da50b1", "name": "Bothell", "category": "bakery", "tags": ["bakery"], "sources": ["overture"], "address": "10010 Main St"}, "geometry": {"type": "Point", "coordinates": [-122.2068863, 47.7602348]}}, {"type": "Feature", "properties": {"id": "603a6af7-5478-45e9-8317-c2a727e365f8", "name": "Revolve True Food", "category": "bar", "tags": ["bar", "wine", "gluten-free"], "sources": ["overture"], "website": "https://revolvefoodwine.com/", "phone": "4252876420", "address": "10024 Main St"}, "geometry": {"type": "Point", "coordinates": [-122.2064819, 47.7603035]}}, {"type": "Feature", "properties": {"id": "75482430-3544-46ac-a462-7af54a4b48eb", "name": "Julio's Restaurant", "category": "restaurant", "tags": ["restaurant", "mexican", "latin-american"], "sources": ["overture"], "website": "https://juliorestaurant.com/", "phone": "+14254851769", "address": "10023 NE 183rd St"}, "geometry": {"type": "Point", "coordinates": [-122.2061768, 47.7606201]}}, {"type": "Feature", "properties": {"id": "1104af1b-0589-4923-9615-155cdae9ff43", "name": "The Bison on Main", "category": "restaurant", "tags": ["restaurant", "pub", "bar-and-grill", "burger"], "sources": ["overture"], "website": "http://thebisonpub.com/", "phone": "+14253980111", "address": "10111 Main St"}, "geometry": {"type": "Point", "coordinates": [-122.2049179, 47.7600403]}}, {"type": "Feature", "properties": {"id": "59d51b73-df32-448f-bf82-a1b3139e3a4b", "name": "Kr\u014d B\u00e4r Bothell", "category": "restaurant", "tags": ["restaurant"], "sources": ["overture"], "website": "https://krobarbothell.com", "phone": "14256815757", "address": "10116 Main St"}, "geometry": {"type": "Point", "coordinates": [-122.2047424, 47.7603874]}}, {"type": "Feature", "properties": {"id": "d74863ca-aaa9-496e-b703-1d683d8551b1", "name": "Tandem Dinner & Wine Bar", "category": "bar", "tags": ["bar", "wine"], "sources": ["overture"], "website": "http://www.tandemwinebar.com", "phone": "(425) 398-9463", "address": "10123 Main Pl"}, "geometry": {"type": "Point", "coordinates": [-122.2044754, 47.7604866]}}, {"type": "Feature", "properties": {"id": "82f17307-41c4-445d-b8df-3946325cb3a6", "name": "The Bine Beer & Food", "category": "restaurant", "tags": ["restaurant", "pub"], "sources": ["overture"], "website": "http://www.thebinebothell.com/", "phone": "+14259087464", "address": "10127 Main St"}, "geometry": {"type": "Point", "coordinates": [-122.2042999, 47.7600174]}}, {"type": "Feature", "properties": {"id": 8828072839, "name": "Postcard From The Zoo", "category": "artwork", "tags": ["artwork"], "sources": ["osm"]}, "geometry": {"type": "Point", "coordinates": [-122.2065702, 47.7601737]}}, {"type": "Feature", "properties": {"id": 8828096614, "name": "Bothell Mural Project", "category": "artwork", "tags": ["artwork"], "sources": ["osm"]}, "geometry": {"type": "Point", "coordinates": [-122.2055981, 47.7603147]}}, {"type": "Feature", "properties": {"id": 12714671026, "name": "Otter and  Beavers with Pup", "category": "artwork", "tags": ["artwork"], "sources": ["osm"]}, "geometry": {"type": "Point", "coordinates": [-122.2059404, 47.7611519]}}, {"type": "Feature", "properties": {"id": 12714671027, "name": "City Kitty", "category": "artwork", "tags": ["artwork"], "sources": ["osm"]}, "geometry": {"type": "Point", "coordinates": [-122.2069595, 47.7615471]}}, {"type": "Feature", "properties": {"id": 12714671032, "name": "Historic Bothell Bike Rack", "category": "artwork", "tags": ["artwork"], "sources": ["osm"]}, "geometry": {"type": "Point", "coordinates": [-122.203975, 47.7601569]}}, {"type": "Feature", "properties": {"id": "f109a84c-a90a-4b59-816a-13c15abd018f", "name": "98th Avenue Bothell Apartments", "category": "attraction", "tags": ["attraction", "landmark", "historical", "building"], "sources": ["overture"], "website": "https://www.98thavenuebothell.com/", "phone": "+14254148102", "address": "18307 98th Ave NE"}, "geometry": {"type": "Point", "coordinates": [-122.2098389, 47.7610054]}}, {"type": "Feature", "properties": {"id": "691f8ed9-bac3-44ea-8bee-d7a52363da25", "name": "Junction Apartments", "category": "attraction", "tags": ["attraction", "landmark", "historical", "building"], "sources": ["overture"], "website": "https://www.junctionbothellapartments.com/?utm_source=social&utm_medium=display&utm_iq=social", "phone": "+14253104594", "address": "9924 NE 185th St"}, "geometry": {"type": "Point", "coordinates": [-122.2087326, 47.761734]}}, {"type": "Feature", "properties": {"id": "836bd168-b9e4-4723-bf43-9892fafa762c", "name": "Six Oaks", "category": "attraction", "tags": ["attraction", "landmark", "historical", "building"], "sources": ["overture"], "website": "https://www.liveatsixoaks.com/", "phone": "+14254704061", "address": "18333 Bothell Way NE"}, "geometry": {"type": "Point", "coordinates": [-122.2084198, 47.7613831]}}, {"type": "Feature", "properties": {"id": "af2a6303-8a0b-44ca-bf9f-d7799b105111", "name": "Willard Art & Frame", "category": "gallery", "tags": ["gallery", "art"], "sources": ["overture"], "website": "https://www.instagram.com/willardartandframe/", "phone": "+14254837385", "address": "10101 Main St"}, "geometry": {"type": "Point", "coordinates": [-122.2052689, 47.7600288]}}, {"type": "Feature", "properties": {"id": "9ea717f5-f643-47c0-a4a1-342663a9853d", "name": "The Merc", "category": "attraction", "tags": ["attraction", "landmark", "historical", "building"], "sources": ["overture"], "website": "http://www.themerclife.com/", "phone": "+14259497327", "address": "18120 102nd Ave NE"}, "geometry": {"type": "Point", "coordinates": [-122.2035065, 47.7601128]}}, {"type": "Feature", "properties": {"id": "480a6547-ab49-4f21-a2e5-b8e08b837f49", "name": "Edition Apartments", "category": "attraction", "tags": ["attraction", "landmark", "historical", "building"], "sources": ["overture"], "website": "https://www.editionliving.com/?rcstdid=MTE%3D-aKFOxiSL8lQ%3D&utm_source=facebook&utm_medium=social", "phone": "+18333680964", "address": "18420 102nd Ave NE"}, "geometry": {"type": "Point", "coordinates": [-122.2028885, 47.7617226]}}, {"type": "Feature", "properties": {"id": "bb116941-ed96-4a52-a0f8-3e6b6634b1ff", "name": "The 104 Apartments", "category": "attraction", "tags": ["attraction", "landmark", "historical", "building"], "sources": ["overture"], "website": "http://the104apartments.com/?utm_source=social&utm_medium=display&utm_iq=social", "phone": "+14254030344", "address": "18414 104th Ave NE"}, "geometry": {"type": "Point", "coordinates": [-122.2011337, 47.7617073]}}, {"type": "Feature", "properties": {"id": 3985456854, "name": "McMenamins Anderson School House", "category": "hotel", "tags": ["hotel"], "sources": ["osm"], "address": "18607 Bothell Way Northeast"}, "geometry": {"type": "Point", "coordinates": [-122.2081926, 47.7626678]}}, {"type": "Feature", "properties": {"id": 12719905201, "name": "McMenamins Anderson School", "category": "hotel", "tags": ["hotel"], "sources": ["osm", "overture"], "website": "https://www.youtube.com/watch?v=4Li8sF7WMfE", "phone": "+14253980122", "address": "18607 Bothell Way NE"}, "geometry": {"type": "Point", "coordinates": [-122.208477, 47.7629487]}}, {"type": "Feature", "properties": {"id": 172229899, "name": "Hotel California By The Sea", "category": "hotel", "tags": ["hotel"], "sources": ["osm"], "address": "18504 Bothell Way Northeast"}, "geometry": {"type": "Point", "coordinates": [-122.2071248, 47.7619066]}}, {"type": "Feature", "properties": {"id": 2367593984, "name": "The Bothell Florist", "category": "florist", "tags": ["florist"], "sources": ["osm"], "address": "10021 Northeast 183rd Street"}, "geometry": {"type": "Point", "coordinates": [-122.2062745, 47.7606948]}}, {"type": "Feature", "properties": {"id": 2367594004, "name": "First & Main Design Market", "category": "furniture", "tags": ["furniture"], "sources": ["osm"], "address": "10100 Main Street"}, "geometry": {"type": "Point", "coordinates": [-122.2052963, 47.7603768]}}, {"type": "Feature", "properties": {"id": 2367594030, "name": "Piper Boutique", "category": "clothes", "tags": ["clothes"], "sources": ["osm"], "website": "http://piperbychic.com", "address": "10124 Main Street"}, "geometry": {"type": "Point", "coordinates": [-122.204422, 47.7602904]}}, {"type": "Feature", "properties": {"id": 2367888154, "name": "CoCapsules Boutique", "category": "clothes", "tags": ["clothes"], "sources": ["osm"], "address": "10123 Main Place"}, "geometry": {"type": "Point", "coordinates": [-122.204571, 47.7604987]}}, {"type": "Feature", "properties": {"id": 6947174626, "name": "Seattle Electric Bike", "category": "bicycle", "tags": ["bicycle"], "sources": ["osm"], "website": "https://www.seattleelectricbike.net/", "phone": "+1-425-273-2959", "address": "18227 Bothell Way Northeast", "hours": "10:30-18:00"}, "geometry": {"type": "Point", "coordinates": [-122.208063, 47.7606644]}}, {"type": "Feature", "properties": {"id": "233781b6-8c98-4938-a600-60bde9b1da03", "name": "ExtraMile", "category": "convenience", "tags": ["convenience"], "sources": ["overture"], "website": "https://www.chevronextramile.com/station-finder/18725-bothell-way-ne-bothell-wa-98011-id359841", "phone": "+14254866678", "address": "18725 Bothell Way NE"}, "geometry": {"type": "Point", "coordinates": [-122.2085114, 47.7639122]}}, {"type": "Feature", "properties": {"id": 8828112363, "name": "Mili Mae", "category": "clothes", "tags": ["clothes"], "sources": ["osm"], "address": "10124 Main Street"}, "geometry": {"type": "Point", "coordinates": [-122.204483, 47.7602916]}}, {"type": "Feature", "properties": {"id": 8828112364, "name": "Sankara Imports", "category": "gift", "tags": ["gift"], "sources": ["osm"]}, "geometry": {"type": "Point", "coordinates": [-122.2042177, 47.760299]}}, {"type": "Feature", "properties": {"id": 651890070, "name": "Bothell Deli & Grocery", "category": "convenience", "tags": ["convenience"], "sources": ["osm", "overture"], "website": "http://bothell-deli-grocery.edan.io", "phone": "14254831700", "address": "10303 Main St"}, "geometry": {"type": "Point", "coordinates": [-122.2018982, 47.7600989]}}, {"type": "Feature", "properties": {"id": "a424acf2-c8b4-4446-9d97-c6fa9018753d", "name": "Wings Of The World", "category": "pet", "tags": ["pet", "fast-food"], "sources": ["overture"], "website": "http://www.wingsoftheworld.net", "phone": "+14254816989", "address": "18108 102nd Ave NE"}, "geometry": {"type": "Point", "coordinates": [-122.203743, 47.7600632]}}, {"type": "Feature", "properties": {"id": "5e018158-abcd-4bcd-9ee0-5a7b39763f44", "name": "Sherwin-Williams", "category": "hardware", "tags": ["hardware"], "sources": ["overture"], "website": "https://www.sherwin-williams.com/store-locator/paint-store/bothell/wa/703557", "phone": "+14254869116", "address": "10042 Main St"}, "geometry": {"type": "Point", "coordinates": [-122.2056885, 47.7602234]}}, {"type": "Feature", "properties": {"id": "828f58ca-a44f-45bf-ab3c-25940546fbea", "name": "Bothell Furniture", "category": "furniture", "tags": ["furniture"], "sources": ["overture"], "website": "http://www.bothellfurniture.com/", "phone": "+14254865833", "address": "18811 Bothell Way NE"}, "geometry": {"type": "Point", "coordinates": [-122.2092056, 47.7646446]}}, {"type": "Feature", "properties": {"id": "eb695aa0-d8da-4438-a6ad-a0037e78560f", "name": "Bothell Furniture", "category": "furniture", "tags": ["furniture"], "sources": ["overture"], "website": "http://www.bothellfurniture.com", "phone": "(425) 486-5833"}, "geometry": {"type": "Point", "coordinates": [-122.2051849, 47.7603378]}}, {"type": "Feature", "properties": {"id": "5df5a52e-e299-415c-8596-9e657860a389", "name": "Bothell Florist", "category": "florist", "tags": ["florist"], "sources": ["overture"], "website": "http://www.thebothellflorist.com", "phone": "(425) 481-8844", "address": "10021 NE 183rd St"}, "geometry": {"type": "Point", "coordinates": [-122.2062302, 47.7605667]}}, {"type": "Feature", "properties": {"id": "5d460441-eed3-4848-842b-edad8ee4a238", "name": "DOOD Smoke Shop", "category": "tobacco", "tags": ["tobacco"], "sources": ["overture"], "phone": "2065031255", "address": "10036 Main St"}, "geometry": {"type": "Point", "coordinates": [-122.2062378, 47.7601547]}}, {"type": "Feature", "properties": {"id": "a2b3d390-a39c-4470-abc3-bf24e0446546", "name": "First and Main Design Market", "category": "furniture", "tags": ["furniture"], "sources": ["overture"], "website": "https://www.bothelltreelightingfestival.com/", "phone": "+14258771064", "address": "10100 Main St"}, "geometry": {"type": "Point", "coordinates": [-122.2052383, 47.7602348]}}, {"type": "Feature", "properties": {"id": "12f20610-538d-494d-973f-444acb7015dc", "name": "CoCapsules - Styling Studio", "category": "clothes", "tags": ["clothes", "womens"], "sources": ["overture"], "website": "http://www.cocapsules.com/", "phone": "5098818680", "address": "10124B Main St"}, "geometry": {"type": "Point", "coordinates": [-122.2043686, 47.7602692]}}, {"type": "Feature", "properties": {"id": "e0526c60-5ca6-4792-adfa-504bec7bffb9", "name": "The Neverending Bookshop", "category": "books", "tags": ["books"], "sources": ["overture"], "website": "http://www.theneverendingbookshop.com", "phone": "(425) 415-1945", "address": "7530 Olympic View Dr Ste 105"}, "geometry": {"type": "Point", "coordinates": [-122.2044678, 47.7603645]}}, {"type": "Feature", "properties": {"id": "78b87c78-55bb-4efa-a9ae-1884478e78d1", "name": "Bothell Jewelers & Collectibles", "category": "jewelry", "tags": ["jewelry"], "sources": ["overture"], "website": "http://www.tias.com/stores/bothellj/", "phone": "+14254872900", "address": "10130 Main St"}, "geometry": {"type": "Point", "coordinates": [-122.2041626, 47.7602539]}}, {"type": "Feature", "properties": {"id": "dba58074-dff6-4b7b-b3ed-4cabe12cf48a", "name": "Wanderlust Book Lounge", "category": "books", "tags": ["books"], "sources": ["overture"], "website": "http://www.Wanderlustbooklounge.com/", "phone": "+14252059643", "address": "10202 NE 185th St"}, "geometry": {"type": "Point", "coordinates": [-122.2040863, 47.7620354]}}, {"type": "Feature", "properties": {"id": 2092569936, "name": "Lakeshore Clinic", "category": "clinic", "tags": ["clinic"], "sources": ["osm"], "website": "www.lakeshoreclinic.com", "phone": "+1-425-486-9131", "address": "10025 Northeast 186th Street"}, "geometry": {"type": "Point", "coordinates": [-122.206434, 47.762374]}}, {"type": "Feature", "properties": {"id": 2367594031, "name": "Northshore Healing Rooms", "category": "clinic", "tags": ["clinic"], "sources": ["osm"], "address": "10125 Main Place"}, "geometry": {"type": "Point", "coordinates": [-122.2044519, 47.7605189]}}, {"type": "Feature", "properties": {"id": 6441666994, "name": "DS Skin and Lips Medical Spa", "category": "clinic", "tags": ["clinic"], "sources": ["osm"], "website": "https://dsskinandlips.com/"}, "geometry": {"type": "Point", "coordinates": [-122.209506, 47.7621858]}}, {"type": "Feature", "properties": {"id": 172245478, "name": "Evergreen Health", "category": "clinic", "tags": ["clinic"], "sources": ["osm"], "website": "www.lakeshoreclinic.com", "phone": "+1-425-486-9131", "address": "10025 Northeast 186th Street"}, "geometry": {"type": "Point", "coordinates": [-122.2064232, 47.7623305]}}, {"type": "Feature", "properties": {"id": 653704055, "name": "Health Point Clinic", "category": "clinic", "tags": ["clinic"], "sources": ["osm"], "website": "https://www.healthpointchc.org/health-centers/bothell"}, "geometry": {"type": "Point", "coordinates": [-122.2005702, 47.7608892]}}, {"type": "Feature", "properties": {"id": "7fe36d3f-1c58-4538-b387-1902a8654f09", "name": "HealthPoint Bothell", "category": "clinic", "tags": ["clinic", "medical"], "sources": ["overture"], "website": "http://www.healthpointchc.org/health-centers/bothell", "phone": "+14254860658", "address": "10414 Beardslee Blvd"}, "geometry": {"type": "Point", "coordinates": [-122.2005157, 47.760704]}}, {"type": "Feature", "properties": {"id": "91ed8166-1724-4eb7-a7f9-ab900a6a1360", "name": "Bothell Natural Health", "category": "clinic", "tags": ["clinic", "medical"], "sources": ["overture"], "website": "http://www.bothellnaturalhealth.com", "phone": "(425) 485-7441", "address": "18404 102nd Ave NE"}, "geometry": {"type": "Point", "coordinates": [-122.2037277, 47.761364]}}, {"type": "Feature", "properties": {"id": 651890058, "name": "Union Bank", "category": "bank", "tags": ["bank", "credit", "union"], "sources": ["osm", "overture"], "website": "https://www.unionbank.com/locations/washington/bothell/10304-main-street-98011", "phone": "4254852265", "address": "10304 Main St"}, "geometry": {"type": "Point", "coordinates": [-122.2019112, 47.7606414]}}, {"type": "Feature", "properties": {"id": 2367594044, "name": "Wells Fargo", "category": "bank", "tags": ["bank", "drive-through"], "sources": ["osm"], "address": "10210 Main Street"}, "geometry": {"type": "Point", "coordinates": [-122.203361, 47.7604701]}}, {"type": "Feature", "properties": {"id": 651884693, "name": "Chase", "category": "bank", "tags": ["bank"], "sources": ["osm"], "website": "https://locator.chase.com/wa/bothell/18925-bothell-way-ne", "phone": "+1-425-489-2500", "address": "18925 Bothell Way Northeast", "hours": "Mo-Fr 09:00-17:00; Sa 09:00-13:00; Su closed"}, "geometry": {"type": "Point", "coordinates": [-122.2098673, 47.7653261]}}, {"type": "Feature", "properties": {"id": 6160907959, "name": "BECU", "category": "bank", "tags": ["bank"], "sources": ["osm"], "website": "https://www.becu.org/locations/bothell", "address": "18333 Bothell Way Northeast", "hours": "Mo-Fr 09:00-18:00; Sa 09:00-13:00"}, "geometry": {"type": "Point", "coordinates": [-122.2079951, 47.7610404]}}, {"type": "Feature", "properties": {"id": 166289549, "name": "WaFd Bank", "category": "bank", "tags": ["bank", "credit", "union"], "sources": ["osm", "overture"], "website": "https://www.wafdbank.com/locations/washington/bothell/183rd-street?utm_source=ExtNet&utm_medium=yext", "phone": "4254862721", "address": "10015 NE 183rd"}, "geometry": {"type": "Point", "coordinates": [-122.2068579, 47.7605821]}}, {"type": "Feature", "properties": {"id": 6947174627, "name": "Banner Bank", "category": "bank", "tags": ["bank"], "sources": ["osm"], "address": "18203 Bothell Way Northeast", "hours": "Mo-Fr 09:00-17:00"}, "geometry": {"type": "Point", "coordinates": [-122.2080848, 47.7601611]}}, {"type": "Feature", "properties": {"id": 6441666990, "name": "First Financial", "category": "bank", "tags": ["bank"], "sources": ["osm"], "address": "9924 Northeast 185th Street", "hours": "Mo-Fr 09:00-17:00"}, "geometry": {"type": "Point", "coordinates": [-122.2084516, 47.7618159]}}, {"type": "Feature", "properties": {"id": "3e545af9-de55-4b15-b744-6aaba9c93bc6", "name": "WELLS FARGO BANK", "category": "bank", "tags": ["bank", "credit", "union"], "sources": ["overture"], "phone": "4254867124", "address": "10210 Main St"}, "geometry": {"type": "Point", "coordinates": [-122.2033234, 47.7602425]}}, {"type": "Feature", "properties": {"id": "78caac51-b415-4653-91b2-58aa5d042ec7", "name": "First Financial Northwest Bank - Bothell Branch", "category": "bank", "tags": ["bank", "credit", "union"], "sources": ["overture"], "website": "https://www.ffnwb.com/", "phone": "4252542094", "address": "9924 NE 185th St"}, "geometry": {"type": "Point", "coordinates": [-122.2086258, 47.761879]}}, {"type": "Feature", "properties": {"id": 2367594032, "name": "F45", "category": "fitness_centre", "tags": ["fitness-centre"], "sources": ["osm"], "address": "10125 Main Street"}, "geometry": {"type": "Point", "coordinates": [-122.204404, 47.7600186]}}, {"type": "Feature", "properties": {"id": "b541654f-81e0-43e3-bcc3-417990e6f895", "name": "McMenamins North Shore Lagoon Swimming Pool", "category": "swimming_pool", "tags": ["swimming-pool", "swimming", "pool"], "sources": ["overture"], "website": "http://nwcenter.org", "phone": "+14252194359", "address": "18709 Bothell Way NE"}, "geometry": {"type": "Point", "coordinates": [-122.2083206, 47.7635384]}}, {"type": "Feature", "properties": {"id": "6d9c9491-7779-454c-afc7-8b5aa1354f98", "name": "Leela Yoga Studio", "category": "fitness_centre", "tags": ["fitness-centre", "yoga", "studio"], "sources": ["overture"], "website": "http://leelayogastudio.com/", "phone": "+14254891900", "address": "10116 NE 185th St"}, "geometry": {"type": "Point", "coordinates": [-122.2050629, 47.7620392]}}, {"type": "Feature", "properties": {"id": "795fbda5-85d6-497f-b6b0-24235cd63b60", "name": "Patva Yoga Studio", "category": "fitness_centre", "tags": ["fitness-centre", "yoga", "studio"], "sources": ["overture"], "website": "https://www.patvayogastudio.com/", "phone": "+14255200019", "address": "18516 101st Ave NE #1"}, "geometry": {"type": "Point", "coordinates": [-122.2055511, 47.7623215]}}]}