{"type": "FeatureCollection", "features": [{"type": "Feature", "properties": {"id": "bf848aa9-c826-4c66-919f-dc2d53c34a92", "name": "Taqueria El Antojo", "category": "restaurant", "tags": ["restaurant", "mexican", "fast-food"], "sources": ["overture"], "address": "11822 12th Ave SW"}, "geometry": {"type": "Point", "coordinates": [-122.3496017, 47.4967842]}}, {"type": "Feature", "properties": {"id": 166425180, "name": "Salmon Creek Park", "category": "park", "tags": ["park"], "sources": ["osm", "overture"], "website": "http://salmon-creek-park-mount-view-usa.placestars.com/", "address": "700 SW 118th St"}, "geometry": {"type": "Point", "coordinates": [-122.3430745, 47.4980171]}}, {"type": "Feature", "properties": {"id": 172878274, "name": "Evergreen Aquatic Center", "category": "sports_centre", "tags": ["sports-centre", "swimming", "wheelchair-accessible", "swimming-pool", "pool"], "sources": ["osm", "overture"], "website": "https://linktr.ee/evergreenpool", "phone": "+12065882297", "address": "606 SW 116th St"}, "geometry": {"type": "Point", "coordinates": [-122.3423875, 47.499747]}}]}