{"type": "FeatureCollection", "features": [{"type": "Feature", "properties": {"id": "5ce01756-e54c-46e8-815e-684e310d8ab7", "name": "Flying Squirrel Pizza", "category": "restaurant", "tags": ["restaurant", "pizza"], "sources": ["overture"], "website": "http://www.flyingsquirrelpizza.com", "phone": "(206) 721-7620", "address": "4920 S Genesee St"}, "geometry": {"type": "Point", "coordinates": [-122.271019, 47.5641556]}}, {"type": "Feature", "properties": {"id": 2366031863, "name": "Seward Park Pizza", "category": "restaurant", "tags": ["restaurant", "pizza", "american", "outdoor-seating"], "sources": ["osm"], "website": "https://sewardparkpizza.com/", "phone": "+1-206-946-1467", "address": "4920 South Genesee Street", "hours": "Tu-Su 11:00-21:00"}, "geometry": {"type": "Point", "coordinates": [-122.2710127, 47.5642671]}}, {"type": "Feature", "properties": {"id": 3151857842, "name": "Both Ways Cafe", "category": "cafe", "tags": ["cafe", "breakfast", "american"], "sources": ["osm"], "website": "https://www.bothwayscafe.com", "phone": "+1-206-722-5799", "address": "4922 South Genesee Street", "hours": "Mo-Sa 07:00-15:00; Su 08:00-14:00"}, "geometry": {"type": "Point", "coordinates": [-122.270926, 47.5642708]}}, {"type": "Feature", "properties": {"id": "977d6af6-6748-4276-95b7-ca658e91ec29", "name": "Zeeks Pizza", "category": "restaurant", "tags": ["restaurant", "pizza"], "sources": ["overture"], "website": "https://zeekspizza.com/", "phone": "2069461467", "address": "4920 S Genesee St"}, "geometry": {"type": "Point", "coordinates": [-122.271019, 47.5642891]}}, {"type": "Feature", "properties": {"id": "14549f28-8a22-465d-9761-bc0c632ace1b", "name": "Cafe Aden", "category": "cafe", "tags": ["cafe", "mediterranean"], "sources": ["overture"], "website": "http://www.CafeAden.com/", "address": "3900 Kela Ave S"}, "geometry": {"type": "Point", "coordinates": [-122.2730331, 47.5687103]}}, {"type": "Feature", "properties": {"id": "1c9ea6ed-9b0b-47bb-bb74-048f65459d86", "name": "Aslan Brewing Seward Park", "category": "pub", "tags": ["pub"], "sources": ["overture"], "website": "https://www.aslanbrewing.com/seward-park", "address": "4920 S Genesee St"}, "geometry": {"type": "Point", "coordinates": [-122.2711411, 47.5642204]}}, {"type": "Feature", "properties": {"id": "8071aee2-b6e7-44b6-ae1c-a6dfc559fff8", "name": "Both Ways Cafe & Catering", "category": "cafe", "tags": ["cafe", "breakfast-and-brunch", "american"], "sources": ["overture"], "website": "http://bothwaysbakerycafe.com/", "phone": "+12067225799", "address": "4922 S Genesee St"}, "geometry": {"type": "Point", "coordinates": [-122.2708511, 47.5642624]}}, {"type": "Feature", "properties": {"id": 13503327214, "name": "Rumford Beach", "category": "park", "tags": ["park"], "sources": ["osm"], "hours": "Mo-Su 09:00-21:00"}, "geometry": {"type": "Point", "coordinates": [-122.2706218, 47.5678938]}}, {"type": "Feature", "properties": {"id": 1471546850, "name": "Wehrell's Lookout", "category": "park", "tags": ["park"], "sources": ["osm"]}, "geometry": {"type": "Point", "coordinates": [-122.2745342, 47.5690022]}}, {"type": "Feature", "properties": {"id": "4a6546b2-cc25-42cd-9b10-946780cae914", "name": "Genesee Park and Playfield", "category": "park", "tags": ["park", "dog"], "sources": ["overture"], "website": "http://www.seattle.gov/parks/find/parks/genesee-park-and-playfield", "phone": "2066844075", "address": "4316 S Genesee St"}, "geometry": {"type": "Point", "coordinates": [-122.278511, 47.5644379]}}, {"type": "Feature", "properties": {"id": "a33b5073-5a16-44c8-826f-9371ee607959", "name": "Westcrest Park Off Leash Area", "category": "park", "tags": ["park"], "sources": ["overture"], "website": "http://www.seattle.gov/parks/parkspaces/westcrestpark/dog.htm", "phone": "(206) 684-4075", "address": "SW Henderson St."}, "geometry": {"type": "Point", "coordinates": [-122.2781982, 47.5644302]}}, {"type": "Feature", "properties": {"id": "73707887-4cab-460c-ad83-f64cdaf57f7b", "name": "Genesee Upper Field", "category": "park", "tags": ["park"], "sources": ["overture"], "website": "https://www.seattle.gov/parks/park_detail.asp?id=409", "address": "4316 S Genesee St"}, "geometry": {"type": "Point", "coordinates": [-122.2783585, 47.5626602]}}, {"type": "Feature", "properties": {"id": 2735120904, "name": "Noah's Grocery Store", "category": "convenience", "tags": ["convenience"], "sources": ["osm"], "address": "4700 50th Avenue South"}, "geometry": {"type": "Point", "coordinates": [-122.2705312, 47.5604712]}}, {"type": "Feature", "properties": {"id": "a6383d11-7ac4-4a87-881f-569a07f43597", "name": "Noah's Grocery", "category": "supermarket", "tags": ["supermarket"], "sources": ["overture"], "phone": "12067254267", "address": "4700 50th Ave S"}, "geometry": {"type": "Point", "coordinates": [-122.270462, 47.5604286]}}, {"type": "Feature", "properties": {"id": 227976910, "name": "Radiance Women's Wellness", "category": "clinic", "tags": ["clinic"], "sources": ["osm"], "website": "https://www.radiancewomenswellness.com/", "phone": "+1-206-660-1680", "address": "4409 50th Avenue South"}, "geometry": {"type": "Point", "coordinates": [-122.2710003, 47.563763]}}, {"type": "Feature", "properties": {"id": "4f1e2c20-0ba0-45f1-991c-6a5c7c88f2e7", "name": "Kristins Yoga", "category": "fitness_centre", "tags": ["fitness-centre", "yoga", "studio"], "sources": ["overture"], "website": "http://ritualhouseseattle.com", "phone": "(206) 723-5107", "address": "4217 49th Ave S"}, "geometry": {"type": "Point", "coordinates": [-122.272316, 47.5647087]}}]}