{"type": "FeatureCollection", "features": [{"type": "Feature", "properties": {"id": 161927243, "name": "Mercurys Coffee Co.", "category": "cafe", "tags": ["cafe", "coffee-shop", "outdoor-seating", "takeaway", "coffee"], "sources": ["osm", "overture"], "website": "https://www.mercurys.com", "phone": "14253071988", "address": "13102 NE 20th St", "stations": [{"stopCode": 61, "lines": "2", "name": "Bel-Red/130th Station", "walkingMeters": 667, "walkingSeconds": 480, "band": 10}]}, "geometry": {"type": "Point", "coordinates": [-122.1655708, 47.6284232]}}, {"type": "Feature", "properties": {"id": "5630a922-8987-4c3e-9b30-36b9c4bb4482", "name": "A Pizza Mart", "category": "restaurant", "tags": ["restaurant", "pizza"], "sources": ["overture"], "website": "http://briatorepizza.com/", "phone": "(425) 746-9100", "address": "13433 NE 20th St", "stations": [{"stopCode": 61, "lines": "2", "name": "Bel-Red/130th Station", "walkingMeters": 791, "walkingSeconds": 569, "band": 10}]}, "geometry": {"type": "Point", "coordinates": [-122.1603851, 47.6280098]}}, {"type": "Feature", "properties": {"id": 5278619058, "name": "Kin Dee", "category": "restaurant", "tags": ["restaurant", "thai"], "sources": ["osm"], "website": "https://www.kindeebellevue.com/", "phone": "+1-425-384-2888", "address": "13238 NE 20th st", "hours": "Mo-Fr 11:00-15:00, 16:30-20:30; Sa, Su 11:00-20:30", "stations": [{"stopCode": 61, "lines": "2", "name": "Bel-Red/130th Station", "walkingMeters": 622, "walkingSeconds": 448, "band": 10}]}, "geometry": {"type": "Point", "coordinates": [-122.1640057, 47.6285601]}}, {"type": "Feature", "properties": {"id": 5278619059, "name": "Royal Kitchen", "category": "restaurant", "tags": ["restaurant", "chinese"], "sources": ["osm"], "website": "https://kingswatogo.com/", "phone": "+1-425-378-8009", "hours": "Mo closed,Tu-Fr 11:00-21:00,Sa-Su 10:00-21:00", "stations": [{"stopCode": 61, "lines": "2", "name": "Bel-Red/130th Station", "walkingMeters": 600, "walkingSeconds": 432, "band": 10}]}, "geometry": {"type": "Point", "coordinates": [-122.1642467, 47.6285577]}}, {"type": "Feature", "properties": {"id": 5278629742, "name": "Dan Gui Sichuan Cuisine", "category": "restaurant", "tags": ["restaurant", "chinese", "asian"], "sources": ["osm", "overture"], "website": "http://www.danguisichuancuisine.com", "phone": "+12079928888", "address": "13112 NE 20th St", "stations": [{"stopCode": 61, "lines": "2", "name": "Bel-Red/130th Station", "walkingMeters": 630, "walkingSeconds": 454, "band": 10}]}, "geometry": {"type": "Point", "coordinates": [-122.1655697, 47.6288129]}}, {"type": "Feature", "properties": {"id": 5691457858, "name": "Amanos Taco Truck", "category": "fast_food", "tags": ["fast-food"], "sources": ["osm"], "stations": [{"stopCode": 61, "lines": "2", "name": "Bel-Red/130th Station", "walkingMeters": 435, "walkingSeconds": 313, "band": 10}]}, "geometry": {"type": "Point", "coordinates": [-122.167366, 47.6272604]}}, {"type": "Feature", "properties": {"id": 6873256477, "name": "Cascadia Pizza Co.", "category": "restaurant", "tags": ["restaurant", "pizza", "microbrew"], "sources": ["osm"], "website": "https://www.cascadiapizzaco.com/", "address": "1820 130th Avenue Northeast", "stations": [{"stopCode": 61, "lines": "2", "name": "Bel-Red/130th Station", "walkingMeters": 407, "walkingSeconds": 293, "band": 5}]}, "geometry": {"type": "Point", "coordinates": [-122.1662253, 47.626576]}}, {"type": "Feature", "properties": {"id": "91633c02-376b-428f-9672-a2ecfe5f8d9e", "name": "Bellevue Brewing Company", "category": "bar", "tags": ["bar", "brewery"], "sources": ["overture"], "website": "http://www.bellevuebrewing.com", "phone": "+14254978686", "address": "1820 130th Ave Ne Ste 2", "stations": [{"stopCode": 61, "lines": "2", "name": "Bel-Red/130th Station", "walkingMeters": 412, "walkingSeconds": 296, "band": 5}]}, "geometry": {"type": "Point", "coordinates": [-122.1662903, 47.6267586]}}, {"type": "Feature", "properties": {"id": 12162713726, "name": "Restaurant at the Mox", "category": "restaurant", "tags": ["restaurant"], "sources": ["osm"], "website": "https://www.moxboardinghouse.com/bellevue/", "phone": "+1-425-326-3050", "address": "13310 Bellevue-Redmond Road", "hours": "Mo-Th 11:00-22:00;Fr 11:00-24:00;Sa 10:00-24:00;Su 10:00-22:00", "stations": [{"stopCode": 61, "lines": "2", "name": "Bel-Red/130th Station", "walkingMeters": 468, "walkingSeconds": 336, "band": 5}]}, "geometry": {"type": "Point", "coordinates": [-122.1626006, 47.6227262]}}, {"type": "Feature", "properties": {"id": "d46d2b96-3a82-4438-ba19-f7c854464815", "name": "Grand Cru Wine Shop", "category": "bar", "tags": ["bar", "wine"], "sources": ["overture"], "website": "http://www.grandcru-wineshop.com/Pages/Main.aspx", "phone": "(425) 455-4363", "address": "12835 NE Bel Red Rd Ste 125", "stations": [{"stopCode": 61, "lines": "2", "name": "Bel-Red/130th Station", "walkingMeters": 582, "walkingSeconds": 418, "band": 10}, {"stopCode": 60, "lines": "2", "name": "Spring District/120th Station", "walkingMeters": 1316, "walkingSeconds": 948, "band": 15}]}, "geometry": {"type": "Point", "coordinates": [-122.1685333, 47.6207581]}}, {"type": "Feature", "properties": {"id": "cb04a9bc-0fa5-4c55-b5b9-b362c2e589a7", "name": "Chai N More", "category": "restaurant", "tags": ["restaurant", "indian"], "sources": ["overture"], "website": "http://cnmcafe.com/", "phone": "+14254365769", "address": "12863 Northup Way", "stations": [{"stopCode": 61, "lines": "2", "name": "Bel-Red/130th Station", "walkingMeters": 586, "walkingSeconds": 437, "band": 10}]}, "geometry": {"type": "Point", "coordinates": [-122.169075, 47.6277771]}}, {"type": "Feature", "properties": {"id": "da675a19-e761-4e06-8833-086a6162d997", "name": "Shisha Lounge", "category": "bar", "tags": ["bar", "hookah"], "sources": ["overture"], "phone": "2066122883", "address": "12740 NE Bel Red Rd", "stations": [{"stopCode": 61, "lines": "2", "name": "Bel-Red/130th Station", "walkingMeters": 625, "walkingSeconds": 450, "band": 10}, {"stopCode": 60, "lines": "2", "name": "Spring District/120th Station", "walkingMeters": 1072, "walkingSeconds": 773, "band": 15}]}, "geometry": {"type": "Point", "coordinates": [-122.1696548, 47.6210403]}}, {"type": "Feature", "properties": {"id": "bdd6f45a-4b3c-48ae-aaf3-729c5a10c712", "name": "Direct Source Seafood Llc", "category": "restaurant", "tags": ["restaurant", "seafood"], "sources": ["overture"], "website": "www.directsourceseafood.com", "phone": "14254552291", "address": "13037 Ne Bel Red Rd  Ste 150", "stations": [{"stopCode": 61, "lines": "2", "name": "Bel-Red/130th Station", "walkingMeters": 455, "walkingSeconds": 340, "band": 5}]}, "geometry": {"type": "Point", "coordinates": [-122.1658783, 47.6213036]}}, {"type": "Feature", "properties": {"id": "0dc135a1-e7d9-461d-88ab-d3d1f0db4051", "name": "Teriyaki Express", "category": "restaurant", "tags": ["restaurant", "japanese", "asian"], "sources": ["overture"], "website": "http://www.teriyakiexpressbellevue.com", "phone": "+14254521300", "address": "1425 130th Ave NE #2221", "stations": [{"stopCode": 61, "lines": "2", "name": "Bel-Red/130th Station", "walkingMeters": 263, "walkingSeconds": 189, "band": 5}]}, "geometry": {"type": "Point", "coordinates": [-122.1674423, 47.6230659]}}, {"type": "Feature", "properties": {"id": "5dcf874c-2323-412c-8282-89cdea0685b6", "name": "Briatore Pizza", "category": "restaurant", "tags": ["restaurant", "pizza"], "sources": ["overture"], "website": "https://briatorepizza.com/", "phone": "4257469100", "address": "1603 130 AVE NE, Briatore", "stations": [{"stopCode": 61, "lines": "2", "name": "Bel-Red/130th Station", "walkingMeters": 157, "walkingSeconds": 117, "band": 5}]}, "geometry": {"type": "Point", "coordinates": [-122.16716, 47.6248131]}}, {"type": "Feature", "properties": {"id": "167fdda8-7fd4-4b45-91a4-4742ed0eef30", "name": "Briatore Pizza", "category": "restaurant", "tags": ["restaurant", "pizza"], "sources": ["overture"], "website": "https://briatorepizza.com/", "phone": "4257469100", "address": "13238 NE 20th St Ste 100", "stations": [{"stopCode": 61, "lines": "2", "name": "Bel-Red/130th Station", "walkingMeters": 620, "walkingSeconds": 446, "band": 10}]}, "geometry": {"type": "Point", "coordinates": [-122.1640167, 47.6285019]}}, {"type": "Feature", "properties": {"id": "adebd644-ad31-4e59-afb2-114fb24930d3", "name": "Angelo's of Bellevue", "category": "restaurant", "tags": ["restaurant", "italian"], "sources": ["overture"], "website": "http://www.angelosofbellevue.com/", "phone": "+14258832777", "address": "1830 130th Ave NE", "stations": [{"stopCode": 61, "lines": "2", "name": "Bel-Red/130th Station", "walkingMeters": 384, "walkingSeconds": 276, "band": 5}]}, "geometry": {"type": "Point", "coordinates": [-122.1665878, 47.6269188]}}, {"type": "Feature", "properties": {"id": "e72603c8-f621-4c1d-8fb0-6d2d6f2aeacb", "name": "Cascadia Pizza Restaurant and Brewery", "category": "bar", "tags": ["bar", "brewery", "pizza", "bar-and-grill"], "sources": ["overture"], "website": "http://www.cascadiapizzaco.com/", "phone": "+14252742100", "address": "1820 130th Ave NE Ste 2", "stations": [{"stopCode": 61, "lines": "2", "name": "Bel-Red/130th Station", "walkingMeters": 411, "walkingSeconds": 296, "band": 5}]}, "geometry": {"type": "Point", "coordinates": [-122.1661682, 47.6266594]}}, {"type": "Feature", "properties": {"id": "940c3951-b4ac-453b-9820-7c7c72c3d4b5", "name": "Kiku Sushi", "category": "restaurant", "tags": ["restaurant", "japanese"], "sources": ["overture"], "website": "http://www.kikusushi.com", "phone": "14255569600", "address": "13112 Ne 20th St  Ste 200", "stations": [{"stopCode": 61, "lines": "2", "name": "Bel-Red/130th Station", "walkingMeters": 635, "walkingSeconds": 474, "band": 10}]}, "geometry": {"type": "Point", "coordinates": [-122.1658401, 47.6288376]}}, {"type": "Feature", "properties": {"id": "ef9ba6e2-271b-4f68-903f-f144f6762171", "name": "Baskets Cafe", "category": "restaurant", "tags": ["restaurant", "taiwanese"], "sources": ["overture"], "website": "https://basketscafetogo.com/", "address": "13112 NE 20th St Ste 300", "stations": [{"stopCode": 61, "lines": "2", "name": "Bel-Red/130th Station", "walkingMeters": 624, "walkingSeconds": 450, "band": 10}]}, "geometry": {"type": "Point", "coordinates": [-122.1654968, 47.6288033]}}, {"type": "Feature", "properties": {"id": "c91553f7-2d80-4395-8465-b0788f64ae77", "name": "Royal Kitchen Chinese Restaurant", "category": "restaurant", "tags": ["restaurant", "asian", "fusion"], "sources": ["overture"], "website": "https://www.royalkitchenbellevue.com/", "phone": "4255597987", "address": "13200 NE 20th St Ste 400", "stations": [{"stopCode": 61, "lines": "2", "name": "Bel-Red/130th Station", "walkingMeters": 599, "walkingSeconds": 431, "band": 10}]}, "geometry": {"type": "Point", "coordinates": [-122.1642761, 47.6284828]}}, {"type": "Feature", "properties": {"id": "45701a8a-78eb-4e52-ab93-bfbba4e805fd", "name": "Kin Dee Bellevue", "category": "restaurant", "tags": ["restaurant", "thai", "asian", "noodles"], "sources": ["overture"], "website": "http://Kindeebellevue.com/", "phone": "+14253842888", "address": "13238 NE 20th St", "stations": [{"stopCode": 61, "lines": "2", "name": "Bel-Red/130th Station", "walkingMeters": 630, "walkingSeconds": 453, "band": 10}]}, "geometry": {"type": "Point", "coordinates": [-122.1639557, 47.6285248]}}, {"type": "Feature", "properties": {"id": "dc72c874-dccf-4921-86ef-2699623e1131", "name": "Sugee's Box Lunch Company", "category": "restaurant", "tags": ["restaurant", "sandwich"], "sources": ["overture"], "website": "https://sugeesboxlunch.com", "phone": "14256419484", "address": "13225 NE 20th St", "stations": [{"stopCode": 61, "lines": "2", "name": "Bel-Red/130th Station", "walkingMeters": 727, "walkingSeconds": 523, "band": 10}]}, "geometry": {"type": "Point", "coordinates": [-122.1626282, 47.6270676]}}, {"type": "Feature", "properties": {"id": 13237925674, "name": "Untitled", "category": "artwork", "tags": ["artwork"], "sources": ["osm"], "website": "https://static1.squarespace.com/static/63efe450f3d28b27294f0ff8/t/645e8f411c6d7774c49cde4f/1683918663093/COBUtilityBoxWrapsProgram2022.pdf", "stations": [{"stopCode": 61, "lines": "2", "name": "Bel-Red/130th Station", "walkingMeters": 99, "walkingSeconds": 71, "band": 5}]}, "geometry": {"type": "Point", "coordinates": [-122.164563, 47.6241984]}}, {"type": "Feature", "properties": {"id": "532d72cc-f4f8-4b4e-9fdf-2f5cd1e9ffb9", "name": "Vicino", "category": "attraction", "tags": ["attraction", "landmark", "historical", "building"], "sources": ["overture"], "website": "https://www.hollandresidential.com/wa/bellevue/vicino", "phone": "+18443738224", "address": "1955 129th Ave NE", "stations": [{"stopCode": 61, "lines": "2", "name": "Bel-Red/130th Station", "walkingMeters": 731, "walkingSeconds": 526, "band": 10}]}, "geometry": {"type": "Point", "coordinates": [-122.1691055, 47.6275444]}}, {"type": "Feature", "properties": {"id": "c07edb7f-25e3-4d2f-a4a7-455c97111a8b", "name": "Yuan Ru Art Center", "category": "gallery", "tags": ["gallery", "art"], "sources": ["overture"], "website": "https://yuanru.gallery/", "phone": "+14255828878", "address": "12737 NE Bel Red Rd #100", "stations": [{"stopCode": 61, "lines": "2", "name": "Bel-Red/130th Station", "walkingMeters": 830, "walkingSeconds": 597, "band": 10}, {"stopCode": 60, "lines": "2", "name": "Spring District/120th Station", "walkingMeters": 1158, "walkingSeconds": 835, "band": 15}]}, "geometry": {"type": "Point", "coordinates": [-122.1691971, 47.6204376]}}, {"type": "Feature", "properties": {"id": 3889968431, "name": "Mud Bay", "category": "pet", "tags": ["pet"], "sources": ["osm", "overture"], "website": "http://www.mudbay.us", "phone": "(425) 641-0815", "address": "13407 NE 20th St", "stations": [{"stopCode": 61, "lines": "2", "name": "Bel-Red/130th Station", "walkingMeters": 705, "walkingSeconds": 507, "band": 10}]}, "geometry": {"type": "Point", "coordinates": [-122.161522, 47.6277582]}}, {"type": "Feature", "properties": {"id": 1739461020, "name": "Kandila Blinds and Shades", "category": "doityourself", "tags": ["doityourself"], "sources": ["osm"], "address": "1405 132nd Avenue Northeast", "stations": [{"stopCode": 61, "lines": "2", "name": "Bel-Red/130th Station", "walkingMeters": 300, "walkingSeconds": 216, "band": 5}]}, "geometry": {"type": "Point", "coordinates": [-122.1648959, 47.6228047]}}, {"type": "Feature", "properties": {"id": 403393597, "name": "Am Pm", "category": "convenience", "tags": ["convenience"], "sources": ["osm", "overture"], "website": "https://www.ampm.com/", "phone": "+14258859966", "address": "12903 NE 20th St", "stations": [{"stopCode": 61, "lines": "2", "name": "Bel-Red/130th Station", "walkingMeters": 517, "walkingSeconds": 372, "band": 10}]}, "geometry": {"type": "Point", "coordinates": [-122.1678612, 47.6276887]}}, {"type": "Feature", "properties": {"id": 3889968446, "name": "Sturtevant's Ski Mart", "category": "sports", "tags": ["sports"], "sources": ["osm"], "website": "https://www.sturtevants.com/", "phone": "+1-425-637-8958", "hours": "Mo-Fr 11:00-19:00", "stations": [{"stopCode": 61, "lines": "2", "name": "Bel-Red/130th Station", "walkingMeters": 647, "walkingSeconds": 465, "band": 10}]}, "geometry": {"type": "Point", "coordinates": [-122.1626594, 47.6277691]}}, {"type": "Feature", "properties": {"id": 4057493944, "name": "Fitness Outlet", "category": "sports", "tags": ["sports"], "sources": ["osm"], "stations": [{"stopCode": 61, "lines": "2", "name": "Bel-Red/130th Station", "walkingMeters": 724, "walkingSeconds": 521, "band": 10}]}, "geometry": {"type": "Point", "coordinates": [-122.1612624, 47.6277639]}}, {"type": "Feature", "properties": {"id": 4057493948, "name": "Seattle Wine", "category": "alcohol", "tags": ["alcohol"], "sources": ["osm"], "stations": [{"stopCode": 61, "lines": "2", "name": "Bel-Red/130th Station", "walkingMeters": 630, "walkingSeconds": 454, "band": 5}]}, "geometry": {"type": "Point", "coordinates": [-122.1666483, 47.6273681]}}, {"type": "Feature", "properties": {"id": 4057493962, "name": "Sturtevant's", "category": "sports", "tags": ["sports"], "sources": ["osm"], "address": "13131 Northeast 20th Street", "hours": "Mo-Fr 10:00-19:00; Sa,Su 10:00-18:00", "stations": [{"stopCode": 61, "lines": "2", "name": "Bel-Red/130th Station", "walkingMeters": 532, "walkingSeconds": 383, "band": 10}]}, "geometry": {"type": "Point", "coordinates": [-122.1650807, 47.627706]}}, {"type": "Feature", "properties": {"id": 5278619054, "name": "PXG Seattle", "category": "sports", "tags": ["sports", "golf"], "sources": ["osm"], "website": "https://www.pxg.com/en-us/locations/seattle.html", "phone": "+1-425-256-4682", "address": "13238 Northeast 20th Street", "stations": [{"stopCode": 61, "lines": "2", "name": "Bel-Red/130th Station", "walkingMeters": 633, "walkingSeconds": 455, "band": 10}]}, "geometry": {"type": "Point", "coordinates": [-122.1634527, 47.6284748]}}, {"type": "Feature", "properties": {"id": 6225435585, "name": "Habitat for Humanity ReStore - Bellevue", "category": "hardware", "tags": ["hardware"], "sources": ["osm"], "website": "https://www.habitatskc.org/store", "phone": "+1-425-641-2643", "address": "13500 Bel-Red Road", "stations": [{"stopCode": 61, "lines": "2", "name": "Bel-Red/130th Station", "walkingMeters": 645, "walkingSeconds": 463, "band": 5}]}, "geometry": {"type": "Point", "coordinates": [-122.160924, 47.6234852]}}, {"type": "Feature", "properties": {"id": 8986838320, "name": "Northwest Badminton Inc.", "category": "sports", "tags": ["sports", "badminton"], "sources": ["osm"], "hours": "13:00-20:00", "stations": [{"stopCode": 61, "lines": "2", "name": "Bel-Red/130th Station", "walkingMeters": 273, "walkingSeconds": 196, "band": 5}]}, "geometry": {"type": "Point", "coordinates": [-122.1675781, 47.6231567]}}, {"type": "Feature", "properties": {"id": 13143092452, "name": "Lords of Luxury Timepieces & Jewelry", "category": "jewelry", "tags": ["jewelry"], "sources": ["osm"], "address": "13107 Northeast 20th Street", "stations": [{"stopCode": 61, "lines": "2", "name": "Bel-Red/130th Station", "walkingMeters": 551, "walkingSeconds": 396, "band": 10}]}, "geometry": {"type": "Point", "coordinates": [-122.1654136, 47.6277385]}}, {"type": "Feature", "properties": {"id": 161915551, "name": "Car Toys", "category": "electronics", "tags": ["electronics"], "sources": ["osm"], "address": "13201 Northeast 20th Street", "stations": [{"stopCode": 61, "lines": "2", "name": "Bel-Red/130th Station", "walkingMeters": 469, "walkingSeconds": 337, "band": 10}]}, "geometry": {"type": "Point", "coordinates": [-122.163944, 47.6276798]}}, {"type": "Feature", "properties": {"id": 162002059, "name": "Eastside Saw", "category": "hardware", "tags": ["hardware"], "sources": ["osm"], "website": "https://eastsidesaw.com/", "phone": "+1-800-962-0279", "address": "12880 Bellevue Redmond Road", "stations": [{"stopCode": 61, "lines": "2", "name": "Bel-Red/130th Station", "walkingMeters": 595, "walkingSeconds": 428, "band": 5}, {"stopCode": 60, "lines": "2", "name": "Spring District/120th Station", "walkingMeters": 1209, "walkingSeconds": 871, "band": 15}]}, "geometry": {"type": "Point", "coordinates": [-122.1684303, 47.6218732]}}, {"type": "Feature", "properties": {"id": "5a295631-42bb-4da4-9a86-6c5a96fdb265", "name": "Smart Start Ignition Interlock", "category": "clothes", "tags": ["clothes"], "sources": ["overture"], "website": "https://www.smartstartinc.com/locations/ignition-interlock-washington-bellevue-1479-130th-ave-ne-98005/?utm_source=Bing&utm_campaign=6367&utm_medium=locations_organic", "phone": "4253290618", "address": "1479 130th Ave NE", "stations": [{"stopCode": 61, "lines": "2", "name": "Bel-Red/130th Station", "walkingMeters": 211, "walkingSeconds": 152, "band": 5}]}, "geometry": {"type": "Point", "coordinates": [-122.1670761, 47.6234741]}}, {"type": "Feature", "properties": {"id": "cf6a8a99-d00f-441e-9b37-2f84821a5cb3", "name": "Sherwin-Williams", "category": "doityourself", "tags": ["doityourself", "building", "supply"], "sources": ["overture"], "website": "https://www.sherwin-williams.com/store-locator/paint-store/bellevue/wa/703552", "phone": "+14254549435", "address": "13500 NE Bel Red Rd Ste 6", "stations": [{"stopCode": 61, "lines": "2", "name": "Bel-Red/130th Station", "walkingMeters": 651, "walkingSeconds": 468, "band": 10}]}, "geometry": {"type": "Point", "coordinates": [-122.1610107, 47.6233864]}}, {"type": "Feature", "properties": {"id": "2312929a-c185-4cbb-92b3-3946c6e2bca3", "name": "Star Rentals", "category": "doityourself", "tags": ["doityourself", "building", "supply"], "sources": ["overture"], "website": "http://www.starrentals.com/", "phone": "4258855522", "address": "12900 Northup Way", "stations": [{"stopCode": 61, "lines": "2", "name": "Bel-Red/130th Station", "walkingMeters": 664, "walkingSeconds": 478, "band": 10}]}, "geometry": {"type": "Point", "coordinates": [-122.1684723, 47.6290512]}}, {"type": "Feature", "properties": {"id": "41420acf-1195-4938-8e53-bff00332c857", "name": "Capri Floral And Event Design", "category": "florist", "tags": ["florist"], "sources": ["overture"], "website": "http://www.caprifloraldesign.com", "phone": "+14258670211", "address": "1509 128th Pl NE", "stations": [{"stopCode": 61, "lines": "2", "name": "Bel-Red/130th Station", "walkingMeters": 432, "walkingSeconds": 322, "band": 5}]}, "geometry": {"type": "Point", "coordinates": [-122.1698151, 47.6234474]}}, {"type": "Feature", "properties": {"id": "1f4a5c2e-4869-41d9-b977-11d51e046d05", "name": "Williams Flower & Gift - Bellevue", "category": "florist", "tags": ["florist"], "sources": ["overture"], "website": "https://www.williamsflowers.com", "phone": "+14256202565", "address": "1405 130th Ave NE", "stations": [{"stopCode": 61, "lines": "2", "name": "Bel-Red/130th Station", "walkingMeters": 401, "walkingSeconds": 299, "band": 5}]}, "geometry": {"type": "Point", "coordinates": [-122.1684875, 47.622448]}}, {"type": "Feature", "properties": {"id": "519222ba-15bb-4dfd-aea1-0d084037d6fb", "name": "Eastside Shade & Awning", "category": "hardware", "tags": ["hardware"], "sources": ["overture"], "website": "http://eastsideawning.com/", "phone": "+14254547766", "address": "12880 NE Bel Red Rd Suite 2", "stations": [{"stopCode": 61, "lines": "2", "name": "Bel-Red/130th Station", "walkingMeters": 594, "walkingSeconds": 427, "band": 5}, {"stopCode": 60, "lines": "2", "name": "Spring District/120th Station", "walkingMeters": 1208, "walkingSeconds": 870, "band": 15}]}, "geometry": {"type": "Point", "coordinates": [-122.168457, 47.6218567]}}, {"type": "Feature", "properties": {"id": "d9e597cc-3f36-4c02-bbf4-2b038163775d", "name": "Eastside Saw & Sales", "category": "hardware", "tags": ["hardware"], "sources": ["overture"], "website": "http://www.eastsidesaw.com/", "phone": "+14254547627", "address": "12880 NE Bel Red Rd #1", "stations": [{"stopCode": 61, "lines": "2", "name": "Bel-Red/130th Station", "walkingMeters": 560, "walkingSeconds": 403, "band": 10}, {"stopCode": 60, "lines": "2", "name": "Spring District/120th Station", "walkingMeters": 1174, "walkingSeconds": 846, "band": 15}]}, "geometry": {"type": "Point", "coordinates": [-122.168602, 47.6215515]}}, {"type": "Feature", "properties": {"id": "944763e4-4eb2-4fd1-a6e8-d05e3521f007", "name": "Bird Tail Beads", "category": "art", "tags": ["art", "supply"], "sources": ["overture"], "website": "https://birdtailbeads.com/", "phone": "4254540444", "address": "1433 130th Ave NE", "stations": [{"stopCode": 61, "lines": "2", "name": "Bel-Red/130th Station", "walkingMeters": 233, "walkingSeconds": 167, "band": 5}]}, "geometry": {"type": "Point", "coordinates": [-122.167511, 47.6234665]}}, {"type": "Feature", "properties": {"id": "78a2b2e8-8aac-4983-842d-047832b14aa5", "name": "The Novel Tree", "category": "cannabis", "tags": ["cannabis", "clinic"], "sources": ["overture"], "website": "http://www.novel-tree.com/", "phone": "+14258672700", "address": "1817 130th Ave NE Ste b", "stations": [{"stopCode": 61, "lines": "2", "name": "Bel-Red/130th Station", "walkingMeters": 419, "walkingSeconds": 301, "band": 5}]}, "geometry": {"type": "Point", "coordinates": [-122.1673889, 47.6270714]}}, {"type": "Feature", "properties": {"id": "0d9fbf0f-41e9-42d0-acb0-382e76cacff1", "name": "LL Flooring", "category": "doityourself", "tags": ["doityourself", "home", "improvement"], "sources": ["overture"], "website": "https://www.facebook.com/LumLiquidators?y_source=1_MTEzNzQ5NzItNTU5LWxvY2F0aW9uLndlYnNpdGU%3D", "phone": "+14254583671", "address": "2021 130th Ave NE", "stations": [{"stopCode": 61, "lines": "2", "name": "Bel-Red/130th Station", "walkingMeters": 689, "walkingSeconds": 496, "band": 10}]}, "geometry": {"type": "Point", "coordinates": [-122.1678085, 47.6290512]}}, {"type": "Feature", "properties": {"id": "e855d659-ad5a-47c7-bde5-0b06aff59f2a", "name": "Bellevue Wine Co", "category": "alcohol", "tags": ["alcohol"], "sources": ["overture"], "website": "http://www.seattlewineco.com/", "phone": "+14258690609", "address": "1950 130th Ave NE", "stations": [{"stopCode": 61, "lines": "2", "name": "Bel-Red/130th Station", "walkingMeters": 430, "walkingSeconds": 321, "band": 5}]}, "geometry": {"type": "Point", "coordinates": [-122.1666336, 47.6273499]}}, {"type": "Feature", "properties": {"id": "bbdc284b-7fdb-4831-847f-cad1780dd603", "name": "Rain City Cigar Bellevue", "category": "tobacco", "tags": ["tobacco"], "sources": ["overture"], "website": "http://www.raincitycigar.com/", "phone": "+14259795698", "address": "1830 130th Ave NE Ste 3", "stations": [{"stopCode": 61, "lines": "2", "name": "Bel-Red/130th Station", "walkingMeters": 431, "walkingSeconds": 310, "band": 5}]}, "geometry": {"type": "Point", "coordinates": [-122.1666031, 47.6270523]}}, {"type": "Feature", "properties": {"id": "3957915d-bd96-4452-9166-6f4aa48969de", "name": "Ginga Wireless", "category": "mobile_phone", "tags": ["mobile-phone", "mobile"], "sources": ["overture"], "website": "http://www.ginga.ws", "phone": "14255030322", "address": "1840 130th Ave Ne  Ste 12", "stations": [{"stopCode": 61, "lines": "2", "name": "Bel-Red/130th Station", "walkingMeters": 371, "walkingSeconds": 277, "band": 5}]}, "geometry": {"type": "Point", "coordinates": [-122.1659698, 47.6270027]}}, {"type": "Feature", "properties": {"id": "dcc37104-b488-42a1-969a-4bd9606c9093", "name": "Girl Scouts of Western Washington King County Regional Office", "category": "gift", "tags": ["gift"], "sources": ["overture"], "website": "http://www.girlscoutsww.org/", "phone": "8005419852", "address": "13029 NE 20th St", "stations": [{"stopCode": 61, "lines": "2", "name": "Bel-Red/130th Station", "walkingMeters": 547, "walkingSeconds": 394, "band": 10}]}, "geometry": {"type": "Point", "coordinates": [-122.1662521, 47.6280518]}}, {"type": "Feature", "properties": {"id": "9a78679a-9b00-44d5-be01-f7ceaaf6b42d", "name": "Cascade Upholstery & Furniture Store", "category": "furniture", "tags": ["furniture"], "sources": ["overture"], "website": "http://www.cascadeupholstery.com/", "phone": "+14257475800", "address": "1407 132nd Ave NE", "stations": [{"stopCode": 61, "lines": "2", "name": "Bel-Red/130th Station", "walkingMeters": 176, "walkingSeconds": 131, "band": 5}]}, "geometry": {"type": "Point", "coordinates": [-122.1651077, 47.6232872]}}, {"type": "Feature", "properties": {"id": "1b019ad9-15a2-46b5-a1b5-1fc4c6029154", "name": "Harvest Lm Llc", "category": "supermarket", "tags": ["supermarket"], "sources": ["overture"], "address": "1803 132nd Ave Ne Ste 4", "stations": [{"stopCode": 61, "lines": "2", "name": "Bel-Red/130th Station", "walkingMeters": 351, "walkingSeconds": 262, "band": 5}]}, "geometry": {"type": "Point", "coordinates": [-122.1648254, 47.626812]}}, {"type": "Feature", "properties": {"id": "95483d7c-6410-4697-9968-b499d43f267c", "name": "Rodda Paint Co.", "category": "doityourself", "tags": ["doityourself", "building", "supply"], "sources": ["overture"], "website": "https://www.roddapaint.com/locations/bellevue/", "phone": "+14254511666", "address": "1900 132nd Ave NE", "stations": [{"stopCode": 61, "lines": "2", "name": "Bel-Red/130th Station", "walkingMeters": 353, "walkingSeconds": 254, "band": 5}]}, "geometry": {"type": "Point", "coordinates": [-122.1641617, 47.6265411]}}, {"type": "Feature", "properties": {"id": "1dcb6f15-aaef-4548-9eb8-7e1bd3b8ba0f", "name": "Reconveyance Specialists Inc", "category": "supermarket", "tags": ["supermarket"], "sources": ["overture"], "address": "13200 Ne 20th St Ste 2", "stations": [{"stopCode": 61, "lines": "2", "name": "Bel-Red/130th Station", "walkingMeters": 604, "walkingSeconds": 451, "band": 10}]}, "geometry": {"type": "Point", "coordinates": [-122.1644897, 47.6285515]}}, {"type": "Feature", "properties": {"id": "86794c9b-a1ce-4a9f-bb97-dfc843c60089", "name": "Western Pacific Building Materials - Bellevue", "category": "doityourself", "tags": ["doityourself", "building", "supply"], "sources": ["overture"], "website": "https://www.gowestpac.com", "phone": "14252508327", "address": "13208 Ne 20th St  # 150", "stations": [{"stopCode": 61, "lines": "2", "name": "Bel-Red/130th Station", "walkingMeters": 695, "walkingSeconds": 519, "band": 10}]}, "geometry": {"type": "Point", "coordinates": [-122.1645508, 47.6292]}}, {"type": "Feature", "properties": {"id": "13bd0088-2fd1-4d4a-aa2f-466f81a72e4d", "name": "Daily Buzz Cafe", "category": "supermarket", "tags": ["supermarket"], "sources": ["overture"], "website": "michaelgreaganartist.com", "address": "13218 NE 20th St", "stations": [{"stopCode": 61, "lines": "2", "name": "Bel-Red/130th Station", "walkingMeters": 734, "walkingSeconds": 548, "band": 10}]}, "geometry": {"type": "Point", "coordinates": [-122.1638794, 47.6293831]}}, {"type": "Feature", "properties": {"id": "90c5f4ad-a495-4c48-af83-651fcb39bc21", "name": "Blackpebble Interiors", "category": "doityourself", "tags": ["doityourself", "building", "supply"], "sources": ["overture"], "phone": "4254849445", "address": "13240 NE 20th St", "stations": [{"stopCode": 61, "lines": "2", "name": "Bel-Red/130th Station", "walkingMeters": 544, "walkingSeconds": 391, "band": 10}]}, "geometry": {"type": "Point", "coordinates": [-122.1636581, 47.6280365]}}, {"type": "Feature", "properties": {"id": "2927bf20-2df9-4f25-af32-d47f52ff44dd", "name": "Appliance Parts & Service Co.", "category": "doityourself", "tags": ["doityourself", "building", "supply"], "sources": ["overture"], "website": "https://www.firstappl.com", "phone": "(425) 453-0406", "address": "1910 132nd Ave NE Ste 8", "stations": [{"stopCode": 61, "lines": "2", "name": "Bel-Red/130th Station", "walkingMeters": 436, "walkingSeconds": 314, "band": 10}]}, "geometry": {"type": "Point", "coordinates": [-122.1635437, 47.6270561]}}, {"type": "Feature", "properties": {"id": "6e696a87-864d-4835-9f23-bc445ee88ad5", "name": "Urban Designs", "category": "doityourself", "tags": ["doityourself", "building", "supply"], "sources": ["overture"], "website": "http://urbandesigns.us", "phone": "(206) 838-8250", "address": "13219 NE 20th St Ste 203", "stations": [{"stopCode": 61, "lines": "2", "name": "Bel-Red/130th Station", "walkingMeters": 705, "walkingSeconds": 507, "band": 10}]}, "geometry": {"type": "Point", "coordinates": [-122.1628036, 47.6277084]}}, {"type": "Feature", "properties": {"id": "39a0904f-db66-429a-9f69-9760b7a3175b", "name": "Inkredible", "category": "clothes", "tags": ["clothes"], "sources": ["overture"], "website": "http://www.inkredibletshirts.com", "phone": "+14256430938", "address": "13261 NE 20th St", "stations": [{"stopCode": 61, "lines": "2", "name": "Bel-Red/130th Station", "walkingMeters": 503, "walkingSeconds": 375, "band": 10}]}, "geometry": {"type": "Point", "coordinates": [-122.1623077, 47.6271057]}}, {"type": "Feature", "properties": {"id": "f22fa1ff-92d3-4b8a-88ec-4fb46251d2c1", "name": "Miele Gallery", "category": "furniture", "tags": ["furniture"], "sources": ["overture"], "website": "http://www.mieleinc.com", "phone": "(425) 643-8444", "address": "13500 Bel Red Rd", "stations": [{"stopCode": 61, "lines": "2", "name": "Bel-Red/130th Station", "walkingMeters": 654, "walkingSeconds": 470, "band": 5}]}, "geometry": {"type": "Point", "coordinates": [-122.1610565, 47.623455]}}, {"type": "Feature", "properties": {"id": "0f60faf9-5196-4c9c-9cc5-3b29481f18f3", "name": "North Coast Electric", "category": "hardware", "tags": ["hardware"], "sources": ["overture"], "website": "http://www.northcoastelectric.com/", "phone": "+14256413400", "address": "1617 135TH Pl NE", "stations": [{"stopCode": 61, "lines": "2", "name": "Bel-Red/130th Station", "walkingMeters": 343, "walkingSeconds": 246, "band": 5}]}, "geometry": {"type": "Point", "coordinates": [-122.1613693, 47.6246796]}}, {"type": "Feature", "properties": {"id": "f5e957e3-d534-47ae-9ea5-214d41299ed0", "name": "T-Mobile BelRed Lab", "category": "mobile_phone", "tags": ["mobile-phone", "mobile"], "sources": ["overture"], "website": "http://www.t-mobile.com/", "address": "13410 NE 16th St", "stations": [{"stopCode": 61, "lines": "2", "name": "Bel-Red/130th Station", "walkingMeters": 457, "walkingSeconds": 341, "band": 10}]}, "geometry": {"type": "Point", "coordinates": [-122.1612015, 47.6254692]}}, {"type": "Feature", "properties": {"id": "29991c5b-7a77-4dda-83c9-497af9dc3cdb", "name": "Budget Blinds", "category": "furniture", "tags": ["furniture"], "sources": ["overture"], "website": "http://www.budgetblinds.com/Bellevue-MercerIsland/", "phone": "(425) 644-3037", "address": "13400 NE 20th Street 15", "stations": [{"stopCode": 61, "lines": "2", "name": "Bel-Red/130th Station", "walkingMeters": 993, "walkingSeconds": 714, "band": 10}]}, "geometry": {"type": "Point", "coordinates": [-122.1612473, 47.6284866]}}, {"type": "Feature", "properties": {"id": "8da25a1d-6d8a-462f-93de-737acfc18775", "name": "Ariel Natural Foods", "category": "supermarket", "tags": ["supermarket"], "sources": ["overture"], "website": "https://arielfoods.com", "address": "13400 NE 20th St", "stations": [{"stopCode": 61, "lines": "2", "name": "Bel-Red/130th Station", "walkingMeters": 742, "walkingSeconds": 554, "band": 10}]}, "geometry": {"type": "Point", "coordinates": [-122.1607971, 47.6284103]}}, {"type": "Feature", "properties": {"id": 9604000501, "name": "Passport Health Bellevue Travel Clinic", "category": "clinic", "tags": ["clinic"], "sources": ["osm"], "address": "13401 Bel-Red Road", "stations": [{"stopCode": 61, "lines": "2", "name": "Bel-Red/130th Station", "walkingMeters": 622, "walkingSeconds": 449, "band": 10}]}, "geometry": {"type": "Point", "coordinates": [-122.1607939, 47.6223782]}}, {"type": "Feature", "properties": {"id": "2ec335a9-9e72-42bb-b8a4-437b279c10a7", "name": "VA Bellevue Outpatient Clinic", "category": "hospital", "tags": ["hospital"], "sources": ["overture"], "website": "https://www.va.gov/puget-sound-health-care", "phone": "+14252141055", "address": "13033 Bel-Red Rd", "stations": [{"stopCode": 61, "lines": "2", "name": "Bel-Red/130th Station", "walkingMeters": 470, "walkingSeconds": 338, "band": 5}]}, "geometry": {"type": "Point", "coordinates": [-122.1666489, 47.6212196]}}, {"type": "Feature", "properties": {"id": "7386f8db-be7b-4a85-95d3-7d0391071998", "name": "Acute Pain Therapies", "category": "clinic", "tags": ["clinic", "medical"], "sources": ["overture"], "website": "http://www.acutepaintherapies.com/", "phone": "+14254403351", "address": "13033 NE Bel Red Rd #120", "stations": [{"stopCode": 61, "lines": "2", "name": "Bel-Red/130th Station", "walkingMeters": 469, "walkingSeconds": 350, "band": 5}, {"stopCode": 60, "lines": "2", "name": "Spring District/120th Station", "walkingMeters": 1207, "walkingSeconds": 901, "band": 15}]}, "geometry": {"type": "Point", "coordinates": [-122.166748, 47.6212921]}}, {"type": "Feature", "properties": {"id": "faedd9e7-eea5-41d1-a8ac-dcc6639de58d", "name": "Northwest Rolfing", "category": "clinic", "tags": ["clinic", "medical"], "sources": ["overture"], "website": "http://www.nwrolfing.com", "phone": "(206) 295-7284", "address": "1811 130th Ave NE", "stations": [{"stopCode": 61, "lines": "2", "name": "Bel-Red/130th Station", "walkingMeters": 362, "walkingSeconds": 260, "band": 5}]}, "geometry": {"type": "Point", "coordinates": [-122.1676636, 47.6264076]}}, {"type": "Feature", "properties": {"id": "37a1c2ab-1570-46a7-b43e-50f70e71adbb", "name": "Alto Pharmacy", "category": "pharmacy", "tags": ["pharmacy"], "sources": ["overture"], "website": "http://alto.com/", "phone": "8008745881", "address": "13010 NE 20th St Ste 200", "stations": [{"stopCode": 61, "lines": "2", "name": "Bel-Red/130th Station", "walkingMeters": 658, "walkingSeconds": 473, "band": 10}]}, "geometry": {"type": "Point", "coordinates": [-122.1662979, 47.6288719]}}, {"type": "Feature", "properties": {"id": "0dbf0521-0374-4eda-84f6-e8af6edce9ae", "name": "Samurai Body Therapy", "category": "hospital", "tags": ["hospital"], "sources": ["overture"], "website": "http://www.samuraibodytherapy.com/", "phone": "+14259564123", "address": "13240 NE 20th St", "stations": [{"stopCode": 61, "lines": "2", "name": "Bel-Red/130th Station", "walkingMeters": 732, "walkingSeconds": 546, "band": 10}]}, "geometry": {"type": "Point", "coordinates": [-122.1620483, 47.6288986]}}, {"type": "Feature", "properties": {"id": 161927223, "name": "BECU", "category": "bank", "tags": ["bank"], "sources": ["osm"], "address": "13000 Northeast 20th Street", "stations": [{"stopCode": 61, "lines": "2", "name": "Bel-Red/130th Station", "walkingMeters": 605, "walkingSeconds": 435, "band": 10}]}, "geometry": {"type": "Point", "coordinates": [-122.166512, 47.6284234]}}, {"type": "Feature", "properties": {"id": "2219761d-4269-4064-b8a0-af3c8139506a", "name": "Banner Bank", "category": "bank", "tags": ["bank", "credit", "union"], "sources": ["overture"], "website": "https://locations.bannerbank.com/wa/bellevue/13033-bel-red-rd-ne?y_source=1_ODQzOTU4MS01NTktbG9jYXRpb24ud2Vic2l0ZQ%3D%3D", "phone": "+14254512125", "address": "13033 NE Bel Red Rd", "stations": [{"stopCode": 61, "lines": "2", "name": "Bel-Red/130th Station", "walkingMeters": 483, "walkingSeconds": 348, "band": 5}]}, "geometry": {"type": "Point", "coordinates": [-122.1665192, 47.6213608]}}, {"type": "Feature", "properties": {"id": 5278619056, "name": "Cathay Bank", "category": "bank", "tags": ["bank", "credit", "union"], "sources": ["osm", "overture"], "website": "https://www.cathaybank.com", "phone": "+14256448822", "address": "13238 NE 20th St #200", "hours": "Mo-Th 09:30-17:00,Fr 09:30-18:00,Sa-Su closed", "stations": [{"stopCode": 61, "lines": "2", "name": "Bel-Red/130th Station", "walkingMeters": 630, "walkingSeconds": 453, "band": 10}]}, "geometry": {"type": "Point", "coordinates": [-122.1638867, 47.6285612]}}, {"type": "Feature", "properties": {"id": "9382c7a6-31d9-4160-af97-62ea6ace90da", "name": "Club Pilates", "category": "fitness_centre", "tags": ["fitness-centre", "pilates", "studio"], "sources": ["overture"], "website": "https://www.clubpilates.com/bellevue/", "phone": "+14255029358", "address": "1910 132nd Ave NE Ste 8", "stations": [{"stopCode": 61, "lines": "2", "name": "Bel-Red/130th Station", "walkingMeters": 464, "walkingSeconds": 334, "band": 10}]}, "geometry": {"type": "Point", "coordinates": [-122.1634445, 47.6273117]}}, {"type": "Feature", "properties": {"id": 1203855884, "name": "Gym", "category": "fitness_centre", "tags": ["fitness-centre"], "sources": ["osm"], "stations": [{"stopCode": 61, "lines": "2", "name": "Bel-Red/130th Station", "walkingMeters": 447, "walkingSeconds": 322, "band": 10}]}, "geometry": {"type": "Point", "coordinates": [-122.1682649, 47.6267937]}}, {"type": "Feature", "properties": {"id": 3889966937, "name": "Seattle Pacific Table Tennis Club", "category": "sports_centre", "tags": ["sports-centre", "table-tennis"], "sources": ["osm"], "stations": [{"stopCode": 61, "lines": "2", "name": "Bel-Red/130th Station", "walkingMeters": 763, "walkingSeconds": 549, "band": 10}]}, "geometry": {"type": "Point", "coordinates": [-122.1614472, 47.6272088]}}, {"type": "Feature", "properties": {"id": 4057493941, "name": "Krav Maga", "category": "fitness_centre", "tags": ["fitness-centre", "krav-maga"], "sources": ["osm"], "stations": [{"stopCode": 61, "lines": "2", "name": "Bel-Red/130th Station", "walkingMeters": 809, "walkingSeconds": 582, "band": 10}]}, "geometry": {"type": "Point", "coordinates": [-122.1601115, 47.6277772]}}, {"type": "Feature", "properties": {"id": 5278629741, "name": "Hot Yoga", "category": "fitness_centre", "tags": ["fitness-centre", "yoga"], "sources": ["osm"], "stations": [{"stopCode": 61, "lines": "2", "name": "Bel-Red/130th Station", "walkingMeters": 624, "walkingSeconds": 449, "band": 10}]}, "geometry": {"type": "Point", "coordinates": [-122.1654174, 47.6288125]}}, {"type": "Feature", "properties": {"id": "97adb799-c078-4667-b07a-078bbcac0562", "name": "Crossfit", "category": "fitness_centre", "tags": ["fitness-centre", "gym"], "sources": ["overture"], "website": "https://www.crossfit.com", "phone": "(425) 659-3005", "address": "1690 132nd Pl NE", "stations": [{"stopCode": 61, "lines": "2", "name": "Bel-Red/130th Station", "walkingMeters": 290, "walkingSeconds": 208, "band": 5}]}, "geometry": {"type": "Point", "coordinates": [-122.1627808, 47.6251297]}}, {"type": "Feature", "properties": {"id": "21f2d304-880d-4466-83d7-b61d8ee69824", "name": "Northwest CrossFit", "category": "fitness_centre", "tags": ["fitness-centre", "gym"], "sources": ["overture"], "phone": "4258814440", "address": "13420 NE 16th St Ste C", "stations": [{"stopCode": 61, "lines": "2", "name": "Bel-Red/130th Station", "walkingMeters": 373, "walkingSeconds": 268, "band": 5}]}, "geometry": {"type": "Point", "coordinates": [-122.1615829, 47.6248932]}}, {"type": "Feature", "properties": {"id": "0d83876f-4051-4ba5-9006-1a0afb83d5fd", "name": "Dynamix Fitness", "category": "fitness_centre", "tags": ["fitness-centre", "gym"], "sources": ["overture"], "website": "http://dynamixfitnessbellevue.com", "phone": "(425) 785-3667", "address": "1900 132nd Ave NE # A-6", "stations": [{"stopCode": 61, "lines": "2", "name": "Bel-Red/130th Station", "walkingMeters": 466, "walkingSeconds": 334, "band": 5}]}, "geometry": {"type": "Point", "coordinates": [-122.1699219, 47.6233063]}}, {"type": "Feature", "properties": {"id": "800299b6-cf60-4ac1-9fee-e0631eefdc25", "name": "Dynamix Fitness", "category": "fitness_centre", "tags": ["fitness-centre", "gym"], "sources": ["overture"], "website": "http://www.dynamixfitness.net/", "phone": "+14257853667", "address": "1900 132nd Ave NE", "stations": [{"stopCode": 61, "lines": "2", "name": "Bel-Red/130th Station", "walkingMeters": 408, "walkingSeconds": 293, "band": 5}]}, "geometry": {"type": "Point", "coordinates": [-122.1634369, 47.6265755]}}, {"type": "Feature", "properties": {"id": "7a420548-d628-4bb1-ab4f-064cef582ae1", "name": "GolfGuiders, INC", "category": "fitness_centre", "tags": ["fitness-centre", "fitness", "trainer"], "sources": ["overture"], "website": "https://golfguiders.com/", "phone": "+14252139085", "address": "1801 130th Ave NE #100", "stations": [{"stopCode": 61, "lines": "2", "name": "Bel-Red/130th Station", "walkingMeters": 501, "walkingSeconds": 374, "band": 10}]}, "geometry": {"type": "Point", "coordinates": [-122.1694412, 47.6267815]}}, {"type": "Feature", "properties": {"id": "462fe550-c896-405b-a420-20aa3781880b", "name": "IMPACT Strength and Performance", "category": "fitness_centre", "tags": ["fitness-centre", "gym"], "sources": ["overture"], "website": "http://www.goimpactstrength.com", "phone": "(425) 628-4898", "address": "1508 128th Pl NE", "stations": [{"stopCode": 61, "lines": "2", "name": "Bel-Red/130th Station", "walkingMeters": 390, "walkingSeconds": 280, "band": 5}]}, "geometry": {"type": "Point", "coordinates": [-122.1692123, 47.623455]}}, {"type": "Feature", "properties": {"id": "862c97a7-df87-4694-a967-503b89a38c22", "name": "Inertia6 Pilates And Massage", "category": "fitness_centre", "tags": ["fitness-centre", "gym"], "sources": ["overture"], "website": "https://www.inertia6.com", "phone": "12064914273", "address": "1811 130th Ave Ne  Ste 102", "stations": [{"stopCode": 61, "lines": "2", "name": "Bel-Red/130th Station", "walkingMeters": 386, "walkingSeconds": 278, "band": 5}]}, "geometry": {"type": "Point", "coordinates": [-122.1675949, 47.6264496]}}, {"type": "Feature", "properties": {"id": "4e58db04-a071-49ca-9941-57454c8ec42a", "name": "Bellevue Kickboxing", "category": "fitness_centre", "tags": ["fitness-centre", "gym"], "sources": ["overture"], "website": "http://www.bellevueselfdefense.com/kbx/", "phone": "+14258811550", "address": "1950 130th Ave NE", "stations": [{"stopCode": 61, "lines": "2", "name": "Bel-Red/130th Station", "walkingMeters": 432, "walkingSeconds": 311, "band": 5}]}, "geometry": {"type": "Point", "coordinates": [-122.1665802, 47.6273232]}}, {"type": "Feature", "properties": {"id": "a34db70b-c7fa-4148-adfa-00373e03a9c8", "name": "PIVOT offering GYROTONIC & PILATES", "category": "fitness_centre", "tags": ["fitness-centre", "pilates", "studio"], "sources": ["overture"], "website": "http://pivotmovementstudio.com/", "phone": "+14255599477", "address": "1950 130th Ave NE Ste 2", "stations": [{"stopCode": 61, "lines": "2", "name": "Bel-Red/130th Station", "walkingMeters": 426, "walkingSeconds": 307, "band": 5}]}, "geometry": {"type": "Point", "coordinates": [-122.1667404, 47.6273155]}}, {"type": "Feature", "properties": {"id": "e02a0feb-3234-4469-b4be-6f473022845a", "name": "Get Zen Hot Yoga (bellevue)", "category": "fitness_centre", "tags": ["fitness-centre", "yoga", "studio"], "sources": ["overture"], "website": "https://getzenyoga.com", "phone": "4255053313", "address": "13112 Ne 20th St  Ste 400", "stations": [{"stopCode": 61, "lines": "2", "name": "Bel-Red/130th Station", "walkingMeters": 635, "walkingSeconds": 474, "band": 10}]}, "geometry": {"type": "Point", "coordinates": [-122.1658401, 47.6288376]}}, {"type": "Feature", "properties": {"id": "baa8b103-4e83-40f4-af68-1a5624315d8c", "name": "FLOetic", "category": "fitness_centre", "tags": ["fitness-centre", "gym"], "sources": ["overture"], "website": "http://www.floeticfitness.com/", "phone": "+14255031968", "address": "1407 132nd Ave NE #6", "stations": [{"stopCode": 61, "lines": "2", "name": "Bel-Red/130th Station", "walkingMeters": 216, "walkingSeconds": 155, "band": 5}]}, "geometry": {"type": "Point", "coordinates": [-122.1650085, 47.6232643]}}, {"type": "Feature", "properties": {"id": "f341e705-2e79-4b75-b66f-deb06a5f1843", "name": "Villano Athletics", "category": "fitness_centre", "tags": ["fitness-centre", "gym"], "sources": ["overture"], "website": "http://villanosports.com", "phone": "3107017077", "address": "13203 NE Spring Blvd", "stations": [{"stopCode": 61, "lines": "2", "name": "Bel-Red/130th Station", "walkingMeters": 234, "walkingSeconds": 175, "band": 5}]}, "geometry": {"type": "Point", "coordinates": [-122.1633377, 47.6239891]}}, {"type": "Feature", "properties": {"id": "64e221dc-6c26-44da-a40b-9de9f4073137", "name": "Body Transformations", "category": "fitness_centre", "tags": ["fitness-centre", "gym"], "sources": ["overture"], "website": "https://bodytransformationsfitness.com", "phone": "(425) 643-9198", "address": "13200 NE 20th St", "stations": [{"stopCode": 61, "lines": "2", "name": "Bel-Red/130th Station", "walkingMeters": 618, "walkingSeconds": 445, "band": 10}]}, "geometry": {"type": "Point", "coordinates": [-122.1643372, 47.6285896]}}, {"type": "Feature", "properties": {"id": "718fce6a-04e6-4bd9-a80b-f03175e01cd4", "name": "Zogg Fit Llc", "category": "fitness_centre", "tags": ["fitness-centre", "fitness", "trainer"], "sources": ["overture"], "website": "http://zoggfit.com", "phone": "12063006899", "address": "1900 132nd Ave NE", "stations": [{"stopCode": 61, "lines": "2", "name": "Bel-Red/130th Station", "walkingMeters": 425, "walkingSeconds": 317, "band": 10}]}, "geometry": {"type": "Point", "coordinates": [-122.163681, 47.627079]}}, {"type": "Feature", "properties": {"id": "dedb342c-926d-44a1-b09b-3d18ff5df9a9", "name": "NW Strength Academy", "category": "fitness_centre", "tags": ["fitness-centre", "gym"], "sources": ["overture"], "website": "http://nwstrengthacademy.com/", "phone": "+12067940839", "address": "1900 132nd Ave NE # A-6", "stations": [{"stopCode": 61, "lines": "2", "name": "Bel-Red/130th Station", "walkingMeters": 348, "walkingSeconds": 260, "band": 5}]}, "geometry": {"type": "Point", "coordinates": [-122.1637497, 47.6264877]}}, {"type": "Feature", "properties": {"id": "6656bdb4-a6f0-4ebd-9735-30fc25b1d4a2", "name": "CrossFit 425", "category": "fitness_centre", "tags": ["fitness-centre", "gym"], "sources": ["overture"], "website": "http://www.crossfit425.com", "phone": "+14256593005", "address": "1690 132nd Pl NE", "stations": [{"stopCode": 61, "lines": "2", "name": "Bel-Red/130th Station", "walkingMeters": 301, "walkingSeconds": 216, "band": 5}]}, "geometry": {"type": "Point", "coordinates": [-122.1628571, 47.6252289]}}, {"type": "Feature", "properties": {"id": "82dbf1e4-b2f7-4e65-8f76-4ded52a03855", "name": "Strength For Life", "category": "fitness_centre", "tags": ["fitness-centre", "fitness", "trainer"], "sources": ["overture"], "website": "http://strengthforlifeny.org", "phone": "+14254952256", "address": "13400 Ne 20th St Ste 14", "stations": [{"stopCode": 61, "lines": "2", "name": "Bel-Red/130th Station", "walkingMeters": 742, "walkingSeconds": 554, "band": 10}]}, "geometry": {"type": "Point", "coordinates": [-122.1607971, 47.6284103]}}]}