{"type": "FeatureCollection", "features": [{"type": "Feature", "properties": {"id": "3ebbfb8c-069a-4ec7-bf80-5d821ce280e7", "name": "The Preserve at Cedar River", "category": "attraction", "tags": ["attraction", "landmark", "historical", "building"], "sources": ["overture"], "website": "https://www.hollandresidential.com/wa/renton/the-preserve-at-cedar-river/", "phone": "+18443739612", "address": "15205 140th Way SE"}, "geometry": {"type": "Point", "coordinates": [-122.1570053, 47.4677238]}}, {"type": "Feature", "properties": {"id": 470485541, "name": "Molasses Creek Neighborhood Park", "category": "park", "tags": ["park"], "sources": ["osm"]}, "geometry": {"type": "Point", "coordinates": [-122.151133, 47.4671741]}}, {"type": "Feature", "properties": {"id": 487084420, "name": "Maple Ridge Estates Neighborhood Park", "category": "park", "tags": ["park"], "sources": ["osm"]}, "geometry": {"type": "Point", "coordinates": [-122.1507107, 47.4630351]}}]}