{"type": "FeatureCollection", "features": [{"type": "Feature", "properties": {"id": 1082232063, "name": "Windtree Park", "category": "park", "tags": ["park"], "sources": ["osm", "overture"], "address": "9117-9199 121st Ave SE", "hours": "07:00-dusk"}, "geometry": {"type": "Point", "coordinates": [-122.1798855, 47.5203884]}}, {"type": "Feature", "properties": {"id": "806ca76f-781a-4ea5-8841-ec552eadbd76", "name": "May Creek Trail", "category": "park", "tags": ["park"], "sources": ["overture"], "website": "http://www.rentontrails.org/Rentontrials/Trails_and_Maps.html", "address": "122ND Ct SE"}, "geometry": {"type": "Point", "coordinates": [-122.1749191, 47.520771]}}]}