{"type": "FeatureCollection", "features": [{"type": "Feature", "properties": {"id": "d29f0e2a-2390-4769-a04c-21b8098d493f", "name": "Himitsu Teriyaki", "category": "restaurant", "tags": ["restaurant", "japanese"], "sources": ["overture"], "phone": "14258219991", "address": "12719 NE 124th St"}, "geometry": {"type": "Point", "coordinates": [-122.1706619, 47.7100182]}}, {"type": "Feature", "properties": {"id": "bc6ee923-e8f4-445f-bb3f-2e642509e08b", "name": "Pizza Hut", "category": "restaurant", "tags": ["restaurant", "pizza"], "sources": ["overture"], "phone": "4258232301", "address": "12475 Totem Lake Blvd NE"}, "geometry": {"type": "Point", "coordinates": [-122.1792831, 47.7102699]}}, {"type": "Feature", "properties": {"id": 1365269550, "name": "Kati Vegan Thai", "category": "restaurant", "tags": ["restaurant", "thai", "vegetarian", "vegan", "halal"], "sources": ["osm", "overture"], "website": "https://kativeganthai.com", "phone": "(425) 898-4152", "address": "12540 120th Ave NE", "hours": "Mo-Th,Su 11:30-15:00,16:30-21:00; Fr-Sa 11:30-15:00,16:30-22:00"}, "geometry": {"type": "Point", "coordinates": [-122.1792347, 47.7124021]}}, {"type": "Feature", "properties": {"id": 937945517, "name": "Salt & Straw", "category": "ice_cream", "tags": ["ice-cream", "outdoor-seating", "delivery", "vegetarian", "vegan", "dog-friendly", "wifi"], "sources": ["osm"], "website": "https://saltandstraw.com/pages/totem-lake", "phone": "+1-425-242-3386", "address": "12620 120th Avenue Northeast", "hours": "11:00-23:00"}, "geometry": {"type": "Point", "coordinates": [-122.1799636, 47.7129915]}}, {"type": "Feature", "properties": {"id": 3329429949, "name": "Cafe Veloce", "category": "restaurant", "tags": ["restaurant", "italian", "pizza", "pasta"], "sources": ["osm", "overture"], "website": "http://www.cafeveloce.com/", "phone": "+14258142972", "address": "12514 120th Ave NE", "hours": "Mo-Fr 11:00-21:30; Sa 12:00-21:00; Su 12:00-20:00"}, "geometry": {"type": "Point", "coordinates": [-122.1786598, 47.7113896]}}, {"type": "Feature", "properties": {"id": "85461f78-99f7-499f-b8d5-9c6aac58053b", "name": "Kitanda", "category": "restaurant", "tags": ["restaurant", "brazilian"], "sources": ["overture"], "website": "http://www.kitanda.com/", "phone": "+14258204381", "address": "12700 NE 124th St"}, "geometry": {"type": "Point", "coordinates": [-122.1708832, 47.7106628]}}, {"type": "Feature", "properties": {"id": 3329431642, "name": "Hangry Joe's Hot Chicken", "category": "fast_food", "tags": ["fast-food", "chicken", "takeaway", "halal"], "sources": ["osm"], "website": "https://hangryjoes.com", "phone": "+1-425-305-5675", "address": "12723 Northeast 124th Street", "hours": "11:00-21:00"}, "geometry": {"type": "Point", "coordinates": [-122.1705498, 47.7100825]}}, {"type": "Feature", "properties": {"id": 1365269549, "name": "Pressed Juicery", "category": "fast_food", "tags": ["fast-food", "juice", "takeaway"], "sources": ["osm"], "website": "https://pressed.com", "phone": "+1-425-216-3536", "address": "12540 120th Avenue Northeast", "hours": "Mo-Su 08:00-20:00"}, "geometry": {"type": "Point", "coordinates": [-122.1792863, 47.7124554]}}, {"type": "Feature", "properties": {"id": "d211c1f8-d6ca-4df3-a21b-12b19f475deb", "name": "Bok A Bok", "category": "restaurant", "tags": ["restaurant", "chicken"], "sources": ["overture"], "website": "http://www.bokabokfriedchicken.com", "phone": "(206) 669-5976", "address": "12600 120th Ave NE Ste 150"}, "geometry": {"type": "Point", "coordinates": [-122.1797104, 47.7130585]}}, {"type": "Feature", "properties": {"id": 1365269557, "name": "Mendocino Farms", "category": "fast_food", "tags": ["fast-food", "sandwich", "salad", "takeaway", "delivery", "vegetarian", "vegan", "gluten-free"], "sources": ["osm"], "website": "https://mendocinofarms.com/locations/kirkland", "phone": "+1-425-588-3913", "address": "12540 120th Avenue Northeast", "hours": "11:00-21:00"}, "geometry": {"type": "Point", "coordinates": [-122.1790961, 47.7122671]}}, {"type": "Feature", "properties": {"id": 7926370447, "name": "Whidbey Coffee", "category": "cafe", "tags": ["cafe"], "sources": ["osm"], "website": "https://www.whidbeycoffee.com/pages/evergreen-hospital", "hours": "Mo-Fr 06:00-17:00; Sa 07:00-17:00"}, "geometry": {"type": "Point", "coordinates": [-122.1773421, 47.7156994]}}, {"type": "Feature", "properties": {"id": 7926370448, "name": "Whidbey Coffee", "category": "cafe", "tags": ["cafe"], "sources": ["osm"], "website": "https://www.whidbeycoffee.com/pages/evergreen-hospital-silver-location", "hours": "Mo-Fr 06:00-17:00"}, "geometry": {"type": "Point", "coordinates": [-122.17939, 47.7155707]}}, {"type": "Feature", "properties": {"id": 7926370450, "name": "Cafe 128", "category": "cafe", "tags": ["cafe"], "sources": ["osm"], "website": "https://www.evergreenhealth.com/food", "hours": "Mo-Fr 06:30-24:00; Sa-Su 08:00-20:00"}, "geometry": {"type": "Point", "coordinates": [-122.1797419, 47.7158608]}}, {"type": "Feature", "properties": {"id": 1365269541, "name": "Hen House", "category": "fast_food", "tags": ["fast-food", "fried-chicken", "takeaway", "gluten-free", "restaurant", "chicken"], "sources": ["osm", "overture"], "website": "http://www.henhousepdx.com", "phone": "+1-425-553-1517", "address": "12600 120th Avenue Northeast", "hours": "11:00-20:00"}, "geometry": {"type": "Point", "coordinates": [-122.1797751, 47.7132407]}}, {"type": "Feature", "properties": {"id": 1365269542, "name": "Seoul Meat Co", "category": "restaurant", "tags": ["restaurant", "korean", "barbecue"], "sources": ["osm"], "website": "https://seoulmeatco.site", "phone": "+1-425-202-7040", "address": "12600 120th Avenue Northeast", "hours": "Mo-Su 12:00-22:00"}, "geometry": {"type": "Point", "coordinates": [-122.179515, 47.7131946]}}, {"type": "Feature", "properties": {"id": 1365269545, "name": "Stack 571 Burger & Whiskey Bar", "category": "restaurant", "tags": ["restaurant", "burger", "outdoor-seating", "takeaway", "has-bar"], "sources": ["osm", "overture"], "website": "https://stack571.com", "phone": "+1-425-242-3224", "address": "12540 120th Ave NE", "hours": "Mo-Th 11:30-22:00; Fr 11:30-23:00; Sa 11:00-23:00; Su 11:00-22:00"}, "geometry": {"type": "Point", "coordinates": [-122.179385, 47.712739]}}, {"type": "Feature", "properties": {"id": 1365269546, "name": "Serious Pie Totem Lake", "category": "restaurant", "tags": ["restaurant", "pizza", "reservations", "italian"], "sources": ["osm", "overture"], "website": "https://www.seriouspieseattle.com/", "phone": "+14253333778", "address": "12540 120th Ave NE", "hours": "Mo-Th 11:30-21:00; Fr 11:30-22:00; Sa-Su 10:00-21:00"}, "geometry": {"type": "Point", "coordinates": [-122.1794393, 47.7126388]}}, {"type": "Feature", "properties": {"id": 1365269547, "name": "Silverlake Ramen", "category": "restaurant", "tags": ["restaurant", "noodles", "japanese", "asian"], "sources": ["osm", "overture"], "website": "http://www.silverlakeramen.com", "phone": "+14252421003", "address": "12540 120th Ave NE #118", "hours": "11:30-20:00"}, "geometry": {"type": "Point", "coordinates": [-122.1793911, 47.7125543]}}, {"type": "Feature", "properties": {"id": "7cb1821c-b748-4e77-bdc4-a0403cdc993c", "name": "Hangry Joe's Hot Chicken & Wings", "category": "restaurant", "tags": ["restaurant", "chicken"], "sources": ["overture"], "website": "https://hangryjoes.com/", "phone": "4253055675", "address": "12723 NE 124th St."}, "geometry": {"type": "Point", "coordinates": [-122.1707611, 47.7104034]}}, {"type": "Feature", "properties": {"id": "d73f1743-39a0-448f-a408-c740c3c9549b", "name": "K G F Indian Cuisine", "category": "restaurant", "tags": ["restaurant", "indian"], "sources": ["overture"], "website": "https://www.ubereats.com/store/kgf-indian-restaurant/3Sn7h6UISFi_Rq_vwsBDVg", "phone": "+14252984125", "address": "12719 NE 124th St"}, "geometry": {"type": "Point", "coordinates": [-122.1707916, 47.7100258]}}, {"type": "Feature", "properties": {"id": "16f90434-1ec5-4b2e-8ca5-04b702bc3f08", "name": "Seoul Meat", "category": "restaurant", "tags": ["restaurant", "barbecue"], "sources": ["overture"], "phone": "4255531569", "address": "12600 120th Ave NE Ste 146"}, "geometry": {"type": "Point", "coordinates": [-122.1792603, 47.7130623]}}, {"type": "Feature", "properties": {"id": "8d518fd5-0646-43ff-91e3-253819086f86", "name": "Hanoon", "category": "restaurant", "tags": ["restaurant", "lebanese"], "sources": ["overture"], "website": "https://www.nadimama.com", "phone": "14258366554", "address": "12670 120th Ave Ne  Ste 166"}, "geometry": {"type": "Point", "coordinates": [-122.1788788, 47.7131195]}}, {"type": "Feature", "properties": {"id": "a15c9347-c380-4176-a9c3-9d104053e3d9", "name": "Yuppie Tavern", "category": "bar", "tags": ["bar"], "sources": ["overture"], "website": "http://www.yuppietavern.com", "phone": "(425) 814-5200", "address": "12031 NE Totem Lake Way"}, "geometry": {"type": "Point", "coordinates": [-122.1775284, 47.7119026]}}, {"type": "Feature", "properties": {"id": "c103341d-f022-41ad-955b-2746134e3272", "name": "Evergreenhealth Diagnostic Imaging - Evergreenhealth Medical Center", "category": "restaurant", "tags": ["restaurant"], "sources": ["overture"], "website": "https://www.evergreenhealth.com/imaging", "phone": "+14258991800", "address": "12040 NE 128th St"}, "geometry": {"type": "Point", "coordinates": [-122.1779861, 47.7159843]}}, {"type": "Feature", "properties": {"id": "336e7d59-46de-4420-bfe0-9417b06cd357", "name": "Whidbey Coffee Co", "category": "restaurant", "tags": ["restaurant"], "sources": ["overture"], "address": "12040 NE 128th St"}, "geometry": {"type": "Point", "coordinates": [-122.1782761, 47.7158279]}}, {"type": "Feature", "properties": {"id": 12289806608, "name": "Trace", "category": "artwork", "tags": ["artwork"], "sources": ["osm"]}, "geometry": {"type": "Point", "coordinates": [-122.1743265, 47.7118302]}}, {"type": "Feature", "properties": {"id": 356953499, "name": "Totem Lake Viewing Point", "category": "viewpoint", "tags": ["viewpoint"], "sources": ["osm"]}, "geometry": {"type": "Point", "coordinates": [-122.175763, 47.7116045]}}, {"type": "Feature", "properties": {"id": "082955dd-9e4b-4c1c-935f-68c6daaec24d", "name": "Totem Lake Heights", "category": "attraction", "tags": ["attraction", "landmark", "historical", "building"], "sources": ["overture"], "website": "https://www.totemlakeheights.com/ils/191/switch_cls[id]/65315", "phone": "+14253204347", "address": "12414 NE 127th Ct"}, "geometry": {"type": "Point", "coordinates": [-122.1740036, 47.7144852]}}, {"type": "Feature", "properties": {"id": "9701f3d6-7758-4fba-8e49-c91b912499f0", "name": "Asbury Park", "category": "attraction", "tags": ["attraction", "landmark", "historical", "building"], "sources": ["overture"], "website": "https://washington.weidner.com/apartments/wa/kirkland/asbury-park-0/index.aspx?rcstdid=MTE%3D-aKFOxiSL8lQ%3D", "phone": "+14252564024", "address": "12821 126th Way NE"}, "geometry": {"type": "Point", "coordinates": [-122.1727142, 47.7156868]}}, {"type": "Feature", "properties": {"id": "126c9c0e-5adf-45ec-b506-bc9ac0db0f39", "name": "Aspect at Totem Lake", "category": "attraction", "tags": ["attraction", "landmark", "historical", "building"], "sources": ["overture"], "website": "https://www.aspectattotemlakeapartments.com/?utm_source=socialmedia", "phone": "+18337660102", "address": "12540 120th Ave NE #106"}, "geometry": {"type": "Point", "coordinates": [-122.1790085, 47.7122269]}}, {"type": "Feature", "properties": {"id": "b26d1dc1-491b-4740-b294-96ac29e83460", "name": "Grata at Totem Lake", "category": "attraction", "tags": ["attraction", "landmark", "historical", "building"], "sources": ["overture"], "website": "https://www.liveatgrata.com/?utm_knock=fb", "phone": "+14254349874", "address": "12410 Totem Lake Way"}, "geometry": {"type": "Point", "coordinates": [-122.1748657, 47.7129288]}}, {"type": "Feature", "properties": {"id": "de0a2cc7-0a09-43ec-b514-f119479ecb6b", "name": "Salish Village Condominium", "category": "attraction", "tags": ["attraction", "landmark", "historical", "building"], "sources": ["overture"], "website": "https://salish-village.hub.biz/", "phone": "+14258210250", "address": "12415 NE 130th Ct"}, "geometry": {"type": "Point", "coordinates": [-122.1751328, 47.7179565]}}, {"type": "Feature", "properties": {"id": 418212658, "name": "Hazen Hills Park", "category": "park", "tags": ["park"], "sources": ["osm"]}, "geometry": {"type": "Point", "coordinates": [-122.1794436, 47.7189481]}}, {"type": "Feature", "properties": {"id": "a94e04d4-12c1-4579-ae5f-16a92dd612ad", "name": "Totem Lake Park", "category": "park", "tags": ["park"], "sources": ["overture"], "website": "https://www.kirklandwa.gov", "address": "12031 NE Totem Lake Way"}, "geometry": {"type": "Point", "coordinates": [-122.1779099, 47.7117805]}}, {"type": "Feature", "properties": {"id": "9ea54536-e6aa-4e65-b781-6ddd6f07e0f7", "name": "Totem Lake Trail", "category": "park", "tags": ["park"], "sources": ["overture"], "website": "http://www.totemlakefamilydentistry.com", "address": "12031 Totem Lake Way"}, "geometry": {"type": "Point", "coordinates": [-122.1778946, 47.7115784]}}, {"type": "Feature", "properties": {"id": "245378bd-fae4-44d1-b5cd-4fbd70afc7ac", "name": "Totem Lake Playground", "category": "playground", "tags": ["playground"], "sources": ["overture"], "website": "https://www.kirklandwa.gov/Government/Departments/Parks-and-Community-Services/Park-Planning-and-Development/Totem-Lake-Park-renovation"}, "geometry": {"type": "Point", "coordinates": [-122.1774368, 47.7119446]}}, {"type": "Feature", "properties": {"id": "225aeb88-7c58-435a-b936-909a4057146f", "name": "The Totem Lake Hotel", "category": "hotel", "tags": ["hotel", "resort"], "sources": ["overture"], "website": "http://thetotemlakehotel.com/", "phone": "4258212202", "address": "12233 NE Totem Lake Way"}, "geometry": {"type": "Point", "coordinates": [-122.1765823, 47.712204]}}, {"type": "Feature", "properties": {"id": 847026704, "name": "Whole Foods Market", "category": "supermarket", "tags": ["supermarket", "wifi"], "sources": ["osm"], "website": "https://wholefoodsmarket.com/stores/kirkland", "phone": "+1-425-979-3301", "address": "12501 120th Avenue Northeast", "hours": "Mo-Su 08:00-21:00"}, "geometry": {"type": "Point", "coordinates": [-122.1797746, 47.7117341]}}, {"type": "Feature", "properties": {"id": 1365269618, "name": "AT&T", "category": "mobile_phone", "tags": ["mobile-phone", "wifi", "mobile"], "sources": ["osm", "overture"], "website": "https://www.att.com/stores/washington/kirkland/124016?source=E-Fls10000000000X&wtExtndSource=website", "phone": "+14258210786", "address": "12502 Totem Lake Blvd NE Suite 100", "hours": "Mo-Sa 10:00-20:00; Su 11:00-18:00"}, "geometry": {"type": "Point", "coordinates": [-122.1798962, 47.7106908]}}, {"type": "Feature", "properties": {"id": 1365269540, "name": "Sephora", "category": "cosmetics", "tags": ["cosmetics"], "sources": ["osm"], "website": "https://sephora.com/happening/stores/totem-lake", "phone": "+1-425-403-4055", "address": "12670 120th Avenue Northeast", "hours": "Mo-Sa 10:00-20:00; Su 11:00-19:00"}, "geometry": {"type": "Point", "coordinates": [-122.1799904, 47.7133053]}}, {"type": "Feature", "properties": {"id": "76e36675-7a0b-480e-9152-0caa26602115", "name": "Metro by T-Mobile", "category": "mobile_phone", "tags": ["mobile-phone", "mobile"], "sources": ["overture"], "website": "https://www.metrobyt-mobile.com/stores/bd/metro-by-t-mobile-kirkland-wa-10233150/", "phone": "4258148222", "address": "12700 NE 124th St"}, "geometry": {"type": "Point", "coordinates": [-122.1711273, 47.7105675]}}, {"type": "Feature", "properties": {"id": 7926370452, "name": "Coral Gift Shop", "category": "gift", "tags": ["gift"], "sources": ["osm"], "website": "https://www.evergreenhealth.com/gift-shop"}, "geometry": {"type": "Point", "coordinates": [-122.1773395, 47.7157461]}}, {"type": "Feature", "properties": {"id": 1365269548, "name": "Purpose Boutique", "category": "clothes", "tags": ["clothes"], "sources": ["osm"], "website": "https://purposeboutique.com", "phone": "+1-425-968-8045", "address": "12540 120th Avenue Northeast", "hours": "Mo-Sa 10:00-20:00; Su 11:00-18:00"}, "geometry": {"type": "Point", "coordinates": [-122.1793282, 47.7124989]}}, {"type": "Feature", "properties": {"id": 1365269571, "name": "LoveSac", "category": "furniture", "tags": ["furniture"], "sources": ["osm", "overture"], "website": "http://www.lovesac.com/", "phone": "+14258458681", "address": "11901 NE Village Plaza Suite 183", "hours": "Su 12:00-18:00; Mo-Sa 10:00-21:00"}, "geometry": {"type": "Point", "coordinates": [-122.1798136, 47.7123278]}}, {"type": "Feature", "properties": {"id": 1365269574, "name": "Snapdoodle Toys & Games", "category": "toys", "tags": ["toys"], "sources": ["osm", "overture"], "website": "https://snapdoodletoys.com", "phone": "+14252859366", "address": "11901 NE Village Plaza #175", "hours": "Mo-Fr 11:00-20:00; Sa 10:00-20:00; Su 11:00-18:00"}, "geometry": {"type": "Point", "coordinates": [-122.1799811, 47.7124996]}}, {"type": "Feature", "properties": {"id": "48156bc7-1496-43f4-87a4-5acc0d9708f6", "name": "At&t Store", "category": "mobile_phone", "tags": ["mobile-phone", "mobile"], "sources": ["overture"], "website": "https://www.att.com", "phone": "14258210786", "address": "12502 Totem Lake Blvd Ne  Ste 100"}, "geometry": {"type": "Point", "coordinates": [-122.1798248, 47.7108765]}}, {"type": "Feature", "properties": {"id": "4ef33e96-c85d-4987-b885-17ba5144a1f4", "name": "Sherwin-Williams", "category": "doityourself", "tags": ["doityourself", "home", "improvement"], "sources": ["overture"], "website": "https://www.sherwin-williams.com/store-locator/paint-store/kirkland/wa/708002", "phone": "+14258218022", "address": "12731 NE 124th St"}, "geometry": {"type": "Point", "coordinates": [-122.1702576, 47.7102432]}}, {"type": "Feature", "properties": {"id": "f6037350-3948-4663-9e95-fa08b6998dc1", "name": "Sandwich", "category": "supermarket", "tags": ["supermarket"], "sources": ["overture"], "phone": "4259793301", "address": "12501 120th Ave NE"}, "geometry": {"type": "Point", "coordinates": [-122.1797104, 47.7115135]}}, {"type": "Feature", "properties": {"id": "f0b6006b-36ae-4a33-bfbf-bb0f4b5abfa7", "name": "Perk Up Juice & Coffee", "category": "supermarket", "tags": ["supermarket"], "sources": ["overture"], "website": "https://www.wholefoodsmarket.com/stores/kirkland", "phone": "4259793301", "address": "12501 120th Ave NE"}, "geometry": {"type": "Point", "coordinates": [-122.1791611, 47.7117882]}}, {"type": "Feature", "properties": {"id": "d30f45a3-6c8a-4b43-a494-239465820f89", "name": "Rite Aid", "category": "pharmacy", "tags": ["pharmacy"], "sources": ["overture"], "website": "https://www.riteaid.com/store-details?storeNumber=5192", "phone": "4258211500", "address": "12421 Totem Lake Blvd NE"}, "geometry": {"type": "Point", "coordinates": [-122.1780014, 47.7101936]}}, {"type": "Feature", "properties": {"id": 3343055251, "name": "Cascadia Oral and Facial Surgeons", "category": "clinic", "tags": ["clinic"], "sources": ["osm"], "website": "https://www.cascadiaoralsurgery.com/", "address": "13127 121st Way Northeast"}, "geometry": {"type": "Point", "coordinates": [-122.1795345, 47.7182344]}}, {"type": "Feature", "properties": {"id": 13256736301, "name": "POMA Fertility", "category": "clinic", "tags": ["clinic"], "sources": ["osm"], "website": "https://pomafertility.com", "phone": "+1-425-822-7662", "address": "12039 Northeast 128th Street", "hours": "Mo-Fr 09:00-16:00"}, "geometry": {"type": "Point", "coordinates": [-122.1796775, 47.7144316]}}, {"type": "Feature", "properties": {"id": 31882638, "name": "Evergreen Surgery & Physicians Center", "category": "clinic", "tags": ["clinic"], "sources": ["osm"], "address": "12333 Northeast 130th Lane"}, "geometry": {"type": "Point", "coordinates": [-122.1764849, 47.7161071]}}, {"type": "Feature", "properties": {"id": 485040439, "name": "EvergreenHealth Kirkland", "category": "hospital", "tags": ["hospital", "emergency"], "sources": ["osm"], "website": "https://www.evergreenhealth.com/", "phone": "+1-425-899-1000", "address": "12040 Northeast 128th Street", "hours": "24/7"}, "geometry": {"type": "Point", "coordinates": [-122.1783439, 47.7153387]}}, {"type": "Feature", "properties": {"id": "0515c7cf-75f6-4a5d-a6af-dcfac4c110d0", "name": "UW Medicine", "category": "hospital", "tags": ["hospital"], "sources": ["overture"], "website": "https://www.seattlecca.org/locations/scca-at-evergreenhealth", "phone": "+12065205000", "address": "12040 NE 128th St"}, "geometry": {"type": "Point", "coordinates": [-122.1785507, 47.715538]}}, {"type": "Feature", "properties": {"id": "a6bb3160-2d3e-409d-9d0c-f7fdec38406c", "name": "Vera Whole Health", "category": "clinic", "tags": ["clinic", "medical"], "sources": ["overture"], "website": "https://www.verawholehealth.com", "phone": "+12066078430", "address": "13123 121st Way NE D"}, "geometry": {"type": "Point", "coordinates": [-122.1794357, 47.7181358]}}, {"type": "Feature", "properties": {"id": "5f87eb85-a053-417d-89f2-31af88219baa", "name": "EvergreenHealth Professional Center Pharmacy", "category": "pharmacy", "tags": ["pharmacy"], "sources": ["overture"], "website": "https://www.evergreenhealth.com/pharmacy", "phone": "(425) 899-2790", "address": "12303 NE 130th Ln Ste Coral # 210"}, "geometry": {"type": "Point", "coordinates": [-122.1775284, 47.7155075]}}, {"type": "Feature", "properties": {"id": "a74d7f4c-d2e0-4197-b5cd-70972ac72b16", "name": "Evergreen Anticoagulation Clinic", "category": "clinic", "tags": ["clinic", "medical"], "sources": ["overture"], "website": "http://www.evergreenhospital.org", "phone": "(425) 821-1227", "address": "12040 NE 128th St"}, "geometry": {"type": "Point", "coordinates": [-122.1762924, 47.7160835]}}, {"type": "Feature", "properties": {"id": "181b5e28-11e1-4612-9278-83c293e8f8a9", "name": "Evergreenhealth Grief And Bereavement Services", "category": "clinic", "tags": ["clinic", "medical"], "sources": ["overture"], "phone": "+14258991077", "address": "12333 Ne 130th Ln Ste Tan450"}, "geometry": {"type": "Point", "coordinates": [-122.1766357, 47.7163467]}}, {"type": "Feature", "properties": {"id": "56a917d8-a8b2-48f2-84e4-90268aba9163", "name": "Evergreenhealth Weight Loss & Bariatric Care", "category": "clinic", "tags": ["clinic", "medical"], "sources": ["overture"], "website": "https://www.evergreenhealth.com", "phone": "14255442000", "address": "12333 Ne 130th Ln  Ste 400"}, "geometry": {"type": "Point", "coordinates": [-122.1766357, 47.7163467]}}, {"type": "Feature", "properties": {"id": "912327c3-0ca0-4712-8dde-21440f5297b0", "name": "Evergreen Hospital NICU", "category": "hospital", "tags": ["hospital"], "sources": ["overture"], "website": "https://www.evergreenhealth.com/WorkFiles/Profile_NICU.pdf", "phone": "(425) 899-2783", "address": "12333 NE 130th Ln"}, "geometry": {"type": "Point", "coordinates": [-122.177803, 47.7162361]}}, {"type": "Feature", "properties": {"id": "7dc3003c-6e4d-4ee4-b315-397c4702df87", "name": "Evergreenhealth Medical Center", "category": "clinic", "tags": ["clinic", "medical"], "sources": ["overture"], "website": "https://www.evergreenhealth.com", "phone": "+14258991000", "address": "12040 NE 128th St"}, "geometry": {"type": "Point", "coordinates": [-122.1796417, 47.7155609]}}, {"type": "Feature", "properties": {"id": "480b28a5-a23f-4751-a64e-d251f84694b6", "name": "Multiple Sclerosis Center@ EvergreenHealth", "category": "hospital", "tags": ["hospital"], "sources": ["overture"], "website": "https://www.evergreenhealth.com/ms", "phone": "+14258995350", "address": "12039 NE 128th St"}, "geometry": {"type": "Point", "coordinates": [-122.1796036, 47.7146149]}}, {"type": "Feature", "properties": {"id": "6cbbf6cb-1f23-4e9b-81ef-ed0350503c4d", "name": "EvergreenHealth Sport and Spine Care", "category": "clinic", "tags": ["clinic", "medical"], "sources": ["overture"], "website": "https://www.evergreenhealth.com/sports-work-injury", "phone": "+14258991220", "address": "12039 NE 128th St"}, "geometry": {"type": "Point", "coordinates": [-122.1795578, 47.7145195]}}, {"type": "Feature", "properties": {"id": "fd3b015e-e428-4147-83db-3f7f5f69f41a", "name": "Hosseini Ghomi, Reza Dr - Evergreen Neuroscience Institute", "category": "hospital", "tags": ["hospital"], "sources": ["overture"], "website": "http://www.evergreenhealthcare.org", "phone": "+14258995350", "address": "12039 NE 128th St"}, "geometry": {"type": "Point", "coordinates": [-122.1794281, 47.7145424]}}, {"type": "Feature", "properties": {"id": "73ee4630-a923-4e5a-90b1-358dc698575c", "name": "EvergreenHealth Rehabilitation Services", "category": "clinic", "tags": ["clinic", "medical"], "sources": ["overture"], "website": "https://www.evergreenhealth.com/rehab", "phone": "(425) 899-1960", "address": "12039 NE 128th St Ste 200"}, "geometry": {"type": "Point", "coordinates": [-122.1797562, 47.7144432]}}, {"type": "Feature", "properties": {"id": "6239fd43-0cf0-4e30-995e-1baf74ba09ee", "name": "Fred Hutch Cancer Center", "category": "clinic", "tags": ["clinic", "medical"], "sources": ["overture"], "website": "https://www.seattlecca.org/locations/scca-at-evergreenhealth", "phone": "+14254412600", "address": "12040 NE 128th St Halvorson Cancer Center - Suite Silver 1600"}, "geometry": {"type": "Point", "coordinates": [-122.1798325, 47.7157135]}}, {"type": "Feature", "properties": {"id": 31876829, "name": "Bank of America", "category": "bank", "tags": ["bank"], "sources": ["osm"], "website": "https://locators.bankofamerica.com/wa/kirkland/financial-centers-kirkland-11165.html", "address": "12424 Totem Lake Boulevard", "hours": "Mo-Fr 10:00-18:00; Sa 10:00-13:00"}, "geometry": {"type": "Point", "coordinates": [-122.1787795, 47.7107339]}}, {"type": "Feature", "properties": {"id": 31882060, "name": "Chase", "category": "bank", "tags": ["bank"], "sources": ["osm"], "website": "https://locator.chase.com/wa/kirkland/12028-ne-totem-lake-way", "address": "12028 Northeast Totem Lake Way", "hours": "Mo-Fr 09:00-18:00;Sa 09:00-13:00"}, "geometry": {"type": "Point", "coordinates": [-122.1786326, 47.7119693]}}, {"type": "Feature", "properties": {"id": "a2630ea3-a003-4556-8174-6bacacef88d8", "name": "Bank of America Financial Center", "category": "bank", "tags": ["bank", "credit", "union"], "sources": ["overture"], "website": "https://locators.bankofamerica.com/wa/kirkland/financial-centers-kirkland-11165.html", "phone": "4258236858", "address": "12424 Totem Lake Blvd NE"}, "geometry": {"type": "Point", "coordinates": [-122.1789474, 47.7102356]}}, {"type": "Feature", "properties": {"id": "403b3950-efb0-4f37-9e0b-54aded7f5d5a", "name": "Element 5 Fitness", "category": "fitness_centre", "tags": ["fitness-centre", "gym"], "sources": ["overture"], "website": "http://www.element5fitness.com", "phone": "(425) 823-4400", "address": "12700 NE 124th St Ste 17"}, "geometry": {"type": "Point", "coordinates": [-122.1708145, 47.7108154]}}]}