{"type": "FeatureCollection", "features": [{"type": "Feature", "properties": {"id": 333879940, "name": "The Fin Project: From Swords into Plowshares", "category": "artwork", "tags": ["artwork"], "sources": ["osm"]}, "geometry": {"type": "Point", "coordinates": [-122.2469514, 47.6815129]}}, {"type": "Feature", "properties": {"id": 343110088, "name": "NOAA Bridges", "category": "artwork", "tags": ["artwork"], "sources": ["osm"]}, "geometry": {"type": "Point", "coordinates": [-122.2490268, 47.6853195]}}, {"type": "Feature", "properties": {"id": 343110089, "name": "A Sound Garden", "category": "artwork", "tags": ["artwork"], "sources": ["osm"]}, "geometry": {"type": "Point", "coordinates": [-122.2498514, 47.6854582]}}, {"type": "Feature", "properties": {"id": "fe9a2b5c-3312-4681-8922-128d786f5d0f", "name": "Sound Garden", "category": "park", "tags": ["park"], "sources": ["overture"], "website": "http://www.seattle.gov/parks/magnuson/art.htm#noaa", "phone": "+12066844946", "address": "7600 Sand Point Way NE"}, "geometry": {"type": "Point", "coordinates": [-122.249939, 47.6854515]}}, {"type": "Feature", "properties": {"id": "9abc524f-f6f8-4ed1-81b0-0a8b19b6b6f0", "name": "Magnuson Park", "category": "park", "tags": ["park"], "sources": ["overture"], "website": "http://www.seattle.gov/parks/magnuson", "phone": "+12066844946", "address": "6505 NE 65th St"}, "geometry": {"type": "Point", "coordinates": [-122.2477417, 47.6800041]}}, {"type": "Feature", "properties": {"id": "8608d0df-63fa-4063-8997-d984b5972aa8", "name": "Kite Hill - Magnusson Park", "category": "park", "tags": ["park"], "sources": ["overture"]}, "geometry": {"type": "Point", "coordinates": [-122.2475052, 47.6816521]}}]}