{"type": "FeatureCollection", "features": [{"type": "Feature", "properties": {"id": "94d249eb-d45e-43ff-954e-cdc36150ed8e", "name": "Divinity Coffee Co", "category": "restaurant", "tags": ["restaurant"], "sources": ["overture"], "address": "1431 Market St"}, "geometry": {"type": "Point", "coordinates": [-122.2102737, 47.6876945]}}, {"type": "Feature", "properties": {"id": 4787311982, "name": "The Fisherman", "category": "artwork", "tags": ["artwork"], "sources": ["osm"]}, "geometry": {"type": "Point", "coordinates": [-122.21566, 47.6864336]}}, {"type": "Feature", "properties": {"id": "a4d11448-db61-4bad-9911-e6baffb95e50", "name": "JBLM Enterprise Multimedia Center", "category": "attraction", "tags": ["attraction", "landmark", "historical", "building"], "sources": ["overture"], "website": "http://www.lewis-mcchord.army.mil/DPTMS/training/emc.htm", "phone": "+12539673177", "address": "1401 6th St W"}, "geometry": {"type": "Point", "coordinates": [-122.2123184, 47.6883316]}}, {"type": "Feature", "properties": {"id": "923a28c6-94ad-4376-9511-e920f11db06b", "name": "The Little House on the Corner", "category": "attraction", "tags": ["attraction", "landmark", "historical", "building", "bar-and-grill"], "sources": ["overture"], "address": "202 5th Ave W"}, "geometry": {"type": "Point", "coordinates": [-122.2113647, 47.6805725]}}, {"type": "Feature", "properties": {"id": 55783319, "name": "Waverly Beach Park", "category": "park", "tags": ["park"], "sources": ["osm", "overture"], "website": "http://www.myparksandrecreation.com/parkstrails/details.aspx?pid=175", "phone": "+14255873000", "address": "633 Waverly Park Way"}, "geometry": {"type": "Point", "coordinates": [-122.2170986, 47.6869347]}}, {"type": "Feature", "properties": {"id": 800506300, "name": "Waverly Beach Playground", "category": "playground", "tags": ["playground"], "sources": ["osm"]}, "geometry": {"type": "Point", "coordinates": [-122.2168394, 47.6868932]}}, {"type": "Feature", "properties": {"id": 3324263494, "name": "Dooley's Dog House", "category": "pet", "tags": ["pet"], "sources": ["osm"], "address": "1421 Market Street"}, "geometry": {"type": "Point", "coordinates": [-122.2102196, 47.6870851]}}, {"type": "Feature", "properties": {"id": 3324263497, "name": "Zip Market", "category": "convenience", "tags": ["convenience"], "sources": ["osm", "overture"], "phone": "14258895977", "address": "1431 Market St"}, "geometry": {"type": "Point", "coordinates": [-122.2102233, 47.6874104]}}, {"type": "Feature", "properties": {"id": "6b6de514-9f5c-4e72-9437-d2235d276614", "name": "Friends Forever Pet Food", "category": "pet", "tags": ["pet"], "sources": ["overture"], "website": "https://www.friendsforeverpetfood.com", "phone": "14258892200", "address": "1421 Market St"}, "geometry": {"type": "Point", "coordinates": [-122.2102203, 47.6870804]}}]}