{"type": "FeatureCollection", "features": [{"type": "Feature", "properties": {"id": 4487821132, "name": "Subway", "category": "fast_food", "tags": ["fast-food", "sandwich", "takeaway", "restaurant"], "sources": ["osm", "overture"], "website": "https://www.subway.com", "phone": "12062411920", "address": "15500 1st Ave S  Ste 104", "hours": "Mo-Fr 08:00-21:00; Sa-Su 08:30-21:00"}, "geometry": {"type": "Point", "coordinates": [-122.3332114, 47.4639906]}}, {"type": "Feature", "properties": {"id": 5374422151, "name": "Domino's", "category": "fast_food", "tags": ["fast-food", "pizza", "takeaway"], "sources": ["osm"], "website": "https://pizza.dominos.com/washington/burien/14901-4th-ave-sw", "phone": "+1-206-248-3030", "address": "14901 4th Avenue Southwest", "hours": "Mo-Th,Su 10:00-01:00; Fr-Sa 10:00-02:00"}, "geometry": {"type": "Point", "coordinates": [-122.3390754, 47.4691883]}}, {"type": "Feature", "properties": {"id": 173545444, "name": "Starbucks", "category": "cafe", "tags": ["cafe", "coffee-shop", "outdoor-seating", "indoor-seating", "takeaway", "wifi"], "sources": ["osm", "overture"], "website": "https://www.starbucks.com/store-locator/store/14197/", "phone": "+12062431545", "address": "15838 1st Ave S", "hours": "Mo-Fr 04:30-20:00; Sa-Su 05:00-20:00"}, "geometry": {"type": "Point", "coordinates": [-122.3334879, 47.4609743]}}, {"type": "Feature", "properties": {"id": 173545438, "name": "McDonald's", "category": "fast_food", "tags": ["fast-food", "burger", "takeaway", "drive-through", "wifi", "fast", "food"], "sources": ["osm", "overture"], "website": "https://www.mcdonalds.com/us/en-us/location/wa/burien/15620-1st-ave-s/411.html?cid=RF%3AYXT%3ARoN%3A%3AClicks%3Fcid%3DRF%3AYXT%3AFB%3A%3AClicks", "phone": "+12062439988", "address": "15620 1st Ave S", "hours": "24/7"}, "geometry": {"type": "Point", "coordinates": [-122.3333835, 47.4626518]}}, {"type": "Feature", "properties": {"id": 3699558771, "name": "Manna Teriyaki", "category": "restaurant", "tags": ["restaurant", "japanese", "asian"], "sources": ["osm", "overture"], "website": "http://ivars.net", "phone": "(206) 431-8891", "address": "125 SW 148th St"}, "geometry": {"type": "Point", "coordinates": [-122.3351016, 47.4699134]}}, {"type": "Feature", "properties": {"id": "9c487b2f-f835-43e2-8314-b77bb6bfb652", "name": "Pizza Hut", "category": "restaurant", "tags": ["restaurant", "pizza"], "sources": ["overture"], "phone": "2062444900", "address": "15050 1st Ave S"}, "geometry": {"type": "Point", "coordinates": [-122.3338318, 47.4671745]}}, {"type": "Feature", "properties": {"id": 5374422045, "name": "Papa Murphy's", "category": "fast_food", "tags": ["fast-food", "pizza", "takeaway", "restaurant"], "sources": ["osm", "overture"], "website": "https://locations.papamurphys.com/wa/burien/15858-1st-avenue-south", "phone": "+12062487272", "address": "15858 1st Avenue South", "hours": "11:00-21:00"}, "geometry": {"type": "Point", "coordinates": [-122.3316278, 47.4603918]}}, {"type": "Feature", "properties": {"id": "bdbff222-775a-4443-8b38-61ad4c262a46", "name": "Good Guys Pizza", "category": "restaurant", "tags": ["restaurant", "pizza"], "sources": ["overture"], "website": "http://bellalunapizzaandpasta.com/", "phone": "(206) 241-6161", "address": "243 SW 153rd St"}, "geometry": {"type": "Point", "coordinates": [-122.337738, 47.4656944]}}, {"type": "Feature", "properties": {"id": 365935142, "name": "Burger King", "category": "fast_food", "tags": ["fast-food", "burger", "takeaway", "drive-through", "wifi", "restaurant", "american"], "sources": ["osm", "overture"], "website": "https://burgerking.com/store-locator/store/15965", "phone": "+12063168984", "address": "14893 4th Ave S.W.", "hours": "Mo-Sa 07:00-23:00; Su 08:00-23:00"}, "geometry": {"type": "Point", "coordinates": [-122.339211, 47.4698698]}}, {"type": "Feature", "properties": {"id": "3460ff80-e3b9-4494-84b1-23a7d978430c", "name": "Vince's Italian Restaurant & Pizzeria", "category": "restaurant", "tags": ["restaurant", "italian", "pizza"], "sources": ["overture"], "website": "http://www.vincesrestaurants.com", "phone": "+12062461497", "address": "15223 4th Ave SW"}, "geometry": {"type": "Point", "coordinates": [-122.3394928, 47.4661789]}}, {"type": "Feature", "properties": {"id": 173545454, "name": "Panda Express", "category": "fast_food", "tags": ["fast-food", "chinese", "outdoor-seating", "takeaway", "drive-through", "restaurant", "asian"], "sources": ["osm", "overture"], "website": "http://www.pandaexpress.com/", "phone": "+12062481888", "address": "15842 1st Avenue South", "hours": "Mo-Su 09:30-23:00"}, "geometry": {"type": "Point", "coordinates": [-122.3334746, 47.4604223]}}, {"type": "Feature", "properties": {"id": "da83d7a1-3366-401b-b433-00e57305d84f", "name": "Wingstop", "category": "restaurant", "tags": ["restaurant", "wings", "chicken"], "sources": ["overture"], "website": "https://www.wingstop.com/location/wingstop-2748-burien-wa-98148/menu?y_source=1_MTA5MTQwNzg3MC00ODMtbG9jYXRpb24ud2Vic2l0ZQ%3D%3D", "phone": "2063374744", "address": "15702 1st Ave S"}, "geometry": {"type": "Point", "coordinates": [-122.33284, 47.4619408]}}, {"type": "Feature", "properties": {"id": 5374422034, "name": "Jersey Mike's Subs", "category": "fast_food", "tags": ["fast-food", "sandwich", "takeaway"], "sources": ["osm"], "website": "https://www.jerseymikes.com/18019/burien-wa", "hours": "10:00-21:00"}, "geometry": {"type": "Point", "coordinates": [-122.3327717, 47.461246]}}, {"type": "Feature", "properties": {"id": 5374422033, "name": "Sunny Teriyaki", "category": "restaurant", "tags": ["restaurant", "japanese", "asian"], "sources": ["osm", "overture"], "website": "http://teriyakiplace.com", "phone": "+12069886244", "address": "15830 1st Ave S #103", "hours": "Mo-Fr 10:30-20:15; Sa 11:00-19:15"}, "geometry": {"type": "Point", "coordinates": [-122.3329072, 47.4612451]}}, {"type": "Feature", "properties": {"id": 365965230, "name": "Taco Bell", "category": "fast_food", "tags": ["fast-food", "tex-mex", "indoor-seating", "takeaway", "fast", "food", "taco", "mexican"], "sources": ["osm", "overture"], "website": "http://www.tacobell.com/", "phone": "+12062416944", "address": "15059 1st Ave S", "hours": "07:00-22:00"}, "geometry": {"type": "Point", "coordinates": [-122.334249, 47.4671621]}}, {"type": "Feature", "properties": {"id": 5583694806, "name": "KFC", "category": "fast_food", "tags": ["fast-food", "chicken", "indoor-seating", "takeaway", "fast", "food"], "sources": ["osm", "overture"], "website": "https://locations.kfc.com/wa/burien/15209-1st-ave-south", "phone": "+12062431600", "address": "15209 1st Ave. South", "hours": "Mo-Su 10:00-22:00"}, "geometry": {"type": "Point", "coordinates": [-122.3344508, 47.4667131]}}, {"type": "Feature", "properties": {"id": 3708575010, "name": "Lucky Donuts", "category": "fast_food", "tags": ["fast-food", "donut", "indoor-seating", "wheelchair-accessible", "vegetarian"], "sources": ["osm"], "phone": "+1-206-241-8929", "address": "140 Southwest 152nd Street", "hours": "Mo-Fr 04:30-17:00; Sa,Su 06:00-17:00"}, "geometry": {"type": "Point", "coordinates": [-122.3358438, 47.4671261]}}, {"type": "Feature", "properties": {"id": 3708709034, "name": "La Costa Mexican Restaurant", "category": "restaurant", "tags": ["restaurant", "mexican"], "sources": ["osm"], "website": "http://www.lacostaburien.com/", "phone": "+1-206-243-1797", "address": "206 Southwest 152nd Street", "hours": "Mo-Th,Su 11:00-20:15; Fr-Sa 11:00-21:30"}, "geometry": {"type": "Point", "coordinates": [-122.3365799, 47.4674249]}}, {"type": "Feature", "properties": {"id": 173545439, "name": "Wendy's", "category": "fast_food", "tags": ["fast-food", "burger", "takeaway", "drive-through", "fast", "food", "american"], "sources": ["osm", "overture"], "website": "https://locations.wendys.com/united-states/wa/burien/15700-1st-ave-s", "phone": "+12062447084", "address": "15700 1st Ave. S.", "hours": "09:00-22:00"}, "geometry": {"type": "Point", "coordinates": [-122.3334201, 47.4622252]}}, {"type": "Feature", "properties": {"id": 5658984383, "name": "Sushi Maki", "category": "restaurant", "tags": ["restaurant", "sushi", "takeaway", "japanese", "asian"], "sources": ["osm", "overture"], "website": "http://www.sushimakiburien.webstarts.com/", "phone": "+12062426400", "address": "15710 1st Ave S", "hours": "Mo-Sa 11:00-21:00"}, "geometry": {"type": "Point", "coordinates": [-122.3323437, 47.4622424]}}, {"type": "Feature", "properties": {"id": 4487821170, "name": "Berta's Salvadoran Kitchen", "category": "restaurant", "tags": ["restaurant", "wifi", "salvadoran", "latin-american"], "sources": ["osm", "overture"], "website": "http://www.bertassalvadorankitchen.com/", "phone": "+12068592776", "address": "127 SW 153rd St", "hours": "Mo-Su 08:00-20:30"}, "geometry": {"type": "Point", "coordinates": [-122.335108, 47.4657192]}}, {"type": "Feature", "properties": {"id": 451977381, "name": "I Luv Teriyaki", "category": "restaurant", "tags": ["restaurant", "asian", "japanese"], "sources": ["osm", "overture"], "website": "https://i-luv-teriyaki-wa.hub.biz", "phone": "+12064444894", "address": "15225 1st Ave S"}, "geometry": {"type": "Point", "coordinates": [-122.3342298, 47.4661479]}}, {"type": "Feature", "properties": {"id": 5373916772, "name": "Pho Vina", "category": "restaurant", "tags": ["restaurant", "vietnamese"], "sources": ["osm"]}, "geometry": {"type": "Point", "coordinates": [-122.3343877, 47.4625742]}}, {"type": "Feature", "properties": {"id": 5373917428, "name": "Goodtime Ernie's", "category": "pub", "tags": ["pub"], "sources": ["osm"]}, "geometry": {"type": "Point", "coordinates": [-122.3362184, 47.4614518]}}, {"type": "Feature", "properties": {"id": 5374422038, "name": "White Cap Frozen Yogurt", "category": "ice_cream", "tags": ["ice-cream"], "sources": ["osm"], "website": "https://whitecapfrozenyogurt.com/", "phone": "+1-206-244-9000", "address": "15830 1st Avenue South", "hours": "Tu-Su 12:00-21:00"}, "geometry": {"type": "Point", "coordinates": [-122.332427, 47.4611848]}}, {"type": "Feature", "properties": {"id": 5374422047, "name": "Khan's Mongolian Grill", "category": "restaurant", "tags": ["restaurant", "mongolian-grill", "mongolian", "asian"], "sources": ["osm", "overture"], "website": "https://www.khans-mongolian.com", "phone": "+12069883893", "address": "15858 1st Ave S #107", "hours": "Mo-Sa 11:00-21:00; Su 12:00-21:00"}, "geometry": {"type": "Point", "coordinates": [-122.3316063, 47.4602513]}}, {"type": "Feature", "properties": {"id": "d09e204b-69de-4554-915e-ffe0a59ac1f2", "name": "Azteca Mexican Restaurants", "category": "restaurant", "tags": ["restaurant", "mexican", "taco", "texmex"], "sources": ["overture"], "website": "http://aztecamex.com/", "phone": "+12062432241", "address": "153 SW 157th St"}, "geometry": {"type": "Point", "coordinates": [-122.335968, 47.4622154]}}, {"type": "Feature", "properties": {"id": 5583694720, "name": "Moya Ethiopian Restaurant & Coffee", "category": "restaurant", "tags": ["restaurant", "ethiopian", "african"], "sources": ["osm", "overture"], "phone": "+12064661080", "address": "205 SW 152nd St"}, "geometry": {"type": "Point", "coordinates": [-122.3367663, 47.4666513]}}, {"type": "Feature", "properties": {"id": 5583694724, "name": "Restaurant & Taqueria Cuautla", "category": "restaurant", "tags": ["restaurant", "mexican"], "sources": ["osm"], "address": "217 Southwest 152nd Street"}, "geometry": {"type": "Point", "coordinates": [-122.3373043, 47.4666459]}}, {"type": "Feature", "properties": {"id": 5583694728, "name": "Dukem Restaurant & Market", "category": "restaurant", "tags": ["restaurant"], "sources": ["osm"], "address": "215 Southwest 152nd Street", "hours": "Mo-Sa 09:00-20:00; Su 09:00-20:00"}, "geometry": {"type": "Point", "coordinates": [-122.3372236, 47.4666482]}}, {"type": "Feature", "properties": {"id": 5583694737, "name": "Ohana Kitchen", "category": "restaurant", "tags": ["restaurant", "hawaiian", "korean", "asian"], "sources": ["osm", "overture"], "website": "http://www.ohanakitchenwa.com/", "phone": "+12062463501", "address": "241 SW 152nd St", "hours": "Mo-Sa 10:00-20:00"}, "geometry": {"type": "Point", "coordinates": [-122.338302, 47.4666306]}}, {"type": "Feature", "properties": {"id": 5583694751, "name": "Tori Sake & Grill", "category": "restaurant", "tags": ["restaurant", "japanese", "indoor-seating"], "sources": ["osm"], "address": "202 Southwest 153rd Street", "hours": "Mo-Th 11:00-20:30; Fr-Sa 11:00-21:00; Su 16:00-20:30"}, "geometry": {"type": "Point", "coordinates": [-122.3367555, 47.4662507]}}, {"type": "Feature", "properties": {"id": 5583694759, "name": "Bella Luna Pizza & Pasta", "category": "restaurant", "tags": ["restaurant", "italian"], "sources": ["osm"], "address": "243 Southwest 153rd Street"}, "geometry": {"type": "Point", "coordinates": [-122.3382265, 47.4657588]}}, {"type": "Feature", "properties": {"id": 5583694787, "name": "Antojitos Locos", "category": "cafe", "tags": ["cafe", "mexican", "restaurant", "latin-american"], "sources": ["osm", "overture"], "website": "http://Antojitoslocos.ecwid.com/", "phone": "+12064788741", "address": "123 SW 152nd St", "hours": "10:30-20:30"}, "geometry": {"type": "Point", "coordinates": [-122.3349141, 47.4666873]}}, {"type": "Feature", "properties": {"id": 5583694962, "name": "Burien Fish House", "category": "restaurant", "tags": ["restaurant", "seafood", "fish-and-chips"], "sources": ["osm", "overture"], "website": "http://www.BurienFishHouse.com/", "phone": "+12062943506", "address": "133 SW 153rd St", "hours": "Tu-Sa 11:00-20:00"}, "geometry": {"type": "Point", "coordinates": [-122.335359, 47.4657198]}}, {"type": "Feature", "properties": {"id": 5658984365, "name": "Kikey's", "category": "restaurant", "tags": ["restaurant", "mexican"], "sources": ["osm"]}, "geometry": {"type": "Point", "coordinates": [-122.3342979, 47.4629442]}}, {"type": "Feature", "properties": {"id": 5658984381, "name": "The Crawfish Hut", "category": "restaurant", "tags": ["restaurant", "vietnamese", "seafood", "cajun-and-creole", "southern"], "sources": ["osm", "overture"], "website": "http://www.thecrawfishhut.com/", "phone": "+14256508216", "address": "15706 1st Ave S", "hours": "Su-Th 11:00-22:30; Fr,Sa 11:00-23:00"}, "geometry": {"type": "Point", "coordinates": [-122.3325289, 47.4622416]}}, {"type": "Feature", "properties": {"id": "32c7f397-02b8-49a0-93b1-9e764619ca19", "name": "The Comfort Zone", "category": "restaurant", "tags": ["restaurant", "southern"], "sources": ["overture"], "website": "http://www.thecomfortzonesoulfood.com", "phone": "(206) 246-2800", "address": "15304 1st Ave S"}, "geometry": {"type": "Point", "coordinates": [-122.3334274, 47.4657249]}}, {"type": "Feature", "properties": {"id": 9556620441, "name": "Vince's Italian Restaurant", "category": "restaurant", "tags": ["restaurant", "italian"], "sources": ["osm"], "hours": "Mo-Fr 15:30-24:00; Sa-Su 12:00-24:00"}, "geometry": {"type": "Point", "coordinates": [-122.3393944, 47.466058]}}, {"type": "Feature", "properties": {"id": 622586100, "name": "Round Table Pizza", "category": "restaurant", "tags": ["restaurant", "pizza", "italian"], "sources": ["osm", "overture"], "website": "http://www.roundtablepizza.com", "phone": "+12064318600", "address": "15730 1st Ave S"}, "geometry": {"type": "Point", "coordinates": [-122.3335835, 47.4616493]}}, {"type": "Feature", "properties": {"id": 10764202474, "name": "Asia Xpress", "category": "fast_food", "tags": ["fast-food", "asian"], "sources": ["osm"]}, "geometry": {"type": "Point", "coordinates": [-122.3359977, 47.4695827]}}, {"type": "Feature", "properties": {"id": 365930291, "name": "Denny's", "category": "restaurant", "tags": ["restaurant", "american"], "sources": ["osm"], "website": "https://www.dennys.com/", "phone": "+1-206-246-9197", "address": "14821 1st Avenue South", "hours": "24/7"}, "geometry": {"type": "Point", "coordinates": [-122.3342435, 47.4698749]}}, {"type": "Feature", "properties": {"id": 622586072, "name": "Arby's", "category": "fast_food", "tags": ["fast-food", "sandwich", "outdoor-seating", "takeaway", "drive-through", "fast", "food", "american"], "sources": ["osm", "overture"], "website": "https://locations.arbys.com/wa/burien/15822-first-ave-s.html", "phone": "+12062464632", "address": "15822 First Ave S", "hours": "Su-Sa 10:00-23:00"}, "geometry": {"type": "Point", "coordinates": [-122.3335361, 47.4613112]}}, {"type": "Feature", "properties": {"id": 365965079, "name": "El Habenero", "category": "restaurant", "tags": ["restaurant", "mexican"], "sources": ["osm"], "address": "14830 1st Avenue South", "hours": "Mo-Th,Su 10:00-22:00; Fr-Sa 10:00-02:00"}, "geometry": {"type": "Point", "coordinates": [-122.3334714, 47.4697795]}}, {"type": "Feature", "properties": {"id": 627317250, "name": "Azteca Mexican Restaurant", "category": "restaurant", "tags": ["restaurant", "mexican"], "sources": ["osm"], "address": "153 Southwest 157th Street"}, "geometry": {"type": "Point", "coordinates": [-122.3361898, 47.4621295]}}, {"type": "Feature", "properties": {"id": 747153438, "name": "Cafe Elite", "category": "cafe", "tags": ["cafe", "coffee-shop", "coffee"], "sources": ["osm", "overture"], "website": "http://www.cafeelite.com/", "phone": "+12064201340", "address": "14846 1st Ave S"}, "geometry": {"type": "Point", "coordinates": [-122.3334938, 47.4691704]}}, {"type": "Feature", "properties": {"id": 451977336, "name": "Southern Diner & Lounge", "category": "restaurant", "tags": ["restaurant"], "sources": ["osm"], "address": "15304 1st Avenue South"}, "geometry": {"type": "Point", "coordinates": [-122.3333858, 47.4657689]}}, {"type": "Feature", "properties": {"id": 451977352, "name": "Verona Pizza & Pasta", "category": "restaurant", "tags": ["restaurant", "italian", "pizza"], "sources": ["osm", "overture"], "website": "veronapizzapastamenu.com", "phone": "12062427000", "address": "15321 1st Ave S"}, "geometry": {"type": "Point", "coordinates": [-122.3342515, 47.4654532]}}, {"type": "Feature", "properties": {"id": 451977390, "name": "Elliott Bay Brewhouse & Pub", "category": "restaurant", "tags": ["restaurant", "outdoor-seating", "indoor-seating", "wheelchair-accessible", "microbrew", "air-conditioned"], "sources": ["osm"], "website": "https://elliottbaybrewing.com/", "phone": "+1-206-246-4211", "address": "255 Southwest 152nd Street", "hours": "Mo-Th,Su 11:00-21:00; Fr-Sa 11:00-22:00"}, "geometry": {"type": "Point", "coordinates": [-122.3388196, 47.4665469]}}, {"type": "Feature", "properties": {"id": 622586087, "name": "LadyBug Bikini Espresso", "category": "cafe", "tags": ["cafe", "coffee-shop"], "sources": ["osm"], "address": "15817 1st Avenue South"}, "geometry": {"type": "Point", "coordinates": [-122.3343034, 47.4610171]}}, {"type": "Feature", "properties": {"id": 627317247, "name": "Andy's Espresso", "category": "cafe", "tags": ["cafe", "coffee-shop"], "sources": ["osm"]}, "geometry": {"type": "Point", "coordinates": [-122.336044, 47.4602092]}}, {"type": "Feature", "properties": {"id": "c772362c-61a2-43ab-9f9c-232d03cbbd04", "name": "The Meltdown", "category": "restaurant", "tags": ["restaurant"], "sources": ["overture"], "website": "https://themeltdown.com/", "phone": "+12062469197", "address": "14821 First Ave. South"}, "geometry": {"type": "Point", "coordinates": [-122.3342285, 47.4698486]}}, {"type": "Feature", "properties": {"id": "49181ff4-2e6a-4f42-bf36-06dab10f0d48", "name": "Banda Burrito", "category": "restaurant", "tags": ["restaurant", "mexican"], "sources": ["overture"], "website": "https://www.bandaburrito.com/", "phone": "+12062469197", "address": "14821 First Ave. South"}, "geometry": {"type": "Point", "coordinates": [-122.3342285, 47.4698486]}}, {"type": "Feature", "properties": {"id": "9fdf0fb1-2d39-4f94-ae21-4aeaf12ef852", "name": "Denny's Restaurant", "category": "restaurant", "tags": ["restaurant"], "sources": ["overture"], "website": "https://www.dennys.com/", "phone": "+12062469197", "address": "14821 First Ave. South"}, "geometry": {"type": "Point", "coordinates": [-122.3342438, 47.4698715]}}, {"type": "Feature", "properties": {"id": "2d5cc153-0fab-4311-a790-0a3672c1513f", "name": "El Habanero Bar & Grill", "category": "restaurant", "tags": ["restaurant", "bar-and-grill", "bar", "grill", "latin-american", "seafood"], "sources": ["overture"], "website": "http://www.elhabaneromarket.com", "phone": "+12062443443", "address": "14830 1st Ave S"}, "geometry": {"type": "Point", "coordinates": [-122.3335495, 47.469738]}}, {"type": "Feature", "properties": {"id": "41e8c73b-d94c-4b91-aba5-bfcba0cf3213", "name": "Hong Nguyen Llc", "category": "restaurant", "tags": ["restaurant"], "sources": ["overture"], "address": "15623 1st Ave S Ste A"}, "geometry": {"type": "Point", "coordinates": [-122.3327789, 47.4693069]}}, {"type": "Feature", "properties": {"id": "fb687305-9a9b-40c8-91e4-a11afb5b9e54", "name": "Dragon Pearl Restaurant", "category": "restaurant", "tags": ["restaurant"], "sources": ["overture"], "phone": "2062460776", "address": "15304 1st Ave S"}, "geometry": {"type": "Point", "coordinates": [-122.3334579, 47.4657364]}}, {"type": "Feature", "properties": {"id": "45212eff-b1bf-424d-bb19-89503c09300e", "name": "Dukem Restaurant and Market", "category": "restaurant", "tags": ["restaurant", "ethiopian", "african"], "sources": ["overture"], "website": "http://dukemmarketsm.com", "phone": "+12064533699", "address": "215 SW 152nd St"}, "geometry": {"type": "Point", "coordinates": [-122.3373413, 47.4666443]}}, {"type": "Feature", "properties": {"id": "f108ed89-12a3-405c-b484-24d6559a10b2", "name": "Taqueria Cuautla", "category": "restaurant", "tags": ["restaurant", "mexican", "taco", "latin-american"], "sources": ["overture"], "website": "https://taqueriacuautla.com/", "phone": "+12069450941", "address": "217 SW 152nd St"}, "geometry": {"type": "Point", "coordinates": [-122.3374939, 47.4666557]}}, {"type": "Feature", "properties": {"id": "550602f5-9a4e-4da0-a9ed-c7d8a3c65c67", "name": "Taquira El Rinconsito", "category": "restaurant", "tags": ["restaurant", "mexican"], "sources": ["overture"], "website": "http://www.elrinconsito.com", "phone": "(206) 431-0663", "address": "214 SW 152nd St"}, "geometry": {"type": "Point", "coordinates": [-122.3369446, 47.4670258]}}, {"type": "Feature", "properties": {"id": "8e758377-c374-4905-a07c-372e4e833f81", "name": "La Costa", "category": "restaurant", "tags": ["restaurant", "mexican", "latin-american"], "sources": ["overture"], "website": "http://lacostaburien.com/", "phone": "+12062431797", "address": "206 SW 152nd St"}, "geometry": {"type": "Point", "coordinates": [-122.3367081, 47.4673882]}}, {"type": "Feature", "properties": {"id": "97716de3-2432-4a1f-9a20-ad0101fcabd9", "name": "Kokob Market & Restaurant", "category": "restaurant", "tags": ["restaurant"], "sources": ["overture"], "phone": "+18018644578", "address": "205 Sw 152nd St Ste 205"}, "geometry": {"type": "Point", "coordinates": [-122.3367844, 47.46661]}}, {"type": "Feature", "properties": {"id": "faeef7e2-e5c3-44b3-abcb-3ed45b1c373b", "name": "Zam Zam Cafe", "category": "cafe", "tags": ["cafe"], "sources": ["overture"], "phone": "+12064666195", "address": "205 SW 152nd St"}, "geometry": {"type": "Point", "coordinates": [-122.3367844, 47.46661]}}, {"type": "Feature", "properties": {"id": "f41ef36b-fff6-41e5-a59e-25d31085a046", "name": "Bite Sandwich Company", "category": "restaurant", "tags": ["restaurant", "sandwich"], "sources": ["overture"], "website": "http://thebitesandwichcompany.com", "phone": "(206) 241-0644", "address": "205 SW 152nd St"}, "geometry": {"type": "Point", "coordinates": [-122.3367538, 47.4665718]}}, {"type": "Feature", "properties": {"id": "80ec8979-cd0f-4aec-b87e-41149ae69d4f", "name": "Tori Sake and Grill", "category": "restaurant", "tags": ["restaurant", "japanese", "bar-and-grill", "asian"], "sources": ["overture"], "website": "http://torisakegrill.com/", "phone": "+12062481383", "address": "202 SW 153rd St"}, "geometry": {"type": "Point", "coordinates": [-122.3367462, 47.4662018]}}, {"type": "Feature", "properties": {"id": "f0a95d67-5ac5-44c4-9b4d-e4e2ae4f81dc", "name": "Pit Stop Taproom & Pub", "category": "pub", "tags": ["pub"], "sources": ["overture"], "website": "http://www.pitstoptaproom.com/", "phone": "2064208412", "address": "216 SW 153rd St"}, "geometry": {"type": "Point", "coordinates": [-122.3373032, 47.4659729]}}, {"type": "Feature", "properties": {"id": "7dbcb733-fd19-4e7f-a141-078bbc3662f0", "name": "Lowrider Cookie Company", "category": "bakery", "tags": ["bakery"], "sources": ["overture"], "website": "https://www.lowridercookiecompany.com", "phone": "(206) 829-9786", "address": "216 SW 153rd St"}, "geometry": {"type": "Point", "coordinates": [-122.3372192, 47.4662437]}}, {"type": "Feature", "properties": {"id": "ab0242ce-18cf-43a9-8274-527ecb6dd07a", "name": "Bella Luna Pizza and Pasta", "category": "restaurant", "tags": ["restaurant", "italian", "pizza"], "sources": ["overture"], "website": "http://www.bellalunapizzaandpasta.com/", "phone": "+12062443634", "address": "243 SW 153rd St"}, "geometry": {"type": "Point", "coordinates": [-122.3381882, 47.4658432]}}, {"type": "Feature", "properties": {"id": "bda058c5-9a19-4ff9-a33f-47a21a7e2d79", "name": "Burien - Bok A Bok", "category": "restaurant", "tags": ["restaurant"], "sources": ["overture"], "website": "https://www.bokabokchicken.com", "phone": "2066695976", "address": "131 SW 153rd St"}, "geometry": {"type": "Point", "coordinates": [-122.335083, 47.4656525]}}, {"type": "Feature", "properties": {"id": "7d764fe9-7c44-44c5-ba89-a7f38fce4352", "name": "Orange Bakery", "category": "bakery", "tags": ["bakery", "breakfast-and-brunch"], "sources": ["overture"], "phone": "+12068773900", "address": "131 SW 153rd St"}, "geometry": {"type": "Point", "coordinates": [-122.3351135, 47.4656525]}}, {"type": "Feature", "properties": {"id": "93adfea6-58fd-4edc-bb34-ecede87f98a0", "name": "El Mojito", "category": "restaurant", "tags": ["restaurant", "mexican"], "sources": ["overture"], "website": "http://cafemundi.com/", "phone": "+12068592776", "address": "127 SW 153rd St"}, "geometry": {"type": "Point", "coordinates": [-122.3351059, 47.4656601]}}, {"type": "Feature", "properties": {"id": "5d4388f0-4021-4917-aa81-897d6d6f722b", "name": "The Caramel Cup Coffee House", "category": "restaurant", "tags": ["restaurant"], "sources": ["overture"], "website": "http://thecaramelcup.com", "phone": "(206) 439-0879", "address": "15511 1st Ave S"}, "geometry": {"type": "Point", "coordinates": [-122.3342667, 47.4639435]}}, {"type": "Feature", "properties": {"id": "346226c4-56af-481d-8051-f5246094e58f", "name": "Short Stop Coffee Shop", "category": "restaurant", "tags": ["restaurant"], "sources": ["overture"], "address": "15511 1st Ave S"}, "geometry": {"type": "Point", "coordinates": [-122.3343201, 47.4638863]}}, {"type": "Feature", "properties": {"id": "7eee8332-1643-4c54-976b-3797834eab76", "name": "Kikey's Cafe", "category": "restaurant", "tags": ["restaurant", "mexican", "latin-american"], "sources": ["overture"], "website": "http://www.kikeysseattle.com/", "phone": "+12063974837", "address": "15607 1st Ave S #102"}, "geometry": {"type": "Point", "coordinates": [-122.3341675, 47.4629898]}}, {"type": "Feature", "properties": {"id": "2c51acf7-3d58-4dcc-9757-3293fb2b631a", "name": "Pho Vina Restaurant", "category": "restaurant", "tags": ["restaurant", "vietnamese", "asian", "noodles"], "sources": ["overture"], "website": "http://phovinaburien.com/", "phone": "+12069881899", "address": "15623 1st Ave S"}, "geometry": {"type": "Point", "coordinates": [-122.3343506, 47.4626617]}}, {"type": "Feature", "properties": {"id": "2ab866e4-f350-491a-9567-f3c0165f6f1b", "name": "1st Avenue Cafe", "category": "cafe", "tags": ["cafe"], "sources": ["overture"], "website": "http://www.firstavecafe.com", "phone": "(206) 402-4810", "address": "15607 1st Ave S"}, "geometry": {"type": "Point", "coordinates": [-122.3343582, 47.4630013]}}, {"type": "Feature", "properties": {"id": "8965ff20-cf1c-4eb2-9684-c36707340e9c", "name": "Good Time Ernie's Pub", "category": "bar", "tags": ["bar", "sports", "bar-and-grill"], "sources": ["overture"], "phone": "+12062481670", "address": "15747 Ambaum Blvd SW"}, "geometry": {"type": "Point", "coordinates": [-122.3363571, 47.4612465]}}, {"type": "Feature", "properties": {"id": "093e0772-5769-43d2-ae1b-a9e61b1b5168", "name": "Wine & Beer", "category": "bar", "tags": ["bar", "wine"], "sources": ["overture"], "website": "https://www.wineplusbeer.com", "phone": "+12064393828", "address": "15858 1st Ave S"}, "geometry": {"type": "Point", "coordinates": [-122.3325577, 47.4603653]}}, {"type": "Feature", "properties": {"id": "6e017bad-f69d-4dcc-8b81-78547fc20eb5", "name": "L&s Global Inc", "category": "restaurant", "tags": ["restaurant"], "sources": ["overture"], "address": "15858 1st Ave S # A-107"}, "geometry": {"type": "Point", "coordinates": [-122.3325577, 47.4603653]}}, {"type": "Feature", "properties": {"id": "eb27ddd1-8ca1-488c-95af-8cb68fbca9e4", "name": "Pizza Takeout & Delivery", "category": "fast_food", "tags": ["fast-food", "fast", "food"], "sources": ["overture"], "website": "https://locations.papamurphys.com/wa/burien/15858-1st-avenue-south"}, "geometry": {"type": "Point", "coordinates": [-122.3315506, 47.4604645]}}, {"type": "Feature", "properties": {"id": "286927a2-7897-445a-844b-29e952558a44", "name": "Broth and Bowls Burien", "category": "restaurant", "tags": ["restaurant", "chinese", "noodles"], "sources": ["overture"], "website": "http://www.brothandbowls.com/", "phone": "+12062571149", "address": "15720 1st Ave S"}, "geometry": {"type": "Point", "coordinates": [-122.3323135, 47.4616737]}}, {"type": "Feature", "properties": {"id": "005d9a7c-29fa-4808-887d-6314decd4ca0", "name": "Jersey Mike's", "category": "restaurant", "tags": ["restaurant", "sandwich", "fast-food"], "sources": ["overture"], "website": "https://www.jerseymikes.com/18019/burien-wa", "phone": "+12062945125", "address": "15830 First Avenue S. B-104"}, "geometry": {"type": "Point", "coordinates": [-122.3325958, 47.4611626]}}, {"type": "Feature", "properties": {"id": "5aa68d7c-e179-458f-83d4-54b1f6fd3757", "name": "Tortas Ahogadas Atemajac", "category": "restaurant", "tags": ["restaurant", "mexican", "taco", "latin-american"], "sources": ["overture"], "phone": "+14252643295", "address": "105 S 156th St"}, "geometry": {"type": "Point", "coordinates": [-122.3336029, 47.4630928]}}, {"type": "Feature", "properties": {"id": "34fc55a5-18cf-442c-80d9-de3e1aa66586", "name": "Nw School Of Karate", "category": "restaurant", "tags": ["restaurant"], "sources": ["overture"], "address": "125 S 156th St"}, "geometry": {"type": "Point", "coordinates": [-122.3321838, 47.4627533]}}, {"type": "Feature", "properties": {"id": "6ba61c21-7db4-4a1a-a23a-82b2bf651c65", "name": "Elliott Bay Brewhouse and Pub", "category": "bar", "tags": ["bar", "brewery"], "sources": ["overture"], "website": "http://www.elliottbaybrewing.com", "phone": "+12062464211", "address": "255 SW 152nd St"}, "geometry": {"type": "Point", "coordinates": [-122.3390503, 47.4666176]}}, {"type": "Feature", "properties": {"id": 5830970254, "name": "Belly of a Whale", "category": "artwork", "tags": ["artwork"], "sources": ["osm"], "website": "https://www.pillowstudios.com/", "phone": "+1-206-658-7666"}, "geometry": {"type": "Point", "coordinates": [-122.339813, 47.4673179]}}, {"type": "Feature", "properties": {"id": 9556539708, "name": "Spray Invaders", "category": "artwork", "tags": ["artwork"], "sources": ["osm"]}, "geometry": {"type": "Point", "coordinates": [-122.3396485, 47.4666841]}}, {"type": "Feature", "properties": {"id": 9556601761, "name": "Windvane Kiosk", "category": "artwork", "tags": ["artwork"], "sources": ["osm"], "website": "https://magazine.burienwa.gov/art/windvane-kiosk-by-jim-garrett"}, "geometry": {"type": "Point", "coordinates": [-122.3394143, 47.4669264]}}, {"type": "Feature", "properties": {"id": "7401b45d-7a7a-49ee-8cc4-5c9407ba65c9", "name": "The Montrose An Apartment Community", "category": "attraction", "tags": ["attraction", "landmark", "historical", "building"], "sources": ["overture"], "website": "http://www.liveatthemontrose.com", "phone": "+12062444783", "address": "220 S 152nd St"}, "geometry": {"type": "Point", "coordinates": [-122.3305206, 47.468029]}}, {"type": "Feature", "properties": {"id": "68210d05-77da-4e22-a14f-fbf3003f8bcf", "name": "Village Montrachet", "category": "attraction", "tags": ["attraction", "landmark", "historical", "building"], "sources": ["overture"], "website": "https://www.villagemontrachetapartments.org", "phone": "+12062415086", "address": "400 S 152nd St"}, "geometry": {"type": "Point", "coordinates": [-122.3307114, 47.4673615]}}, {"type": "Feature", "properties": {"id": "b0775775-4f02-4da6-b328-4e5ec427af4f", "name": "Sunwood Apartments", "category": "attraction", "tags": ["attraction", "landmark", "historical", "building"], "sources": ["overture"], "phone": "+12062424484", "address": "320 SW 160th St"}, "geometry": {"type": "Point", "coordinates": [-122.3390198, 47.4601021]}}, {"type": "Feature", "properties": {"id": "e6881f6b-af89-426e-8d69-1a53fa9dc95c", "name": "Burien Apartments", "category": "attraction", "tags": ["attraction", "landmark", "historical", "building"], "sources": ["overture"], "phone": "+12062446683", "address": "15619 4th Ave SW Ste 102"}, "geometry": {"type": "Point", "coordinates": [-122.3393936, 47.4626579]}}, {"type": "Feature", "properties": {"id": "383d53a7-256f-4411-9c18-d93d0e82a3a9", "name": "Burien Park N Ride", "category": "park", "tags": ["park"], "sources": ["overture"], "website": "http://www.burienparks.net/", "phone": "+12062445517", "address": "14900 4th Ave SW"}, "geometry": {"type": "Point", "coordinates": [-122.338028, 47.4694862]}}, {"type": "Feature", "properties": {"id": 366043178, "name": "Grocery Outlet", "category": "supermarket", "tags": ["supermarket", "wheelchair-accessible", "variety-store", "discount"], "sources": ["osm", "overture"], "website": "https://www.groceryoutlet.com/circulars/storeid/127", "phone": "+12062416005", "address": "236 Sw 152nd St", "hours": "Mo-Su 08:00-21:00"}, "geometry": {"type": "Point", "coordinates": [-122.338204, 47.4677992]}}, {"type": "Feature", "properties": {"id": 5658984392, "name": "All the Best Pet Care", "category": "pet", "tags": ["pet"], "sources": ["osm", "overture"], "website": "https://www.allthebestpetcare.com/", "phone": "+12062420060", "address": "15840 1st Ave S", "hours": "Mo-Sa 09:00-19:00; Su 10:00-19:00"}, "geometry": {"type": "Point", "coordinates": [-122.3323131, 47.4611036]}}, {"type": "Feature", "properties": {"id": 677269334, "name": "Trader Joe's", "category": "supermarket", "tags": ["supermarket", "wheelchair-accessible"], "sources": ["osm", "overture"], "website": "https://locations.traderjoes.com/wa/burien/133/", "phone": "+12069019339", "address": "15868 1st Ave S", "hours": "Mo-Su 08:00-21:00"}, "geometry": {"type": "Point", "coordinates": [-122.3313652, 47.4600951]}}, {"type": "Feature", "properties": {"id": 4641397104, "name": "Food Mart", "category": "convenience", "tags": ["convenience"], "sources": ["osm"]}, "geometry": {"type": "Point", "coordinates": [-122.3333687, 47.4630019]}}, {"type": "Feature", "properties": {"id": "1dd7666e-2048-447e-9414-3ec10e232f77", "name": "T-Mobile", "category": "mobile_phone", "tags": ["mobile-phone", "mobile"], "sources": ["overture"], "website": "https://www.t-mobile.com/store-locator/wa/burien/1st-ave-s-sw-157th-st", "phone": "(206) 243-0840", "address": "15702 1st Ave S"}, "geometry": {"type": "Point", "coordinates": [-122.332634, 47.4622955]}}, {"type": "Feature", "properties": {"id": 5374422040, "name": "PCC Community Market", "category": "supermarket", "tags": ["supermarket"], "sources": ["osm"], "website": "https://www.pccmarkets.com/stores/burien/", "phone": "+1-206-708-6908", "address": "15840 1st Avenue South", "hours": "Mo-Su 06:00-23:00"}, "geometry": {"type": "Point", "coordinates": [-122.33217, 47.4610256]}}, {"type": "Feature", "properties": {"id": "c56630ff-297f-407d-9e95-3b7319227893", "name": "Metro by T-Mobile", "category": "mobile_phone", "tags": ["mobile-phone", "mobile"], "sources": ["overture"], "website": "http://www.metrobyt-mobile.com/", "phone": "+12062465328", "address": "15815 1st Ave S"}, "geometry": {"type": "Point", "coordinates": [-122.3343887, 47.4612312]}}, {"type": "Feature", "properties": {"id": 366043177, "name": "Dollar Tree", "category": "variety_store", "tags": ["variety-store", "wheelchair-accessible", "discount"], "sources": ["osm", "overture"], "website": "https://locations.dollartree.com/wa/burien/250-sw-152nd-st", "phone": "+13602098570", "address": "250 SW 152nd St.", "hours": "08:00-21:00"}, "geometry": {"type": "Point", "coordinates": [-122.3388696, 47.4677862]}}, {"type": "Feature", "properties": {"id": 5374422032, "name": "Verizon", "category": "mobile_phone", "tags": ["mobile-phone", "mobile"], "sources": ["osm", "overture"], "website": "victra.com", "phone": "12069880300", "address": "15830 1st Ave S  Ste 101", "hours": "Mo-Fr 09:00-19:00; Sa-Su 10:00-19:00"}, "geometry": {"type": "Point", "coordinates": [-122.332995, 47.4612469]}}, {"type": "Feature", "properties": {"id": 4487821131, "name": "Cricket Wireless", "category": "mobile_phone", "tags": ["mobile-phone"], "sources": ["osm"]}, "geometry": {"type": "Point", "coordinates": [-122.3332191, 47.464055]}}, {"type": "Feature", "properties": {"id": 5658984385, "name": "Ross", "category": "department_store", "tags": ["department-store"], "sources": ["osm"], "phone": "+1-206-243-8881", "address": "15716 1st Avenue South", "hours": "Su-Th 09:00-22:00; Fr,Sa 09:00-22:30"}, "geometry": {"type": "Point", "coordinates": [-122.3319387, 47.4619435]}}, {"type": "Feature", "properties": {"id": 451977330, "name": "Rent-A-Center", "category": "furniture", "tags": ["furniture"], "sources": ["osm"], "address": "105 South 152nd Street"}, "geometry": {"type": "Point", "coordinates": [-122.333491, 47.4665175]}}, {"type": "Feature", "properties": {"id": 9556655142, "name": "Hong Kong Market", "category": "supermarket", "tags": ["supermarket", "wifi"], "sources": ["osm"], "address": "125 Southwest 148th Street", "hours": "08:00-20:00"}, "geometry": {"type": "Point", "coordinates": [-122.3360706, 47.4698222]}}, {"type": "Feature", "properties": {"id": 5374422046, "name": "Wild Birds Unlimited", "category": "pet", "tags": ["pet"], "sources": ["osm", "overture"], "website": "https://southseattle.wbu.com", "phone": "+12062413201", "address": "15858 1st Ave S", "hours": "Mo-Sa 10:00-18:00"}, "geometry": {"type": "Point", "coordinates": [-122.331617, 47.4603483]}}, {"type": "Feature", "properties": {"id": 622586078, "name": "Rocket", "category": "convenience", "tags": ["convenience"], "sources": ["osm", "overture"], "website": "https://pvrocket.com", "phone": "12062424344", "address": "15846 1st Ave S"}, "geometry": {"type": "Point", "coordinates": [-122.3334548, 47.4601146]}}, {"type": "Feature", "properties": {"id": 5374422043, "name": "Liquor & Wine", "category": "alcohol", "tags": ["alcohol"], "sources": ["osm"], "hours": "Mo-Sa 09:00-21:00; Su 09:00-20:00"}, "geometry": {"type": "Point", "coordinates": [-122.3316519, 47.4605424]}}, {"type": "Feature", "properties": {"id": 5374422042, "name": "The Recology Store", "category": "gift", "tags": ["gift"], "sources": ["osm"], "hours": "Tu-Sa 10:00-17:00"}, "geometry": {"type": "Point", "coordinates": [-122.3316546, 47.4606149]}}, {"type": "Feature", "properties": {"id": 5583694725, "name": "Video Cuautla", "category": "convenience", "tags": ["convenience"], "sources": ["osm"], "address": "221 Southwest 152nd Street"}, "geometry": {"type": "Point", "coordinates": [-122.337383, 47.4666482]}}, {"type": "Feature", "properties": {"id": 5583694729, "name": "Mafita & Manu Touch Shapewear", "category": "clothes", "tags": ["clothes"], "sources": ["osm"], "address": "225 Southwest 152nd Street"}, "geometry": {"type": "Point", "coordinates": [-122.3376733, 47.4666418]}}, {"type": "Feature", "properties": {"id": 5583694734, "name": "Burien Market", "category": "convenience", "tags": ["convenience", "supermarket"], "sources": ["osm", "overture"], "phone": "12069602304", "address": "233 SW 152nd St", "hours": "Mo-Sa 09:30-19:00; Su 09:30-18:00"}, "geometry": {"type": "Point", "coordinates": [-122.3379766, 47.4666343]}}, {"type": "Feature", "properties": {"id": 5583694736, "name": "Golden Smoke House Smoke & Vape", "category": "tobacco", "tags": ["tobacco"], "sources": ["osm"], "address": "237 Southwest 152nd Street"}, "geometry": {"type": "Point", "coordinates": [-122.3381461, 47.4666349]}}, {"type": "Feature", "properties": {"id": 5583694738, "name": "LA Dynasty Jewelers", "category": "jewelry", "tags": ["jewelry"], "sources": ["osm"], "address": "243 Southwest 152nd Street", "hours": "Tu-Sa 11:00-18:00; Su 11:00-17:00"}, "geometry": {"type": "Point", "coordinates": [-122.3384068, 47.466626]}}, {"type": "Feature", "properties": {"id": 5583694744, "name": "Micronesian Market", "category": "convenience", "tags": ["convenience", "supermarket"], "sources": ["osm", "overture"], "website": "http://www.highlinetimes.com/2013/11/26/news/she-was-homesick-so-he-opened-store", "phone": "+12065882742", "address": "228 SW 153rd St", "hours": "Mo 10:30-21:00; Tu-We 09:00-21:00; Th-Fr 10:00-21:00; Sa 08:00-20:00"}, "geometry": {"type": "Point", "coordinates": [-122.3379406, 47.4661766]}}, {"type": "Feature", "properties": {"id": 5583694745, "name": "Secret Closet", "category": "clothes", "tags": ["clothes"], "sources": ["osm"], "phone": "+1-206-244-6331", "address": "226 Southwest 153rd Street", "hours": "Tu-Sa 11:00-16:00"}, "geometry": {"type": "Point", "coordinates": [-122.3377777, 47.4661808]}}, {"type": "Feature", "properties": {"id": 5583694746, "name": "Double Dare Records", "category": "music", "tags": ["music", "gift"], "sources": ["osm", "overture"], "website": "http://doubledarerecordstore.com/", "phone": "+12066024678", "address": "222 SW 153rd St", "hours": "Tu-Sa 11:00-19:00; Su,Mo 12:00-17:00"}, "geometry": {"type": "Point", "coordinates": [-122.3376681, 47.4661839]}}, {"type": "Feature", "properties": {"id": 5583694755, "name": "Angelica's Bridal Boutique & Spa Salon", "category": "clothes", "tags": ["clothes"], "sources": ["osm"], "address": "239 Southwest 153rd Street"}, "geometry": {"type": "Point", "coordinates": [-122.3381003, 47.4657628]}}, {"type": "Feature", "properties": {"id": 5583694781, "name": "E-Z Smoke", "category": "tobacco", "tags": ["tobacco"], "sources": ["osm", "overture"], "phone": "+12065880262", "address": "218 SW 152nd St"}, "geometry": {"type": "Point", "coordinates": [-122.3369857, 47.4674269]}}, {"type": "Feature", "properties": {"id": 5583694789, "name": "El Lagarto", "category": "clothes", "tags": ["clothes"], "sources": ["osm"], "address": "127 Southwest 152nd Street"}, "geometry": {"type": "Point", "coordinates": [-122.3350684, 47.46669]}}, {"type": "Feature", "properties": {"id": 5583694865, "name": "Balkan Market", "category": "convenience", "tags": ["convenience"], "sources": ["osm"], "address": "144 Southwest 153rd Street", "hours": "Tu-Fr 10:00-17:00; Sa 10:00-18:00; Su 11:00-17:00"}, "geometry": {"type": "Point", "coordinates": [-122.3358408, 47.4662088]}}, {"type": "Feature", "properties": {"id": 5583694961, "name": "Alfurat Market", "category": "convenience", "tags": ["convenience"], "sources": ["osm"], "address": "139 Southwest 153rd Street", "hours": "Mo-Fr 10:00-22:00; Sa-Su 10:00-21:30"}, "geometry": {"type": "Point", "coordinates": [-122.3354856, 47.4657201]}}, {"type": "Feature", "properties": {"id": 5583694964, "name": "La Costinita", "category": "convenience", "tags": ["convenience"], "sources": ["osm"], "hours": "Mo-Fr 10:30-21:00; Sa 10:30-20:30; Su 10:30-20:00"}, "geometry": {"type": "Point", "coordinates": [-122.3349463, 47.4657737]}}, {"type": "Feature", "properties": {"id": 5658983962, "name": "Celeste Boutique", "category": "clothes", "tags": ["clothes"], "sources": ["osm"]}, "geometry": {"type": "Point", "coordinates": [-122.3342308, 47.4648527]}}, {"type": "Feature", "properties": {"id": 6341617516, "name": "Brotherly Furniture", "category": "furniture", "tags": ["furniture"], "sources": ["osm", "overture"], "website": "http://BrotherlyFurniture.Net/", "phone": "+12065357948", "address": "15714 1st Ave S", "hours": "Mo-Sa 10:00-20:00; Su 12:00-18:00"}, "geometry": {"type": "Point", "coordinates": [-122.33192, 47.4622277]}}, {"type": "Feature", "properties": {"id": 6341617608, "name": "Red Carpet Clothing", "category": "clothes", "tags": ["clothes"], "sources": ["osm"], "address": "213 Southwest 152nd Street"}, "geometry": {"type": "Point", "coordinates": [-122.3371649, 47.4666513]}}, {"type": "Feature", "properties": {"id": "3a806e80-78f9-4c07-8296-73790eb7db29", "name": "Page 2 Books", "category": "books", "tags": ["books"], "sources": ["overture"], "website": "http://www.page2books.com/home/", "phone": "(206) 248-7248", "address": "457 SW 4th Ave"}, "geometry": {"type": "Point", "coordinates": [-122.3335648, 47.4622116]}}, {"type": "Feature", "properties": {"id": 9556691064, "name": "Georgetown Music", "category": "music", "tags": ["music"], "sources": ["osm"], "address": "232 Southwest 153rd Street", "hours": "Tu-Sa 10:00-18:00"}, "geometry": {"type": "Point", "coordinates": [-122.3381094, 47.466176]}}, {"type": "Feature", "properties": {"id": 10815627066, "name": "The Studio", "category": "gift", "tags": ["gift"], "sources": ["osm"]}, "geometry": {"type": "Point", "coordinates": [-122.3399594, 47.4660679]}}, {"type": "Feature", "properties": {"id": 10815627091, "name": "La Tienda", "category": "convenience", "tags": ["convenience"], "sources": ["osm"]}, "geometry": {"type": "Point", "coordinates": [-122.3349048, 47.4657759]}}, {"type": "Feature", "properties": {"id": "981c0372-f992-4cc7-bf8f-bd7c1688dd27", "name": "Big Lots", "category": "department_store", "tags": ["department-store", "department"], "sources": ["overture"], "website": "https://local.biglots.com/wa/burien/4436?utm_source=bing&utm_medium=distrib&utm_campaign=bing-distrib", "phone": "2062480958", "address": "125 SW 148th St Ste B"}, "geometry": {"type": "Point", "coordinates": [-122.3358078, 47.4699745]}}, {"type": "Feature", "properties": {"id": 622586089, "name": "Jay's Mini Mart", "category": "convenience", "tags": ["convenience"], "sources": ["osm", "overture"], "phone": "+12062412147", "address": "15815 1st Ave S"}, "geometry": {"type": "Point", "coordinates": [-122.3344441, 47.4612104]}}, {"type": "Feature", "properties": {"id": "fbe50b05-b9cd-4714-8687-03836e302f26", "name": "Hong Kong Market Burien", "category": "supermarket", "tags": ["supermarket"], "sources": ["overture"], "website": "https://www.hkmstores.com/burien", "phone": "+12064203239", "address": "125 SW 148th St B"}, "geometry": {"type": "Point", "coordinates": [-122.3358612, 47.4699593]}}, {"type": "Feature", "properties": {"id": "174025bd-5ebc-4285-a188-a6f0e774e567", "name": "911 Supply", "category": "clothes", "tags": ["clothes"], "sources": ["overture"], "website": "http://www.911supply.com", "phone": "+12064025912", "address": "136 SW 152nd St"}, "geometry": {"type": "Point", "coordinates": [-122.3355255, 47.4670525]}}, {"type": "Feature", "properties": {"id": "0f840f59-4b0c-4113-9c8f-406cb1fd3ae7", "name": "Botas Exoticas El Lagarto", "category": "shoes", "tags": ["shoes", "shoe"], "sources": ["overture"], "phone": "+12062442840", "address": "127 SW 152nd St"}, "geometry": {"type": "Point", "coordinates": [-122.3351212, 47.4666977]}}, {"type": "Feature", "properties": {"id": "4f87a7d0-0da6-4184-a205-c539eae53f84", "name": "Wayne's Fruits & Vegetables", "category": "supermarket", "tags": ["supermarket"], "sources": ["overture"], "website": "http://wayneleesgrocery.com", "phone": "+12069881996", "address": "144 SW 152nd St"}, "geometry": {"type": "Point", "coordinates": [-122.3359451, 47.4673462]}}, {"type": "Feature", "properties": {"id": "78ca7f8b-3031-4b98-9260-86b9c6339621", "name": "Dynasty Collect", "category": "jewelry", "tags": ["jewelry"], "sources": ["overture"], "website": "http://ladjewelers.com", "phone": "+12064204036", "address": "243 SW 152nd St"}, "geometry": {"type": "Point", "coordinates": [-122.3383179, 47.4666977]}}, {"type": "Feature", "properties": {"id": "b7394967-6aad-441f-9b9c-e54e9b406c17", "name": "Golden Smoke House- Burien", "category": "tobacco", "tags": ["tobacco"], "sources": ["overture"], "website": "https://www.instagram.com/goldensmokehouses/", "phone": "+12067081348", "address": "15302 1st Ave S"}, "geometry": {"type": "Point", "coordinates": [-122.3382263, 47.4666595]}}, {"type": "Feature", "properties": {"id": "70c8b42a-de33-46f7-a005-bab12e09c51d", "name": "Sammy's Baby Fashion", "category": "clothes", "tags": ["clothes", "childrens"], "sources": ["overture"], "website": "http://www.eliteelvn.com/", "phone": "+12066121254", "address": "225 SW 152nd St"}, "geometry": {"type": "Point", "coordinates": [-122.3377533, 47.4666748]}}, {"type": "Feature", "properties": {"id": "63874744-c601-41cc-8675-109d50fa54e5", "name": "Elite Elvn", "category": "clothes", "tags": ["clothes", "womens"], "sources": ["overture"], "address": "225 SW 152nd St"}, "geometry": {"type": "Point", "coordinates": [-122.3377457, 47.4665947]}}, {"type": "Feature", "properties": {"id": "17e94d8a-e05e-4e14-943b-dac3f7c13111", "name": "Compramos Oro OROMEX", "category": "jewelry", "tags": ["jewelry"], "sources": ["overture"], "phone": "+12064621405", "address": "216 SW 152nd St"}, "geometry": {"type": "Point", "coordinates": [-122.3368225, 47.467144]}}, {"type": "Feature", "properties": {"id": "ebfc97f8-4e2b-4c2b-888c-cd12735e5702", "name": "Cecilia's Temple Of Groom", "category": "pet", "tags": ["pet"], "sources": ["overture"], "website": "http://www.temple-of-groom.com", "phone": "(206) 890-4433", "address": "249 SW 153rd St"}, "geometry": {"type": "Point", "coordinates": [-122.3384018, 47.4656525]}}, {"type": "Feature", "properties": {"id": "64f5e618-2d60-45d0-8e80-aefbea6b6b79", "name": "Smart Start Ignition Interlock", "category": "clothes", "tags": ["clothes"], "sources": ["overture"], "website": "https://www.smartstartinc.com/locations/ignition-interlock-washington-burien-15315-1st-ave-s-98148/?utm_source=Bing&utm_campaign=5999&utm_medium=locations_organic", "phone": "2063365344", "address": "15315 1st Ave S"}, "geometry": {"type": "Point", "coordinates": [-122.3339157, 47.4658203]}}, {"type": "Feature", "properties": {"id": "747cd3c4-d7c7-4ff2-b389-9f481eaee7cf", "name": "Sanford Design", "category": "jewelry", "tags": ["jewelry"], "sources": ["overture"], "website": "https://www.sanford-design.com/", "phone": "+12065221677", "address": "15723 1st Ave S"}, "geometry": {"type": "Point", "coordinates": [-122.3343277, 47.4616432]}}, {"type": "Feature", "properties": {"id": "d58098d1-1f9b-4f23-b14b-dc174603daab", "name": "Sherwin-Williams", "category": "hardware", "tags": ["hardware"], "sources": ["overture"], "website": "https://www.sherwin-williams.com/store-locator/paint-store/burien/wa/708553", "phone": "+12062411104", "address": "15833 1st Ave S"}, "geometry": {"type": "Point", "coordinates": [-122.334198, 47.4604721]}}, {"type": "Feature", "properties": {"id": "453a7f75-29c5-441a-85ec-e786e5c92f64", "name": "Ross Dress for Less", "category": "department_store", "tags": ["department-store", "department"], "sources": ["overture"], "website": "https://www.rossstores.com/", "phone": "+12062438881", "address": "15716 1st Ave S"}, "geometry": {"type": "Point", "coordinates": [-122.3319473, 47.461792]}}, {"type": "Feature", "properties": {"id": "534de0e3-458b-4767-a9a0-f9641363a838", "name": "Cricket Wireless Authorized Retailer", "category": "mobile_phone", "tags": ["mobile-phone", "mobile"], "sources": ["overture"], "website": "https://www.cricketwireless.com/stores/wa/burien/15500-1st-ave-s-ste-102?utm_source=Facebook&utm_medium=Organic_Search&utm_campaign=Yext_Listings", "phone": "+12065356458", "address": "15500 1st Ave S Ste 102"}, "geometry": {"type": "Point", "coordinates": [-122.3334198, 47.4640274]}}, {"type": "Feature", "properties": {"id": "d153582f-21d8-4d24-a8b5-75a8d8fd5972", "name": "El Chava Chava", "category": "supermarket", "tags": ["supermarket"], "sources": ["overture"], "website": "https://el-chava-chava.business.site", "phone": "+12069223245", "address": "401 SW Ambaum Blvd"}, "geometry": {"type": "Point", "coordinates": [-122.3395081, 47.4628105]}}, {"type": "Feature", "properties": {"id": "9888ed84-1557-4855-b45f-66e1aa2c2f86", "name": "Tienda Mi Tierra Hispana", "category": "convenience", "tags": ["convenience"], "sources": ["overture"], "phone": "+12069223245", "address": "401 SW Ambaum Blvd"}, "geometry": {"type": "Point", "coordinates": [-122.3395233, 47.4628296]}}, {"type": "Feature", "properties": {"id": 5373916781, "name": "Indigo Urgent Care", "category": "clinic", "tags": ["clinic"], "sources": ["osm"], "hours": "08:00-20:00"}, "geometry": {"type": "Point", "coordinates": [-122.3328133, 47.4600201]}}, {"type": "Feature", "properties": {"id": 5658984367, "name": "Multicare Center of Occupational Medicine", "category": "clinic", "tags": ["clinic"], "sources": ["osm"]}, "geometry": {"type": "Point", "coordinates": [-122.333217, 47.4638717]}}, {"type": "Feature", "properties": {"id": 627288356, "name": "Clinic 322", "category": "clinic", "tags": ["clinic"], "sources": ["osm"], "address": "322 Southwest 155th Street"}, "geometry": {"type": "Point", "coordinates": [-122.3388102, 47.464422]}}, {"type": "Feature", "properties": {"id": "16333928-533e-4faf-b503-6a4854cb6ecb", "name": "Bartell Drugs", "category": "pharmacy", "tags": ["pharmacy"], "sources": ["overture"], "phone": "12062421201", "address": "14901 4th Ave Sw  Ste 100"}, "geometry": {"type": "Point", "coordinates": [-122.3391571, 47.4690475]}}, {"type": "Feature", "properties": {"id": "0655b166-874b-4a96-b396-dd9ad0995164", "name": "Immediate Clinic Burien", "category": "clinic", "tags": ["clinic", "medical"], "sources": ["overture"], "website": "http://www.immediateclinic.com/burien-urgent-care", "phone": "2062422501", "address": "15870 1st Ave S Ste 2"}, "geometry": {"type": "Point", "coordinates": [-122.3338623, 47.460331]}}, {"type": "Feature", "properties": {"id": "54ec0842-6172-4bbc-91aa-be44e9fab70b", "name": "MultiCare Indigo Urgent Care", "category": "clinic", "tags": ["clinic", "medical"], "sources": ["overture"], "website": "https://www.indigohealth.com/locations/urgent-care-burien/", "phone": "+12062422501", "address": "15870 1st Ave S"}, "geometry": {"type": "Point", "coordinates": [-122.33284, 47.4600487]}}, {"type": "Feature", "properties": {"id": 366043169, "name": "Bank of America", "category": "bank", "tags": ["bank", "credit", "union"], "sources": ["osm", "overture"], "website": "https://locators.bankofamerica.com/wa/seattle/financial-centers-seattle-1145.html", "phone": "+12063582169", "address": "230 SW 152nd St"}, "geometry": {"type": "Point", "coordinates": [-122.337603, 47.4672551]}}, {"type": "Feature", "properties": {"id": "d024efa8-4c85-4a9a-a681-aae88d45425a", "name": "Umpqua Bank", "category": "bank", "tags": ["bank", "credit", "union"], "sources": ["overture"], "website": "http://umpquabank.com/locations/washington/burien/burien/", "phone": "2062436869", "address": "224 SW 152nd St"}, "geometry": {"type": "Point", "coordinates": [-122.3377228, 47.4668465]}}, {"type": "Feature", "properties": {"id": 1026334022, "name": "Burien Library", "category": "library", "tags": ["library", "wheelchair-accessible", "air-conditioned"], "sources": ["osm", "overture"], "website": "https://kcls.org/locations/1495/", "phone": "+12062433490", "address": "400 SW 152nd St", "hours": "Su 11:00-18:00; Mo,Th,Fr 10:00-18:00; Tu,We 12:00-20:00; Sa 11:00-18:00; PH off"}, "geometry": {"type": "Point", "coordinates": [-122.339451, 47.4670722]}}, {"type": "Feature", "properties": {"id": 365935368, "name": "Chase", "category": "bank", "tags": ["bank"], "sources": ["osm"], "website": "https://locator.chase.com/wa/burien/222-sw-150th-st", "phone": "+1-206-461-7045", "address": "222 Southwest 150th Street"}, "geometry": {"type": "Point", "coordinates": [-122.3369337, 47.4690114]}}, {"type": "Feature", "properties": {"id": 5583694972, "name": "Seattle Credit Union", "category": "bank", "tags": ["bank"], "sources": ["osm"], "hours": "Mo-Fr 10:00-18:00; Sa-Su 10:00-14:00"}, "geometry": {"type": "Point", "coordinates": [-122.3391393, 47.4688055]}}, {"type": "Feature", "properties": {"id": 366001608, "name": "Columbia Bank", "category": "bank", "tags": ["bank", "credit", "union"], "sources": ["osm", "overture"], "website": "https://locations.umpquabank.com/wa/burien/224-sw-152nd-st", "phone": "2062436869", "address": "224 SW 152nd St"}, "geometry": {"type": "Point", "coordinates": [-122.3369154, 47.4670619]}}, {"type": "Feature", "properties": {"id": "0340946c-3b19-4abc-bdec-4a0ffeaa3a50", "name": "Sterling Bank", "category": "bank", "tags": ["bank", "credit", "union"], "sources": ["overture"], "website": "http://www.bankwithsterling.com/", "phone": "2062436869", "address": "224 SW 152nd St"}, "geometry": {"type": "Point", "coordinates": [-122.3368759, 47.4668503]}}, {"type": "Feature", "properties": {"id": 5374422037, "name": "Freedom Fitness", "category": "fitness_centre", "tags": ["fitness-centre"], "sources": ["osm"], "hours": "Mo-Fr 06:00-20:00; Sa 08:00-12:00"}, "geometry": {"type": "Point", "coordinates": [-122.3325008, 47.4612378]}}, {"type": "Feature", "properties": {"id": 5374422041, "name": "Seattle Gymnastics Academy", "category": "fitness_centre", "tags": ["fitness-centre"], "sources": ["osm"]}, "geometry": {"type": "Point", "coordinates": [-122.3317874, 47.4607627]}}, {"type": "Feature", "properties": {"id": 5583694742, "name": "Renascent Crossfit", "category": "fitness_centre", "tags": ["fitness-centre", "fitness"], "sources": ["osm"], "website": "https://renascentathletics.com/", "address": "234 Southwest 153rd Street"}, "geometry": {"type": "Point", "coordinates": [-122.3381786, 47.4661787]}}, {"type": "Feature", "properties": {"id": 5583694778, "name": "Club de Vida Saludable", "category": "fitness_centre", "tags": ["fitness-centre"], "sources": ["osm"], "address": "202 Southwest 152nd Street"}, "geometry": {"type": "Point", "coordinates": [-122.3364446, 47.4674243]}}, {"type": "Feature", "properties": {"id": 5658984330, "name": "Self Defense Hapkido", "category": "fitness_centre", "tags": ["fitness-centre"], "sources": ["osm"]}, "geometry": {"type": "Point", "coordinates": [-122.3359287, 47.4607391]}}, {"type": "Feature", "properties": {"id": 6341617558, "name": "Aya Yoga Oasis", "category": "fitness_centre", "tags": ["fitness-centre", "yoga", "studio"], "sources": ["osm", "overture"], "website": "http://www.AyaYogaOasis.com/", "phone": "+12064765528", "address": "155 SW 152nd St"}, "geometry": {"type": "Point", "coordinates": [-122.3362438, 47.4666685]}}, {"type": "Feature", "properties": {"id": 9556691065, "name": "Limitless Studio", "category": "fitness_centre", "tags": ["fitness-centre", "yoga", "barre", "gym"], "sources": ["osm", "overture"], "website": "https://limitlessstudios.offeringtree.com/?fbclid=IwAR1kdtadXIzGu2GhnOb603jvNdDqUNcMedOex2jriQAMVTNoIGsGeIjLSaI", "address": "250 SW 153rd St Ste C"}, "geometry": {"type": "Point", "coordinates": [-122.3385521, 47.4661852]}}, {"type": "Feature", "properties": {"id": 10815627092, "name": "Benavidez Boxing", "category": "fitness_centre", "tags": ["fitness-centre"], "sources": ["osm"]}, "geometry": {"type": "Point", "coordinates": [-122.3358004, 47.465711]}}, {"type": "Feature", "properties": {"id": 173545455, "name": "Highline Club", "category": "fitness_centre", "tags": ["fitness-centre"], "sources": ["osm"], "address": "125 South 156th Street"}, "geometry": {"type": "Point", "coordinates": [-122.3321075, 47.4627795]}}, {"type": "Feature", "properties": {"id": "11fd661a-7314-49bc-b983-b5b066d6fad7", "name": "7pmfitness Studio", "category": "fitness_centre", "tags": ["fitness-centre", "gym"], "sources": ["overture"], "website": "https://7pmfitnessstudioburien.com/about", "phone": "+12065390936", "address": "15811 Ambaum Blvd SW #110"}, "geometry": {"type": "Point", "coordinates": [-122.3359528, 47.4609871]}}, {"type": "Feature", "properties": {"id": "8f99b2e5-9f6a-4680-af5a-700d8dd3c086", "name": "Fitness & Wellness Club", "category": "fitness_centre", "tags": ["fitness-centre", "gym"], "sources": ["overture"], "website": "http://unstoppablenfit.goherbalife.com", "phone": "+12066120527", "address": "202 SW 152nd St"}, "geometry": {"type": "Point", "coordinates": [-122.336586, 47.467556]}}, {"type": "Feature", "properties": {"id": "f7238bf6-2d49-488c-a94c-3802b1873fe1", "name": "Renascent Athletics", "category": "fitness_centre", "tags": ["fitness-centre", "gym"], "sources": ["overture"], "website": "http://RenascentCrossFit.com/", "phone": "+12062571718", "address": "234 SW 153rd St"}, "geometry": {"type": "Point", "coordinates": [-122.3381119, 47.4661331]}}, {"type": "Feature", "properties": {"id": "6e3f9d37-0e28-492d-9871-dd11472eb2b8", "name": "Raw Fitness Burien", "category": "fitness_centre", "tags": ["fitness-centre", "gym"], "sources": ["overture"], "website": "http://www.rawfitnessburien.com/", "phone": "+12062518635", "address": "164 SW 153rd St"}, "geometry": {"type": "Point", "coordinates": [-122.3358231, 47.4656563]}}, {"type": "Feature", "properties": {"id": "ef819d31-90d5-483c-b250-e770091537be", "name": "Joyful Motion Pilates", "category": "fitness_centre", "tags": ["fitness-centre", "pilates", "studio"], "sources": ["overture"], "website": "https://www.joyfulmotionpilates.com", "phone": "12062711769", "address": "15511 3rd Ave Sw  Ste B"}, "geometry": {"type": "Point", "coordinates": [-122.3387604, 47.4635162]}}, {"type": "Feature", "properties": {"id": "0372351f-f0ed-47eb-96ea-20e9191b222f", "name": "FreeStar Fitness", "category": "fitness_centre", "tags": ["fitness-centre", "gym"], "sources": ["overture"], "website": "https://www.freedomfitnessgym.com/", "phone": "+12062448200", "address": "15830 1st Ave S b107"}, "geometry": {"type": "Point", "coordinates": [-122.3325424, 47.4612198]}}]}