{"type": "FeatureCollection", "features": [{"type": "Feature", "properties": {"id": 6140836122, "name": "Papa Murphy's", "category": "fast_food", "tags": ["fast-food", "pizza", "takeaway", "restaurant"], "sources": ["osm", "overture"], "website": "http://www.papamurphys.com/", "phone": "+12539397163", "address": "721 M Street North East"}, "geometry": {"type": "Point", "coordinates": [-122.2146352, 47.31493]}}, {"type": "Feature", "properties": {"id": 4971892480, "name": "Trotter's Restaurant", "category": "restaurant", "tags": ["restaurant", "diner", "american", "breakfast-and-brunch"], "sources": ["osm", "overture"], "website": "http://Www.trottersfamilyrestaurant.com/", "phone": "+12538332323", "address": "825 Harvey Rd"}, "geometry": {"type": "Point", "coordinates": [-122.2152641, 47.3156665]}}, {"type": "Feature", "properties": {"id": 4971892497, "name": "Aberdeen Cafe", "category": "cafe", "tags": ["cafe"], "sources": ["osm"]}, "geometry": {"type": "Point", "coordinates": [-122.2145949, 47.3148218]}}, {"type": "Feature", "properties": {"id": 10722520557, "name": "Teriyaki Wok 4", "category": "restaurant", "tags": ["restaurant", "chinese", "japanese"], "sources": ["osm", "overture"], "website": "https://teriyaki-wok-wa-8.hub.biz/", "phone": "+12532880289", "address": "820 Harvey Rd Bc"}, "geometry": {"type": "Point", "coordinates": [-122.2145708, 47.3159992]}}, {"type": "Feature", "properties": {"id": 712341111, "name": "Espresso Stop", "category": "cafe", "tags": ["cafe", "coffee-shop", "coffee"], "sources": ["osm", "overture"], "website": "http://www.estop.coffee/", "phone": "+12533201905", "address": "810 Harvey Rd"}, "geometry": {"type": "Point", "coordinates": [-122.2138787, 47.3154773]}}, {"type": "Feature", "properties": {"id": "bc66d9f7-0c80-49de-986c-82289093432d", "name": "Pizza Takeout & Delivery", "category": "fast_food", "tags": ["fast-food", "fast", "food"], "sources": ["overture"], "website": "https://locations.papamurphys.com/wa/auburn/721-m-street-north-east"}, "geometry": {"type": "Point", "coordinates": [-122.2147293, 47.3149872]}}, {"type": "Feature", "properties": {"id": "5c312758-f53d-42e7-8005-c4b4b5dd967b", "name": "Huntington Apartments", "category": "attraction", "tags": ["attraction", "landmark", "historical", "building"], "sources": ["overture"], "website": "https://neiders.com/properties/huntington-apartments/", "phone": "+12539931661", "address": "1214 Harvey Rd NE"}, "geometry": {"type": "Point", "coordinates": [-122.218605, 47.3192062]}}, {"type": "Feature", "properties": {"id": "655ce373-be47-4aed-9d04-3b134ee4a63d", "name": "ReNew Lea Hill", "category": "attraction", "tags": ["attraction", "landmark", "historical", "building"], "sources": ["overture"], "website": "http://www.renewleahill.com/", "phone": "+18884909728", "address": "1433 8th St NE"}, "geometry": {"type": "Point", "coordinates": [-122.2105408, 47.3159294]}}, {"type": "Feature", "properties": {"id": "247e1641-b273-4dfd-9c18-e7fad46bf44c", "name": "Alder Landing Apartments", "category": "attraction", "tags": ["attraction", "landmark", "historical", "building"], "sources": ["overture"], "website": "https://neiders.com/properties/alder-landing-apartments/", "phone": "+12533524802", "address": "621 I St NE"}, "geometry": {"type": "Point", "coordinates": [-122.2185745, 47.3144417]}}, {"type": "Feature", "properties": {"id": 25739543, "name": "Indian Tom Park", "category": "park", "tags": ["park"], "sources": ["osm", "overture"], "website": "http://www.auburnwa.gov/things_to_do/parks_trails/indian_tom_park.htm", "phone": "+12539313000", "address": "1300 6th St NE"}, "geometry": {"type": "Point", "coordinates": [-122.211474, 47.3132571]}}, {"type": "Feature", "properties": {"id": 25739563, "name": "Scootie Brown Park", "category": "park", "tags": ["park"], "sources": ["osm", "overture"], "website": "http://www.auburnwa.gov/things_to_do/parks_trails/scootie_brown.htm", "phone": "+12539313043", "address": "Pike St NE"}, "geometry": {"type": "Point", "coordinates": [-122.2101299, 47.3146765]}}, {"type": "Feature", "properties": {"id": 25739594, "name": "Frank Fulmer Park", "category": "park", "tags": ["park"], "sources": ["osm"], "website": "https://www.auburnwa.gov/city_hall/parks_arts_recreation/parks_trails/fulmer"}, "geometry": {"type": "Point", "coordinates": [-122.2151047, 47.3130259]}}, {"type": "Feature", "properties": {"id": "be982970-1bef-456f-8a53-39cb44e572c1", "name": "Falmer Field", "category": "park", "tags": ["park"], "sources": ["overture"], "website": "http://www.auburnwa.gov/things_to_do/parks_trails/fulmer.htm", "address": "1107 5th St NE"}, "geometry": {"type": "Point", "coordinates": [-122.214859, 47.3126755]}}, {"type": "Feature", "properties": {"id": 85883927, "name": "7-Eleven", "category": "convenience", "tags": ["convenience"], "sources": ["osm", "overture"], "website": "https://www.7-eleven.com/", "phone": "+12534241740", "address": "1302 8th St NE", "hours": "24/7"}, "geometry": {"type": "Point", "coordinates": [-122.2132847, 47.3148713]}}, {"type": "Feature", "properties": {"id": 519136850, "name": "Food Mart", "category": "convenience", "tags": ["convenience"], "sources": ["osm"], "address": "810 Harvey Road Northeast"}, "geometry": {"type": "Point", "coordinates": [-122.2139874, 47.3156233]}}, {"type": "Feature", "properties": {"id": 4971892459, "name": "Colortronics", "category": "electronics", "tags": ["electronics"], "sources": ["osm"]}, "geometry": {"type": "Point", "coordinates": [-122.215177, 47.3163929]}}, {"type": "Feature", "properties": {"id": "2c16c1ec-3527-4c9c-aaf1-f080bbf7ab93", "name": "Royal Family Wds Inc", "category": "supermarket", "tags": ["supermarket"], "sources": ["overture"], "address": "1302 8th St NE"}, "geometry": {"type": "Point", "coordinates": [-122.2133026, 47.3148727]}}, {"type": "Feature", "properties": {"id": "19abd28a-7819-4951-92cd-925e9ebb37a0", "name": "Auburn Washington Family History Center", "category": "library", "tags": ["library"], "sources": ["overture"], "phone": "+12537352009", "address": "625 M St NE"}, "geometry": {"type": "Point", "coordinates": [-122.2139969, 47.3141747]}}, {"type": "Feature", "properties": {"id": 4971892478, "name": "Summit Fitness", "category": "fitness_centre", "tags": ["fitness-centre", "gym"], "sources": ["osm", "overture"], "website": "http://teamsummitfitness.com", "phone": "(253) 737-5259", "address": "905 Harvey Rd NE"}, "geometry": {"type": "Point", "coordinates": [-122.2155941, 47.3159074]}}]}