{"type": "FeatureCollection", "features": [{"type": "Feature", "properties": {"id": 526585052, "name": "Subway", "category": "fast_food", "tags": ["fast-food", "sandwich", "takeaway", "restaurant"], "sources": ["osm", "overture"], "website": "https://restaurants.subway.com/united-states/wa/lynnwood/2412-196th-street-sw", "phone": "+14256407171", "address": "2412 196th Street SW", "hours": "Mo-Fr 07:00-23:00; Sa 08:00-22:00; Su 09:00-21:00"}, "geometry": {"type": "Point", "coordinates": [-122.2662421, 47.8205315]}}, {"type": "Feature", "properties": {"id": 7134409959, "name": "Domino's", "category": "fast_food", "tags": ["fast-food", "pizza", "takeaway", "restaurant"], "sources": ["osm", "overture"], "website": "https://www.dominos.com/en/?utm_source=google&utm_medium=loclist&utm_campaign=localmaps", "phone": "+14257440303", "address": "2027 196th St Sw Ste R", "hours": "Mo-Th 10:30-24:00; Fr-Sa 10:30-01:00; Su 10:30-24:00"}, "geometry": {"type": "Point", "coordinates": [-122.2606969, 47.8209649]}}, {"type": "Feature", "properties": {"id": 650777853, "name": "Starbucks", "category": "cafe", "tags": ["cafe", "coffee-shop", "takeaway", "coffee"], "sources": ["osm", "overture"], "website": "https://www.starbucks.com/store-locator/store/1038524/alderwood-mall-pkwy-beech-rd-18801-alderwood-mall-pkwy-lynnwood-wa-980378006-us", "phone": "+14256979769", "address": "18801 Alderwood Mall Pkwy"}, "geometry": {"type": "Point", "coordinates": [-122.2679525, 47.8284898]}}, {"type": "Feature", "properties": {"id": 331549782, "name": "McDonald's", "category": "fast_food", "tags": ["fast-food", "burger", "takeaway", "drive-through", "wifi", "fast", "food"], "sources": ["osm", "overture"], "website": "https://www.mcdonalds.com/us/en-us/location/wa/lynnwood/2608-196th-st-sw/22654.html?cid=RF%3AYXT%3ARoN%3A%3AClicks%3Fcid%3DRF%3AYXT%3AFB%3A%3AClicks", "phone": "+14256405400", "address": "2608 196th St Sw", "hours": "07:00-19:00"}, "geometry": {"type": "Point", "coordinates": [-122.2686181, 47.8203582]}}, {"type": "Feature", "properties": {"id": 1283099015, "name": "Shake Shack", "category": "fast_food", "tags": ["fast-food", "burger", "takeaway", "restaurant", "american"], "sources": ["osm", "overture"], "website": "https://shakeshack.com/location/alderwood-WA?utm_source=facebook&utm_medium=listing", "phone": "+14254754793", "address": "18800 Alderwood Mall Parkway"}, "geometry": {"type": "Point", "coordinates": [-122.2691408, 47.8286208]}}, {"type": "Feature", "properties": {"id": 7134409967, "name": "Teriyaki Time", "category": "restaurant", "tags": ["restaurant", "teriyaki"], "sources": ["osm"]}, "geometry": {"type": "Point", "coordinates": [-122.2619461, 47.8210465]}}, {"type": "Feature", "properties": {"id": 11903087366, "name": "Dave & Buster's", "category": "restaurant", "tags": ["restaurant", "american"], "sources": ["osm"], "phone": "+1-425-412-9250", "address": "18606 Alderwood Mall Parkway"}, "geometry": {"type": "Point", "coordinates": [-122.2697503, 47.8294928]}}, {"type": "Feature", "properties": {"id": 425815930, "name": "The Old Spaghetti Factory", "category": "restaurant", "tags": ["restaurant", "italian", "theme"], "sources": ["osm", "overture"], "website": "http://www.osf.com/location/lynnwood-wa/", "phone": "+14256727006", "address": "2509 196th St SW"}, "geometry": {"type": "Point", "coordinates": [-122.2673721, 47.8211907]}}, {"type": "Feature", "properties": {"id": "999ee1a7-f630-422c-9bee-63de2985e7c1", "name": "Finale's Gourmet Desserts", "category": "bakery", "tags": ["bakery"], "sources": ["overture"], "website": "http://www.finalesgourmetdesserts.com/", "phone": "+14257788094", "address": "2125 196th St SW"}, "geometry": {"type": "Point", "coordinates": [-122.263031, 47.8227463]}}, {"type": "Feature", "properties": {"id": "460662f3-36b3-4679-ab2a-57c36b752d8a", "name": "Taqueria Pollo Asado 3", "category": "restaurant", "tags": ["restaurant", "mexican", "texmex"], "sources": ["overture"], "website": "http://taquerialascomadres.com", "phone": "+14253611871", "address": "2121 196th St SW"}, "geometry": {"type": "Point", "coordinates": [-122.2625504, 47.821167]}}, {"type": "Feature", "properties": {"id": "00745105-746a-48db-9118-ffc14aefbfba", "name": "Teriyaki Time Lynnwood", "category": "restaurant", "tags": ["restaurant", "japanese", "asian"], "sources": ["overture"], "website": "http://teriyakitime.com", "phone": "+14257789019", "address": "2109 196th St SW #102"}, "geometry": {"type": "Point", "coordinates": [-122.2618027, 47.8209686]}}, {"type": "Feature", "properties": {"id": "525a779e-86ae-4700-bd76-64a570667e41", "name": "Sugar Shack", "category": "restaurant", "tags": ["restaurant", "breakfast-and-brunch", "breakfast", "brunch"], "sources": ["overture"], "website": "http://sugarshack.com", "phone": "(425) 670-9733", "address": "2002 196th St SW"}, "geometry": {"type": "Point", "coordinates": [-122.2609634, 47.8200836]}}, {"type": "Feature", "properties": {"id": "701efc6d-bc55-4f83-b65b-0e246811076c", "name": "Omar's Taqueria #3", "category": "restaurant", "tags": ["restaurant", "mexican"], "sources": ["overture"], "phone": "14255343401", "address": "2002 196th St Sw  Ste A"}, "geometry": {"type": "Point", "coordinates": [-122.2609253, 47.8201218]}}, {"type": "Feature", "properties": {"id": 530750410, "name": "Holiday Inn Express", "category": "hotel", "tags": ["hotel", "wifi"], "sources": ["osm"], "address": "2515 196th Street Southwest"}, "geometry": {"type": "Point", "coordinates": [-122.2677709, 47.8222002]}}, {"type": "Feature", "properties": {"id": "081ad7a9-cfd7-4124-9360-b71251816aa1", "name": "Holiday Inn Express & Suites Seattle North - Lynnwood", "category": "hotel", "tags": ["hotel"], "sources": ["overture"], "website": "https://www.ihg.com/holidayinnexpress/hotels/us/en/lynnwood/sealy/hoteldetail?cm_mmc=FacebookMaps-_-EX-_-US-_-SEALY", "phone": "+14256721234", "address": "2515 196th St SW"}, "geometry": {"type": "Point", "coordinates": [-122.2678223, 47.8222313]}}, {"type": "Feature", "properties": {"id": 526585055, "name": "7-Eleven", "category": "convenience", "tags": ["convenience"], "sources": ["osm", "overture"], "website": "https://www.7-eleven.com/locations/wa/lynnwood/2412-196th-st-36687", "phone": "4256408525", "address": "2412 196th St SW"}, "geometry": {"type": "Point", "coordinates": [-122.2660413, 47.8205239]}}, {"type": "Feature", "properties": {"id": 351011124, "name": "Best Buy", "category": "electronics", "tags": ["electronics"], "sources": ["osm"], "website": "https://stores.bestbuy.com/wa/lynnwood/19225-alderwood-mall-pkwy-477.html", "phone": "+1-425-670-2670", "address": "19225 Alderwood Mall Parkway"}, "geometry": {"type": "Point", "coordinates": [-122.2694829, 47.8236574]}}, {"type": "Feature", "properties": {"id": 6595088780, "name": "Barnes & Noble", "category": "books", "tags": ["books", "wifi"], "sources": ["osm", "overture"], "website": "http://www.barnesandnoble.com/", "phone": "+14257712220", "address": "19401 Alderwood Mall Pkwy", "hours": "Mo-Sa 09:00-21:00; Su 10:00-19:00"}, "geometry": {"type": "Point", "coordinates": [-122.2699469, 47.8214917]}}, {"type": "Feature", "properties": {"id": 6595088778, "name": "Old Navy", "category": "clothes", "tags": ["clothes"], "sources": ["osm", "overture"], "website": "https://oldnavy.gap.com/products/lynnwood-wa-store-5912.jsp", "phone": "+14256542395", "address": "19401 Alderwood Mall Pkwy"}, "geometry": {"type": "Point", "coordinates": [-122.2699033, 47.8220798]}}, {"type": "Feature", "properties": {"id": "3944c417-5144-4d22-9880-d2bc436a4e08", "name": "Just Food For Dogs", "category": "pet", "tags": ["pet"], "sources": ["overture"], "website": "https://justfoodfordogs.com", "phone": "14256737060", "address": "2617 196th St Sw  Ste 141"}, "geometry": {"type": "Point", "coordinates": [-122.2690887, 47.8213615]}}, {"type": "Feature", "properties": {"id": 13456426513, "name": "Petco", "category": "pet", "tags": ["pet"], "sources": ["osm", "overture"], "website": "https://sleekly-practical-cougar.pgsdemo.com/wa/lynnwood/pet-supplies-lynnwood-wa-276.html", "phone": "+14256737060", "address": "2617 196th St SW Ste 141", "hours": "Mo-Sa 09:00-21:00; Su 10:00-19:00"}, "geometry": {"type": "Point", "coordinates": [-122.2690805, 47.8214308]}}, {"type": "Feature", "properties": {"id": "28962ecd-404e-44d8-89e5-2dcf5d5bea44", "name": "DSW", "category": "shoes", "tags": ["shoes", "shoe"], "sources": ["overture"], "website": "https://stores.dsw.com/usa/wa/lynnwood/dsw-designer-shoe-warehouse-alderwood-parkway-plaza.html?y_source=1_MTY1MTY0OS01NTktbG9jYXRpb24ud2Vic2l0ZQ%3D%3D", "phone": "+14256739080", "address": "19225 Alderwood Mall Pkwy"}, "geometry": {"type": "Point", "coordinates": [-122.2698746, 47.8240776]}}, {"type": "Feature", "properties": {"id": 6595088779, "name": "Ulta Beauty", "category": "cosmetics", "tags": ["cosmetics"], "sources": ["osm"], "website": "https://www.ulta.com/stores/lynnwood-wa-180", "phone": "+1-425-673-0405", "address": "19401 Alderwood Mall Parkway", "hours": "Mo-We 10:00-20:00; Th-Sa 10:00-21:00; Su 11:00-18:00"}, "geometry": {"type": "Point", "coordinates": [-122.2699469, 47.8218243]}}, {"type": "Feature", "properties": {"id": "f7eef6d1-f76e-4968-be25-fda01344df8b", "name": "Famous Footwear", "category": "shoes", "tags": ["shoes", "shoe"], "sources": ["overture"], "website": "http://www.famousfootwear.com?partnerid=fs_profile", "phone": "(425) 712-3606", "address": "19225 Alderwood Mall Pkwy"}, "geometry": {"type": "Point", "coordinates": [-122.2699051, 47.8241005]}}, {"type": "Feature", "properties": {"id": 5384375934, "name": "La-Z-Boy", "category": "furniture", "tags": ["furniture"], "sources": ["osm"], "address": "2518 196th Street Southwest"}, "geometry": {"type": "Point", "coordinates": [-122.2679064, 47.8204211]}}, {"type": "Feature", "properties": {"id": 12525255601, "name": "Ethan Allen", "category": "furniture", "tags": ["furniture"], "sources": ["osm", "overture"], "website": "https://www.ethanallen.com/en_US/store-details?StoreID=486", "phone": "+14256407032", "address": "2617 196th St SW", "hours": "Mo-Sa 10:00-18:00; Su 11:00-17:00"}, "geometry": {"type": "Point", "coordinates": [-122.2687719, 47.8214337]}}, {"type": "Feature", "properties": {"id": 6595088777, "name": "J. Crew Factory", "category": "clothes", "tags": ["clothes"], "sources": ["osm"], "website": "https://factory.jcrew.com/", "address": "19401 Alderwood Mall Parkway", "hours": "Su 10:00-19:00; Mo-Sa 10:00-20:00"}, "geometry": {"type": "Point", "coordinates": [-122.2697803, 47.8223786]}}, {"type": "Feature", "properties": {"id": 13968026487, "name": "Five Below", "category": "variety_store", "tags": ["variety-store", "discount"], "sources": ["osm", "overture"], "website": "http://fivebelow.com", "phone": "+1-425-419-1508", "address": "2617 196th St SW", "hours": "Mo-Sa 09:30-21:30; Su 10:00-20:00"}, "geometry": {"type": "Point", "coordinates": [-122.2693546, 47.8214308]}}, {"type": "Feature", "properties": {"id": 608697335, "name": "Pacific Plumbing Supply", "category": "hardware", "tags": ["hardware"], "sources": ["osm"]}, "geometry": {"type": "Point", "coordinates": [-122.2630462, 47.8211319]}}, {"type": "Feature", "properties": {"id": "b5db5069-956d-412c-a901-cc1eddc2c12e", "name": "Sears", "category": "department_store", "tags": ["department-store", "department"], "sources": ["overture"], "website": "http://www.sears.com/stores/washington/lynnwood/0001109.html", "phone": "4257712212", "address": "18600 Alderwood Mall Pkwy"}, "geometry": {"type": "Point", "coordinates": [-122.2696609, 47.8291817]}}, {"type": "Feature", "properties": {"id": "3f12b5f8-d7f4-42f3-b947-672ba25983b1", "name": "Pier 1 Imports", "category": "furniture", "tags": ["furniture"], "sources": ["overture"], "website": "https://www.pier1.com/on/demandware.store/Sites-pier1_us-Site/default/LocalStore?s_cid=lsl0000001&storeId=0220", "phone": "(425) 776-4218", "address": "2617 196th St SW Ste A"}, "geometry": {"type": "Point", "coordinates": [-122.2692947, 47.8213768]}}, {"type": "Feature", "properties": {"id": "2772d4c2-cd64-4dd8-9124-5fa825265cf7", "name": "Lands' End", "category": "clothes", "tags": ["clothes"], "sources": ["overture"], "website": "http://www.landsend.com/", "phone": "4256706235", "address": "18600 Alderwood Mall Pkwy"}, "geometry": {"type": "Point", "coordinates": [-122.2695541, 47.8294411]}}, {"type": "Feature", "properties": {"id": "0395b963-8d84-4461-9b63-39471b0b7aad", "name": "KL Laminates", "category": "doityourself", "tags": ["doityourself", "home", "improvement"], "sources": ["overture"], "website": "http://krauselaminates.com/", "phone": "+12067301720", "address": "2125 196th St SW Suite 116"}, "geometry": {"type": "Point", "coordinates": [-122.2630463, 47.8225861]}}, {"type": "Feature", "properties": {"id": "6a57693a-a925-4799-853c-4ec16b4590c5", "name": "Pottery Land", "category": "hardware", "tags": ["hardware"], "sources": ["overture"], "website": "http://www.potterylandwa.com", "phone": "(425) 322-8052"}, "geometry": {"type": "Point", "coordinates": [-122.2645645, 47.8210564]}}, {"type": "Feature", "properties": {"id": "a253ec15-47da-4e0a-8190-6c2b08f7be32", "name": "Shah's Deli and Mart", "category": "deli", "tags": ["deli", "delicatessen"], "sources": ["overture"], "phone": "+14253611110", "address": "2412 196th St SW"}, "geometry": {"type": "Point", "coordinates": [-122.2660294, 47.820507]}}, {"type": "Feature", "properties": {"id": "b3b3ced1-1b5c-4459-96e3-e3a16d084849", "name": "Sealant Specialists", "category": "doityourself", "tags": ["doityourself", "building", "supply"], "sources": ["overture"], "website": "https://www.jlasupply.com", "phone": "+14255994000", "address": "2027 196th St SW"}, "geometry": {"type": "Point", "coordinates": [-122.2610245, 47.8215179]}}, {"type": "Feature", "properties": {"id": "e6205eb3-3d2a-4ba6-8abc-a4a40d703589", "name": "All Star Market", "category": "supermarket", "tags": ["supermarket"], "sources": ["overture"], "website": "pepperoniexpresspizzeria.com", "address": "2121 196th St SW"}, "geometry": {"type": "Point", "coordinates": [-122.2625885, 47.8210411]}}, {"type": "Feature", "properties": {"id": "f0a3d6aa-dc7b-4e4a-b1c5-4cd94eec12f3", "name": "Bartell Drugs", "category": "pharmacy", "tags": ["pharmacy"], "sources": ["overture"], "phone": "14256737068", "address": "2518 196th St SW"}, "geometry": {"type": "Point", "coordinates": [-122.2676544, 47.8202705]}}, {"type": "Feature", "properties": {"id": "7ce76536-d6e0-4e92-b072-ebc7d3940d6a", "name": "Ryann Building", "category": "clinic", "tags": ["clinic", "medical"], "sources": ["overture"], "website": "https://datdental.com", "phone": "14257784445", "address": "2322 196th St SW"}, "geometry": {"type": "Point", "coordinates": [-122.2651749, 47.8203926]}}, {"type": "Feature", "properties": {"id": 5384375933, "name": "Wells Fargo", "category": "bank", "tags": ["bank", "credit", "union"], "sources": ["osm", "overture"], "website": "http://www.wellsfargo.com", "phone": "+14257742155", "address": "2628 196th St SW"}, "geometry": {"type": "Point", "coordinates": [-122.2693964, 47.8204511]}}, {"type": "Feature", "properties": {"id": 5384375935, "name": "Sound Credit Union", "category": "bank", "tags": ["bank"], "sources": ["osm"]}, "geometry": {"type": "Point", "coordinates": [-122.266767, 47.8202907]}}, {"type": "Feature", "properties": {"id": 7134409964, "name": "Jekel Strength Club", "category": "fitness_centre", "tags": ["fitness-centre"], "sources": ["osm"]}, "geometry": {"type": "Point", "coordinates": [-122.2611825, 47.8209712]}}, {"type": "Feature", "properties": {"id": "8f2af782-aec2-4c31-80de-f3d1e45dda0a", "name": "Per Bellum Weightlifting Club", "category": "fitness_centre", "tags": ["fitness-centre", "gym"], "sources": ["overture"], "website": "http://perbellumweightlifting.blogspot.com/", "phone": "+13603334591", "address": "2031 196th St SW"}, "geometry": {"type": "Point", "coordinates": [-122.2610321, 47.8220291]}}, {"type": "Feature", "properties": {"id": "dbe92fed-6207-47c9-ac2a-3e626b1623ae", "name": "D2i Fitness", "category": "fitness_centre", "tags": ["fitness-centre", "fitness", "trainer"], "sources": ["overture"], "website": "http://d2ifitness.com", "phone": "14258797010", "address": "2031 196th St Sw  Ste B101"}, "geometry": {"type": "Point", "coordinates": [-122.2610397, 47.8220253]}}, {"type": "Feature", "properties": {"id": "d35488fa-a348-491f-8656-10a9b42840e0", "name": "Washington Baseball Instruction", "category": "fitness_centre", "tags": ["fitness-centre", "fitness", "trainer"], "sources": ["overture"], "website": "http://www.WBIsports.net/", "phone": "+14254221769", "address": "2027 196th St SW"}, "geometry": {"type": "Point", "coordinates": [-122.2610092, 47.8211861]}}, {"type": "Feature", "properties": {"id": "0c54289b-a1bc-4f4c-b0fe-deb44f1b6107", "name": "Lynnwood CrossFit Local's Gym", "category": "fitness_centre", "tags": ["fitness-centre", "gym"], "sources": ["overture"], "website": "http://www.localsgym.com/", "address": "2031 196th St SW"}, "geometry": {"type": "Point", "coordinates": [-122.2612457, 47.8217926]}}]}