{"type": "FeatureCollection", "features": [{"type": "Feature", "properties": {"id": "b2c95cff-bfa8-403d-ab96-58574de2b469", "name": "Van Dorens Landing Park", "category": "park", "tags": ["park"], "sources": ["overture"], "phone": "(253) 856-5000"}, "geometry": {"type": "Point", "coordinates": [-122.2652435, 47.4040184]}}, {"type": "Feature", "properties": {"id": "87c03b34-7d18-4c3d-a6b3-5d6fd493b2d9", "name": "Green River Natural Resources Area", "category": "park", "tags": ["park"], "sources": ["overture"]}, "geometry": {"type": "Point", "coordinates": [-122.2697296, 47.4094009]}}, {"type": "Feature", "properties": {"id": "939986df-9691-4d8c-b9dc-82c8c6ef2734", "name": "Washington Shoe Company", "category": "shoes", "tags": ["shoes", "shoe"], "sources": ["overture"], "website": "http://www.washingtonshoe.com", "phone": "+12532343000", "address": "5530 S 226th St"}, "geometry": {"type": "Point", "coordinates": [-122.2651443, 47.4003868]}}]}