{"type": "FeatureCollection", "features": [{"type": "Feature", "properties": {"id": 706235949, "name": "Greystone Community Park", "category": "park", "tags": ["park"], "sources": ["osm"]}, "geometry": {"type": "Point", "coordinates": [-122.1257636, 47.7074087]}}, {"type": "Feature", "properties": {"id": 706235950, "name": "Greystone Community Park", "category": "park", "tags": ["park", "wheelchair-accessible"], "sources": ["osm"]}, "geometry": {"type": "Point", "coordinates": [-122.1245982, 47.7057005]}}, {"type": "Feature", "properties": {"id": 706235951, "name": "Greystone Community Park", "category": "park", "tags": ["park", "wheelchair-accessible"], "sources": ["osm"], "address": "159th Avenue Northeast"}, "geometry": {"type": "Point", "coordinates": [-122.1260984, 47.7057217]}}, {"type": "Feature", "properties": {"id": 706237975, "name": "Kensington Community Park", "category": "park", "tags": ["park"], "sources": ["osm"], "address": "15847 Northeast 117th Street"}, "geometry": {"type": "Point", "coordinates": [-122.1276591, 47.7042677]}}, {"type": "Feature", "properties": {"id": "f76d30f1-1f28-4886-9c46-936f1f643b5d", "name": "Audubon Bird Loop At Marymoor Park", "category": "park", "tags": ["park"], "sources": ["overture"], "website": "http://eastsideaudubon.org/conservation/audubon-birdloop-at-marymoor-park"}, "geometry": {"type": "Point", "coordinates": [-122.1202621, 47.7082939]}}]}