{"type": "FeatureCollection", "features": [{"type": "Feature", "properties": {"id": 3708689888, "name": "Subway", "category": "fast_food", "tags": ["fast-food", "sandwich", "takeaway", "restaurant"], "sources": ["osm", "overture"], "website": "https://restaurants.subway.com/united-states/wa/renton/1250-sw-43rd-st", "phone": "+14256569181", "address": "1250 SW 43rd St Suite E", "hours": "Mo-Fr 07:00-22:00; Sa 10:00-20:00; Su 10:00-19:00"}, "geometry": {"type": "Point", "coordinates": [-122.2340765, 47.4418587]}}, {"type": "Feature", "properties": {"id": "102dd329-8b64-421d-a802-c11823cbb96e", "name": "Asia Ginger Teriyaki", "category": "restaurant", "tags": ["restaurant", "asian"], "sources": ["overture"], "website": "https://asiagingerteriyaki.netwaiter.com/renton/about", "phone": "(425) 251-8855", "address": "1250 SW 43rd St Ste C"}, "geometry": {"type": "Point", "coordinates": [-122.2341995, 47.4416885]}}, {"type": "Feature", "properties": {"id": 3691557424, "name": "Masthi Indian Cuisine", "category": "restaurant", "tags": ["restaurant", "indian"], "sources": ["osm"]}, "geometry": {"type": "Point", "coordinates": [-122.2340778, 47.4415383]}}, {"type": "Feature", "properties": {"id": 3786512590, "name": "Yummy Kitchen", "category": "restaurant", "tags": ["restaurant", "asian", "hawaiian", "korean"], "sources": ["osm", "overture"], "website": "https://yummykitchen.menu11.com", "phone": "+14252518855", "address": "1250 SW 43rd St", "hours": "Mo-Fr 10:00-20:30; Sa 11:00-20:00"}, "geometry": {"type": "Point", "coordinates": [-122.2340786, 47.4417029]}}, {"type": "Feature", "properties": {"id": 3894636871, "name": "Momo's Kebabs", "category": "restaurant", "tags": ["restaurant"], "sources": ["osm"]}, "geometry": {"type": "Point", "coordinates": [-122.2340755, 47.4417784]}}, {"type": "Feature", "properties": {"id": 4299256589, "name": "Royale Cafe & Bakery", "category": "cafe", "tags": ["cafe"], "sources": ["osm"]}, "geometry": {"type": "Point", "coordinates": [-122.2360791, 47.4415415]}}, {"type": "Feature", "properties": {"id": 6695459761, "name": "Chestnut Cafe", "category": "restaurant", "tags": ["restaurant"], "sources": ["osm"], "address": "8009 South 180th Street", "hours": "Mo-Fr 07:30-15:30"}, "geometry": {"type": "Point", "coordinates": [-122.2320298, 47.440763]}}, {"type": "Feature", "properties": {"id": "798c5b4e-6862-46fe-a675-cba37bd0c5ec", "name": "Pizza Addict", "category": "restaurant", "tags": ["restaurant", "pizza"], "sources": ["overture"], "website": "http://pizza-addict.com", "phone": "(253) 246-2192", "address": "1250 SW 43rd St, Suit D2"}, "geometry": {"type": "Point", "coordinates": [-122.23423, 47.4416733]}}, {"type": "Feature", "properties": {"id": "f14c4e05-661d-4b7b-93ee-1d867a0873a9", "name": "Shaw Asset Protection And Logistics", "category": "restaurant", "tags": ["restaurant"], "sources": ["overture"], "address": "4051 Oakesdale Ave SW"}, "geometry": {"type": "Point", "coordinates": [-122.237999, 47.4438896]}}, {"type": "Feature", "properties": {"id": "21bac326-da28-4673-a9dc-0980085fcb13", "name": "Chestnut Cafe Kent", "category": "restaurant", "tags": ["restaurant", "sandwich"], "sources": ["overture"], "website": "https://chestnutcafe1.netwaiter.com", "phone": "+14252515380", "address": "8009 S 180th St"}, "geometry": {"type": "Point", "coordinates": [-122.2320251, 47.4408073]}}, {"type": "Feature", "properties": {"id": "f94a4896-bcf5-4896-8f04-9ab7a0aca430", "name": "Craving Thai Llc", "category": "restaurant", "tags": ["restaurant"], "sources": ["overture"], "website": "https://www.cravingthaikauai.com", "address": "1250 Sw 43rd St Ste A"}, "geometry": {"type": "Point", "coordinates": [-122.2340546, 47.4416199]}}, {"type": "Feature", "properties": {"id": "039b5d77-ebc0-4ca5-8a69-2d06febf9880", "name": "Candice's Ph\u1edf Grill", "category": "cafe", "tags": ["cafe", "coffee", "vietnamese"], "sources": ["overture"], "address": "1250 SW 43rd St"}, "geometry": {"type": "Point", "coordinates": [-122.2340622, 47.4416237]}}, {"type": "Feature", "properties": {"id": 42420683, "name": "7-Eleven", "category": "convenience", "tags": ["convenience"], "sources": ["osm", "overture"], "website": "https://www.7-eleven.com/", "phone": "+14252519120", "address": "1200 SW 43rd St", "hours": "24/7"}, "geometry": {"type": "Point", "coordinates": [-122.2334561, 47.4417953]}}, {"type": "Feature", "properties": {"id": 3875629702, "name": "Sherpa Adventure Gear", "category": "outdoor", "tags": ["outdoor"], "sources": ["osm"], "address": "7857 South 180th Street"}, "geometry": {"type": "Point", "coordinates": [-122.2343345, 47.4407824]}}, {"type": "Feature", "properties": {"id": 4168100192, "name": "Floor Co. Wholesale", "category": "furniture", "tags": ["furniture"], "sources": ["osm"], "address": "7835 South 180th Street", "hours": "Mo-Fr 08:00-17:00"}, "geometry": {"type": "Point", "coordinates": [-122.2351716, 47.4407931]}}, {"type": "Feature", "properties": {"id": 4317246134, "name": "Costless Furniture Warehouse", "category": "furniture", "tags": ["furniture"], "sources": ["osm"]}, "geometry": {"type": "Point", "coordinates": [-122.2361257, 47.4402734]}}, {"type": "Feature", "properties": {"id": "9acbe565-a8f5-4340-ac85-a51ab41bb3c5", "name": "Legacy Group", "category": "furniture", "tags": ["furniture"], "sources": ["overture"], "website": "http://legacygroupinteriors.com/", "phone": "+12062170310", "address": "1600 SW 43rd St #100"}, "geometry": {"type": "Point", "coordinates": [-122.2389297, 47.441925]}}, {"type": "Feature", "properties": {"id": "cf61bf69-f86a-4dd3-8390-e7b1ae7f253c", "name": "Pacific Islands Fiji Groceries", "category": "supermarket", "tags": ["supermarket"], "sources": ["overture"], "website": "https://rentonpacificislandgrocery.com/", "phone": "+12536496016", "address": "1250 SW 43rd St D1"}, "geometry": {"type": "Point", "coordinates": [-122.2348175, 47.4419823]}}, {"type": "Feature", "properties": {"id": "eae146a7-4c39-429d-a7c0-21aa8c80941d", "name": "Silver Superstore", "category": "gift", "tags": ["gift"], "sources": ["overture"], "website": "https://www.silversuperstore.com/", "phone": "8004263057", "address": "7841 S 180th St"}, "geometry": {"type": "Point", "coordinates": [-122.2347641, 47.4406891]}}, {"type": "Feature", "properties": {"id": "057df598-b90b-438d-b3a2-5815679237f2", "name": "Moonsus Inc", "category": "clothes", "tags": ["clothes"], "sources": ["overture"], "phone": "4252518388", "address": "1000 SW 34th St"}, "geometry": {"type": "Point", "coordinates": [-122.2305908, 47.4497032]}}, {"type": "Feature", "properties": {"id": "707e19a1-18a8-40e8-bcca-cbd0210e49fc", "name": "Cutter & Buck", "category": "clothes", "tags": ["clothes"], "sources": ["overture"], "website": "http://www.cutterbuck.com", "phone": "+18883389944", "address": "4001 Oakesdale Ave SW"}, "geometry": {"type": "Point", "coordinates": [-122.2333374, 47.4446831]}}, {"type": "Feature", "properties": {"id": 4218422543, "name": "Full Life Adult Day Health Center", "category": "clinic", "tags": ["clinic"], "sources": ["osm"], "address": "7825 South 180th Street"}, "geometry": {"type": "Point", "coordinates": [-122.2358984, 47.4408031]}}, {"type": "Feature", "properties": {"id": 4317246143, "name": "Ready Med Pharmacy", "category": "pharmacy", "tags": ["pharmacy"], "sources": ["osm"]}, "geometry": {"type": "Point", "coordinates": [-122.2364191, 47.4419504]}}, {"type": "Feature", "properties": {"id": "5383795a-045c-485d-bd73-22e88055aca5", "name": "Providence Infusion and Pharmacy Services - Renton", "category": "pharmacy", "tags": ["pharmacy"], "sources": ["overture"], "website": "https://www.providence.org/locations/wa/infusion-and-pharmacy-services-renton?ls=location&y_source=1_MjI0ODk2NTktNzE1LWxvY2F0aW9uLndlYnNpdGU=", "phone": "8008320319", "address": "1412 SW 43rd St Ste 205"}, "geometry": {"type": "Point", "coordinates": [-122.2362747, 47.4411888]}}, {"type": "Feature", "properties": {"id": "a093d082-3b68-440a-9864-2a6df2556ae3", "name": "Idc Medical Plaza", "category": "clinic", "tags": ["clinic", "medical"], "sources": ["overture"], "phone": "+12538868283", "address": "S 180th St"}, "geometry": {"type": "Point", "coordinates": [-122.2362213, 47.4415398]}}, {"type": "Feature", "properties": {"id": "76397d76-2c60-4dfc-9ec0-b363683ae9b7", "name": "Ready Meds Pharmacy", "category": "pharmacy", "tags": ["pharmacy"], "sources": ["overture"], "website": "http://www.readymedspharmacy.com/", "phone": "+18774256337", "address": "1412 SW 43rd St #120"}, "geometry": {"type": "Point", "coordinates": [-122.2361603, 47.4416733]}}, {"type": "Feature", "properties": {"id": "2135db80-5733-4c2b-86bf-da8fb492be33", "name": "Providence ElderPlace Kent - North", "category": "clinic", "tags": ["clinic", "medical"], "sources": ["overture"], "website": "https://www.providence.org/locations/wa/elderplace-kent-north?ls=location&y_source=1_OTU3NjY0My03MTUtbG9jYXRpb24ud2Vic2l0ZQ==", "phone": "2063205325", "address": "7829 S 180th St"}, "geometry": {"type": "Point", "coordinates": [-122.2356949, 47.441185]}}, {"type": "Feature", "properties": {"id": 653691807, "name": "Cascade Federal Credit Union", "category": "bank", "tags": ["bank", "drive-through"], "sources": ["osm"], "address": "18020 80th Avenue South", "hours": "Mo-Fr 09:00-17:00"}, "geometry": {"type": "Point", "coordinates": [-122.2322195, 47.4404442]}}]}