{"type": "FeatureCollection", "features": [{"type": "Feature", "properties": {"id": 56073102, "name": "SE 56th St Landing", "category": "park", "tags": ["park"], "sources": ["osm"]}, "geometry": {"type": "Point", "coordinates": [-122.23264, 47.5523364]}}, {"type": "Feature", "properties": {"id": 56073115, "name": "Groveland Park", "category": "park", "tags": ["park"], "sources": ["osm"], "website": "https://www.mercerisland.gov/parksrec/page/groveland-beach"}, "geometry": {"type": "Point", "coordinates": [-122.2338396, 47.5511937]}}, {"type": "Feature", "properties": {"id": "e602de2e-25a0-441e-bf12-45632a13fab6", "name": "Groveland Beach Park", "category": "park", "tags": ["park"], "sources": ["overture"], "website": "http://www.mercergov.org", "phone": "+12062757609", "address": "7740 SE 58th St"}, "geometry": {"type": "Point", "coordinates": [-122.2339859, 47.5510559]}}]}