{"type": "FeatureCollection", "features": [{"type": "Feature", "properties": {"id": 265728749, "name": "KFC", "category": "fast_food", "tags": ["fast-food", "chicken", "takeaway", "fast", "food"], "sources": ["osm", "overture"], "website": "https://locations.kfc.com/wa/des-moines/25925-pacific-highway-south", "phone": "+12539412868", "address": "25925 Pacific Highway South"}, "geometry": {"type": "Point", "coordinates": [-122.3042315, 47.3690549]}}, {"type": "Feature", "properties": {"id": 265728746, "name": "El Rinconsito", "category": "fast_food", "tags": ["fast-food", "mexican", "takeaway"], "sources": ["osm"], "address": "25914 Pacific Highway South"}, "geometry": {"type": "Point", "coordinates": [-122.3029181, 47.3691192]}}, {"type": "Feature", "properties": {"id": 5255000523, "name": "El Salvador Titas Pupuseria and Restaurant", "category": "restaurant", "tags": ["restaurant"], "sources": ["osm"]}, "geometry": {"type": "Point", "coordinates": [-122.3024745, 47.3680185]}}, {"type": "Feature", "properties": {"id": 5255000526, "name": "El Parral Mexican Restaurant", "category": "restaurant", "tags": ["restaurant", "mexican"], "sources": ["osm"]}, "geometry": {"type": "Point", "coordinates": [-122.3028463, 47.3670776]}}, {"type": "Feature", "properties": {"id": 5255001322, "name": "Pho Duang", "category": "restaurant", "tags": ["restaurant"], "sources": ["osm"]}, "geometry": {"type": "Point", "coordinates": [-122.3024743, 47.3677974]}}, {"type": "Feature", "properties": {"id": 5257030736, "name": "Mariscos Culican", "category": "restaurant", "tags": ["restaurant", "mexican"], "sources": ["osm"]}, "geometry": {"type": "Point", "coordinates": [-122.3034813, 47.3663923]}}, {"type": "Feature", "properties": {"id": 5257030737, "name": "Bati Frutas", "category": "cafe", "tags": ["cafe"], "sources": ["osm"]}, "geometry": {"type": "Point", "coordinates": [-122.3033576, 47.3663642]}}, {"type": "Feature", "properties": {"id": 5257030741, "name": "J's Teriyaki", "category": "restaurant", "tags": ["restaurant"], "sources": ["osm"]}, "geometry": {"type": "Point", "coordinates": [-122.3035692, 47.3680684]}}, {"type": "Feature", "properties": {"id": 12955942953, "name": "Taquer\u00eda el cinco de mayo", "category": "restaurant", "tags": ["restaurant", "mexican"], "sources": ["osm"], "phone": "+1-253-571-8486"}, "geometry": {"type": "Point", "coordinates": [-122.3032163, 47.3684025]}}, {"type": "Feature", "properties": {"id": 85878074, "name": "Viva Mexico", "category": "restaurant", "tags": ["restaurant", "mexican", "wheelchair-accessible", "vegetarian", "latin-american"], "sources": ["osm", "overture"], "website": "http://www.vivamexicorestaurant.com", "phone": "+12538391903", "address": "26015 Pacific Hwy S", "hours": "Mo-Fr 11:30-21:00; Sa,Su 12:00-21:00"}, "geometry": {"type": "Point", "coordinates": [-122.3046418, 47.3682371]}}, {"type": "Feature", "properties": {"id": 649788908, "name": "Sweet Cheeks", "category": "cafe", "tags": ["cafe", "coffee-shop"], "sources": ["osm"], "address": "26215 Pacific Highway South"}, "geometry": {"type": "Point", "coordinates": [-122.3046122, 47.3678486]}}, {"type": "Feature", "properties": {"id": 649856591, "name": "Pleasant Garden", "category": "restaurant", "tags": ["restaurant", "chinese"], "sources": ["osm", "overture"], "website": "http://pleasant-garden.com/", "phone": "(253) 941-2020", "address": "26002 Pacific Hwy S"}, "geometry": {"type": "Point", "coordinates": [-122.3023271, 47.3684479]}}, {"type": "Feature", "properties": {"id": "512a034a-7203-4a3e-b3e4-2891578bbf14", "name": "Taqueria La Estacion", "category": "restaurant", "tags": ["restaurant", "mexican"], "sources": ["overture"], "website": "http://www.elrinconsito.com", "phone": "(253) 839-0640", "address": "26108 Pacific Hwy S"}, "geometry": {"type": "Point", "coordinates": [-122.3038635, 47.3676491]}}, {"type": "Feature", "properties": {"id": "a486323c-1774-4ce9-a350-70323e83f2ff", "name": "Bells Table", "category": "restaurant", "tags": ["restaurant", "comfort-food", "comfort", "food"], "sources": ["overture"], "website": "http://bellstable.com", "phone": "+12065922624", "address": "26212 Pacific Hwy S"}, "geometry": {"type": "Point", "coordinates": [-122.3032913, 47.3663292]}}, {"type": "Feature", "properties": {"id": "0cbccc76-15ed-49ee-b3ee-e5a308e75430", "name": "Mazar Cuisine", "category": "restaurant", "tags": ["restaurant", "afghan", "middle-eastern"], "sources": ["overture"], "phone": "+12064605974", "address": "26212 Pacific Hwy S"}, "geometry": {"type": "Point", "coordinates": [-122.3034134, 47.3663254]}}, {"type": "Feature", "properties": {"id": "f4aa8a66-2617-4afd-97ed-f5b179590fee", "name": "Mariscos Culiacan", "category": "restaurant", "tags": ["restaurant", "seafood", "mexican"], "sources": ["overture"], "website": "http://mariscosculiacanrestaurantbar.com/", "phone": "+12064292350", "address": "26218 Pacific Hwy S"}, "geometry": {"type": "Point", "coordinates": [-122.3036194, 47.3663712]}}, {"type": "Feature", "properties": {"id": "56527577-5888-4688-b49a-6b1d3fbb71e2", "name": "Mi Lindo Colima", "category": "restaurant", "tags": ["restaurant", "mexican", "texmex", "fast-food"], "sources": ["overture"], "website": "https://mi-lindo-colima.negocio.site", "phone": "+12539410160", "address": "26212 Pacific Hwy S"}, "geometry": {"type": "Point", "coordinates": [-122.3035431, 47.3663025]}}, {"type": "Feature", "properties": {"id": "98f60e24-74b3-4e28-8cd0-17d6d9ca27c7", "name": "Pasteleria Y Panaderia La Ideal 2", "category": "bakery", "tags": ["bakery"], "sources": ["overture"], "phone": "+12066517514", "address": "26112 Pacific Hwy S"}, "geometry": {"type": "Point", "coordinates": [-122.3027954, 47.367157]}}, {"type": "Feature", "properties": {"id": "62ae49f3-78c6-4480-906b-89b1676f2f08", "name": "El Salvador Pupuseria Tita's", "category": "restaurant", "tags": ["restaurant", "salvadoran", "latin-american", "mexican"], "sources": ["overture"], "website": "http://www.elsalvadorpupuseriatitas.com/", "phone": "2539460664", "address": "26026 Pacific Highway S"}, "geometry": {"type": "Point", "coordinates": [-122.3023605, 47.368]}}, {"type": "Feature", "properties": {"id": "f86f7c6d-40b8-4b32-9f6b-5af6c5deeb09", "name": "Pho Duong", "category": "restaurant", "tags": ["restaurant"], "sources": ["overture"], "website": "https://phoanhduong.com", "phone": "2539414235", "address": "26034 Pacific Hwy S"}, "geometry": {"type": "Point", "coordinates": [-122.3023605, 47.367794]}}, {"type": "Feature", "properties": {"id": "ee21d250-34b7-462c-a14c-6c379e5088ef", "name": "El Rinconsito | Federal Way", "category": "restaurant", "tags": ["restaurant", "mexican", "taco", "latin-american"], "sources": ["overture"], "website": "https://www.elrinconsito.com/", "phone": "+12539451116", "address": "25914 Pacific Hwy S"}, "geometry": {"type": "Point", "coordinates": [-122.3028793, 47.3689613]}}, {"type": "Feature", "properties": {"id": "28709862-9184-429e-a504-ffd7c5d55c4f", "name": "Dos Hermanos Cocina Oaxaquena", "category": "restaurant", "tags": ["restaurant", "mexican"], "sources": ["overture"], "website": "https://doshermanoscocina.business.site", "phone": "+12539467672", "address": "26010 Pacific Hwy S"}, "geometry": {"type": "Point", "coordinates": [-122.3036423, 47.3680229]}}, {"type": "Feature", "properties": {"id": "10143a3b-5b6e-4537-af90-b175ade37ed8", "name": "Burgers And Teriyaki", "category": "restaurant", "tags": ["restaurant", "burger"], "sources": ["overture"], "website": "http://www.jburgerqueenbbqteriyaki.eat24hour.com", "phone": "(253) 946-7672", "address": "26010 Pacific Hwy S"}, "geometry": {"type": "Point", "coordinates": [-122.3035889, 47.3682671]}}, {"type": "Feature", "properties": {"id": "5f788825-82b0-4c00-9e17-1cc2c71173a4", "name": "Taqueria La Familia", "category": "restaurant", "tags": ["restaurant", "mexican", "taco", "latin-american"], "sources": ["overture"], "website": "http://darussalaamgrill.eat24hour.com/", "phone": "+12539467672", "address": "26010 Pacific Hwy S"}, "geometry": {"type": "Point", "coordinates": [-122.3036804, 47.3683128]}}, {"type": "Feature", "properties": {"id": "b0db350c-6998-4d7d-b71d-798c92feff47", "name": "Midway Kitchen", "category": "restaurant", "tags": ["restaurant", "american", "comfort-food"], "sources": ["overture"], "phone": "+12538397161", "address": "25915 Pacific Hwy S"}, "geometry": {"type": "Point", "coordinates": [-122.3039627, 47.369812]}}, {"type": "Feature", "properties": {"id": "6e22c7e9-10d0-4edd-8442-336800bdd108", "name": "Birrieria Apatzingan", "category": "restaurant", "tags": ["restaurant", "mexican", "seafood", "latin-american"], "sources": ["overture"], "website": "https://birrieria-apatzingan.popmenu.com/menu", "phone": "+12538391225", "address": "26108 Pacific Hwy S"}, "geometry": {"type": "Point", "coordinates": [-122.3038864, 47.367485]}}, {"type": "Feature", "properties": {"id": "ff090e4e-3502-414d-88af-c3e4f0c64a4c", "name": "Sweet Cheeks Espresso", "category": "cafe", "tags": ["cafe", "coffee"], "sources": ["overture"], "address": "26215 Pacific Hwy S  Ste B"}, "geometry": {"type": "Point", "coordinates": [-122.3046341, 47.3678436]}}, {"type": "Feature", "properties": {"id": "3fbe3fc0-6d90-403f-85b4-76604240943b", "name": "Cottonwood Apartments", "category": "attraction", "tags": ["attraction", "landmark", "historical", "building"], "sources": ["overture"], "website": "http://www.cottonwoodkent.com/", "phone": "+12538398887", "address": "25919 25th Ln S"}, "geometry": {"type": "Point", "coordinates": [-122.3001709, 47.3697853]}}, {"type": "Feature", "properties": {"id": "55b9c09f-b9ca-4848-be67-fe384f5732b0", "name": "Brant Apartments", "category": "attraction", "tags": ["attraction", "landmark", "historical", "building"], "sources": ["overture"], "website": "https://brantapartments.com/?utm_knock=sm", "phone": "+12533424924", "address": "2100 S 260th St"}, "geometry": {"type": "Point", "coordinates": [-122.3070145, 47.3690186]}}, {"type": "Feature", "properties": {"id": 649788834, "name": "Motel Travel Inn", "category": "motel", "tags": ["motel"], "sources": ["osm"], "address": "26225 Pacific Highway South"}, "geometry": {"type": "Point", "coordinates": [-122.3056981, 47.3666688]}}, {"type": "Feature", "properties": {"id": "4d85a8d6-f2ad-45e3-a376-3c230acd92da", "name": "Travel Inn", "category": "motel", "tags": ["motel"], "sources": ["overture"], "website": "http://travelinn.us/", "phone": "+12535298965", "address": "26225 Pacific Hwy S #9246"}, "geometry": {"type": "Point", "coordinates": [-122.3056335, 47.366581]}}, {"type": "Feature", "properties": {"id": "fbca2672-a39a-46a5-8560-5721e5357fdf", "name": "7-Eleven", "category": "convenience", "tags": ["convenience"], "sources": ["overture"], "website": "https://www.7-eleven.com/", "phone": "+12538391070", "address": "26007 Pacific Hwy South"}, "geometry": {"type": "Point", "coordinates": [-122.3045425, 47.3683739]}}, {"type": "Feature", "properties": {"id": 5225992583, "name": "Grocery Outlet", "category": "supermarket", "tags": ["supermarket"], "sources": ["osm", "overture"], "website": "https://www.groceryoutlet.com/circulars/storeid/289", "phone": "+12065922962", "address": "26104 Pacific Hwy S"}, "geometry": {"type": "Point", "coordinates": [-122.3025274, 47.3674361]}}, {"type": "Feature", "properties": {"id": 265728748, "name": "Food Mart", "category": "convenience", "tags": ["convenience"], "sources": ["osm"], "address": "25915 Pacific Highway South"}, "geometry": {"type": "Point", "coordinates": [-122.3042098, 47.3695532]}}, {"type": "Feature", "properties": {"id": 649856480, "name": "Food Mart", "category": "convenience", "tags": ["convenience"], "sources": ["osm"], "address": "26010 Pacific Highway South"}, "geometry": {"type": "Point", "coordinates": [-122.3033767, 47.3683166]}}, {"type": "Feature", "properties": {"id": 6098409587, "name": "Dollar Tree", "category": "variety_store", "tags": ["variety-store", "discount"], "sources": ["osm", "overture"], "website": "https://locations.dollartree.com/wa/kent/26100-pacific-hwy-s", "phone": "+12063168237", "address": "26100 Pacific Hwy S.", "hours": "Mo-Su 09:00-20:00"}, "geometry": {"type": "Point", "coordinates": [-122.3024027, 47.3676112]}}, {"type": "Feature", "properties": {"id": 5255001221, "name": "E-Z Store & More", "category": "convenience", "tags": ["convenience"], "sources": ["osm"]}, "geometry": {"type": "Point", "coordinates": [-122.3024776, 47.3680933]}}, {"type": "Feature", "properties": {"id": 5255001321, "name": "Tienda La Malinche", "category": "convenience", "tags": ["convenience"], "sources": ["osm"]}, "geometry": {"type": "Point", "coordinates": [-122.302474, 47.3679522]}}, {"type": "Feature", "properties": {"id": 5257030725, "name": "J&E Filipino Variety Store", "category": "variety_store", "tags": ["variety-store"], "sources": ["osm"]}, "geometry": {"type": "Point", "coordinates": [-122.3036309, 47.3664203]}}, {"type": "Feature", "properties": {"id": "735cf4cd-709d-44ee-bd08-a3a0b4469966", "name": "Paty Furniture", "category": "furniture", "tags": ["furniture"], "sources": ["overture"], "website": "http://patyfurniture.com/", "phone": "+12062126749", "address": "26830 Pacific Hwy S"}, "geometry": {"type": "Point", "coordinates": [-122.3077087, 47.3606911]}}, {"type": "Feature", "properties": {"id": "259dd5e9-e6d6-45e7-af8c-abf2bbe23c13", "name": "Rite Aid", "category": "convenience", "tags": ["convenience"], "sources": ["overture"], "website": "https://www.riteaid.com/store-details?storeNumber=5191", "phone": "2539414660", "address": "26200 Pacific Highway S"}, "geometry": {"type": "Point", "coordinates": [-122.3050003, 47.3671989]}}, {"type": "Feature", "properties": {"id": "0dab224f-de35-4514-add8-3f6fa9f549d4", "name": "J & E Filipino Store", "category": "supermarket", "tags": ["supermarket"], "sources": ["overture"], "phone": "+12535291542", "address": "26220 Pacific Hwy S"}, "geometry": {"type": "Point", "coordinates": [-122.3036728, 47.3664207]}}, {"type": "Feature", "properties": {"id": "55eba999-d145-422d-8d3e-cb0fa58080f0", "name": "Gold & Green Landscape, LLC", "category": "doityourself", "tags": ["doityourself", "building", "supply"], "sources": ["overture"], "website": "http://www.goldandgreenlandscape.com", "phone": "(206) 824-3358", "address": "26505 19th Pl S"}, "geometry": {"type": "Point", "coordinates": [-122.3087158, 47.3635712]}}, {"type": "Feature", "properties": {"id": 5225992582, "name": "Rite Aid", "category": "pharmacy", "tags": ["pharmacy"], "sources": ["osm"], "website": "https://locations.riteaid.com/locations/wa/kent/26200-pacific-hwy-south.html", "address": "26200 Pacific Highway South", "hours": "Mo-Su 09:00-21:00"}, "geometry": {"type": "Point", "coordinates": [-122.3029552, 47.366613]}}, {"type": "Feature", "properties": {"id": 273890045, "name": "Yardley Institude of Upper Cervical Health Science", "category": "clinic", "tags": ["clinic"], "sources": ["osm"], "address": "26238 Pacific Highway South"}, "geometry": {"type": "Point", "coordinates": [-122.3043822, 47.3665376]}}, {"type": "Feature", "properties": {"id": "2ee6d607-d851-43a7-997f-f1d4a6e320ef", "name": "HealthPoint Midway", "category": "clinic", "tags": ["clinic", "medical"], "sources": ["overture"], "website": "http://www.healthpointchc.org/health-centers/midway", "phone": "+12068703590", "address": "26401 Pacific Hwy S"}, "geometry": {"type": "Point", "coordinates": [-122.3063889, 47.3651123]}}, {"type": "Feature", "properties": {"id": 92836921, "name": "Woodmont Library", "category": "library", "tags": ["library"], "sources": ["osm", "overture"], "website": "http://kcls.org/woodmont", "phone": "+12538390121", "address": "26809 Pacific Hwy S", "hours": "Mo-Th 10:00-21:00; Fr 10:00-18:00; Sa 10:00-17:00"}, "geometry": {"type": "Point", "coordinates": [-122.3082288, 47.3610652]}}]}