{"type": "FeatureCollection", "features": [{"type": "Feature", "properties": {"id": "5185a1c7-d963-4c87-ac4c-cd55acd90a0c", "name": "Starbucks", "category": "cafe", "tags": ["cafe", "coffee"], "sources": ["overture"], "phone": "2067218871", "address": "4824 Rainier Ave S (Rainier & Edmunds)", "stations": [{"stopCode": 58, "lines": "1", "name": "Columbia City Station", "walkingMeters": 621, "walkingSeconds": 446, "band": 10}]}, "geometry": {"type": "Point", "coordinates": [-122.2855301, 47.5587273]}}, {"type": "Feature", "properties": {"id": "957763ae-f642-481d-a5d9-9336024c5fc0", "name": "El Sombrero", "category": "restaurant", "tags": ["restaurant", "mexican"], "sources": ["overture"], "website": "http://elsombreroseattle.com", "phone": "(206) 725-1418", "address": "4868 Rainier Ave S", "stations": [{"stopCode": 58, "lines": "1", "name": "Columbia City Station", "walkingMeters": 701, "walkingSeconds": 504, "band": 10}]}, "geometry": {"type": "Point", "coordinates": [-122.2850342, 47.5580978]}}, {"type": "Feature", "properties": {"id": 4882740844, "name": "Pagliacci Pizza", "category": "restaurant", "tags": ["restaurant", "pizza", "takeaway", "delivery", "italian"], "sources": ["osm", "overture"], "website": "https://pagliacci.com/locations/columbia-city", "phone": "+12067261717", "address": "4901 Rainier Ave S", "hours": "Su-Th 11:00-22:00; Fr-Sa 11:00-23:00", "stations": [{"stopCode": 58, "lines": "1", "name": "Columbia City Station", "walkingMeters": 709, "walkingSeconds": 512, "band": 10}]}, "geometry": {"type": "Point", "coordinates": [-122.2851943, 47.5577709]}}, {"type": "Feature", "properties": {"id": "748655e6-7cfb-4f77-a9d1-d9a3b7ddd374", "name": "Pizza Hut", "category": "restaurant", "tags": ["restaurant", "pizza"], "sources": ["overture"], "website": "http://pizzahut.com/", "phone": "(206) 723-8966", "address": "5418 Martin Luther King Jr Way S", "stations": [{"stopCode": 58, "lines": "1", "name": "Columbia City Station", "walkingMeters": 835, "walkingSeconds": 603, "band": 10}]}, "geometry": {"type": "Point", "coordinates": [-122.2885361, 47.552906]}}, {"type": "Feature", "properties": {"id": 1729930560, "name": "Tutta Bella", "category": "restaurant", "tags": ["restaurant", "pizza", "italian"], "sources": ["osm"], "website": "https://www.tuttabella.com/location/tutta-bella-columbia-city/", "phone": "+1-206-721-3501", "address": "4918 Rainier Avenue South", "hours": "Mo-Su 11:00-22:00", "stations": [{"stopCode": 58, "lines": "1", "name": "Columbia City Station", "walkingMeters": 799, "walkingSeconds": 576, "band": 10}]}, "geometry": {"type": "Point", "coordinates": [-122.2845232, 47.5572106]}}, {"type": "Feature", "properties": {"id": 1730688063, "name": "Geraldine's Counter", "category": "restaurant", "tags": ["restaurant", "indoor-seating", "vegetarian", "vegan", "air-conditioned"], "sources": ["osm"], "website": "https://www.geraldinescounter.com/", "address": "4872 Rainier Avenue South", "hours": "Mo-Su 08:00-15:00", "stations": [{"stopCode": 58, "lines": "1", "name": "Columbia City Station", "walkingMeters": 717, "walkingSeconds": 515, "band": 10}]}, "geometry": {"type": "Point", "coordinates": [-122.2849069, 47.557967]}}, {"type": "Feature", "properties": {"id": 2338546696, "name": "Rookies Sports Bar", "category": "pub", "tags": ["pub", "american"], "sources": ["osm"], "website": "http://rookiesSeattle.com", "address": "3820 South Ferdinand Street", "hours": "Mo-Fr 11:00-24:00; Sa 09:00-24:00; Su 09:00-22:00", "stations": [{"stopCode": 58, "lines": "1", "name": "Columbia City Station", "walkingMeters": 780, "walkingSeconds": 560, "band": 10}]}, "geometry": {"type": "Point", "coordinates": [-122.2841586, 47.5579567]}}, {"type": "Feature", "properties": {"id": 2338546715, "name": "Fremont Brewing", "category": "pub", "tags": ["pub"], "sources": ["osm"], "address": "3808 South Edmunds Street", "stations": [{"stopCode": 58, "lines": "1", "name": "Columbia City Station", "walkingMeters": 656, "walkingSeconds": 472, "band": 10}]}, "geometry": {"type": "Point", "coordinates": [-122.2850109, 47.5587746]}}, {"type": "Feature", "properties": {"id": 2338546747, "name": "Jackalope Tex-Mex & Cantina", "category": "restaurant", "tags": ["restaurant", "tex-mex", "wheelchair-accessible", "has-bar", "texmex", "mexican"], "sources": ["osm", "overture"], "website": "https://jackalopetexmex.com/", "phone": "+12064204796", "address": "4868 Rainier Ave S", "hours": "Mo-Th 11:00-21:00; Fr 11:00-22:00; Sa 10:00-22:00; Su 10:00-21:00", "stations": [{"stopCode": 58, "lines": "1", "name": "Columbia City Station", "walkingMeters": 706, "walkingSeconds": 508, "band": 10}]}, "geometry": {"type": "Point", "coordinates": [-122.2849482, 47.5580652]}}, {"type": "Feature", "properties": {"id": 2338546760, "name": "Olympia Coffee", "category": "cafe", "tags": ["cafe", "coffee-shop", "outdoor-seating", "takeaway", "air-conditioned", "wifi"], "sources": ["osm"], "website": "https://www.olympiacoffee.com/pages/columbia-city", "phone": "+1-206-906-9543", "address": "4824 Rainier Avenue South", "hours": "Mo-Fr 06:00-18:00; Sa-Su 07:00-18:00", "stations": [{"stopCode": 58, "lines": "1", "name": "Columbia City Station", "walkingMeters": 635, "walkingSeconds": 456, "band": 10}]}, "geometry": {"type": "Point", "coordinates": [-122.285298, 47.5587714]}}, {"type": "Feature", "properties": {"id": 2338569327, "name": "La Medusa", "category": "restaurant", "tags": ["restaurant", "italian", "vegetarian", "european"], "sources": ["osm", "overture"], "website": "http://www.lamedusarestaurant.com", "phone": "+12067232192", "address": "4857 Rainier Ave S", "hours": "Fr,Sa 15:00-19:00", "stations": [{"stopCode": 58, "lines": "1", "name": "Columbia City Station", "walkingMeters": 632, "walkingSeconds": 454, "band": 10}]}, "geometry": {"type": "Point", "coordinates": [-122.2855677, 47.5584666]}}, {"type": "Feature", "properties": {"id": 2338569329, "name": "Island Soul", "category": "restaurant", "tags": ["restaurant", "caribbean"], "sources": ["osm"], "website": "http://islandsoulrestaurant.net", "phone": "+1-206-329-1202", "address": "4869 Rainier Avenue South", "hours": "Mo-Th 15:00-21:00; Fr 15:00-22:00; Sa 11:00-22:00; Su off", "stations": [{"stopCode": 58, "lines": "1", "name": "Columbia City Station", "walkingMeters": 673, "walkingSeconds": 483, "band": 10}]}, "geometry": {"type": "Point", "coordinates": [-122.2854077, 47.5581234]}}, {"type": "Feature", "properties": {"id": 2338764438, "name": "Molly Moon's Homemade Ice Cream - Columbia City", "category": "ice_cream", "tags": ["ice-cream", "outdoor-seating"], "sources": ["osm"], "website": "https://www.mollymoon.com/locations/columbia-city", "phone": "+1-206-397-3360", "address": "4822 Rainier Avenue South", "hours": "Su-Th 12:00-22:00; Fr-Sa 12:00-23:00", "stations": [{"stopCode": 58, "lines": "1", "name": "Columbia City Station", "walkingMeters": 642, "walkingSeconds": 461, "band": 10}]}, "geometry": {"type": "Point", "coordinates": [-122.2853401, 47.5588399]}}, {"type": "Feature", "properties": {"id": 2423265016, "name": "Taproot Cafe & Bar", "category": "cafe", "tags": ["cafe"], "sources": ["osm", "overture"], "website": "http://www.taprootseattle.com/", "phone": "+12064202535", "address": "4908 Rainier Ave S", "stations": [{"stopCode": 58, "lines": "1", "name": "Columbia City Station", "walkingMeters": 752, "walkingSeconds": 542, "band": 10}]}, "geometry": {"type": "Point", "coordinates": [-122.2847237, 47.5576176]}}, {"type": "Feature", "properties": {"id": 2429623229, "name": "Lottie's Lounge", "category": "bar", "tags": ["bar", "outdoor-seating"], "sources": ["osm", "overture"], "website": "http://www.lottiesseattle.com/", "phone": "+12067250519", "address": "4900 Rainier Ave S", "stations": [{"stopCode": 58, "lines": "1", "name": "Columbia City Station", "walkingMeters": 735, "walkingSeconds": 532, "band": 10}]}, "geometry": {"type": "Point", "coordinates": [-122.2848018, 47.5577593]}}, {"type": "Feature", "properties": {"id": 2429623238, "name": "Off Alley", "category": "restaurant", "tags": ["restaurant", "american"], "sources": ["osm", "overture"], "website": "http://www.offalleyseattle.com", "phone": "+12064886170", "address": "1/2, 4903, Rainier Ave S", "stations": [{"stopCode": 58, "lines": "1", "name": "Columbia City Station", "walkingMeters": 722, "walkingSeconds": 521, "band": 10}]}, "geometry": {"type": "Point", "coordinates": [-122.2851411, 47.5576611]}}, {"type": "Feature", "properties": {"id": 2429623397, "name": "Bua 9 Thai Cuisine", "category": "cafe", "tags": ["cafe", "thai", "restaurant", "asian"], "sources": ["osm", "overture"], "website": "https://www.bua9thaicuisine.com/", "phone": "+12063239445", "address": "5020 Rainier Ave S", "stations": [{"stopCode": 58, "lines": "1", "name": "Columbia City Station", "walkingMeters": 929, "walkingSeconds": 672, "band": 15}]}, "geometry": {"type": "Point", "coordinates": [-122.2837808, 47.5564107]}}, {"type": "Feature", "properties": {"id": 2429623418, "name": "Kezira Eritrean & Ethiopian Restaurant", "category": "restaurant", "tags": ["restaurant", "vegetarian", "gluten-free"], "sources": ["osm"], "website": "https://www.keziracafe.com/", "phone": "+1-206-588-1024", "address": "5100 Rainier Avenue South", "hours": "Tu-Fr 16:00-21:00; Sa-Mo off", "stations": [{"stopCode": 58, "lines": "1", "name": "Columbia City Station", "walkingMeters": 995, "walkingSeconds": 720, "band": 15}]}, "geometry": {"type": "Point", "coordinates": [-122.2833254, 47.5561339]}}, {"type": "Feature", "properties": {"id": 2429623465, "name": "Emma's BBQ", "category": "restaurant", "tags": ["restaurant", "barbecue", "takeaway", "southern", "american"], "sources": ["osm", "overture"], "website": "http://www.emmas-bbq.com/", "phone": "+12064131523", "address": "5303 Rainier Ave S", "hours": "Th 12:00-19:00; Fr-Sa 12:00-20:00"}, "geometry": {"type": "Point", "coordinates": [-122.2804642, 47.5535399]}}, {"type": "Feature", "properties": {"id": 234834348, "name": "Marination", "category": "restaurant", "tags": ["restaurant"], "sources": ["osm"], "website": "https://marinationmobile.com/", "phone": "+1-206-420-1201", "address": "3714 South Hudson Street", "hours": "Mo-Th 11:00-20:00; Fr 11:00-21:00; Sa 09:00-21:00; Su 09:00-20:00", "stations": [{"stopCode": 58, "lines": "1", "name": "Columbia City Station", "walkingMeters": 756, "walkingSeconds": 545, "band": 10}]}, "geometry": {"type": "Point", "coordinates": [-122.2854026, 47.5572462]}}, {"type": "Feature", "properties": {"id": 13352677464, "name": "Spice Waala", "category": "restaurant", "tags": ["restaurant", "indian", "outdoor-seating", "takeaway", "vegetarian"], "sources": ["osm"], "website": "https://www.spicewaala.com/contact#ZPVipT", "phone": "+1-206-268-0084", "address": "5024 Rainier Avenue South", "hours": "Tu-Sa 17:00-21:00", "stations": [{"stopCode": 58, "lines": "1", "name": "Columbia City Station", "walkingMeters": 933, "walkingSeconds": 675, "band": 15}]}, "geometry": {"type": "Point", "coordinates": [-122.2836938, 47.556381]}}, {"type": "Feature", "properties": {"id": 4882419722, "name": "Safari Njema", "category": "restaurant", "tags": ["restaurant", "kenyan", "african"], "sources": ["osm", "overture"], "website": "http://www.yelp.com/biz/safari-njema-restaurant-seattlehttp://", "phone": "+12067233058", "address": "5041 Rainier Ave S Ste 107", "stations": [{"stopCode": 58, "lines": "1", "name": "Columbia City Station", "walkingMeters": 962, "walkingSeconds": 695, "band": 15}]}, "geometry": {"type": "Point", "coordinates": [-122.2844734, 47.5560381]}}, {"type": "Feature", "properties": {"id": 4882419723, "name": "Full Tilt Ice Cream", "category": "ice_cream", "tags": ["ice-cream"], "sources": ["osm"], "website": "https://www.fulltilticecream.com/", "phone": "+1-206-226-2740", "address": "5041 Rainier Avenue South", "hours": "Mo-Th 14:00-22:00; Fr-Sa 14:00-23:00; Su 12:00-22:00", "stations": [{"stopCode": 58, "lines": "1", "name": "Columbia City Station", "walkingMeters": 942, "walkingSeconds": 681, "band": 15}]}, "geometry": {"type": "Point", "coordinates": [-122.2842032, 47.5560361]}}, {"type": "Feature", "properties": {"id": 4882419724, "name": "Flying Lion Brewing", "category": "pub", "tags": ["pub", "brewery", "outdoor-seating", "takeaway", "wheelchair-accessible", "microbrew", "bar"], "sources": ["osm", "overture"], "website": "http://flyinglionbrewing.com", "phone": "+12066599912", "address": "5041 Rainier Ave S #106", "hours": "Mo-Su 12:00-24:00", "stations": [{"stopCode": 58, "lines": "1", "name": "Columbia City Station", "walkingMeters": 952, "walkingSeconds": 688, "band": 15}]}, "geometry": {"type": "Point", "coordinates": [-122.284337, 47.5560371]}}, {"type": "Feature", "properties": {"id": 4974315176, "name": "Lavana Lounge", "category": "bar", "tags": ["bar"], "sources": ["osm"], "address": "5041 Rainier Avenue South", "stations": [{"stopCode": 58, "lines": "1", "name": "Columbia City Station", "walkingMeters": 979, "walkingSeconds": 708, "band": 15}]}, "geometry": {"type": "Point", "coordinates": [-122.2847191, 47.5560399]}}, {"type": "Feature", "properties": {"id": 4974315177, "name": "Rumba Notes Lounge", "category": "bar", "tags": ["bar"], "sources": ["osm"], "address": "5041 Rainier Avenue South", "stations": [{"stopCode": 58, "lines": "1", "name": "Columbia City Station", "walkingMeters": 971, "walkingSeconds": 702, "band": 15}]}, "geometry": {"type": "Point", "coordinates": [-122.2845967, 47.556039]}}, {"type": "Feature", "properties": {"id": 5695378625, "name": "Umbria", "category": "cafe", "tags": ["cafe"], "sources": ["osm"], "hours": "Mo-Su 11:00-21:00", "stations": [{"stopCode": 58, "lines": "1", "name": "Columbia City Station", "walkingMeters": 795, "walkingSeconds": 573, "band": 10}]}, "geometry": {"type": "Point", "coordinates": [-122.2845381, 47.5572441]}}, {"type": "Feature", "properties": {"id": 5695379350, "name": "Spice Room", "category": "restaurant", "tags": ["restaurant", "thai"], "sources": ["osm"], "phone": "+1-206-725-7090", "address": "4909 Rainier Avenue South", "hours": "Su-Th 16:00-21:30; Fr,Sa 16:00-20:30", "stations": [{"stopCode": 58, "lines": "1", "name": "Columbia City Station", "walkingMeters": 739, "walkingSeconds": 533, "band": 10}]}, "geometry": {"type": "Point", "coordinates": [-122.2850905, 47.5575069]}}, {"type": "Feature", "properties": {"id": 5695379352, "name": "Wabi Sabi", "category": "restaurant", "tags": ["restaurant", "sushi"], "sources": ["osm"], "address": "4909 Rainier Avenue South", "hours": "Su-Th 15:00-21:00; Fr,Sa 15:00-21:30", "stations": [{"stopCode": 58, "lines": "1", "name": "Columbia City Station", "walkingMeters": 729, "walkingSeconds": 526, "band": 10}]}, "geometry": {"type": "Point", "coordinates": [-122.2851258, 47.5575964]}}, {"type": "Feature", "properties": {"id": 7654116883, "name": "The Comfort Zone", "category": "restaurant", "tags": ["restaurant", "southern"], "sources": ["osm"], "website": "https://thecomfortzonesoulfood.com", "stations": [{"stopCode": 58, "lines": "1", "name": "Columbia City Station", "walkingMeters": 869, "walkingSeconds": 629, "band": 15}]}, "geometry": {"type": "Point", "coordinates": [-122.2840286, 47.5566574]}}, {"type": "Feature", "properties": {"id": 8893225230, "name": "Hill City Tap House & Bottle Shop", "category": "bar", "tags": ["bar", "outdoor-seating", "brewery"], "sources": ["osm", "overture"], "website": "https://www.hillcitytapandbottle.com/", "phone": "+12066877984", "address": "5303 Rainier Ave S", "hours": "Mo-Fr 14:00-22:00; Sa 12:00-23:00; Su 12:00-21:00"}, "geometry": {"type": "Point", "coordinates": [-122.2805787, 47.5536406]}}, {"type": "Feature", "properties": {"id": 9898044217, "name": "Coffeeholic House", "category": "cafe", "tags": ["cafe", "coffee-shop", "vietnamese", "vegetarian", "gluten-free"], "sources": ["osm"], "website": "https://coffeeholichouse.com", "phone": "+1-206-722-3327", "address": "3700 South Hudson Street", "hours": "Mo-Fr 07:00-17:00; Sa,Su 08:00-17:00", "stations": [{"stopCode": 58, "lines": "1", "name": "Columbia City Station", "walkingMeters": 700, "walkingSeconds": 505, "band": 10}]}, "geometry": {"type": "Point", "coordinates": [-122.286002, 47.5572208]}}, {"type": "Feature", "properties": {"id": "973c0fc0-d08c-4bdb-a751-c03b33905982", "name": "Tutta Bella Neapolitan Pizzeria", "category": "restaurant", "tags": ["restaurant"], "sources": ["overture"], "website": "https://www.tuttabella.com", "address": "4918 Rainier Ave S", "stations": [{"stopCode": 58, "lines": "1", "name": "Columbia City Station", "walkingMeters": 800, "walkingSeconds": 577, "band": 10}]}, "geometry": {"type": "Point", "coordinates": [-122.284462, 47.5571938]}}, {"type": "Feature", "properties": {"id": 234834888, "name": "Taco City Taquer\u00eda", "category": "restaurant", "tags": ["restaurant", "vegetarian", "vegan", "gluten-free", "mexican", "taco", "latin-american"], "sources": ["osm", "overture"], "website": "http://tacocitysea.com/", "phone": "+12067172170", "address": "5212 Rainier Ave S", "hours": "Mo-Su 11:00-21:00", "stations": [{"stopCode": 58, "lines": "1", "name": "Columbia City Station", "walkingMeters": 1027, "walkingSeconds": 744, "band": 15}]}, "geometry": {"type": "Point", "coordinates": [-122.2829198, 47.5557338]}}, {"type": "Feature", "properties": {"id": 603767199, "name": "Rough & Tumble", "category": "pub", "tags": ["pub"], "sources": ["osm"], "website": "https://roughandtumblepub.com", "address": "4914 Rainier Avenue South", "hours": "Mo 16:00-21:00; Tu-Th 16:00-20:00; Fr 12:00-23:00; Sa 10:00-23:00; Su 10:00-21:00", "stations": [{"stopCode": 58, "lines": "1", "name": "Columbia City Station", "walkingMeters": 785, "walkingSeconds": 566, "band": 10}]}, "geometry": {"type": "Point", "coordinates": [-122.2845011, 47.5573933]}}, {"type": "Feature", "properties": {"id": 603767217, "name": "Empire", "category": "cafe", "tags": ["cafe"], "sources": ["osm"], "address": "3829 South Edmunds Street", "stations": [{"stopCode": 58, "lines": "1", "name": "Columbia City Station", "walkingMeters": 720, "walkingSeconds": 519, "band": 10}]}, "geometry": {"type": "Point", "coordinates": [-122.2842452, 47.5585112]}}, {"type": "Feature", "properties": {"id": "f4d4f19f-4101-4a95-84b0-4badec210d36", "name": "Sam Choy's Poke to the Max", "category": "restaurant", "tags": ["restaurant", "poke"], "sources": ["overture"], "website": "http://www.samchoyspoke.com", "phone": "(206) 310-1979", "address": "5300 Rainier Ave S"}, "geometry": {"type": "Point", "coordinates": [-122.2803116, 47.5540352]}}, {"type": "Feature", "properties": {"id": "7ca77180-ea00-4fc3-ad05-ec44feb4b044", "name": "Olympia Coffee Roasting", "category": "cafe", "tags": ["cafe", "coffee"], "sources": ["overture"], "website": "http://olympiacoffee.com", "phone": "+12069069543", "address": "4824 Rainier Ave S", "stations": [{"stopCode": 58, "lines": "1", "name": "Columbia City Station", "walkingMeters": 635, "walkingSeconds": 456, "band": 10}]}, "geometry": {"type": "Point", "coordinates": [-122.2853546, 47.5588264]}}, {"type": "Feature", "properties": {"id": "231cbe3d-0149-4868-83dc-0dc8c1796257", "name": "My Sweet Lil Cakes", "category": "bakery", "tags": ["bakery"], "sources": ["overture"], "website": "http://www.mysweetlilcakes.com", "phone": "(206) 265-3002", "address": "3921 S Orcas St"}, "geometry": {"type": "Point", "coordinates": [-122.2825012, 47.5510292]}}, {"type": "Feature", "properties": {"id": "188663c9-4eff-42e9-a3c2-1a9e7af3d5c8", "name": "Verve Wine Bar & Cellar", "category": "restaurant", "tags": ["restaurant"], "sources": ["overture"], "website": "https://vervewinebar.com", "address": "3820 S Ferdinand St", "stations": [{"stopCode": 58, "lines": "1", "name": "Columbia City Station", "walkingMeters": 867, "walkingSeconds": 647, "band": 10}]}, "geometry": {"type": "Point", "coordinates": [-122.2841568, 47.5580597]}}, {"type": "Feature", "properties": {"id": "5ceec3e9-d2d0-4309-b0d3-e90b9b8c3c21", "name": "Kallaloo, Inc.", "category": "restaurant", "tags": ["restaurant"], "sources": ["overture"], "website": "https://www.kallalooseattle.com", "address": "3820 S Ferdinand St", "stations": [{"stopCode": 58, "lines": "1", "name": "Columbia City Station", "walkingMeters": 787, "walkingSeconds": 569, "band": 10}]}, "geometry": {"type": "Point", "coordinates": [-122.2841568, 47.5580597]}}, {"type": "Feature", "properties": {"id": "01101881-f835-4597-abf3-c273d4c433cb", "name": "Empire Roasters & Records", "category": "cafe", "tags": ["cafe", "coffee"], "sources": ["overture"], "website": "http://Www.empireespresso.coffee/", "address": "3829 S Edmunds St", "stations": [{"stopCode": 58, "lines": "1", "name": "Columbia City Station", "walkingMeters": 720, "walkingSeconds": 519, "band": 10}]}, "geometry": {"type": "Point", "coordinates": [-122.2842712, 47.5585175]}}, {"type": "Feature", "properties": {"id": "288dc41f-5bb3-48b8-9feb-5ea62277a123", "name": "Empire Espresso", "category": "cafe", "tags": ["cafe", "coffee"], "sources": ["overture"], "website": "http://empireespressobar.blogspot.com", "phone": "(206) 659-0588", "address": "3829 S Edmunds St", "stations": [{"stopCode": 58, "lines": "1", "name": "Columbia City Station", "walkingMeters": 717, "walkingSeconds": 517, "band": 10}]}, "geometry": {"type": "Point", "coordinates": [-122.2842865, 47.5585289]}}, {"type": "Feature", "properties": {"id": "1306e742-3c41-4fb8-9b69-fba10e4a0344", "name": "Island Soul - Seattle", "category": "restaurant", "tags": ["restaurant", "caribbean", "cajun-and-creole"], "sources": ["overture"], "website": "http://islandsoulrestaurant.com/", "address": "4869 Rainier Ave S", "stations": [{"stopCode": 58, "lines": "1", "name": "Columbia City Station", "walkingMeters": 749, "walkingSeconds": 559, "band": 10}]}, "geometry": {"type": "Point", "coordinates": [-122.2853851, 47.5581398]}}, {"type": "Feature", "properties": {"id": "f6955627-1500-4972-8c49-0657dfede67f", "name": "Columbia City Bakery", "category": "bakery", "tags": ["bakery"], "sources": ["overture"], "website": "http://www.columbiacitybakery.com/", "phone": "+12067236023", "address": "4865 Rainier Ave S", "stations": [{"stopCode": 58, "lines": "1", "name": "Columbia City Station", "walkingMeters": 664, "walkingSeconds": 477, "band": 10}]}, "geometry": {"type": "Point", "coordinates": [-122.2853775, 47.5582161]}}, {"type": "Feature", "properties": {"id": "df0c98c4-a4d6-4350-8ab0-40c35f00cd14", "name": "Persephone", "category": "bar", "tags": ["bar", "wine"], "sources": ["overture"], "website": "http://lamedusaseattle.com", "phone": "(206) 723-2192", "address": "4859 Rainier Ave S", "stations": [{"stopCode": 58, "lines": "1", "name": "Columbia City Station", "walkingMeters": 654, "walkingSeconds": 470, "band": 10}]}, "geometry": {"type": "Point", "coordinates": [-122.2855606, 47.5582695]}}, {"type": "Feature", "properties": {"id": "628da137-59d5-42d2-a16e-0224d50df11d", "name": "Taco Stand", "category": "fast_food", "tags": ["fast-food", "food", "truck"], "sources": ["overture"], "address": "4825 Rainier Ave S", "stations": [{"stopCode": 58, "lines": "1", "name": "Columbia City Station", "walkingMeters": 666, "walkingSeconds": 497, "band": 10}]}, "geometry": {"type": "Point", "coordinates": [-122.2860031, 47.5588188]}}, {"type": "Feature", "properties": {"id": "6e8ad677-de23-4fb1-b44d-6c22a7621a37", "name": "Pho Bo", "category": "restaurant", "tags": ["restaurant", "vietnamese"], "sources": ["overture"], "website": "http://phohoa.com/", "phone": "(206) 723-1508", "address": "4732 Rainier Ave S", "stations": [{"stopCode": 58, "lines": "1", "name": "Columbia City Station", "walkingMeters": 664, "walkingSeconds": 483, "band": 10}]}, "geometry": {"type": "Point", "coordinates": [-122.2857361, 47.5596275]}}, {"type": "Feature", "properties": {"id": "fcddb8ab-8fcf-4e92-bbcc-20c2daa3c06d", "name": "Ramen And Tacos", "category": "fast_food", "tags": ["fast-food", "food", "truck"], "sources": ["overture"], "website": "http://www.brothersandco.me", "stations": [{"stopCode": 58, "lines": "1", "name": "Columbia City Station", "walkingMeters": 498, "walkingSeconds": 358, "band": 10}]}, "geometry": {"type": "Point", "coordinates": [-122.2872772, 47.5588531]}}, {"type": "Feature", "properties": {"id": "6e0251a7-9790-4ca2-b37a-f8c8d0efef09", "name": "Coffeeholic", "category": "cafe", "tags": ["cafe", "coffee", "vietnamese"], "sources": ["overture"], "website": "http://www.coffeeholichouse.com", "phone": "+12067223327", "address": "3700 S Hudson St", "stations": [{"stopCode": 58, "lines": "1", "name": "Columbia City Station", "walkingMeters": 753, "walkingSeconds": 562, "band": 10}]}, "geometry": {"type": "Point", "coordinates": [-122.2860107, 47.5571289]}}, {"type": "Feature", "properties": {"id": "5121503e-6b7d-4c31-bc9e-9d2af73614b0", "name": "Super Six", "category": "restaurant", "tags": ["restaurant"], "sources": ["overture"], "website": "https://supersixseattle.com", "address": "3714 S Hudson St", "stations": [{"stopCode": 58, "lines": "1", "name": "Columbia City Station", "walkingMeters": 749, "walkingSeconds": 541, "band": 10}]}, "geometry": {"type": "Point", "coordinates": [-122.285408, 47.5572433]}}, {"type": "Feature", "properties": {"id": "1f74a8a0-35c8-4bd7-a3a9-13c63055e2a6", "name": "Marination Columbia City", "category": "restaurant", "tags": ["restaurant", "asian", "fusion", "hawaiian"], "sources": ["overture"], "website": "http://www.marinationmobile.com/", "phone": "+12064201201", "address": "3714 S Hudson St", "stations": [{"stopCode": 58, "lines": "1", "name": "Columbia City Station", "walkingMeters": 751, "walkingSeconds": 542, "band": 10}]}, "geometry": {"type": "Point", "coordinates": [-122.2854233, 47.5571518]}}, {"type": "Feature", "properties": {"id": "a6edb0e4-f69c-4abf-b149-50a16cf37c16", "name": "Salted Sea", "category": "restaurant", "tags": ["restaurant", "seafood"], "sources": ["overture"], "website": "http://www.saltedseaseattle.com", "phone": "(206) 858-6328", "address": "4915 Rainier Ave S", "stations": [{"stopCode": 58, "lines": "1", "name": "Columbia City Station", "walkingMeters": 750, "walkingSeconds": 541, "band": 10}]}, "geometry": {"type": "Point", "coordinates": [-122.2850113, 47.5574532]}}, {"type": "Feature", "properties": {"id": "c5a3cd0a-7ebe-40f5-a30e-b797a6b5d7e4", "name": "Wabi Sabi Sushi Bar & Restaurant", "category": "restaurant", "tags": ["restaurant", "sushi", "japanese", "asian"], "sources": ["overture"], "website": "http://www.wabisabicolumbiacity.com/", "phone": "+12067210212", "address": "4909 Rainier Ave S", "stations": [{"stopCode": 58, "lines": "1", "name": "Columbia City Station", "walkingMeters": 729, "walkingSeconds": 526, "band": 10}]}, "geometry": {"type": "Point", "coordinates": [-122.2851105, 47.5575981]}}, {"type": "Feature", "properties": {"id": "090d560a-7099-4f52-9022-dde2be8859d4", "name": "The Spice Room", "category": "restaurant", "tags": ["restaurant", "thai"], "sources": ["overture"], "website": "http://www.spiceroomseattle.com", "phone": "(206) 725-7090", "address": "4909 Rainier Ave S", "stations": [{"stopCode": 58, "lines": "1", "name": "Columbia City Station", "walkingMeters": 736, "walkingSeconds": 531, "band": 10}]}, "geometry": {"type": "Point", "coordinates": [-122.2851334, 47.5575256]}}, {"type": "Feature", "properties": {"id": "0be36087-1a85-4ded-b083-26ff1d1b835b", "name": "Ph International Llc", "category": "restaurant", "tags": ["restaurant"], "sources": ["overture"], "address": "4909 Rainier Ave S", "stations": [{"stopCode": 58, "lines": "1", "name": "Columbia City Station", "walkingMeters": 797, "walkingSeconds": 595, "band": 10}]}, "geometry": {"type": "Point", "coordinates": [-122.285202, 47.5575333]}}, {"type": "Feature", "properties": {"id": "2ace6182-fea3-4b73-8162-ddde7b3c3c15", "name": "La Teranga", "category": "restaurant", "tags": ["restaurant", "african"], "sources": ["overture"], "website": "http://www.lateranga.net", "phone": "(206) 725-1188", "address": "4903 1/2 Rainier Ave S", "stations": [{"stopCode": 58, "lines": "1", "name": "Columbia City Station", "walkingMeters": 727, "walkingSeconds": 525, "band": 10}]}, "geometry": {"type": "Point", "coordinates": [-122.2851944, 47.5575981]}}, {"type": "Feature", "properties": {"id": "5a44c127-272d-42a5-b9ec-d3bf4bd24728", "name": "Geraldine's Counter Restaurant", "category": "restaurant", "tags": ["restaurant", "breakfast-and-brunch", "breakfast", "brunch", "american"], "sources": ["overture"], "website": "https://www.geraldinescounter.com/", "phone": "+12067232080", "address": "4872 Rainier Ave S", "stations": [{"stopCode": 58, "lines": "1", "name": "Columbia City Station", "walkingMeters": 803, "walkingSeconds": 599, "band": 10}]}, "geometry": {"type": "Point", "coordinates": [-122.2849045, 47.5579262]}}, {"type": "Feature", "properties": {"id": "394c0c95-2b1d-400f-a097-32171c2eab83", "name": "Beer and questions with Eric", "category": "pub", "tags": ["pub", "bar-and-grill"], "sources": ["overture"], "stations": [{"stopCode": 58, "lines": "1", "name": "Columbia City Station", "walkingMeters": 999, "walkingSeconds": 746, "band": 15}]}, "geometry": {"type": "Point", "coordinates": [-122.2841034, 47.5559731]}}, {"type": "Feature", "properties": {"id": "d0e1da85-72f9-4e3c-93ce-4785f9953044", "name": "The Hummingbird Saloon", "category": "restaurant", "tags": ["restaurant", "bar-and-grill", "bar", "grill"], "sources": ["overture"], "phone": "12063491731", "address": "5041 Rainier Ave S", "stations": [{"stopCode": 58, "lines": "1", "name": "Columbia City Station", "walkingMeters": 942, "walkingSeconds": 681, "band": 15}]}, "geometry": {"type": "Point", "coordinates": [-122.2843323, 47.5560036]}}, {"type": "Feature", "properties": {"id": "f3501442-1a3d-4f4e-ba4d-d531c8821d4f", "name": "Juicy Beast Incorporated", "category": "restaurant", "tags": ["restaurant"], "sources": ["overture"], "address": "4900 Rainier Ave S", "stations": [{"stopCode": 58, "lines": "1", "name": "Columbia City Station", "walkingMeters": 832, "walkingSeconds": 621, "band": 10}]}, "geometry": {"type": "Point", "coordinates": [-122.2847061, 47.5577087]}}, {"type": "Feature", "properties": {"id": "d9fc1a45-2447-46d4-a335-fa796f589ee1", "name": "Jones Barbeque", "category": "restaurant", "tags": ["restaurant", "barbecue"], "sources": ["overture"], "website": "http://jonesbarbeque.net/", "phone": "(206) 722-4414", "address": "3810 S Ferdinand St", "stations": [{"stopCode": 58, "lines": "1", "name": "Columbia City Station", "walkingMeters": 769, "walkingSeconds": 552, "band": 10}]}, "geometry": {"type": "Point", "coordinates": [-122.2843018, 47.5579948]}}, {"type": "Feature", "properties": {"id": "b2b3fe94-ef23-4e6e-9d2e-f3f68aed6a40", "name": "Columbia City Ale House", "category": "bar", "tags": ["bar"], "sources": ["overture"], "phone": "12067235123", "address": "4914 Rainier Ave S", "stations": [{"stopCode": 58, "lines": "1", "name": "Columbia City Station", "walkingMeters": 777, "walkingSeconds": 560, "band": 10}]}, "geometry": {"type": "Point", "coordinates": [-122.2845001, 47.5573807]}}, {"type": "Feature", "properties": {"id": "bc4426cd-5fa4-4094-a4b5-55a13967ad33", "name": "Rookies Sports Bar and Grill", "category": "bar", "tags": ["bar", "sports", "bar-and-grill", "american"], "sources": ["overture"], "website": "http://www.rookiesseattle.com/", "phone": "+12067220301", "address": "3820 S Ferdinand St", "stations": [{"stopCode": 58, "lines": "1", "name": "Columbia City Station", "walkingMeters": 775, "walkingSeconds": 557, "band": 10}]}, "geometry": {"type": "Point", "coordinates": [-122.2842331, 47.5579796]}}, {"type": "Feature", "properties": {"id": "19a44277-5ada-4a67-8a1e-62a8422bbe9f", "name": "Achilles Production Lp", "category": "restaurant", "tags": ["restaurant"], "sources": ["overture"], "address": "5000 Rainier Ave S", "stations": [{"stopCode": 58, "lines": "1", "name": "Columbia City Station", "walkingMeters": 950, "walkingSeconds": 709, "band": 10}]}, "geometry": {"type": "Point", "coordinates": [-122.2840042, 47.5567703]}}, {"type": "Feature", "properties": {"id": "c554805b-9c25-408f-beb0-e70e8af5167b", "name": "Kezira Cafe", "category": "restaurant", "tags": ["restaurant", "ethiopian"], "sources": ["overture"], "website": "http://www.keziracafe.com", "phone": "(206) 588-1024", "address": "5100 Rainier Ave S", "stations": [{"stopCode": 58, "lines": "1", "name": "Columbia City Station", "walkingMeters": 1007, "walkingSeconds": 728, "band": 15}]}, "geometry": {"type": "Point", "coordinates": [-122.2831726, 47.5561256]}}, {"type": "Feature", "properties": {"id": "7a44a610-58a3-4da2-9915-6f160ed12304", "name": "Lucky Sushi (South Seattle- Columbia City)", "category": "restaurant", "tags": ["restaurant", "sushi", "japanese", "asian"], "sources": ["overture"], "website": "https://www.grubhub.com/restaurant/lucky-sushi-5020-rainier-ave-s-seattle/10558704", "phone": "+12063239445", "address": "5020 Rainier Ave S", "stations": [{"stopCode": 58, "lines": "1", "name": "Columbia City Station", "walkingMeters": 995, "walkingSeconds": 743, "band": 15}]}, "geometry": {"type": "Point", "coordinates": [-122.2837448, 47.5564232]}}, {"type": "Feature", "properties": {"id": "18853dbd-4a64-4831-987f-bc7093516514", "name": "Spice Waala Columbia City", "category": "restaurant", "tags": ["restaurant", "indian"], "sources": ["overture"], "website": "https://www.spicewaala.com", "phone": "(206) 268-0084", "address": "5024 Rainier Ave S", "stations": [{"stopCode": 58, "lines": "1", "name": "Columbia City Station", "walkingMeters": 936, "walkingSeconds": 677, "band": 15}]}, "geometry": {"type": "Point", "coordinates": [-122.2836533, 47.5563736]}}, {"type": "Feature", "properties": {"id": "ebda1154-975e-4371-858b-0be94f5d8ea5", "name": "Kezira Cafe Seattle", "category": "restaurant", "tags": ["restaurant", "african"], "sources": ["overture"], "website": "http://www.keziracafeseattle.com/", "phone": "+12066139581", "address": "5100 Rainier Ave S", "stations": [{"stopCode": 58, "lines": "1", "name": "Columbia City Station", "walkingMeters": 1050, "walkingSeconds": 784, "band": 15}]}, "geometry": {"type": "Point", "coordinates": [-122.2833633, 47.5561104]}}, {"type": "Feature", "properties": {"id": "49f7a4d5-a69b-4f48-ad0d-b703a0760642", "name": "Banadir Restaurant", "category": "fast_food", "tags": ["fast-food", "fast", "food"], "sources": ["overture"], "website": "http://afrikandobanadir.wordpress.com", "phone": "(206) 721-9162", "address": "5212 Rainier Ave S # S-6104", "stations": [{"stopCode": 58, "lines": "1", "name": "Columbia City Station", "walkingMeters": 1028, "walkingSeconds": 745, "band": 15}]}, "geometry": {"type": "Point", "coordinates": [-122.2829056, 47.5557098]}}, {"type": "Feature", "properties": {"id": "410225ff-39b5-4f83-b4af-601b3044f3a2", "name": "Afrikando Banadir", "category": "restaurant", "tags": ["restaurant"], "sources": ["overture"], "phone": "2064485183", "address": "5212 Rainier Ave S", "stations": [{"stopCode": 58, "lines": "1", "name": "Columbia City Station", "walkingMeters": 1113, "walkingSeconds": 831, "band": 15}]}, "geometry": {"type": "Point", "coordinates": [-122.2829285, 47.5557442]}}, {"type": "Feature", "properties": {"id": "80cabab7-e73f-448a-b706-7f4ef946e5da", "name": "Kawali Grill", "category": "restaurant", "tags": ["restaurant"], "sources": ["overture"], "website": "http://kawaligrill.com/", "phone": "(206) 723-6179", "address": "5300 Rainier Ave S"}, "geometry": {"type": "Point", "coordinates": [-122.2803802, 47.5539017]}}, {"type": "Feature", "properties": {"id": "1af8701d-d0d8-414c-9044-ee39dc220325", "name": "Columbia City Historic District", "category": "attraction", "tags": ["attraction", "landmark", "historical", "building"], "sources": ["overture"], "address": "Seattle, Washington", "stations": [{"stopCode": 58, "lines": "1", "name": "Columbia City Station", "walkingMeters": 643, "walkingSeconds": 462, "band": 10}]}, "geometry": {"type": "Point", "coordinates": [-122.2854691, 47.5592155]}}, {"type": "Feature", "properties": {"id": "556c0015-4de1-49fe-9f63-62a0551c518d", "name": "Angeline Apartments", "category": "attraction", "tags": ["attraction", "landmark", "historical", "building"], "sources": ["overture"], "website": "http://www.angelineapartments.com/apartments/wa/seattle/contact-us", "phone": "+15034835649", "address": "4801 Rainier Ave S", "stations": [{"stopCode": 58, "lines": "1", "name": "Columbia City Station", "walkingMeters": 676, "walkingSeconds": 486, "band": 10}]}, "geometry": {"type": "Point", "coordinates": [-122.2865601, 47.5593147]}}, {"type": "Feature", "properties": {"id": "0154543c-948b-4ed8-aaa3-d02477a57121", "name": "Hasegawa Professional Building", "category": "attraction", "tags": ["attraction", "landmark", "historical", "building"], "sources": ["overture"], "website": "https://web6.seattle.gov/dpd/historicalsite/queryresult.aspx", "address": "4739 Rainier Ave S", "stations": [{"stopCode": 58, "lines": "1", "name": "Columbia City Station", "walkingMeters": 583, "walkingSeconds": 435, "band": 10}]}, "geometry": {"type": "Point", "coordinates": [-122.2867203, 47.5596123]}}, {"type": "Feature", "properties": {"id": "ca970d65-cafe-48b9-a295-9f7adb3dbeab", "name": "Greenhouse Apartments", "category": "attraction", "tags": ["attraction", "landmark", "historical", "building"], "sources": ["overture"], "website": "https://www.greenhouse-apts.com/", "phone": "+12068956822", "address": "3701 S Hudson St", "stations": [{"stopCode": 58, "lines": "1", "name": "Columbia City Station", "walkingMeters": 772, "walkingSeconds": 557, "band": 10}]}, "geometry": {"type": "Point", "coordinates": [-122.2856522, 47.5568085]}}, {"type": "Feature", "properties": {"id": "584ef47e-fc93-473c-98cf-64c712e79b0e", "name": "Rainier Valley Historical Society", "category": "museum", "tags": ["museum", "history"], "sources": ["overture"], "website": "https://www.rainiervalleyhistoricalsociety.org/", "phone": "+12067231663", "address": "3710 S Ferdinand St", "stations": [{"stopCode": 58, "lines": "1", "name": "Columbia City Station", "walkingMeters": 666, "walkingSeconds": 481, "band": 10}]}, "geometry": {"type": "Point", "coordinates": [-122.2856674, 47.5578842]}}, {"type": "Feature", "properties": {"id": "439f2da2-8520-4ba9-a413-2fd2fac0a9f9", "name": "Bella Luna", "category": "attraction", "tags": ["attraction", "landmark", "historical", "building"], "sources": ["overture"], "address": "5220 42nd Ave S"}, "geometry": {"type": "Point", "coordinates": [-122.280304, 47.5543098]}}, {"type": "Feature", "properties": {"id": "20e4568a-f5cf-4361-84d6-4f95c61c6dfb", "name": "Pearl Street Commons Apartments", "category": "attraction", "tags": ["attraction", "landmark", "historical", "building"], "sources": ["overture"], "website": "http://twitter.com/PearlStCommons", "phone": "+12067250129", "address": "3919 S Pearl St", "stations": [{"stopCode": 58, "lines": "1", "name": "Columbia City Station", "walkingMeters": 1069, "walkingSeconds": 772, "band": 15}]}, "geometry": {"type": "Point", "coordinates": [-122.2825546, 47.5559578]}}, {"type": "Feature", "properties": {"id": 54905019, "name": "Hitt's Hill Park", "category": "park", "tags": ["park"], "sources": ["osm"], "website": "https://www.seattle.gov/parks/allparks/hitts-hill-park", "stations": [{"stopCode": 58, "lines": "1", "name": "Columbia City Station", "walkingMeters": 1043, "walkingSeconds": 752, "band": 15}]}, "geometry": {"type": "Point", "coordinates": [-122.2848166, 47.5541094]}}, {"type": "Feature", "properties": {"id": "00d4f47d-95b0-4c24-b288-d681caa80f32", "name": "Hitt's Hill Park", "category": "park", "tags": ["park"], "sources": ["overture"], "website": "http://www.seattle.gov/parks/park_detail.asp?ID=4413", "phone": "+12066844075", "address": "5234 37th Ave S", "stations": [{"stopCode": 58, "lines": "1", "name": "Columbia City Station", "walkingMeters": 1111, "walkingSeconds": 801, "band": 15}]}, "geometry": {"type": "Point", "coordinates": [-122.2837296, 47.5545578]}}, {"type": "Feature", "properties": {"id": 159261992, "name": "Columbia Park", "category": "park", "tags": ["park"], "sources": ["osm"], "stations": [{"stopCode": 58, "lines": "1", "name": "Columbia City Station", "walkingMeters": 590, "walkingSeconds": 424, "band": 10}]}, "geometry": {"type": "Point", "coordinates": [-122.2871466, 47.5596866]}}, {"type": "Feature", "properties": {"id": "c0aac77a-81ab-4484-a4f1-252ec62f9f18", "name": "Wild Dee Inc", "category": "park", "tags": ["park"], "sources": ["overture"], "phone": "12067233480", "address": "5620 Martin Luther King Jr Way S", "stations": [{"stopCode": 58, "lines": "1", "name": "Columbia City Station", "walkingMeters": 1295, "walkingSeconds": 966, "band": 15}]}, "geometry": {"type": "Point", "coordinates": [-122.2876282, 47.5514526]}}, {"type": "Feature", "properties": {"id": 5695380063, "name": "Columbia Hotel", "category": "hotel", "tags": ["hotel"], "sources": ["osm"], "stations": [{"stopCode": 58, "lines": "1", "name": "Columbia City Station", "walkingMeters": 740, "walkingSeconds": 534, "band": 10}]}, "geometry": {"type": "Point", "coordinates": [-122.2847828, 47.5577222]}}, {"type": "Feature", "properties": {"id": 10856272253, "name": "7-Eleven", "category": "convenience", "tags": ["convenience", "delivery"], "sources": ["osm", "overture"], "website": "https://www.7-eleven.com/", "phone": "+12067258421", "address": "5700 Martin Luther King Jr Way S", "stations": [{"stopCode": 58, "lines": "1", "name": "Columbia City Station", "walkingMeters": 1070, "walkingSeconds": 773, "band": 15}]}, "geometry": {"type": "Point", "coordinates": [-122.2874284, 47.5510445]}}, {"type": "Feature", "properties": {"id": 5695366073, "name": "All The Best Pet Care", "category": "pet", "tags": ["pet"], "sources": ["osm", "overture"], "website": "https://www.allthebestpetcare.com/", "phone": "+12063973937", "address": "4805 Rainier Ave S", "hours": "Mo-Sa 09:00-19:00; Su 10:00-19:00", "stations": [{"stopCode": 58, "lines": "1", "name": "Columbia City Station", "walkingMeters": 645, "walkingSeconds": 469, "band": 10}]}, "geometry": {"type": "Point", "coordinates": [-122.2861092, 47.559319]}}, {"type": "Feature", "properties": {"id": 5032906460, "name": "PCC Community Market", "category": "supermarket", "tags": ["supermarket", "wheelchair-accessible"], "sources": ["osm"], "phone": "+1-206-466-6182", "address": "3610 South Edmunds Street", "hours": "06:00-23:00", "stations": [{"stopCode": 58, "lines": "1", "name": "Columbia City Station", "walkingMeters": 514, "walkingSeconds": 369, "band": 10}]}, "geometry": {"type": "Point", "coordinates": [-122.2868536, 47.5589369]}}, {"type": "Feature", "properties": {"id": 5695378626, "name": "Vino Verit\u00e9", "category": "wine", "tags": ["wine", "alcohol"], "sources": ["osm", "overture"], "website": "http://www.vinoverite.com/", "phone": "+12063240324", "address": "4908 Rainier Ave S", "hours": "Mo off; Tu-Fr 13:00-19:00; Sa-Su 12:00-18:00", "stations": [{"stopCode": 58, "lines": "1", "name": "Columbia City Station", "walkingMeters": 761, "walkingSeconds": 549, "band": 10}]}, "geometry": {"type": "Point", "coordinates": [-122.2846961, 47.5575369]}}, {"type": "Feature", "properties": {"id": 234836933, "name": "ampm", "category": "convenience", "tags": ["convenience"], "sources": ["osm", "overture"], "website": "https://www.ampm.com/", "phone": "+12067250678", "address": "5600 Martin Luther King Jr Way S", "stations": [{"stopCode": 58, "lines": "1", "name": "Columbia City Station", "walkingMeters": 1055, "walkingSeconds": 761, "band": 15}]}, "geometry": {"type": "Point", "coordinates": [-122.2876091, 47.5514694]}}, {"type": "Feature", "properties": {"id": 2338546702, "name": "Columbia City Gallery", "category": "art", "tags": ["art", "wheelchair-accessible", "gallery"], "sources": ["osm", "overture"], "website": "http://www.columbiacitygallery.com/", "phone": "+12067609843", "address": "4864 Rainier Ave S", "hours": "Mo-Tu off; We-Su 11:00-19:00", "stations": [{"stopCode": 58, "lines": "1", "name": "Columbia City Station", "walkingMeters": 700, "walkingSeconds": 503, "band": 10}]}, "geometry": {"type": "Point", "coordinates": [-122.2849735, 47.5581191]}}, {"type": "Feature", "properties": {"id": 2338546759, "name": "Columbia City Mart", "category": "convenience", "tags": ["convenience"], "sources": ["osm"], "address": "3810 South Edmunds Street", "stations": [{"stopCode": 58, "lines": "1", "name": "Columbia City Station", "walkingMeters": 667, "walkingSeconds": 479, "band": 10}]}, "geometry": {"type": "Point", "coordinates": [-122.2848774, 47.5587799]}}, {"type": "Feature", "properties": {"id": 2338569322, "name": "Gather", "category": "clothes", "tags": ["clothes"], "sources": ["osm"], "address": "4863 Rainier Avenue South", "hours": "We-Sa 11:00-17:00; Su-Tu off", "stations": [{"stopCode": 58, "lines": "1", "name": "Columbia City Station", "walkingMeters": 658, "walkingSeconds": 473, "band": 10}]}, "geometry": {"type": "Point", "coordinates": [-122.2854622, 47.5582447]}}, {"type": "Feature", "properties": {"id": 2338569323, "name": "Columbia City Bouquet", "category": "florist", "tags": ["florist"], "sources": ["osm", "overture"], "website": "https://columbiacitybouquet.com", "phone": "(206) 722-2200", "address": "4873 Rainier Ave S", "hours": "Mo-Su 10:00-15:00", "stations": [{"stopCode": 58, "lines": "1", "name": "Columbia City Station", "walkingMeters": 688, "walkingSeconds": 494, "band": 10}]}, "geometry": {"type": "Point", "coordinates": [-122.2853409, 47.5579936]}}, {"type": "Feature", "properties": {"id": 12504024417, "name": "Eileen Fisher", "category": "clothes", "tags": ["clothes", "wheelchair-accessible"], "sources": ["osm"], "hours": "Su,Mo 12:00-17:00; Tu-Sa 10:00-18:00", "stations": [{"stopCode": 58, "lines": "1", "name": "Columbia City Station", "walkingMeters": 664, "walkingSeconds": 477, "band": 10}]}, "geometry": {"type": "Point", "coordinates": [-122.2851531, 47.5584205]}}, {"type": "Feature", "properties": {"id": 2429600872, "name": "books4cars.com", "category": "books", "tags": ["books"], "sources": ["osm"], "website": "https://books4cars.com/", "phone": "+1-206-605-9325", "address": "4850 37th Avenue South", "stations": [{"stopCode": 58, "lines": "1", "name": "Columbia City Station", "walkingMeters": 583, "walkingSeconds": 419, "band": 10}]}, "geometry": {"type": "Point", "coordinates": [-122.2860114, 47.5585641]}}, {"type": "Feature", "properties": {"id": 2429623388, "name": "Clara's Books", "category": "books", "tags": ["books"], "sources": ["osm", "overture"], "website": "http://socialism.com/", "phone": "+12067222453", "address": "5018 Rainier Ave S", "stations": [{"stopCode": 58, "lines": "1", "name": "Columbia City Station", "walkingMeters": 884, "walkingSeconds": 639, "band": 15}]}, "geometry": {"type": "Point", "coordinates": [-122.2839195, 47.556547]}}, {"type": "Feature", "properties": {"id": 2429623409, "name": "L.E.M.S. Bookstore", "category": "books", "tags": ["books"], "sources": ["osm"], "address": "5023 Rainier Avenue South", "stations": [{"stopCode": 58, "lines": "1", "name": "Columbia City Station", "walkingMeters": 934, "walkingSeconds": 675, "band": 15}]}, "geometry": {"type": "Point", "coordinates": [-122.284312, 47.5563724]}}, {"type": "Feature", "properties": {"id": 4974315178, "name": "Bilaal Mini Market", "category": "convenience", "tags": ["convenience"], "sources": ["osm", "overture"], "phone": "+12067222184", "address": "5041 Rainier Ave S", "stations": [{"stopCode": 58, "lines": "1", "name": "Columbia City Station", "walkingMeters": 937, "walkingSeconds": 677, "band": 15}]}, "geometry": {"type": "Point", "coordinates": [-122.2841053, 47.5560354]}}, {"type": "Feature", "properties": {"id": 4974355670, "name": "Carmelita's Mexican Market", "category": "convenience", "tags": ["convenience"], "sources": ["osm"], "address": "5041 Rainier Avenue South", "stations": [{"stopCode": 58, "lines": "1", "name": "Columbia City Station", "walkingMeters": 929, "walkingSeconds": 672, "band": 15}]}, "geometry": {"type": "Point", "coordinates": [-122.283918, 47.5560341]}}, {"type": "Feature", "properties": {"id": 13315486980, "name": "Canbee Smoke Shop", "category": "convenience", "tags": ["convenience"], "sources": ["osm"], "hours": "Mo-Su 12:00-21:00", "stations": [{"stopCode": 58, "lines": "1", "name": "Columbia City Station", "walkingMeters": 974, "walkingSeconds": 706, "band": 15}]}, "geometry": {"type": "Point", "coordinates": [-122.2833205, 47.5561014]}}, {"type": "Feature", "properties": {"id": 234834347, "name": "Bike Works", "category": "bicycle", "tags": ["bicycle"], "sources": ["osm"], "website": "https://bikeworks.org/", "phone": "+1-206-725-8867", "address": "3709 South Ferdinand Street", "hours": "Mo-Tu 12:00-18:00; Th-Fr 12:00-18:00; Sa-Su 11:00-17:00", "stations": [{"stopCode": 58, "lines": "1", "name": "Columbia City Station", "walkingMeters": 687, "walkingSeconds": 496, "band": 10}]}, "geometry": {"type": "Point", "coordinates": [-122.2857174, 47.557684]}}, {"type": "Feature", "properties": {"id": 234834767, "name": "Smoke & Beyond", "category": "tobacco", "tags": ["tobacco"], "sources": ["osm"], "phone": "+1-206-722-2242", "address": "5015 Rainier Avenue South", "hours": "Mo-Su 10:00-22:00", "stations": [{"stopCode": 58, "lines": "1", "name": "Columbia City Station", "walkingMeters": 827, "walkingSeconds": 597, "band": 10}]}, "geometry": {"type": "Point", "coordinates": [-122.2846905, 47.5566559]}}, {"type": "Feature", "properties": {"id": "ef63bd12-6d21-4983-961c-756f0f2f7801", "name": "Cash America Pawn", "category": "jewelry", "tags": ["jewelry"], "sources": ["overture"], "website": "http://www.cashamerica.com/", "phone": "2067219400", "address": "5718 Martin Luther King Jr Way S", "stations": [{"stopCode": 58, "lines": "1", "name": "Columbia City Station", "walkingMeters": 1119, "walkingSeconds": 813, "band": 15}]}, "geometry": {"type": "Point", "coordinates": [-122.2875748, 47.5504456]}}, {"type": "Feature", "properties": {"id": "e201ad10-20d2-4cdc-95cd-21eee29c8082", "name": "Phase Two Interiors", "category": "furniture", "tags": ["furniture"], "sources": ["overture"], "website": "https://www.phasetwointeriors.com", "phone": "12064578419", "address": "3808 S Edmunds St  # 1730", "stations": [{"stopCode": 58, "lines": "1", "name": "Columbia City Station", "walkingMeters": 760, "walkingSeconds": 567, "band": 10}]}, "geometry": {"type": "Point", "coordinates": [-122.2850113, 47.558857]}}, {"type": "Feature", "properties": {"id": "2561ac00-af5a-440c-83c1-ee4c3182c241", "name": "Chrysanthemum", "category": "clothes", "tags": ["clothes", "childrens"], "sources": ["overture"], "website": "http://Chrysanthemumkids.com/", "phone": "+12067221031", "address": "4860 Rainier Ave S Ste A", "stations": [{"stopCode": 58, "lines": "1", "name": "Columbia City Station", "walkingMeters": 695, "walkingSeconds": 499, "band": 10}]}, "geometry": {"type": "Point", "coordinates": [-122.2849503, 47.5583534]}}, {"type": "Feature", "properties": {"id": "8e8e9b5b-c104-423e-84ca-5f3a9dec687a", "name": "Eileen Fisher Renew", "category": "clothes", "tags": ["clothes", "womens"], "sources": ["overture"], "website": "https://locations.eileenfisher.com/wa/seattle/womens-clothing-eus954.html", "phone": "+12067222551", "address": "4860 Rainier Ave S", "stations": [{"stopCode": 58, "lines": "1", "name": "Columbia City Station", "walkingMeters": 673, "walkingSeconds": 484, "band": 10}]}, "geometry": {"type": "Point", "coordinates": [-122.2851334, 47.5583382]}}, {"type": "Feature", "properties": {"id": "686add8b-d2a0-48d0-9db9-6051963e96f7", "name": "Bookworm Exchange", "category": "books", "tags": ["books"], "sources": ["overture"], "website": "http://www.abebooks.com/bookworm-exchange-seattle-wa-u.s.a/5938254/sf", "phone": "(206) 722-6633", "address": "4860 Rainier Ave S", "stations": [{"stopCode": 58, "lines": "1", "name": "Columbia City Station", "walkingMeters": 671, "walkingSeconds": 482, "band": 10}]}, "geometry": {"type": "Point", "coordinates": [-122.2850876, 47.5583649]}}, {"type": "Feature", "properties": {"id": "e8aaf047-176e-4354-8eb2-eb996a69bb3e", "name": "Retroactive Kids", "category": "clothes", "tags": ["clothes", "childrens"], "sources": ["overture"], "website": "http://retroactivekids.com", "phone": "(206) 932-3154", "address": "4859 Rainier Ave S", "stations": [{"stopCode": 58, "lines": "1", "name": "Columbia City Station", "walkingMeters": 658, "walkingSeconds": 472, "band": 10}]}, "geometry": {"type": "Point", "coordinates": [-122.2854919, 47.5582466]}}, {"type": "Feature", "properties": {"id": "f41b1736-13e7-4c40-99ca-6261a84a4bab", "name": "Alma", "category": "jewelry", "tags": ["jewelry"], "sources": ["overture"], "phone": "+12069487040", "address": "4822 Rainier Ave S", "stations": [{"stopCode": 58, "lines": "1", "name": "Columbia City Station", "walkingMeters": 726, "walkingSeconds": 542, "band": 10}]}, "geometry": {"type": "Point", "coordinates": [-122.2853622, 47.5588608]}}, {"type": "Feature", "properties": {"id": "25141432-70d0-4267-b94a-78946d5184a3", "name": "Books4cars.com - Automotive Book Store", "category": "books", "tags": ["books"], "sources": ["overture"], "website": "https://www.books4cars.com", "phone": "12067213077", "address": "4850 37th Ave S", "stations": [{"stopCode": 58, "lines": "1", "name": "Columbia City Station", "walkingMeters": 580, "walkingSeconds": 417, "band": 10}]}, "geometry": {"type": "Point", "coordinates": [-122.2859116, 47.5584183]}}, {"type": "Feature", "properties": {"id": "66528266-60bf-48d2-af1f-d3672198b810", "name": "Seward Park Pcc", "category": "supermarket", "tags": ["supermarket"], "sources": ["overture"], "phone": "+12062570698", "address": "3610 S Edmunds St", "stations": [{"stopCode": 58, "lines": "1", "name": "Columbia City Station", "walkingMeters": 691, "walkingSeconds": 496, "band": 10}]}, "geometry": {"type": "Point", "coordinates": [-122.2867355, 47.5591049]}}, {"type": "Feature", "properties": {"id": "d1e81692-95eb-485f-a055-4f2d81098211", "name": "PCC Community Markets - Columbia City", "category": "supermarket", "tags": ["supermarket"], "sources": ["overture"], "website": "https://www.pccmarkets.com/stores/columbia-city/?utm_source=bing&utm_medium=local&utm_campaign=columbia_city", "phone": "2064666182", "address": "3610 S Edmunds St", "stations": [{"stopCode": 58, "lines": "1", "name": "Columbia City Station", "walkingMeters": 588, "walkingSeconds": 439, "band": 10}]}, "geometry": {"type": "Point", "coordinates": [-122.2867661, 47.5590057]}}, {"type": "Feature", "properties": {"id": "cfc070fa-4428-46db-986a-f21fad73dcfb", "name": "Nazareth Market", "category": "supermarket", "tags": ["supermarket"], "sources": ["overture"], "phone": "12067259161", "address": "5418 Martin Luther King Jr Way S", "stations": [{"stopCode": 58, "lines": "1", "name": "Columbia City Station", "walkingMeters": 842, "walkingSeconds": 608, "band": 15}]}, "geometry": {"type": "Point", "coordinates": [-122.2885208, 47.5528526]}}, {"type": "Feature", "properties": {"id": "f6c17c16-c84c-4d7c-a7e3-2968553eab6f", "name": "P31label", "category": "clothes", "tags": ["clothes", "womens"], "sources": ["overture"], "website": "http://www.p31label.com/", "address": "281 Southcenter Mall", "stations": [{"stopCode": 58, "lines": "1", "name": "Columbia City Station", "walkingMeters": 942, "walkingSeconds": 680, "band": 15}]}, "geometry": {"type": "Point", "coordinates": [-122.286232, 47.5536995]}}, {"type": "Feature", "properties": {"id": "247e6b9d-1cff-4343-9201-f07a378abdf8", "name": "LEMS Life Enrichment Bookstore", "category": "books", "tags": ["books"], "sources": ["overture"], "website": "http://www.cityseekr.com/seattle/shopping/poi-life-enrichment-bookstore-736447.html", "phone": "+12067221700", "address": "5023 Rainier Ave S", "stations": [{"stopCode": 58, "lines": "1", "name": "Columbia City Station", "walkingMeters": 875, "walkingSeconds": 633, "band": 10}]}, "geometry": {"type": "Point", "coordinates": [-122.2842941, 47.5564499]}}, {"type": "Feature", "properties": {"id": "fed64b94-d670-4da7-b4b6-8929e10d02d7", "name": "Carmelitas Mexican Store", "category": "supermarket", "tags": ["supermarket"], "sources": ["overture"], "website": "calvinpres.org", "address": "5041 Rainier Ave S", "stations": [{"stopCode": 58, "lines": "1", "name": "Columbia City Station", "walkingMeters": 928, "walkingSeconds": 671, "band": 15}]}, "geometry": {"type": "Point", "coordinates": [-122.2843323, 47.5560036]}}, {"type": "Feature", "properties": {"id": 5695380062, "name": "Maia Midwifery & Fertility", "category": "clinic", "tags": ["clinic"], "sources": ["osm"], "stations": [{"stopCode": 58, "lines": "1", "name": "Columbia City Station", "walkingMeters": 746, "walkingSeconds": 538, "band": 10}]}, "geometry": {"type": "Point", "coordinates": [-122.2847603, 47.5576704]}}, {"type": "Feature", "properties": {"id": "99f467ca-cccd-42f8-8a06-74b29793ae87", "name": "Columbia Pharmacy", "category": "pharmacy", "tags": ["pharmacy"], "sources": ["overture"], "website": "http://www.mygnp.com/store-locator", "phone": "2067235233", "address": "4741 Rainier Ave S", "stations": [{"stopCode": 58, "lines": "1", "name": "Columbia City Station", "walkingMeters": 672, "walkingSeconds": 489, "band": 10}]}, "geometry": {"type": "Point", "coordinates": [-122.2866364, 47.5596008]}}, {"type": "Feature", "properties": {"id": 234831024, "name": "Bank of America", "category": "bank", "tags": ["bank", "credit", "union"], "sources": ["osm", "overture"], "website": "https://locators.bankofamerica.com/wa/seattle/financial-centers-seattle-7730.html", "phone": "+18444018500", "address": "4825 Rainier Ave S", "hours": "Mo-Fr 09:00-17:00; Sa 10:00-14:00", "stations": [{"stopCode": 58, "lines": "1", "name": "Columbia City Station", "walkingMeters": 580, "walkingSeconds": 417, "band": 10}]}, "geometry": {"type": "Point", "coordinates": [-122.2859777, 47.5588318]}}, {"type": "Feature", "properties": {"id": 234830926, "name": "WaFd Bank", "category": "bank", "tags": ["bank", "credit", "union"], "sources": ["osm", "overture"], "website": "https://www.wafdbank.com/locations/washington/seattle/columbia-city?utm_source=ExtNet&utm_medium=yext", "phone": "2067226585", "address": "4800 Rainier Ave S", "stations": [{"stopCode": 58, "lines": "1", "name": "Columbia City Station", "walkingMeters": 653, "walkingSeconds": 470, "band": 10}]}, "geometry": {"type": "Point", "coordinates": [-122.2854568, 47.559168]}}, {"type": "Feature", "properties": {"id": 2429600179, "name": "Columbia City Post & Parcel", "category": "post_office", "tags": ["post-office"], "sources": ["osm"], "address": "3703 South Edmunds Street", "hours": "Mo-Fr 09:30-17:30; Sa 09:30-14:30", "stations": [{"stopCode": 58, "lines": "1", "name": "Columbia City Station", "walkingMeters": 590, "walkingSeconds": 424, "band": 10}]}, "geometry": {"type": "Point", "coordinates": [-122.2859643, 47.5585682]}}, {"type": "Feature", "properties": {"id": 234830825, "name": "The Seattle Public Library - Columbia Branch", "category": "library", "tags": ["library", "air-conditioned", "wifi"], "sources": ["osm"], "website": "https://www.spl.org/hours-and-locations/columbia-branch", "phone": "+1-206-386-1908", "address": "4721 Rainier Avenue South", "hours": "Th-Mo 10:00-18:00; Tu-We 12:00-20:00", "stations": [{"stopCode": 58, "lines": "1", "name": "Columbia City Station", "walkingMeters": 661, "walkingSeconds": 476, "band": 10}]}, "geometry": {"type": "Point", "coordinates": [-122.2869669, 47.5599054]}}, {"type": "Feature", "properties": {"id": "60f3eb4e-295c-4660-9b93-83f79ac5e502", "name": "Hive Financial", "category": "bank", "tags": ["bank", "credit", "union"], "sources": ["overture"], "website": "https://www.hivefinancialgroup.com/", "phone": "2067634350", "address": "227 S Orcas St", "stations": [{"stopCode": 58, "lines": "1", "name": "Columbia City Station", "walkingMeters": 729, "walkingSeconds": 526, "band": 10}]}, "geometry": {"type": "Point", "coordinates": [-122.2841187, 47.5585327]}}, {"type": "Feature", "properties": {"id": "50a0c1cb-69cb-4a9a-bbde-b06b750108e0", "name": "UPS Access Point location", "category": "post_office", "tags": ["post-office", "office"], "sources": ["overture"], "website": "https://locations.ups.com/wa/seattle/access-point-location-163609.html?utm_source=bing&utm_medium=organic&utm_campaign=rio", "address": "3810 S Edmunds St", "stations": [{"stopCode": 58, "lines": "1", "name": "Columbia City Station", "walkingMeters": 664, "walkingSeconds": 477, "band": 10}]}, "geometry": {"type": "Point", "coordinates": [-122.2849121, 47.5587997]}}, {"type": "Feature", "properties": {"id": "2bc1b49c-8fc2-4adf-865b-f631a174cec5", "name": "Columbia City Parcel & Post", "category": "post_office", "tags": ["post-office", "office"], "sources": ["overture"], "website": "https://local.fedex.com/en-us/wa/seattle/36864", "phone": "(206) 725-8657", "address": "3703 S Edmunds St", "stations": [{"stopCode": 58, "lines": "1", "name": "Columbia City Station", "walkingMeters": 589, "walkingSeconds": 423, "band": 10}]}, "geometry": {"type": "Point", "coordinates": [-122.2859802, 47.5585556]}}, {"type": "Feature", "properties": {"id": "b3d256ba-3912-4b88-a2f8-1315907a8e9a", "name": "Columbia Branch - The Seattle Public Library", "category": "library", "tags": ["library"], "sources": ["overture"], "website": "https://www.spl.org", "phone": "12063861908", "address": "4721 Rainier Ave S", "stations": [{"stopCode": 58, "lines": "1", "name": "Columbia City Station", "walkingMeters": 661, "walkingSeconds": 476, "band": 10}]}, "geometry": {"type": "Point", "coordinates": [-122.2869415, 47.5598717]}}, {"type": "Feature", "properties": {"id": "17456f6d-dbbb-410e-96a8-6d766cc68648", "name": "Columbia Branch", "category": "library", "tags": ["library"], "sources": ["overture"], "website": "http://www.spl.org", "phone": "+12063861908", "address": "4721 Rainier Ave S", "stations": [{"stopCode": 58, "lines": "1", "name": "Columbia City Station", "walkingMeters": 657, "walkingSeconds": 472, "band": 10}]}, "geometry": {"type": "Point", "coordinates": [-122.2868805, 47.5599594]}}, {"type": "Feature", "properties": {"id": 2338546729, "name": "Columbia City Fitness", "category": "fitness_centre", "tags": ["fitness-centre"], "sources": ["osm"], "address": "4860 Rainier Avenue South", "stations": [{"stopCode": 58, "lines": "1", "name": "Columbia City Station", "walkingMeters": 691, "walkingSeconds": 496, "band": 10}]}, "geometry": {"type": "Point", "coordinates": [-122.28501, 47.5582002]}}, {"type": "Feature", "properties": {"id": 2429600918, "name": "Lotus Yoga", "category": "fitness_centre", "tags": ["fitness-centre", "yoga"], "sources": ["osm"], "website": "https://www.lotusyoga.biz/", "phone": "+1-206-725-7894", "address": "4860 Rainier Avenue South", "stations": [{"stopCode": 58, "lines": "1", "name": "Columbia City Station", "walkingMeters": 671, "walkingSeconds": 482, "band": 10}]}, "geometry": {"type": "Point", "coordinates": [-122.2851087, 47.5583576]}}, {"type": "Feature", "properties": {"id": "6c2b3948-58a9-4e9c-bc08-ccff11c4d9cb", "name": "Lotus Yoga", "category": "fitness_centre", "tags": ["fitness-centre", "gym"], "sources": ["overture"], "website": "http://www.lotusyoga.biz/", "address": "4860 Rainier Ave S Ste D", "stations": [{"stopCode": 58, "lines": "1", "name": "Columbia City Station", "walkingMeters": 684, "walkingSeconds": 497, "band": 10}]}, "geometry": {"type": "Point", "coordinates": [-122.2867279, 47.5595932]}}, {"type": "Feature", "properties": {"id": 5695379351, "name": "Root Yoga", "category": "fitness_centre", "tags": ["fitness-centre", "yoga"], "sources": ["osm"], "address": "4915 Rainier Avenue South", "stations": [{"stopCode": 58, "lines": "1", "name": "Columbia City Station", "walkingMeters": 757, "walkingSeconds": 546, "band": 10}]}, "geometry": {"type": "Point", "coordinates": [-122.2850069, 47.5573632]}}, {"type": "Feature", "properties": {"id": "943514ba-ef5b-463d-a275-13bf1f44e932", "name": "Upright Being", "category": "fitness_centre", "tags": ["fitness-centre", "yoga", "studio"], "sources": ["overture"], "website": "http://www.uprightbeing.com/", "phone": "+12066186449", "address": "3827-D S Edmunds St", "stations": [{"stopCode": 58, "lines": "1", "name": "Columbia City Station", "walkingMeters": 759, "walkingSeconds": 545, "band": 10}]}, "geometry": {"type": "Point", "coordinates": [-122.2840958, 47.5583038]}}, {"type": "Feature", "properties": {"id": "aeb13e7d-4944-4246-9653-c37deca1856a", "name": "Columbia City Pilates", "category": "fitness_centre", "tags": ["fitness-centre", "pilates", "studio"], "sources": ["overture"], "website": "http://www.columbiacitypilates.com", "phone": "(206) 708-4023", "address": "3827 S Edmunds St", "stations": [{"stopCode": 58, "lines": "1", "name": "Columbia City Station", "walkingMeters": 750, "walkingSeconds": 539, "band": 10}]}, "geometry": {"type": "Point", "coordinates": [-122.2842102, 47.5583534]}}, {"type": "Feature", "properties": {"id": "917d34d9-6866-4c56-a45e-de95e0addba7", "name": "Columbia City Yoga", "category": "fitness_centre", "tags": ["fitness-centre", "yoga", "studio"], "sources": ["overture"], "website": "http://www.columbiacityyoga.com/", "phone": "+12067257894", "address": "4860 Rainier Ave S # D", "stations": [{"stopCode": 58, "lines": "1", "name": "Columbia City Station", "walkingMeters": 673, "walkingSeconds": 483, "band": 10}]}, "geometry": {"type": "Point", "coordinates": [-122.285141, 47.5583496]}}, {"type": "Feature", "properties": {"id": "1682685e-e8e9-4722-b0b8-b0b191093a77", "name": "Wellfit Seattle", "category": "fitness_centre", "tags": ["fitness-centre", "fitness", "trainer"], "sources": ["overture"], "website": "http://www.wellfitseattle.com", "phone": "(206) 940-9386", "address": "4860 Rainier Ave S", "stations": [{"stopCode": 58, "lines": "1", "name": "Columbia City Station", "walkingMeters": 671, "walkingSeconds": 482, "band": 10}]}, "geometry": {"type": "Point", "coordinates": [-122.2850876, 47.5583649]}}, {"type": "Feature", "properties": {"id": "4d3e29d7-f3b6-4ece-9ccc-c2951a11bb88", "name": "Be Truly Fit", "category": "fitness_centre", "tags": ["fitness-centre", "gym"], "sources": ["overture"], "website": "https://www.betrulyfit.com/", "phone": "+12063990610", "address": "3702 S Hudson St #106", "stations": [{"stopCode": 58, "lines": "1", "name": "Columbia City Station", "walkingMeters": 744, "walkingSeconds": 555, "band": 10}]}, "geometry": {"type": "Point", "coordinates": [-122.2859879, 47.5572739]}}, {"type": "Feature", "properties": {"id": "26a541e8-ae7c-4e58-ad26-fc9474a729c5", "name": "Mariners Training Center", "category": "fitness_centre", "tags": ["fitness-centre", "fitness", "trainer"], "sources": ["overture"], "website": "https://www.marinerstrainingcenter.com/programs", "phone": "+12062570129", "address": "5034 37th Ave S", "stations": [{"stopCode": 58, "lines": "1", "name": "Columbia City Station", "walkingMeters": 920, "walkingSeconds": 687, "band": 15}]}, "geometry": {"type": "Point", "coordinates": [-122.2853546, 47.5557327]}}]}