{"type": "FeatureCollection", "features": [{"type": "Feature", "properties": {"id": 2995199840, "name": "Plaza Cafe", "category": "restaurant", "tags": ["restaurant"], "sources": ["osm"], "address": "1959 Northeast Pacific Street", "stations": [{"stopCode": 48, "lines": "1,2", "name": "University of Washington Station", "walkingMeters": 438, "walkingSeconds": 315, "band": 5}]}, "geometry": {"type": "Point", "coordinates": [-122.3077192, 47.649378]}}, {"type": "Feature", "properties": {"id": 12918346784, "name": "Lobby Espresso", "category": "cafe", "tags": ["cafe", "outdoor-seating"], "sources": ["osm"], "address": "1959 Northeast Pacific Street", "hours": "Mo-Fr 00:30-04:00,06:30-23:30; Sa 00:30-04:00,08:30-16:00,21:00-23:30; Su 00:30-04:00,08:30-16:00,21:00-23:30", "stations": [{"stopCode": 48, "lines": "1,2", "name": "University of Washington Station", "walkingMeters": 438, "walkingSeconds": 315, "band": 5}]}, "geometry": {"type": "Point", "coordinates": [-122.3076508, 47.6495466]}}, {"type": "Feature", "properties": {"id": 3211770244, "name": "Skylight Aperture Sundial", "category": "artwork", "tags": ["artwork"], "sources": ["osm"]}, "geometry": {"type": "Point", "coordinates": [-122.3024, 47.64045]}}, {"type": "Feature", "properties": {"id": 3211770249, "name": "Story of North Island (Totem Pole)", "category": "artwork", "tags": ["artwork", "gallery", "art"], "sources": ["osm", "overture"], "website": "http://www.seattle.gov/arts/", "phone": "(206) 684-7171", "stations": [{"stopCode": 48, "lines": "1,2", "name": "University of Washington Station", "walkingMeters": 681, "walkingSeconds": 491, "band": 10}]}, "geometry": {"type": "Point", "coordinates": [-122.3010658, 47.6468978]}}, {"type": "Feature", "properties": {"id": 8667910127, "name": "Reflect", "category": "artwork", "tags": ["artwork"], "sources": ["osm"], "stations": [{"stopCode": 48, "lines": "1,2", "name": "University of Washington Station", "walkingMeters": 190, "walkingSeconds": 137, "band": 5}]}, "geometry": {"type": "Point", "coordinates": [-122.3054534, 47.6490144]}}, {"type": "Feature", "properties": {"id": 11788064327, "name": "Stetho", "category": "artwork", "tags": ["artwork"], "sources": ["osm"], "stations": [{"stopCode": 48, "lines": "1,2", "name": "University of Washington Station", "walkingMeters": 336, "walkingSeconds": 242, "band": 5}]}, "geometry": {"type": "Point", "coordinates": [-122.3063517, 47.6488574]}}, {"type": "Feature", "properties": {"id": 369404461, "name": "The Glade Sculpture", "category": "artwork", "tags": ["artwork", "garden"], "sources": ["osm"], "stations": [{"stopCode": 48, "lines": "1,2", "name": "University of Washington Station", "walkingMeters": 311, "walkingSeconds": 224, "band": 5}]}, "geometry": {"type": "Point", "coordinates": [-122.3061693, 47.6483843]}}, {"type": "Feature", "properties": {"id": "2b953680-6563-408c-a29f-cb4d58a7d91c", "name": "Seattle Yacht Club - Main Station", "category": "attraction", "tags": ["attraction", "landmark", "historical", "building"], "sources": ["overture"], "address": "1807 E Hamlin St", "stations": [{"stopCode": 48, "lines": "1,2", "name": "University of Washington Station", "walkingMeters": 767, "walkingSeconds": 572, "band": 15}]}, "geometry": {"type": "Point", "coordinates": [-122.3080826, 47.6453819]}}, {"type": "Feature", "properties": {"id": "25cc40c5-cf8e-4029-88dc-e50cf592251d", "name": "Montlake Cut Viewpoint", "category": "attraction", "tags": ["attraction", "landmark", "historical", "building"], "sources": ["overture"], "address": "2908 Montlake Blvd E", "stations": [{"stopCode": 48, "lines": "1,2", "name": "University of Washington Station", "walkingMeters": 435, "walkingSeconds": 313, "band": 5}]}, "geometry": {"type": "Point", "coordinates": [-122.3041382, 47.6470566]}}, {"type": "Feature", "properties": {"id": "74ad6fad-41af-4d40-bfab-9eda3d067b33", "name": "ASUW Shell House", "category": "attraction", "tags": ["attraction", "landmark", "historical", "building"], "sources": ["overture"], "website": "https://www.washington.edu/ima/waterfront/asuw-shell-house/", "phone": "+12065439433", "address": "3655 Walla Walla Rd NE", "stations": [{"stopCode": 48, "lines": "1,2", "name": "University of Washington Station", "walkingMeters": 484, "walkingSeconds": 352, "band": 5}]}, "geometry": {"type": "Point", "coordinates": [-122.3000793, 47.6477776]}}, {"type": "Feature", "properties": {"id": 40831086, "name": "East Montlake Park", "category": "park", "tags": ["park"], "sources": ["osm"], "website": "https://www.seattle.gov/parks/find/parks/east-montlake-park", "address": "2802 East Park Drive East", "hours": "Mo-Su 22:00-05:00+", "stations": [{"stopCode": 48, "lines": "1,2", "name": "University of Washington Station", "walkingMeters": 774, "walkingSeconds": 579, "band": 10}]}, "geometry": {"type": "Point", "coordinates": [-122.3003945, 47.6461291]}}, {"type": "Feature", "properties": {"id": 40833029, "name": "Montlake Playfield", "category": "park", "tags": ["park"], "sources": ["osm", "overture"], "website": "http://seattle.gov/parks/park_detail.asp?id=376", "phone": "+12066844075", "address": "1618 E Calhoun St"}, "geometry": {"type": "Point", "coordinates": [-122.3091235, 47.6420945]}}, {"type": "Feature", "properties": {"id": "1c8afdc2-3a22-4f7f-ad97-88ead522844d", "name": "Japanese Garden in the Arboretum", "category": "park", "tags": ["park", "japanese"], "sources": ["overture"], "address": "NE Pacific St", "stations": [{"stopCode": 48, "lines": "1,2", "name": "University of Washington Station", "walkingMeters": 233, "walkingSeconds": 174, "band": 5}]}, "geometry": {"type": "Point", "coordinates": [-122.3053589, 47.648613]}}, {"type": "Feature", "properties": {"id": "6f0e1b94-86ee-4667-b561-8fd92a4ca7cf", "name": "Marsh Island", "category": "park", "tags": ["park"], "sources": ["overture"], "website": "https://www.eventseeker.com/venue/34116-foster-island-seattle", "phone": "+12065438800", "address": "2700 24th Ave E", "stations": [{"stopCode": 48, "lines": "1,2", "name": "University of Washington Station", "walkingMeters": 693, "walkingSeconds": 517, "band": 10}]}, "geometry": {"type": "Point", "coordinates": [-122.301384, 47.6452942]}}, {"type": "Feature", "properties": {"id": 96677582, "name": "Mont's Market", "category": "convenience", "tags": ["convenience", "supermarket"], "sources": ["osm", "overture"], "phone": "12068607876", "address": "2350 24th Ave E  # B", "stations": [{"stopCode": 48, "lines": "1,2", "name": "University of Washington Station", "walkingMeters": 1188, "walkingSeconds": 855, "band": 15}]}, "geometry": {"type": "Point", "coordinates": [-122.3016785, 47.6401169]}}, {"type": "Feature", "properties": {"id": "7af054e9-09d5-4fe9-af43-10e805efdbab", "name": "Non-Food", "category": "supermarket", "tags": ["supermarket"], "sources": ["overture"], "website": "http://nonfoodltd.com", "phone": "(206) 323-6359", "address": "1809 E McGraw St"}, "geometry": {"type": "Point", "coordinates": [-122.3085251, 47.6400986]}}, {"type": "Feature", "properties": {"id": "f0a30c44-f16c-4be7-8413-18c4b6d13586", "name": "Montlake Blvd Market", "category": "supermarket", "tags": ["supermarket"], "sources": ["overture"], "address": "2605 22nd Ave E", "stations": [{"stopCode": 48, "lines": "1,2", "name": "University of Washington Station", "walkingMeters": 813, "walkingSeconds": 585, "band": 15}]}, "geometry": {"type": "Point", "coordinates": [-122.3042908, 47.6433716]}}, {"type": "Feature", "properties": {"id": "bd88fa96-ea08-428a-befc-069c1e82abcc", "name": "UWMC Gift Shop", "category": "gift", "tags": ["gift"], "sources": ["overture"], "website": "http://www.uwmcgiftshop.com", "phone": "(206) 598-5391", "address": "1959 NE Pacific St", "stations": [{"stopCode": 48, "lines": "1,2", "name": "University of Washington Station", "walkingMeters": 275, "walkingSeconds": 198, "band": 5}]}, "geometry": {"type": "Point", "coordinates": [-122.3063812, 47.6493378]}}, {"type": "Feature", "properties": {"id": 4057467431, "name": "Sports Medicine Center", "category": "clinic", "tags": ["clinic"], "sources": ["osm"], "address": "3800 Montlake Boulevard Northeast", "stations": [{"stopCode": 48, "lines": "1,2", "name": "University of Washington Station", "walkingMeters": 161, "walkingSeconds": 115, "band": 5}]}, "geometry": {"type": "Point", "coordinates": [-122.302016, 47.6494457]}}, {"type": "Feature", "properties": {"id": "6638a24d-92b2-4719-8c58-36b3131e78bc", "name": "UW Medicine", "category": "clinic", "tags": ["clinic", "medical"], "sources": ["overture"], "website": "http://www.uwmedicine.org/locations/general-surgery-uwmc", "phone": "+12065984973", "address": "1959 NE Pacific St", "stations": [{"stopCode": 48, "lines": "1,2", "name": "University of Washington Station", "walkingMeters": 285, "walkingSeconds": 205, "band": 5}]}, "geometry": {"type": "Point", "coordinates": [-122.3065491, 47.649395]}}, {"type": "Feature", "properties": {"id": "42072b68-28ff-40dd-9864-bb26acb4d354", "name": "University of Washington Department of Obstetrics & Gynecology", "category": "clinic", "tags": ["clinic", "medical"], "sources": ["overture"], "website": "http://obgyn.uw.edu/", "phone": "+12066168305", "address": "1959 NE Pacific St", "stations": [{"stopCode": 48, "lines": "1,2", "name": "University of Washington Station", "walkingMeters": 292, "walkingSeconds": 210, "band": 5}]}, "geometry": {"type": "Point", "coordinates": [-122.306694, 47.6493835]}}, {"type": "Feature", "properties": {"id": "d17d0eda-d250-436a-8d86-3c707e9ba261", "name": "UWMC Main Entrance", "category": "hospital", "tags": ["hospital"], "sources": ["overture"], "website": "https://www.uwmedicine.org/locations/uw-medical-center#directions-tab", "phone": "(206) 598-3300", "address": "1959 NE Pacific St", "stations": [{"stopCode": 48, "lines": "1,2", "name": "University of Washington Station", "walkingMeters": 296, "walkingSeconds": 212, "band": 5}]}, "geometry": {"type": "Point", "coordinates": [-122.3065262, 47.6496124]}}, {"type": "Feature", "properties": {"id": "32d4f6c0-1c9b-4756-95ff-bb6ebc8a6b1f", "name": "University of Washington Medical Center: Sharma Arun MD", "category": "clinic", "tags": ["clinic", "medical"], "sources": ["overture"], "website": "http://www.uwmedicine.org/", "phone": "+12065983300", "address": "1959 NE Pacific St", "stations": [{"stopCode": 48, "lines": "1,2", "name": "University of Washington Station", "walkingMeters": 296, "walkingSeconds": 221, "band": 5}]}, "geometry": {"type": "Point", "coordinates": [-122.3067856, 47.6496201]}}, {"type": "Feature", "properties": {"id": "62b82c3d-2b62-4388-8489-7145589703ab", "name": "Rehabilitation Medicine Clinic at UW Medical Center - Montlake", "category": "clinic", "tags": ["clinic", "medical"], "sources": ["overture"], "website": "http://www.uwmedicine.org/locations/rehabilitation-medicine-uwmc", "phone": "(206) 598-4615", "address": "1959 NE Pacific St Fl 3", "stations": [{"stopCode": 48, "lines": "1,2", "name": "University of Washington Station", "walkingMeters": 324, "walkingSeconds": 242, "band": 5}]}, "geometry": {"type": "Point", "coordinates": [-122.3070374, 47.6493988]}}, {"type": "Feature", "properties": {"id": "8e38822a-b63c-4839-945b-edb910d590c4", "name": "UW Labor And Delivery", "category": "hospital", "tags": ["hospital"], "sources": ["overture"], "stations": [{"stopCode": 48, "lines": "1,2", "name": "University of Washington Station", "walkingMeters": 346, "walkingSeconds": 258, "band": 5}]}, "geometry": {"type": "Point", "coordinates": [-122.3072205, 47.6492538]}}, {"type": "Feature", "properties": {"id": "38415834-4571-4314-9482-910e0b4c4526", "name": "Genetic Medicine Clinic at UW Medical Center - Montlake", "category": "clinic", "tags": ["clinic", "medical"], "sources": ["overture"], "website": "http://www.uwmedicine.org/locations/genetic-medicine-uwmc", "phone": "2065984030", "address": "1701 NE Columbia Rd., Center on Human Development and Disa", "stations": [{"stopCode": 48, "lines": "1,2", "name": "University of Washington Station", "walkingMeters": 524, "walkingSeconds": 377, "band": 10}]}, "geometry": {"type": "Point", "coordinates": [-122.3080673, 47.6486359]}}, {"type": "Feature", "properties": {"id": "f847e602-7e4b-4c6d-8133-c149977e0b7f", "name": "UW Medical Center", "category": "clinic", "tags": ["clinic", "medical"], "sources": ["overture"], "website": "https://www.uwmedicine.org/locations/infant-development-uwmc", "phone": "+12065984317", "address": "1701 NE Columbia Rd", "stations": [{"stopCode": 48, "lines": "1,2", "name": "University of Washington Station", "walkingMeters": 453, "walkingSeconds": 338, "band": 10}]}, "geometry": {"type": "Point", "coordinates": [-122.308075, 47.6486473]}}, {"type": "Feature", "properties": {"id": 36952958, "name": "The Seattle Public Library - Montlake Branch", "category": "library", "tags": ["library", "wifi"], "sources": ["osm"], "website": "https://www.spl.org/hours-and-locations/montlake-branch", "phone": "+1-206-684-4720", "address": "2401 24th Avenue East", "hours": "Mo-Tu 13:00-20:00; We-Th, Sa 11:00-18:00; Su 13:00-17:00", "stations": [{"stopCode": 48, "lines": "1,2", "name": "University of Washington Station", "walkingMeters": 1132, "walkingSeconds": 814, "band": 15}]}, "geometry": {"type": "Point", "coordinates": [-122.3023947, 47.6405285]}}, {"type": "Feature", "properties": {"id": "071dc64e-72fe-4f0a-833c-a8daaf33e8aa", "name": "Montlake Branch", "category": "library", "tags": ["library"], "sources": ["overture"], "website": "http://www.spl.org/locations/montlake-branch", "phone": "+12066844720", "address": "2401 24th Ave E"}, "geometry": {"type": "Point", "coordinates": [-122.3023911, 47.6404381]}}, {"type": "Feature", "properties": {"id": 155682315, "name": "Husky Rock Wall", "category": "sports_centre", "tags": ["sports-centre", "climbing"], "sources": ["osm"], "stations": [{"stopCode": 48, "lines": "1,2", "name": "University of Washington Station", "walkingMeters": 314, "walkingSeconds": 226, "band": 5}]}, "geometry": {"type": "Point", "coordinates": [-122.301252, 47.6481016]}}]}