{"type": "FeatureCollection", "features": [{"type": "Feature", "properties": {"id": 220967684, "name": "Top Pot Doughnuts", "category": "cafe", "tags": ["cafe", "donut", "coffee-shop"], "sources": ["osm"], "website": "https://www.toppotdoughnuts.com/cafe-info.html", "phone": "+1-206-525-1966", "address": "6855 35th Avenue Northeast", "hours": "Mo-Fr 06:00-18:00; Sa-Su 07:00-18:00"}, "geometry": {"type": "Point", "coordinates": [-122.2906162, 47.6791466]}}, {"type": "Feature", "properties": {"id": 1497906336, "name": "The Bryant Corner Cafe", "category": "restaurant", "tags": ["restaurant", "cafe", "breakfast-and-brunch", "american"], "sources": ["osm", "overture"], "website": "http://thebryantcornercafe.com/", "phone": "+12069007791", "address": "3118 NE 65th St", "hours": "Mo-Su 07:30-16:00"}, "geometry": {"type": "Point", "coordinates": [-122.2931717, 47.6759038]}}, {"type": "Feature", "properties": {"id": 1734782301, "name": "Grateful Bread Baking Co", "category": "cafe", "tags": ["cafe", "bagel", "coffee-shop"], "sources": ["osm"], "website": "https://www.gratefulbreadbaking.com/", "address": "7001 35th Avenue Northeast", "hours": "Mo-Su 07:00-18:00"}, "geometry": {"type": "Point", "coordinates": [-122.2906625, 47.6797002]}}, {"type": "Feature", "properties": {"id": 5680708521, "name": "Fogrose", "category": "restaurant", "tags": ["restaurant", "outdoor-seating", "indoor-seating"], "sources": ["osm"], "address": "3338 Northeast 65th Street", "hours": "Mo-Fr 15:00-22:00; Sa,Su 11:30-22:00"}, "geometry": {"type": "Point", "coordinates": [-122.2918292, 47.6759278]}}, {"type": "Feature", "properties": {"id": 220924132, "name": "Zouave", "category": "restaurant", "tags": ["restaurant", "italian"], "sources": ["osm"], "website": "https://www.zouaverestaurant.com/", "address": "2615 Northeast 65th Street"}, "geometry": {"type": "Point", "coordinates": [-122.2987567, 47.6756571]}}, {"type": "Feature", "properties": {"id": "28673e6f-d70c-4c71-ab70-34fe238c88d0", "name": "The Zouave Restaurant", "category": "restaurant", "tags": ["restaurant", "italian", "mediterranean", "french"], "sources": ["overture"], "website": "http://www.zouaverestaurant.com/", "phone": "+12065257747", "address": "2615 NE 65th St"}, "geometry": {"type": "Point", "coordinates": [-122.2988052, 47.675705]}}, {"type": "Feature", "properties": {"id": "4b980081-8390-47a0-a718-9550f9d8d2af", "name": "Casa D'Italia", "category": "restaurant", "tags": ["restaurant", "italian"], "sources": ["overture"], "website": "http://www.casaditaliaseattle.com", "phone": "(206) 525-7747", "address": "2615 NE 65th St"}, "geometry": {"type": "Point", "coordinates": [-122.2989349, 47.6756134]}}, {"type": "Feature", "properties": {"id": "c3c64f6a-d4f0-4174-879f-555bb70f1b81", "name": "Ridge Pizza NE", "category": "restaurant", "tags": ["restaurant", "pizza", "italian"], "sources": ["overture"], "website": "http://www.ridgepizzanortheast.com/", "phone": "+12065356167", "address": "3338 NE 65th St"}, "geometry": {"type": "Point", "coordinates": [-122.2918701, 47.6758766]}}, {"type": "Feature", "properties": {"id": "7e61995d-1299-43a5-9aca-99b2787c0fe8", "name": "Grateful Bread", "category": "bakery", "tags": ["bakery"], "sources": ["overture"], "website": "http://www.gratefulbreadbaking.com/", "phone": "+12065253166", "address": "7001 35th Ave NE"}, "geometry": {"type": "Point", "coordinates": [-122.2906036, 47.6796074]}}, {"type": "Feature", "properties": {"id": 3211770303, "name": "Luminaire", "category": "artwork", "tags": ["artwork"], "sources": ["osm"], "address": "6801 35th Avenue Northeast"}, "geometry": {"type": "Point", "coordinates": [-122.290667, 47.677967]}}, {"type": "Feature", "properties": {"id": "8675a3f2-ae35-4580-a203-3aca0a8a6267", "name": "MOD Apartments", "category": "attraction", "tags": ["attraction", "landmark", "historical", "building"], "sources": ["overture"], "website": "http://www.liveamodlife.com/", "phone": "+12062322851", "address": "6559 35th Ave NE"}, "geometry": {"type": "Point", "coordinates": [-122.2905197, 47.6772461]}}, {"type": "Feature", "properties": {"id": 161502325, "name": "The Seattle Public Library - Northeast Branch", "category": "library", "tags": ["library", "wifi"], "sources": ["osm"], "website": "https://www.spl.org/locations/northeast-branch", "phone": "+1-206-684-7539", "address": "6801 35th Avenue Northeast", "hours": "We-Th 10:00-20:00; Fr-Tu 10:00-18:00"}, "geometry": {"type": "Point", "coordinates": [-122.2907031, 47.6780031]}}, {"type": "Feature", "properties": {"id": "b224388a-c4c0-43e9-b078-56872b4dd59a", "name": "Seattle Public Library", "category": "library", "tags": ["library"], "sources": ["overture"], "website": "http://www.spl.org", "phone": "(206) 684-7539", "address": "6801 35th Ave NE"}, "geometry": {"type": "Point", "coordinates": [-122.290802, 47.6778221]}}, {"type": "Feature", "properties": {"id": "26f538bf-57af-4187-91dd-8786481c9721", "name": "Northeast Branch", "category": "library", "tags": ["library"], "sources": ["overture"], "website": "http://www.spl.org/locations/northeast-branch", "phone": "+12066847539", "address": "6801 35th Ave NE"}, "geometry": {"type": "Point", "coordinates": [-122.2908096, 47.6779099]}}]}