{"type": "FeatureCollection", "features": [{"type": "Feature", "properties": {"id": 652197740, "name": "Santa Fe Mexican Grill", "category": "restaurant", "tags": ["restaurant", "mexican", "outdoor-seating", "indoor-seating", "wheelchair-accessible", "vegetarian", "texmex"], "sources": ["osm", "overture"], "website": "http://www.santafemex.com/", "phone": "+14259886170", "address": "1170 NE Sunset Blvd", "hours": "Mo-Su 11:00-22:00"}, "geometry": {"type": "Point", "coordinates": [-122.1867907, 47.5011387]}}, {"type": "Feature", "properties": {"id": "010b3368-fa40-4559-8f8e-9ff7c32e6024", "name": "Pho Vy", "category": "restaurant", "tags": ["restaurant", "comfort-food", "comfort", "food"], "sources": ["overture"], "website": "http://www.thekirklandphohouse.com", "phone": "(425) 226-6886", "address": "2844 NE Sunset Blvd"}, "geometry": {"type": "Point", "coordinates": [-122.1800308, 47.5016785]}}, {"type": "Feature", "properties": {"id": 5560877761, "name": "Taqueria y Carniceria Sanchez", "category": "restaurant", "tags": ["restaurant", "mexican"], "sources": ["osm"]}, "geometry": {"type": "Point", "coordinates": [-122.1862829, 47.5006874]}}, {"type": "Feature", "properties": {"id": 5560877765, "name": "Gold Schnitzel Mediterranean", "category": "restaurant", "tags": ["restaurant", "vietnamese", "kosher", "mediterranean"], "sources": ["osm", "overture"], "website": "http://Goldschnitzel.com/", "phone": "+14252918018", "address": "1190d NE Sunset Blvd"}, "geometry": {"type": "Point", "coordinates": [-122.1859449, 47.5006846]}}, {"type": "Feature", "properties": {"id": 5560877766, "name": "The Brick Kitchen + Lounge", "category": "pub", "tags": ["pub", "burger", "restaurant", "bar-and-grill", "bar", "grill"], "sources": ["osm", "overture"], "website": "http://www.thebrickpubrenton.com/", "phone": "+14252645220", "address": "1190 NE Sunset Blvd"}, "geometry": {"type": "Point", "coordinates": [-122.1858457, 47.5006819]}}, {"type": "Feature", "properties": {"id": 652197241, "name": "Planet Beanz", "category": "cafe", "tags": ["cafe", "coffee-shop"], "sources": ["osm"]}, "geometry": {"type": "Point", "coordinates": [-122.1864685, 47.5010257]}}, {"type": "Feature", "properties": {"id": "9fb32338-490a-47b2-8e5a-cd57b565a2da", "name": "No Bull Saloon", "category": "restaurant", "tags": ["restaurant"], "sources": ["overture"], "website": "thenobullsaloon.com", "address": "1190 Sunset Blvd NE"}, "geometry": {"type": "Point", "coordinates": [-122.1867828, 47.501133]}}, {"type": "Feature", "properties": {"id": "b913ea87-5923-4501-818d-2ecae5fab387", "name": "The Brick Pub and Grill", "category": "pub", "tags": ["pub"], "sources": ["overture"], "website": "http://www.thebrickpubrenton.com", "phone": "(425) 207-8951", "address": "1190 Sunset Blvd NE"}, "geometry": {"type": "Point", "coordinates": [-122.1860123, 47.5005798]}}, {"type": "Feature", "properties": {"id": "53cf9444-e413-4056-8c57-4952cedfe6e5", "name": "Kim Phuong Vegetarian Delight", "category": "restaurant", "tags": ["restaurant", "vietnamese"], "sources": ["overture"], "website": "https://vegetariandelight.kimphuongfood.com", "phone": "(425) 228-5001", "address": "1190 Sunset Blvd NE Ste D"}, "geometry": {"type": "Point", "coordinates": [-122.1861038, 47.5005951]}}, {"type": "Feature", "properties": {"id": "ae48a0fd-359a-46c1-afa0-c9cbc1bf7d98", "name": "Taqueria El Dragon", "category": "restaurant", "tags": ["restaurant", "mexican", "fast-food"], "sources": ["overture"], "phone": "+14253510603", "address": "1190 NE Sunset Blvd"}, "geometry": {"type": "Point", "coordinates": [-122.1860657, 47.5005493]}}, {"type": "Feature", "properties": {"id": "d9056e13-56dd-4c8b-a3d6-76ad465211d5", "name": "Los Tacos de Sanchez", "category": "restaurant", "tags": ["restaurant", "mexican", "taco", "latin-american"], "sources": ["overture"], "website": "https://www.taqueriasanchez.com/", "phone": "+14252774600", "address": "1190 NE Sunset Blvd"}, "geometry": {"type": "Point", "coordinates": [-122.1862564, 47.5006371]}}, {"type": "Feature", "properties": {"id": "fca937d1-8be1-4360-a523-200dd7a5ab0e", "name": "Custom Joe Roasting", "category": "cafe", "tags": ["cafe", "coffee"], "sources": ["overture"], "website": "https://cjroasting.com/", "phone": "+14254360357", "address": "1901 Harrington Ave NE"}, "geometry": {"type": "Point", "coordinates": [-122.1823883, 47.5087929]}}, {"type": "Feature", "properties": {"id": "f1e1c8f6-2570-45a7-b705-dfca794d89e8", "name": "Taqueria El Herradero", "category": "restaurant", "tags": ["restaurant", "mexican", "taco"], "sources": ["overture"], "website": "http://taquerialospotrillos5.negocio.site", "phone": "+12066943872", "address": "2800 NE Sunset Blvd"}, "geometry": {"type": "Point", "coordinates": [-122.1806335, 47.500164]}}, {"type": "Feature", "properties": {"id": "b191cb81-1907-4b4a-95de-35f270f8b904", "name": "Heritage Grove Apartments", "category": "attraction", "tags": ["attraction", "landmark", "historical", "building"], "sources": ["overture"], "website": "https://www.heritagegroverenton.com/?rcstdid=MTE%3D-aKFOxiSL8lQ%3D", "phone": "+18332218999", "address": "1100 Sunset Blvd NE"}, "geometry": {"type": "Point", "coordinates": [-122.1889114, 47.5005913]}}, {"type": "Feature", "properties": {"id": "182982c9-90f7-4cd6-b2ca-d252475ba2ab", "name": "Sunset Heights", "category": "attraction", "tags": ["attraction", "landmark", "historical", "building"], "sources": ["overture"], "website": "http://www.sunsetheightscondos.com", "phone": "+14256870700", "address": "1150 NE Sunset Blvd"}, "geometry": {"type": "Point", "coordinates": [-122.1873016, 47.5011635]}}, {"type": "Feature", "properties": {"id": 994981070, "name": "Meadow Crest Playground", "category": "playground", "tags": ["playground"], "sources": ["osm", "overture"], "website": "https://rentonwa.gov/living/default.aspx?id=32303", "phone": "+14254306400", "address": "3000 NE 16th St"}, "geometry": {"type": "Point", "coordinates": [-122.1803204, 47.5074606]}}, {"type": "Feature", "properties": {"id": "ceffb167-21dc-44ad-88be-3ba1b2bceabf", "name": "Sunset Court Park", "category": "park", "tags": ["park"], "sources": ["overture"], "address": "Sunset Court Park, 1100 Harrington Ave NE"}, "geometry": {"type": "Point", "coordinates": [-122.1818237, 47.5011101]}}, {"type": "Feature", "properties": {"id": 5560877762, "name": "Food Mart", "category": "convenience", "tags": ["convenience"], "sources": ["osm"]}, "geometry": {"type": "Point", "coordinates": [-122.1861957, 47.5006846]}}, {"type": "Feature", "properties": {"id": 652197788, "name": "Food Mart", "category": "convenience", "tags": ["convenience"], "sources": ["osm"]}, "geometry": {"type": "Point", "coordinates": [-122.1808654, 47.5003003]}}, {"type": "Feature", "properties": {"id": "9c16dea9-3e59-486e-a309-1385a71fe7ea", "name": "Seattle Driveway & Patio", "category": "doityourself", "tags": ["doityourself", "building", "supply"], "sources": ["overture"], "website": "https://www.constructionallpros.com", "phone": "(425) 891-9060", "address": "1140 Glennwood Ave NE # B"}, "geometry": {"type": "Point", "coordinates": [-122.1834641, 47.5015869]}}, {"type": "Feature", "properties": {"id": "b4da13b8-5960-48b7-a93e-181b7d751232", "name": "Sohail Enterprises Inc", "category": "tobacco", "tags": ["tobacco"], "sources": ["overture"], "phone": "4252559905", "address": "2822 NE Sunset Blvd"}, "geometry": {"type": "Point", "coordinates": [-122.1801224, 47.5012741]}}, {"type": "Feature", "properties": {"id": "ca0ce564-6f7e-4d1d-8e8c-507c243fe942", "name": "KCLS Renton Highlands Library", "category": "library", "tags": ["library"], "sources": ["overture"], "website": "http://www.kcls.org/rentonhighlands", "phone": "(425) 277-1831", "address": "2902 NE 12th St"}, "geometry": {"type": "Point", "coordinates": [-122.1808929, 47.5035782]}}]}