{"type": "FeatureCollection", "features": [{"type": "Feature", "properties": {"id": "c8f72963-6fe5-4581-9fd4-8381e267be5c", "name": "Starbucks", "category": "cafe", "tags": ["cafe", "coffee"], "sources": ["overture"], "website": "http://www.starbucks.com"}, "geometry": {"type": "Point", "coordinates": [-122.2700119, 47.3780785]}}, {"type": "Feature", "properties": {"id": "0bc474e6-3973-4844-ad33-8768fda3940a", "name": "Timber Heights Apartments", "category": "attraction", "tags": ["attraction", "landmark", "historical", "building"], "sources": ["overture"], "website": "https://www.timberheightskent.com/", "phone": "+12066048700", "address": "4813 S 252nd Pl"}, "geometry": {"type": "Point", "coordinates": [-122.2734604, 47.3753204]}}, {"type": "Feature", "properties": {"id": "b4e76636-dbe4-4604-9dac-4d99f3a93ebf", "name": "Avana West Hill", "category": "attraction", "tags": ["attraction", "landmark", "historical", "building"], "sources": ["overture"], "website": "https://www.avanawesthill.com/", "phone": "+12534587781", "address": "24849 46th Ave South"}, "geometry": {"type": "Point", "coordinates": [-122.2746429, 47.3776932]}}, {"type": "Feature", "properties": {"id": "cd029c1d-46c0-4bbb-a46d-4724984da7cc", "name": "Lake Fenwick Estates", "category": "attraction", "tags": ["attraction", "landmark", "historical", "building"], "sources": ["overture"], "website": "http://www.lakefenwickapts.com/", "phone": "+12538599090", "address": "24849 46th Ave S"}, "geometry": {"type": "Point", "coordinates": [-122.2750931, 47.3772583]}}, {"type": "Feature", "properties": {"id": "2c5f7730-6dcb-4c72-9c8f-94f1812904f6", "name": "Wedding Florist and Chair Rentals.", "category": "florist", "tags": ["florist"], "sources": ["overture"], "website": "http://www.sweetndesign.com/", "phone": "2536322582", "address": "25411 Lake Fenwick Rd"}, "geometry": {"type": "Point", "coordinates": [-122.2739334, 47.3734283]}}]}