{"type": "FeatureCollection", "features": [{"type": "Feature", "properties": {"id": "2532515f-0f08-4da2-b6b4-5ffeba9887c4", "name": "The Overlook at Westridge", "category": "attraction", "tags": ["attraction", "landmark", "historical", "building"], "sources": ["overture"], "website": "https://www.overlookatwestridgeapts.com/", "phone": "+12067639982", "address": "600 SW Kenyon St"}, "geometry": {"type": "Point", "coordinates": [-122.3438873, 47.532177]}}, {"type": "Feature", "properties": {"id": 166768715, "name": "Riverview Playfield", "category": "park", "tags": ["park"], "sources": ["osm", "overture"], "website": "http://www.seattle.gov/parks/park_detail.asp?id=463", "phone": "+12066844075", "address": "7226 12th Ave SW"}, "geometry": {"type": "Point", "coordinates": [-122.3488229, 47.5391925]}}, {"type": "Feature", "properties": {"id": "8a20cf97-daa0-4bd1-b392-b6233e66812b", "name": "West Duwamish GS: Othello St.", "category": "park", "tags": ["park"], "sources": ["overture"], "address": "7599 Detroit Ave W"}, "geometry": {"type": "Point", "coordinates": [-122.3410568, 47.5356789]}}, {"type": "Feature", "properties": {"id": "c7fd3a64-ffa5-410b-b650-eba6ef293f56", "name": "Duwamish River Park", "category": "park", "tags": ["park"], "sources": ["overture"], "website": "http://www.seattle.gov", "phone": "+12066844075", "address": "7900 10th Ave SW"}, "geometry": {"type": "Point", "coordinates": [-122.3478317, 47.5317688]}}, {"type": "Feature", "properties": {"id": 9174264380, "name": "Highland Park Corner Store", "category": "convenience", "tags": ["convenience"], "sources": ["osm", "overture"], "website": "http://highlandparkcornerstore.com/", "phone": "+12066351644", "address": "7789 Highland Park Wy SW"}, "geometry": {"type": "Point", "coordinates": [-122.3471074, 47.5320445]}}, {"type": "Feature", "properties": {"id": 231278541, "name": "Pacific Plumbing Supply Company", "category": "hardware", "tags": ["hardware"], "sources": ["osm"]}, "geometry": {"type": "Point", "coordinates": [-122.3413712, 47.539142]}}]}