{"type": "FeatureCollection", "features": [{"type": "Feature", "properties": {"id": "b11f837e-71b7-4fb7-a9a1-0ee527bcfe53", "name": "Builders FirstSource", "category": "doityourself", "tags": ["doityourself", "building", "supply"], "sources": ["overture"], "website": "https://www.bldr.com/contact/request-quote?utm_source=yext&utm_medium=listing&utm_campaign=requestquote&utm_content=AUBUWAMW", "phone": "2534787800", "address": "6607 S. 287th St"}, "geometry": {"type": "Point", "coordinates": [-122.2531281, 47.3448067]}}, {"type": "Feature", "properties": {"id": "dcaa8847-55ef-4e2a-8618-1e1b1463e223", "name": "Auburn WA Millwork", "category": "hardware", "tags": ["hardware"], "sources": ["overture"], "website": "https://www.bldr.com/location/auburn-wa-millwork/AUBUWAMW", "address": "6607 S. 287th St"}, "geometry": {"type": "Point", "coordinates": [-122.2543411, 47.3446426]}}]}