{"type": "FeatureCollection", "features": [{"type": "Feature", "properties": {"id": "73d61a9d-e054-4cd2-9d45-08cae6ce2d28", "name": "Miller Creek Court", "category": "attraction", "tags": ["attraction", "landmark", "historical", "building"], "sources": ["overture"], "website": "http://millercreekcourt.com", "phone": "+12062436000", "address": "246 S 162nd St"}, "geometry": {"type": "Point", "coordinates": [-122.3304901, 47.4583588]}}, {"type": "Feature", "properties": {"id": 703792746, "name": "Wilson Park", "category": "park", "tags": ["park"], "sources": ["osm"]}, "geometry": {"type": "Point", "coordinates": [-122.3362768, 47.4500237]}}, {"type": "Feature", "properties": {"id": "3e0fbc76-f4e1-44bd-982b-ca7e54d0f3b0", "name": "Kiwanis-Schonwald Memorial Park", "category": "park", "tags": ["park"], "sources": ["overture"], "address": "16201 1st Ave S"}, "geometry": {"type": "Point", "coordinates": [-122.339798, 47.4569016]}}, {"type": "Feature", "properties": {"id": "ff5fecf3-080a-4317-bf4f-aeb0e218b7fc", "name": "Circle K", "category": "convenience", "tags": ["convenience"], "sources": ["overture"], "website": "https://www.circlek.com/store-locator/us/burien/15846-1st-ave-s/8005480", "phone": "2062424344", "address": "15846 1st Ave S"}, "geometry": {"type": "Point", "coordinates": [-122.3339386, 47.4599876]}}, {"type": "Feature", "properties": {"id": 8301322330, "name": "CVS Pharmacy", "category": "pharmacy", "tags": ["pharmacy"], "sources": ["osm", "overture"], "website": "https://www.cvs.com/store-locator/landing", "phone": "+12062422030", "address": "117 SW 160th St", "hours": "Mo-Th,Su 08:00-22:00; Fr-Sa 08:00-23:00"}, "geometry": {"type": "Point", "coordinates": [-122.3354002, 47.4593182]}}, {"type": "Feature", "properties": {"id": 557237947, "name": "CHI Franciscan Health Medical Pavilion - Highline", "category": "clinic", "tags": ["clinic"], "sources": ["osm"], "address": "16045 1st Avenue South"}, "geometry": {"type": "Point", "coordinates": [-122.3350275, 47.4584848]}}, {"type": "Feature", "properties": {"id": "b216ce19-f457-4b16-a288-49f62f2bf481", "name": "Franciscan Urgent Care - Burien", "category": "clinic", "tags": ["clinic", "walk", "in"], "sources": ["overture"], "website": "https://www.vmfh.org/find-a-location/franciscan-urgent-care-burien-291697", "phone": "2069654180", "address": "16045 1st Ave S 1st Fl"}, "geometry": {"type": "Point", "coordinates": [-122.3348999, 47.4585114]}}, {"type": "Feature", "properties": {"id": "f00ac00a-4f86-43ce-b218-8bf8b8bbf358", "name": "Franciscan Medical Pavilion", "category": "clinic", "tags": ["clinic", "medical"], "sources": ["overture"], "website": "https://www.vmfh.org/find-a-location/franciscan-urgent-care-burien-291697", "phone": "+12069654100", "address": "16045 1st Ave S"}, "geometry": {"type": "Point", "coordinates": [-122.3347626, 47.4584618]}}, {"type": "Feature", "properties": {"id": "f5eb8053-3529-4dbb-8ae8-c0afc419c1f9", "name": "Highline Imaging", "category": "hospital", "tags": ["hospital"], "sources": ["overture"], "website": "http://www.chifranciscan.org/Highline-Medical-Center/Diagnostic-Imaging", "phone": "+12069885774", "address": "275 SW 160th St"}, "geometry": {"type": "Point", "coordinates": [-122.3375931, 47.459301]}}]}