{"type": "FeatureCollection", "features": [{"type": "Feature", "properties": {"id": "4e1dfa06-9cfb-4cda-a447-12ac56e723e0", "name": "Subway", "category": "restaurant", "tags": ["restaurant", "sandwich"], "sources": ["overture"], "website": "https://www.subway.com", "phone": "4258141012", "address": "12523 NE 144th St"}, "geometry": {"type": "Point", "coordinates": [-122.1735229, 47.7310104]}}, {"type": "Feature", "properties": {"id": 327338914, "name": "McDonald's", "category": "fast_food", "tags": ["fast-food", "burger", "takeaway", "drive-through", "wifi", "fast", "food", "american"], "sources": ["osm", "overture"], "website": "https://www.mcdonalds.com/us/en-us/location/wa/kirkland/12440-ne-144th/15274.html?cid=RF%3AYXT%3ARoN%3A%3AClicks%3Fcid%3DRF%3AYXT%3AFB%3A%3AClicks", "phone": "+14258209481", "address": "12440 NE 144th St", "hours": "06:00-22:00"}, "geometry": {"type": "Point", "coordinates": [-122.1741661, 47.7315792]}}, {"type": "Feature", "properties": {"id": 3342345821, "name": "Pizza Hut", "category": "restaurant", "tags": ["restaurant", "pizza", "takeaway", "delivery", "fast-food"], "sources": ["osm", "overture"], "website": "https://locations.pizzahut.com/wa/kirkland/14330-124th-ave-ne?utm_medium=organic&utm_source=local&utm_campaign=yextpowerlistings&utm_content=website&utm_term=312148", "phone": "+14258208833", "address": "14330 124th Ave NE King", "hours": "Su 10:00-23:00; Mo-Th 10:30-23:00; Fr-Sa 10:30-24:00"}, "geometry": {"type": "Point", "coordinates": [-122.174897, 47.730873]}}, {"type": "Feature", "properties": {"id": 3342345783, "name": "Buddha Bruddah", "category": "restaurant", "tags": ["restaurant"], "sources": ["osm"], "address": "14312 124th Avenue Northeast"}, "geometry": {"type": "Point", "coordinates": [-122.1742895, 47.7300679]}}, {"type": "Feature", "properties": {"id": 327451477, "name": "Gourmet Latte", "category": "cafe", "tags": ["cafe"], "sources": ["osm"], "address": "14302 124th Avenue Northeast"}, "geometry": {"type": "Point", "coordinates": [-122.1753222, 47.7304333]}}, {"type": "Feature", "properties": {"id": 3342345351, "name": "Factory Donuts", "category": "cafe", "tags": ["cafe", "donut"], "sources": ["osm"], "address": "12505 Northeast 144th Street", "hours": "05:00-13:00"}, "geometry": {"type": "Point", "coordinates": [-122.1737559, 47.7306744]}}, {"type": "Feature", "properties": {"id": 3342345386, "name": "Gyro Stop", "category": "restaurant", "tags": ["restaurant", "mediterranean"], "sources": ["osm"], "address": "12523 Northeast 144th Street", "hours": "closed \"Temporarily closed\""}, "geometry": {"type": "Point", "coordinates": [-122.173486, 47.7309946]}}, {"type": "Feature", "properties": {"id": 3342345761, "name": "Hello B\u00e1nh M\u00ec", "category": "fast_food", "tags": ["fast-food", "vietnamese", "sandwich", "bubble-tea", "smoothie", "takeaway"], "sources": ["osm"], "address": "14304 124th Avenue Northeast", "hours": "Mo-Su 11:00-20:00"}, "geometry": {"type": "Point", "coordinates": [-122.1745991, 47.7300614]}}, {"type": "Feature", "properties": {"id": 3342345775, "name": "Menya Musashi", "category": "restaurant", "tags": ["restaurant", "ramen", "japanese", "vegetarian", "vegan"], "sources": ["osm"], "website": "https://menyamuso.us/ramen-menu-seattle", "phone": "+1-425-305-5126", "address": "14308 124th Avenue Northeast", "hours": "11:30-21:00"}, "geometry": {"type": "Point", "coordinates": [-122.1744227, 47.7300688]}}, {"type": "Feature", "properties": {"id": 3342345806, "name": "Young Brothers Pho", "category": "restaurant", "tags": ["restaurant", "vietnamese", "asian", "noodles"], "sources": ["osm", "overture"], "website": "http://www.yelp.com/biz/pho-basil-kirkland", "phone": "+14258202700", "address": "14322 124th Ave NE"}, "geometry": {"type": "Point", "coordinates": [-122.1739965, 47.7300692]}}, {"type": "Feature", "properties": {"id": 3342345841, "name": "Oasis Brazilian Steakhouse", "category": "restaurant", "tags": ["restaurant", "brazilian", "steak-house"], "sources": ["osm"], "website": "https://oasisbsh.com/", "address": "14338 124th Avenue Northeast"}, "geometry": {"type": "Point", "coordinates": [-122.1748856, 47.7306956]}}, {"type": "Feature", "properties": {"id": "76e793cb-6685-4351-a168-0cba25e46da1", "name": "Sluggers", "category": "restaurant", "tags": ["restaurant", "bar-and-grill", "bar", "grill"], "sources": ["overture"], "phone": "4258216453", "address": "12506 NE 144th St"}, "geometry": {"type": "Point", "coordinates": [-122.1736908, 47.7318115]}}, {"type": "Feature", "properties": {"id": 327332627, "name": "Pizza Bank", "category": "restaurant", "tags": ["restaurant", "pizza", "takeaway"], "sources": ["osm"], "website": "https://pizzabankrestaurant.com", "address": "14401 124th Avenue Northeast", "hours": "Mo-We 11:00-20:00; Th-Fr 11:00-21:00; Sa 12:00-21:00; Su 12:00-20:00"}, "geometry": {"type": "Point", "coordinates": [-122.1762128, 47.7315462]}}, {"type": "Feature", "properties": {"id": 327332661, "name": "Tony's Bar and Grill", "category": "pub", "tags": ["pub"], "sources": ["osm"], "website": "https://www.tonyssports.bar/", "address": "14417 124th Avenue Northeast", "hours": "Mo 12:00-24:00; Tu-Fr 12:00-02:00; Sa 11:00-02:00; Su 11:00-14:00"}, "geometry": {"type": "Point", "coordinates": [-122.1763946, 47.7318248]}}, {"type": "Feature", "properties": {"id": "c29ff92f-86ac-4e50-b14c-b50f78093551", "name": "Starbucks Coffee Company", "category": "cafe", "tags": ["cafe", "coffee"], "sources": ["overture"], "website": "https://www.starbucks.com/store-locator/store/15902", "phone": "+14258212112", "address": "14444 124th Ave NE"}, "geometry": {"type": "Point", "coordinates": [-122.1742859, 47.7324142]}}, {"type": "Feature", "properties": {"id": "4a04927e-44c3-43fa-8060-2e25806ae4c0", "name": "Little Caesars Pizza", "category": "restaurant", "tags": ["restaurant", "pizza"], "sources": ["overture"], "website": "http://www.littlecaesars.com", "phone": "(425) 821-9955", "address": "14312 124th Ave NE"}, "geometry": {"type": "Point", "coordinates": [-122.1743469, 47.7301598]}}, {"type": "Feature", "properties": {"id": "0068381a-9a7c-4688-9df8-e90d59fcd2a6", "name": "China Express", "category": "restaurant", "tags": ["restaurant"], "sources": ["overture"], "website": "http://www.chinaexpresstysons.com", "phone": "(425) 821-6261", "address": "14444 124th Ave NE"}, "geometry": {"type": "Point", "coordinates": [-122.1741028, 47.7324829]}}, {"type": "Feature", "properties": {"id": "289bd9f3-f2a9-435c-a9a0-19fa42f698cb", "name": "Machine Transport Inc", "category": "restaurant", "tags": ["restaurant"], "sources": ["overture"], "address": "12306 NE 144th St"}, "geometry": {"type": "Point", "coordinates": [-122.1768799, 47.7315254]}}, {"type": "Feature", "properties": {"id": "7c4093bc-a70e-4cca-ac2d-35cd2f5d853b", "name": "Pizza Bank Restaurant", "category": "restaurant", "tags": ["restaurant", "pizza", "italian", "theme"], "sources": ["overture"], "website": "http://pizzabankrestaurant.com/", "phone": "+14258214858", "address": "14401 124th Ave NE"}, "geometry": {"type": "Point", "coordinates": [-122.1763992, 47.7314186]}}, {"type": "Feature", "properties": {"id": "c35fe7c4-9ab4-4b1d-8b3c-144d3c805c9c", "name": "Hello Banh Mi Kirkland", "category": "restaurant", "tags": ["restaurant", "vietnamese"], "sources": ["overture"], "website": "https://hellobanhmi.getbento.com/online-ordering/hello-banh-mi/menu", "phone": "+14252980476", "address": "14304 124th Ave NE"}, "geometry": {"type": "Point", "coordinates": [-122.1746597, 47.7300568]}}, {"type": "Feature", "properties": {"id": "1b054cae-aff8-4049-ab52-6ec69bc9b013", "name": "Ra One Holdings Llc Dba Sebastian's Mexican Restaurant", "category": "restaurant", "tags": ["restaurant"], "sources": ["overture"], "address": "14338 124th Ave NE"}, "geometry": {"type": "Point", "coordinates": [-122.1750793, 47.7308846]}}, {"type": "Feature", "properties": {"id": "2feea7d7-81f2-4e5d-a901-ec514049e12f", "name": "Gourmet Latte #16", "category": "cafe", "tags": ["cafe", "coffee"], "sources": ["overture"], "website": "http://gourmetlatte.com/locations", "phone": "+14253591518", "address": "14302 124th Ave NE"}, "geometry": {"type": "Point", "coordinates": [-122.1753311, 47.7304573]}}, {"type": "Feature", "properties": {"id": "1b69db3b-6049-4620-b416-ba8fb2a7f7a0", "name": "Sebastian's Mexican Restaurant and Cantina", "category": "bar", "tags": ["bar", "mexican"], "sources": ["overture"], "website": "http://www.sebastianmexican.com/", "phone": "4256583249", "address": "14338 124th Ave NE"}, "geometry": {"type": "Point", "coordinates": [-122.1755371, 47.7309608]}}, {"type": "Feature", "properties": {"id": "4c005d8c-0bbf-42d6-95e2-e564b8aaf751", "name": "Monza Kingsgate Llc", "category": "restaurant", "tags": ["restaurant"], "sources": ["overture"], "website": "https://pizzabank.net", "address": "14401 124th Ave NE"}, "geometry": {"type": "Point", "coordinates": [-122.1760864, 47.7315331]}}, {"type": "Feature", "properties": {"id": "5fde2f33-57d6-4b3f-b112-5cace17f1ff6", "name": "Tony's Sports Bar", "category": "bar", "tags": ["bar", "sports", "bar-and-grill"], "sources": ["overture"], "website": "http://teamtonys.com/", "phone": "+14258258669", "address": "14417 124th Ave NE"}, "geometry": {"type": "Point", "coordinates": [-122.1763763, 47.7318001]}}, {"type": "Feature", "properties": {"id": "0fccf28e-fbdc-4b65-9971-1c3bddc9600d", "name": "Gaming Entertainment Inc.", "category": "restaurant", "tags": ["restaurant"], "sources": ["overture"], "phone": "+14258212222", "address": "12526 NE 144th St"}, "geometry": {"type": "Point", "coordinates": [-122.1729965, 47.7322311]}}, {"type": "Feature", "properties": {"id": "b35a6ec3-985d-47eb-b66c-1042d0459e6d", "name": "GYRO STOP KINGSGATE", "category": "restaurant", "tags": ["restaurant", "mediterranean"], "sources": ["overture"], "website": "https://kirkland.gyrostoplocations.com/?utm_source=bing&utm_medium=websiteurl&utm_campaign=search", "phone": "4258141012", "address": "12523 NE 144th St"}, "geometry": {"type": "Point", "coordinates": [-122.1734009, 47.7310104]}}, {"type": "Feature", "properties": {"id": "3ce35629-cadc-4050-aa3d-d72b0188fe7c", "name": "Kirkland Buddha Bruddah", "category": "restaurant", "tags": ["restaurant", "asian", "fusion"], "sources": ["overture"], "website": "https://buddhabruddah.com", "phone": "14256293197", "address": "14312 124th Ave NE"}, "geometry": {"type": "Point", "coordinates": [-122.1742935, 47.7300568]}}, {"type": "Feature", "properties": {"id": "e96d08f1-23fb-494f-8c0f-1d4ab12bf1c3", "name": "Kirkland Sushi", "category": "restaurant", "tags": ["restaurant", "sushi"], "sources": ["overture"], "website": "https://www.kirklandsushi.online", "phone": "(425) 821-4425", "address": "14308 124th Ave NE"}, "geometry": {"type": "Point", "coordinates": [-122.1744919, 47.7300835]}}, {"type": "Feature", "properties": {"id": "a1b90d05-c016-46bb-8a49-520f247d7b28", "name": "Muchomas Taqueria", "category": "restaurant", "tags": ["restaurant", "mexican"], "sources": ["overture"], "website": "http://www.agr.wa.gov", "phone": "(425) 823-5515", "address": "14318 124th Ave NE # NE-1414"}, "geometry": {"type": "Point", "coordinates": [-122.1740799, 47.7300262]}}, {"type": "Feature", "properties": {"id": "a74af197-0b30-4603-a08f-ffaf43fa795c", "name": "Sorrel", "category": "attraction", "tags": ["attraction", "landmark", "historical", "building"], "sources": ["overture"], "website": "https://www.sorrelapts.com/?utm_knock=sm", "phone": "+14252430675", "address": "12648 NE 144th St"}, "geometry": {"type": "Point", "coordinates": [-122.17202, 47.7322807]}}, {"type": "Feature", "properties": {"id": "ef7736f5-d4b9-4324-90f0-952d23e52635", "name": "Kingsgate Ridge Condominiums", "category": "attraction", "tags": ["attraction", "landmark", "historical", "building"], "sources": ["overture"], "website": "http://www.krmcondos.org", "phone": "+14254550900", "address": "12609 NE 145th Pl"}, "geometry": {"type": "Point", "coordinates": [-122.1734161, 47.7333641]}}, {"type": "Feature", "properties": {"id": 104314896, "name": "East Norway Hill Park", "category": "park", "tags": ["park"], "sources": ["osm"]}, "geometry": {"type": "Point", "coordinates": [-122.1778928, 47.7385912]}}, {"type": "Feature", "properties": {"id": 327335131, "name": "South Norway Hill Park", "category": "park", "tags": ["park"], "sources": ["osm"]}, "geometry": {"type": "Point", "coordinates": [-122.1782894, 47.7339717]}}, {"type": "Feature", "properties": {"id": 622722663, "name": "Vinterra Highlands Park", "category": "park", "tags": ["park"], "sources": ["osm"]}, "geometry": {"type": "Point", "coordinates": [-122.1705381, 47.7381738]}}, {"type": "Feature", "properties": {"id": 622724803, "name": "Vinterra Park", "category": "park", "tags": ["park"], "sources": ["osm"]}, "geometry": {"type": "Point", "coordinates": [-122.1717708, 47.7384305]}}, {"type": "Feature", "properties": {"id": 3342345842, "name": "7-Eleven", "category": "convenience", "tags": ["convenience"], "sources": ["osm", "overture"], "website": "https://www.7-eleven.com/", "phone": "+14258218011", "address": "14340 124th Ave N.E."}, "geometry": {"type": "Point", "coordinates": [-122.1748958, 47.7310548]}}, {"type": "Feature", "properties": {"id": 140222412, "name": "Safeway", "category": "supermarket", "tags": ["supermarket", "wifi", "pharmacy"], "sources": ["osm", "overture"], "website": "https://local.safeway.com/safeway/wa/kirkland/14444-124th-ave-ne.html", "phone": "+14258212112", "address": "14444 124th Ave NE", "hours": "Mo-Su 05:00-00:00"}, "geometry": {"type": "Point", "coordinates": [-122.1741045, 47.7325388]}}, {"type": "Feature", "properties": {"id": 3340820213, "name": "Dollar Tree", "category": "variety_store", "tags": ["variety-store"], "sources": ["osm"], "address": "14442 124th Avenue Northeast"}, "geometry": {"type": "Point", "coordinates": [-122.174311, 47.732084]}}, {"type": "Feature", "properties": {"id": 3342345776, "name": "MC Smoke", "category": "tobacco", "tags": ["tobacco"], "sources": ["osm"], "address": "14310 124th Avenue Northeast"}, "geometry": {"type": "Point", "coordinates": [-122.1743494, 47.7300677]}}, {"type": "Feature", "properties": {"id": 5732689823, "name": "Mucho Mas", "category": "convenience", "tags": ["convenience"], "sources": ["osm"], "address": "14318 124th Avenue Northeast", "hours": "Mo-Sa 09:00-20:30; Su 09:00-17:00"}, "geometry": {"type": "Point", "coordinates": [-122.1741446, 47.7300715]}}, {"type": "Feature", "properties": {"id": "732e5b46-c00f-417e-8f52-acf4fd5c8878", "name": "Quality Dollar & Party Store", "category": "variety_store", "tags": ["variety-store", "discount"], "sources": ["overture"], "phone": "4258257485", "address": "12519 NE 144th St"}, "geometry": {"type": "Point", "coordinates": [-122.1734009, 47.7310257]}}, {"type": "Feature", "properties": {"id": "ea57ba96-7e15-4219-84bf-e116fb722d76", "name": "Safeway Pharmacy", "category": "pharmacy", "tags": ["pharmacy"], "sources": ["overture"], "website": "https://local.pharmacy.safeway.com/safeway/wa/kirkland/14444-124th-ave-ne.html", "phone": "4258217455", "address": "14444 124th Ave NE"}, "geometry": {"type": "Point", "coordinates": [-122.1741486, 47.7326775]}}, {"type": "Feature", "properties": {"id": "f6fc5761-b7ee-4d50-bb34-a7db0d0cab03", "name": "Bartell Drugs", "category": "pharmacy", "tags": ["pharmacy"], "sources": ["overture"], "phone": "14258217900", "address": "14442 124th Ave NE"}, "geometry": {"type": "Point", "coordinates": [-122.1744308, 47.731781]}}, {"type": "Feature", "properties": {"id": 11030543200, "name": "Global Credit Union", "category": "bank", "tags": ["bank"], "sources": ["osm"], "website": "https://www.globalcu.org/branches/kingsgate/", "address": "14444 124th Avenue Northeast"}, "geometry": {"type": "Point", "coordinates": [-122.1744303, 47.7326926]}}, {"type": "Feature", "properties": {"id": "9cd6f06d-932c-44b5-afd9-8dee951b423a", "name": "Bank of America Financial Center", "category": "bank", "tags": ["bank", "credit", "union"], "sources": ["overture"], "website": "https://locators.bankofamerica.com/wa/kirkland/financial-centers-kirkland-15752.html", "phone": "4258200160", "address": "14440 124th Ave NE"}, "geometry": {"type": "Point", "coordinates": [-122.1743622, 47.7318268]}}, {"type": "Feature", "properties": {"id": 3340816576, "name": "F45 Training", "category": "fitness_centre", "tags": ["fitness-centre"], "sources": ["osm"], "address": "12506 Northeast 144th Street"}, "geometry": {"type": "Point", "coordinates": [-122.1737015, 47.7318502]}}, {"type": "Feature", "properties": {"id": 3342345813, "name": "Body & Brain", "category": "fitness_centre", "tags": ["fitness-centre", "yoga"], "sources": ["osm"], "address": "14324 124th Avenue Northeast"}, "geometry": {"type": "Point", "coordinates": [-122.1739238, 47.7300657]}}, {"type": "Feature", "properties": {"id": "9c2f5493-739f-42cc-af5f-6c08d54242a1", "name": "Body & Brain Yoga Tai Chi", "category": "fitness_centre", "tags": ["fitness-centre", "yoga", "studio"], "sources": ["overture"], "website": "https://www.bodynbrain.com/kirkland", "phone": "+14252859069", "address": "14324 124th Ave NE"}, "geometry": {"type": "Point", "coordinates": [-122.1739273, 47.7301712]}}, {"type": "Feature", "properties": {"id": "9f3364f0-3050-4f50-b750-a9ad16be117c", "name": "F45 Training Kingsgate", "category": "fitness_centre", "tags": ["fitness-centre", "gym"], "sources": ["overture"], "website": "https://f45training.com/studio/kingsgate/", "phone": "+14255993825", "address": "12506 NE 144th St"}, "geometry": {"type": "Point", "coordinates": [-122.173912, 47.7318954]}}]}