{"type": "FeatureCollection", "features": [{"type": "Feature", "properties": {"id": "97d3ca33-2de6-49e8-a712-421d29210670", "name": "Starbucks", "category": "cafe", "tags": ["cafe", "coffee"], "sources": ["overture"], "website": "https://www.starbucks.com/store-locator/store/12504/", "phone": "+12063245144", "address": "2344 Eastlake Ave E"}, "geometry": {"type": "Point", "coordinates": [-122.3256302, 47.6410637]}}, {"type": "Feature", "properties": {"id": 1730897376, "name": "Pazzo's Pizza & Bar", "category": "restaurant", "tags": ["restaurant", "italian", "takeaway", "vegetarian"], "sources": ["osm"], "website": "https://www.pazzosoneastlake.com/", "phone": "+1-206-329-6558", "address": "2307 Eastlake Avenue East", "hours": "Mo-Su 11:00-02:00"}, "geometry": {"type": "Point", "coordinates": [-122.3260795, 47.6400585]}}, {"type": "Feature", "properties": {"id": 1730897388, "name": "Sushi Nori", "category": "restaurant", "tags": ["restaurant", "sushi", "japanese", "asian"], "sources": ["osm", "overture"], "website": "https://www.sushinoriseattle.com/", "phone": "+12062574213", "address": "2366 Eastlake Ave E Ste 101", "hours": "Tu-Fr 16:30-21:30; Sa 12:00-15:00,16:30-21:30; Su 12:00-15:00,16:30-21:00"}, "geometry": {"type": "Point", "coordinates": [-122.325667, 47.641428]}}, {"type": "Feature", "properties": {"id": "5147b06e-8cab-4591-ae7c-9092629c5c5c", "name": "Amante Pizza & Pasta", "category": "restaurant", "tags": ["restaurant", "pizza"], "sources": ["overture"], "phone": "2068611777", "address": "2357 10th Ave E"}, "geometry": {"type": "Point", "coordinates": [-122.3203506, 47.6411743]}}, {"type": "Feature", "properties": {"id": 2268903433, "name": "Pecado Bueno", "category": "restaurant", "tags": ["restaurant", "mexican"], "sources": ["osm"], "address": "2356 Eastlake Avenue East"}, "geometry": {"type": "Point", "coordinates": [-122.3256284, 47.6412896]}}, {"type": "Feature", "properties": {"id": 2268903463, "name": "Otter Bar and Burger", "category": "restaurant", "tags": ["restaurant", "burger", "milkshake", "takeaway", "vegetarian", "bar-and-grill", "bar", "grill", "american"], "sources": ["osm", "overture"], "website": "http://www.otterbarandburger.com/", "phone": "+12069069401", "address": "2379 Eastlake Ave E"}, "geometry": {"type": "Point", "coordinates": [-122.3261004, 47.6419326]}}, {"type": "Feature", "properties": {"id": 2270112970, "name": "D\u2019 La Santa", "category": "restaurant", "tags": ["restaurant", "mexican", "latin-american"], "sources": ["osm", "overture"], "website": "https://dlasanta.com/wp-content/uploads/2024/02/DLaSantaBrunch.pdf", "phone": "+12067092222", "address": "2359 10th Ave E"}, "geometry": {"type": "Point", "coordinates": [-122.3202059, 47.6412335]}}, {"type": "Feature", "properties": {"id": 2300443395, "name": "Sushi Kappo Tamura", "category": "restaurant", "tags": ["restaurant", "japanese", "sushi", "outdoor-seating", "wheelchair-accessible", "asian"], "sources": ["osm", "overture"], "website": "http://www.sushikappotamura.com", "phone": "+12065470937", "address": "2968 Eastlake Ave E", "hours": "Mo-Th 11:30-14:00,17:00-21:30; Fr 11:30-14:00,17:00-22:00; Sa 11:00-14:00,17:00-22:00; Su 11:00-14:00,17:00-21:00"}, "geometry": {"type": "Point", "coordinates": [-122.3233581, 47.6485754]}}, {"type": "Feature", "properties": {"id": 2323777015, "name": "Little Water Cantina", "category": "restaurant", "tags": ["restaurant", "mexican", "latin-american", "bar-and-grill"], "sources": ["osm", "overture"], "website": "http://www.littlewatercantina.com/", "phone": "+12063974152", "address": "2865 Eastlake Ave E"}, "geometry": {"type": "Point", "coordinates": [-122.3249051, 47.6471891]}}, {"type": "Feature", "properties": {"id": 3548137443, "name": "Mioposto Pizzeria", "category": "restaurant", "tags": ["restaurant", "pizza", "italian"], "sources": ["osm", "overture"], "website": "https://www.miopostopizza.com/", "phone": "+12062945390", "address": "2501 Eastlake Ave E", "hours": "Su 10:00-21:00; Mo-Th 11:30-21:00; Fr 11:30-22:00; Sa 10:00-22:00"}, "geometry": {"type": "Point", "coordinates": [-122.3261078, 47.642285]}}, {"type": "Feature", "properties": {"id": 7792930324, "name": "Gyro House", "category": "restaurant", "tags": ["restaurant", "gyros", "mediterranean"], "sources": ["osm", "overture"], "website": "https://www.gyrohouseone.com", "phone": "12064575956", "address": "2355 10th Ave E  # 2355", "hours": "Mo-Su 11:00-21:00"}, "geometry": {"type": "Point", "coordinates": [-122.3204594, 47.641282]}}, {"type": "Feature", "properties": {"id": 12736979805, "name": "Fram Brews", "category": "bar", "tags": ["bar"], "sources": ["osm"]}, "geometry": {"type": "Point", "coordinates": [-122.3258671, 47.6469639]}}, {"type": "Feature", "properties": {"id": 12851127051, "name": "Fram", "category": "cafe", "tags": ["cafe", "outdoor-seating", "has-bar"], "sources": ["osm"], "website": "https://www.frambrews.com/", "address": "2950 Fairview Avenue East", "hours": "Mo-Su 06:00-20:00"}, "geometry": {"type": "Point", "coordinates": [-122.3243181, 47.6489711]}}, {"type": "Feature", "properties": {"id": 217698900, "name": "The Roanoke", "category": "bar", "tags": ["bar"], "sources": ["osm", "overture"], "website": "https://www.roanokeseattle.com", "phone": "12063245882", "address": "2409 10th Ave E"}, "geometry": {"type": "Point", "coordinates": [-122.3203083, 47.641738]}}, {"type": "Feature", "properties": {"id": "25fc6f15-0e8d-4909-a942-4eac3da5098e", "name": "Bridges Bar & Grill", "category": "restaurant", "tags": ["restaurant"], "sources": ["overture"], "website": "https://bridgessd.com", "address": "2947 Eastlake Ave E"}, "geometry": {"type": "Point", "coordinates": [-122.3240891, 47.6484985]}}, {"type": "Feature", "properties": {"id": "0221ba8f-7af5-4ee1-9589-5bb90004f594", "name": "Ravish", "category": "restaurant", "tags": ["restaurant", "american"], "sources": ["overture"], "website": "http://www.ravishoneastlake.com", "phone": "(206) 913-2497", "address": "2956 Eastlake Ave E"}, "geometry": {"type": "Point", "coordinates": [-122.3236389, 47.6483917]}}, {"type": "Feature", "properties": {"id": "aa290f62-852b-4270-8f4a-df1e6ab30cc7", "name": "Chris Brubaker Llc", "category": "restaurant", "tags": ["restaurant"], "sources": ["overture"], "website": "http://www.soundpsychiatry.com", "address": "2825 Eastlake Ave E Ste 120"}, "geometry": {"type": "Point", "coordinates": [-122.3257599, 47.6463394]}}, {"type": "Feature", "properties": {"id": "8e9f3579-967b-491a-b3f9-d3be62835de2", "name": "Lake Union Cafe", "category": "cafe", "tags": ["cafe"], "sources": ["overture"], "website": "http://www.lakeunioncafe.com", "phone": "(206) 568-5948", "address": "3119 Eastlake Ave E"}, "geometry": {"type": "Point", "coordinates": [-122.3229599, 47.6493759]}}, {"type": "Feature", "properties": {"id": "7e4270c5-79ee-4fe2-9976-27bb9d08d427", "name": "Pau Hana", "category": "restaurant", "tags": ["restaurant"], "sources": ["overture"], "website": "http://pauhanaseattle.com", "phone": "(206) 323-4262", "address": "2355 10th Ave E"}, "geometry": {"type": "Point", "coordinates": [-122.3203049, 47.6411896]}}, {"type": "Feature", "properties": {"id": "73ef6717-5243-42c5-95bd-26a8c36adbf4", "name": "XO Bistro", "category": "restaurant", "tags": ["restaurant", "american"], "sources": ["overture"], "website": "http://www.xobistro.com", "phone": "(206) 328-6444", "address": "2359 10th Ave E"}, "geometry": {"type": "Point", "coordinates": [-122.3203201, 47.6411362]}}, {"type": "Feature", "properties": {"id": "ea4aa0a5-9e54-4a3e-bfa1-575fe6449a14", "name": "Salee Thai", "category": "restaurant", "tags": ["restaurant", "thai"], "sources": ["overture"], "website": "http://saleethai.com", "phone": "(206) 457-5375", "address": "2355 10th Ave E"}, "geometry": {"type": "Point", "coordinates": [-122.3202515, 47.6411209]}}, {"type": "Feature", "properties": {"id": "5d62c7bc-e8f9-40a8-af6f-1ece873cc99d", "name": "Huiyona", "category": "restaurant", "tags": ["restaurant", "asian"], "sources": ["overture"], "website": "http://huiyona.com", "phone": "(206) 659-0120", "address": "2355 10th Ave E"}, "geometry": {"type": "Point", "coordinates": [-122.3203278, 47.6410789]}}, {"type": "Feature", "properties": {"id": "061a4dcb-da38-4131-880e-31c00389e119", "name": "Padrino's Pizza Delivery", "category": "restaurant", "tags": ["restaurant", "pizza"], "sources": ["overture"], "website": "http://www.padrinospizzapasta.com/", "phone": "2063226300", "address": "2357 10th Ave E"}, "geometry": {"type": "Point", "coordinates": [-122.3200836, 47.6405449]}}, {"type": "Feature", "properties": {"id": "7b0f154e-b3da-4415-9cfc-6a397d652ed5", "name": "Pomodoro Ristorante Italiano", "category": "restaurant", "tags": ["restaurant", "italian"], "sources": ["overture"], "website": "https://www.pomodoro.net", "phone": "2063243160", "address": "2366 Eastlake Ave E"}, "geometry": {"type": "Point", "coordinates": [-122.3257217, 47.6415024]}}, {"type": "Feature", "properties": {"id": "1fd7907d-0fec-4547-a557-659b708f9d36", "name": "Mammoth", "category": "restaurant", "tags": ["restaurant", "sandwich"], "sources": ["overture"], "website": "http://mammothseattle.com", "phone": "(206) 920-4126", "address": "2501 Eastlake Ave E"}, "geometry": {"type": "Point", "coordinates": [-122.3260422, 47.6422081]}}, {"type": "Feature", "properties": {"id": "4b48f2c6-3c72-455b-83a6-3180e8c7c2c2", "name": "Louisa\u2019s Cafe Bakery & Bar", "category": "restaurant", "tags": ["restaurant"], "sources": ["overture"], "website": "https://louisascafe.com", "address": "2379 Eastlake Ave E"}, "geometry": {"type": "Point", "coordinates": [-122.3262634, 47.6418648]}}, {"type": "Feature", "properties": {"id": "4e9ff06e-3b0e-4047-89ee-dfce0f50aae7", "name": "New Renaissance Cakes", "category": "bakery", "tags": ["bakery"], "sources": ["overture"], "website": "http://newrenaissancecakes.com", "phone": "(206) 920-5322", "address": "117 E Louisa St # 136"}, "geometry": {"type": "Point", "coordinates": [-122.3263626, 47.6417542]}}, {"type": "Feature", "properties": {"id": "03e2c8d7-1880-44a6-9d56-d9a9dfee158a", "name": "Pecado Bueno Eastlake", "category": "restaurant", "tags": ["restaurant", "mexican"], "sources": ["overture"], "website": "https://pecadobueno.com", "phone": "+12066877423", "address": "2356 Eastlake Ave E"}, "geometry": {"type": "Point", "coordinates": [-122.325737, 47.6412811]}}, {"type": "Feature", "properties": {"id": "ae87a95d-ea75-4d60-9a86-e7dd455aa848", "name": "Pazzo's on Eastlake", "category": "restaurant", "tags": ["restaurant", "bar-and-grill", "bar", "grill"], "sources": ["overture"], "website": "http://www.GoPazzos.com/", "phone": "+12063296558", "address": "2307 Eastlake Ave E"}, "geometry": {"type": "Point", "coordinates": [-122.326004, 47.6400528]}}, {"type": "Feature", "properties": {"id": "9e8b0367-1caf-4ff0-92cf-c0f74be81c89", "name": "D &amp S Corporation Dba Pazzo's", "category": "restaurant", "tags": ["restaurant"], "sources": ["overture"], "address": "2307 Eastlake Ave E"}, "geometry": {"type": "Point", "coordinates": [-122.3262634, 47.640049]}}, {"type": "Feature", "properties": {"id": 3211770242, "name": "Dreamboats", "category": "artwork", "tags": ["artwork"], "sources": ["osm"]}, "geometry": {"type": "Point", "coordinates": [-122.325967, 47.640183]}}, {"type": "Feature", "properties": {"id": 12107540387, "name": "Twins on a Wire", "category": "artwork", "tags": ["artwork"], "sources": ["osm"], "website": "https://www.arts.wa.gov/artwork/?request=record%3Bid=10770%3Btype=101"}, "geometry": {"type": "Point", "coordinates": [-122.324236, 47.642485]}}, {"type": "Feature", "properties": {"id": "771b5ab7-df85-4815-935e-558898d02f69", "name": "Roanoke Reef", "category": "attraction", "tags": ["attraction", "landmark", "historical", "building"], "sources": ["overture"], "website": "http://www.Specialagentsrealty.com/", "address": "10 E Roanoke St"}, "geometry": {"type": "Point", "coordinates": [-122.3289108, 47.6433067]}}, {"type": "Feature", "properties": {"id": "52756f7d-3ef5-4990-92c7-c5fc07745524", "name": "Minor Tower", "category": "attraction", "tags": ["attraction", "landmark", "historical", "building"], "sources": ["overture"], "website": "http://www.minorandjames.com/", "phone": "+12063974354", "address": "2525 Minor Ave E"}, "geometry": {"type": "Point", "coordinates": [-122.3284454, 47.6426697]}}, {"type": "Feature", "properties": {"id": "c8bdb180-4264-42f5-98a6-06c644c21562", "name": "Remi Apartments", "category": "attraction", "tags": ["attraction", "landmark", "historical", "building"], "sources": ["overture"], "website": "http://www.liveatremi.com", "phone": "+18336722014", "address": "2727 Eastlake Ave E"}, "geometry": {"type": "Point", "coordinates": [-122.3260803, 47.6453781]}}, {"type": "Feature", "properties": {"id": "d134e723-819c-4729-a4bc-37b9c4bee7b9", "name": "Eastlake 2851 Apartments", "category": "attraction", "tags": ["attraction", "landmark", "historical", "building"], "sources": ["overture"], "website": "https://www.eastlake2851.com/", "phone": "+18332284427", "address": "2851 Eastlake Ave E"}, "geometry": {"type": "Point", "coordinates": [-122.3250046, 47.6469383]}}, {"type": "Feature", "properties": {"id": "f8e0fb4b-87ea-4106-a7c7-f19beaaf77a5", "name": "L'Amourita coop Apartments", "category": "attraction", "tags": ["attraction", "landmark", "historical", "building"], "sources": ["overture"], "website": "http://www.lamourita.com/", "address": "2909 Franklin Ave E"}, "geometry": {"type": "Point", "coordinates": [-122.3234482, 47.6473618]}}, {"type": "Feature", "properties": {"id": "5949e826-f63a-4406-b78e-dc6af89808d5", "name": "Areis Building", "category": "attraction", "tags": ["attraction", "landmark", "historical", "building"], "sources": ["overture"], "website": "http://www.areisbuilding.com", "phone": "+12063221616", "address": "2366 Eastlake Ave E"}, "geometry": {"type": "Point", "coordinates": [-122.3257065, 47.6416588]}}, {"type": "Feature", "properties": {"id": "f0a2bd19-fce2-4ffd-a56f-9f99137ee6e1", "name": "Shelton Eastlake", "category": "attraction", "tags": ["attraction", "landmark", "historical", "building"], "sources": ["overture"], "website": "https://www.sheltoneastlake.com/", "phone": "+12066531675", "address": "2359 Franklin Ave E"}, "geometry": {"type": "Point", "coordinates": [-122.3248138, 47.6414452]}}, {"type": "Feature", "properties": {"id": 13515109, "name": "Fairview Park", "category": "park", "tags": ["park"], "sources": ["osm"], "website": "https://www.seattle.gov/parks/allparks/fairview-park", "address": "2900 Fairview Avenue East"}, "geometry": {"type": "Point", "coordinates": [-122.3249831, 47.647633]}}, {"type": "Feature", "properties": {"id": 13801411, "name": "Roanoke Park", "category": "park", "tags": ["park"], "sources": ["osm"], "website": "https://www.seattle.gov/parks/allparks/roanoke-park", "address": "950 East Roanoke Street"}, "geometry": {"type": "Point", "coordinates": [-122.3202218, 47.6438532]}}, {"type": "Feature", "properties": {"id": 40819484, "name": "Rogers Playground", "category": "park", "tags": ["park"], "sources": ["osm"], "website": "https://www.seattle.gov/parks/find/parks/rogers-playground", "address": "2516 Eastlake Avenue East"}, "geometry": {"type": "Point", "coordinates": [-122.3251949, 47.642615]}}, {"type": "Feature", "properties": {"id": 56241421, "name": "East Hamlin Street End", "category": "park", "tags": ["park"], "sources": ["osm"]}, "geometry": {"type": "Point", "coordinates": [-122.3272457, 47.6456238]}}, {"type": "Feature", "properties": {"id": 293941212, "name": "East Louisa Street End", "category": "park", "tags": ["park"], "sources": ["osm"]}, "geometry": {"type": "Point", "coordinates": [-122.3295418, 47.6419956]}}, {"type": "Feature", "properties": {"id": 293941439, "name": "East Allison Street End", "category": "park", "tags": ["park"], "sources": ["osm"], "website": "https://www.seattle.gov/transportation/projects-and-programs/programs/public-space-management-programs/shoreline-street-ends#SSE_Program_Site", "phone": "+1-206-233-5114"}, "geometry": {"type": "Point", "coordinates": [-122.3249618, 47.6492219]}}, {"type": "Feature", "properties": {"id": 445746567, "name": "Fairview Avenue East Street End", "category": "park", "tags": ["park"], "sources": ["osm"]}, "geometry": {"type": "Point", "coordinates": [-122.3286372, 47.6433589]}}, {"type": "Feature", "properties": {"id": 445746568, "name": "Roanoke Street Mini Park", "category": "park", "tags": ["park"], "sources": ["osm", "overture"], "website": "http://www.cityofseattle.net/parks/park_detail.asp?ID=9064", "phone": "+12066844075", "address": "1 E Roanoke St"}, "geometry": {"type": "Point", "coordinates": [-122.3289309, 47.6431336]}}, {"type": "Feature", "properties": {"id": 2268896069, "name": "Seattle Caviar", "category": "deli", "tags": ["deli"], "sources": ["osm"], "website": "https://caviar.com/", "address": "2922 Eastlake Avenue East", "hours": "Mo-We,Fr 10:00-17:30; Th 10:00-19:00; Sa 11:00-17:00"}, "geometry": {"type": "Point", "coordinates": [-122.3239496, 47.6477849]}}, {"type": "Feature", "properties": {"id": 3555246893, "name": "Hamlin Market & Deli", "category": "deli", "tags": ["deli", "delicatessen"], "sources": ["osm", "overture"], "website": "http://foodeist.com/place/hamlin-market-and-deli", "phone": "+12063242888", "address": "2729 Eastlake Ave E", "hours": "Mo-Sa 08:00-22:00"}, "geometry": {"type": "Point", "coordinates": [-122.3260869, 47.6453673]}}, {"type": "Feature", "properties": {"id": 5080188428, "name": "Wolfe Marine Sales", "category": "outdoor", "tags": ["outdoor"], "sources": ["osm"]}, "geometry": {"type": "Point", "coordinates": [-122.325045, 47.6484945]}}, {"type": "Feature", "properties": {"id": 5080225624, "name": "Thunderbird Stand Up Paddleboarding", "category": "outdoor", "tags": ["outdoor"], "sources": ["osm"]}, "geometry": {"type": "Point", "coordinates": [-122.3251269, 47.6483239]}}, {"type": "Feature", "properties": {"id": "355bf21e-dd61-47ae-b7db-36ed3458fd84", "name": "Maison Du Caviar Ltd", "category": "supermarket", "tags": ["supermarket"], "sources": ["overture"], "address": "2922 Eastlake Ave E"}, "geometry": {"type": "Point", "coordinates": [-122.3239594, 47.6477776]}}, {"type": "Feature", "properties": {"id": "4c9335bf-b6cf-4bbc-8fc3-381c9445ceb5", "name": "Cheater Five Inc", "category": "shoes", "tags": ["shoes", "shoe"], "sources": ["overture"], "website": "https://www.cheaterfive.net", "phone": "2063821566", "address": "2633 Eastlake Ave E"}, "geometry": {"type": "Point", "coordinates": [-122.3262711, 47.6441841]}}, {"type": "Feature", "properties": {"id": "227acab8-83ca-44b2-b8ce-1fea7cd50e85", "name": "Rachel Burklund Designs", "category": "jewelry", "tags": ["jewelry"], "sources": ["overture"], "website": "https://rachelburklund.com", "phone": "+12063536422", "address": "117 E Louisa St PMB 126"}, "geometry": {"type": "Point", "coordinates": [-122.326355, 47.6416931]}}, {"type": "Feature", "properties": {"id": "7d4d0e80-6254-4d80-b7b9-07da82b65295", "name": "Current Consign", "category": "clothes", "tags": ["clothes"], "sources": ["overture"], "website": "http://currentconsign.com/", "phone": "2069466650", "address": "2335 Eastlake Ave E"}, "geometry": {"type": "Point", "coordinates": [-122.3259583, 47.640564]}}, {"type": "Feature", "properties": {"id": "0fd0bd4d-1ea8-4ba1-9b35-a7fba4cbc394", "name": "Harborview Medical Center Long-Term Care Pharmacy", "category": "pharmacy", "tags": ["pharmacy"], "sources": ["overture"], "website": "https://www.kelley-ross.com/locations/hmc-ltc-pharmacy/?y_source=1_MTAwNTYxNjY2NC00ODMtbG9jYXRpb24ud2Vic2l0ZQ%3D%3D", "phone": "2068384590", "address": "2324 Eastlake Ave E Ste 400A"}, "geometry": {"type": "Point", "coordinates": [-122.3259125, 47.640522]}}, {"type": "Feature", "properties": {"id": 2270112963, "name": "Pilates on 10th", "category": "fitness_centre", "tags": ["fitness-centre", "pilates", "studio"], "sources": ["osm", "overture"], "website": "http://www.pilateson10th.com/", "phone": "+12067094030", "address": "2351 10th Ave E"}, "geometry": {"type": "Point", "coordinates": [-122.3202154, 47.641085]}}, {"type": "Feature", "properties": {"id": 4371653092, "name": "Union Pilates", "category": "fitness_centre", "tags": ["fitness-centre", "pilates", "studio"], "sources": ["osm", "overture"], "website": "http://www.unionpilates.com/", "phone": "+12066598563", "address": "2712 Eastlake Ave E"}, "geometry": {"type": "Point", "coordinates": [-122.3255319, 47.6449682]}}, {"type": "Feature", "properties": {"id": 6287452875, "name": "The Performance Fix", "category": "fitness_centre", "tags": ["fitness-centre", "gym"], "sources": ["osm", "overture"], "website": "http://www.theperformancefix.com", "address": "2324 Eastlake Ave E  Ste 100"}, "geometry": {"type": "Point", "coordinates": [-122.325648, 47.6404054]}}, {"type": "Feature", "properties": {"id": 1192128271, "name": "College Club Seattle", "category": "sports_centre", "tags": ["sports-centre", "rowing"], "sources": ["osm"], "website": "https://www.collegeclubseattle.com/", "address": "11 East Allison Street"}, "geometry": {"type": "Point", "coordinates": [-122.325406, 47.6490497]}}, {"type": "Feature", "properties": {"id": "58841f72-398a-40ac-984b-75d6f3805572", "name": "popSUP", "category": "fitness_centre", "tags": ["fitness-centre", "yoga", "studio"], "sources": ["overture"], "website": "http://popsup.co/seattle-wa/", "phone": "+12064864448", "address": "2800 Fairview Ave E"}, "geometry": {"type": "Point", "coordinates": [-122.3293762, 47.6426468]}}, {"type": "Feature", "properties": {"id": "67eb16f9-870b-4a13-985b-626be2ce73d0", "name": "Laura Yon Yoga & Bodywork", "category": "fitness_centre", "tags": ["fitness-centre", "yoga", "studio"], "sources": ["overture"], "website": "http://laurayon.com", "phone": "12063651997", "address": "2727 Fairview Ave E  Ste D"}, "geometry": {"type": "Point", "coordinates": [-122.3275146, 47.6451263]}}, {"type": "Feature", "properties": {"id": "2245f114-ac8c-4194-a266-7905a3b17ea8", "name": "Eastlake Performance", "category": "fitness_centre", "tags": ["fitness-centre", "fitness", "trainer"], "sources": ["overture"], "website": "eastlakeperformance.com", "address": "2926 Eastlake Ave E"}, "geometry": {"type": "Point", "coordinates": [-122.3238144, 47.6479797]}}, {"type": "Feature", "properties": {"id": "e12a1544-5c26-4dc1-b726-baa7b3f61124", "name": "Eastlake Yoga", "category": "fitness_centre", "tags": ["fitness-centre", "yoga", "studio"], "sources": ["overture"], "website": "http://www.eastlakeyoga.com", "phone": "(206) 355-4154", "address": "2501 Eastlake Ave E"}, "geometry": {"type": "Point", "coordinates": [-122.3263855, 47.6422157]}}, {"type": "Feature", "properties": {"id": "9172647b-2b2b-4b21-b2d3-53b007334d67", "name": "Great Blue Heron Llc", "category": "fitness_centre", "tags": ["fitness-centre", "yoga", "studio"], "sources": ["overture"], "website": "http://greatblueheron.llc", "phone": "2067694445", "address": "2501 Eastlake Ave E"}, "geometry": {"type": "Point", "coordinates": [-122.3263474, 47.6421967]}}, {"type": "Feature", "properties": {"id": "df9385b2-5639-47b4-9847-99f49d909f5b", "name": "Shanogi Yoga", "category": "fitness_centre", "tags": ["fitness-centre", "yoga", "studio"], "sources": ["overture"], "website": "https://shanogi.com", "phone": "+15095912218", "address": "117 E Louisa St PMB 727"}, "geometry": {"type": "Point", "coordinates": [-122.326355, 47.6416931]}}]}