{"type": "FeatureCollection", "features": [{"type": "Feature", "properties": {"id": "19191b48-b2d2-41a9-a99d-10657d05b69b", "name": "The Preserve at Forbes Creek", "category": "attraction", "tags": ["attraction", "landmark", "historical", "building"], "sources": ["overture"], "website": "https://www.thepreserveatforbescreek.com/?utm_source=facebook&utm_medium=social", "phone": "+14254056358", "address": "11110 Forbes Creek Dr"}, "geometry": {"type": "Point", "coordinates": [-122.192749, 47.6963959]}}, {"type": "Feature", "properties": {"id": 55783342, "name": "Crestwoods Park", "category": "park", "tags": ["park"], "sources": ["osm"]}, "geometry": {"type": "Point", "coordinates": [-122.1958693, 47.6913018]}}, {"type": "Feature", "properties": {"id": "2150a109-5ee9-4ade-9c8a-6087482e5eac", "name": "Crestwoods Park", "category": "park", "tags": ["park"], "sources": ["overture"], "website": "http://www.kirklandwa.gov/depart/parks/Online_Parks_Guide/Parks_Pop-up_Main/Parks_and_Community_Services__Crestwoods_Park.htm", "phone": "+14255873300", "address": "1818 6th St"}, "geometry": {"type": "Point", "coordinates": [-122.1969986, 47.6910744]}}, {"type": "Feature", "properties": {"id": "809f9ea5-81a6-4ad6-974d-4a90a333795e", "name": "Forbes Creek Stairs", "category": "park", "tags": ["park"], "sources": ["overture"], "website": "https://www.mountaineers.org/activities/routes-places/forbes-creek-stairs", "address": "10800 Forbes Creek Dr"}, "geometry": {"type": "Point", "coordinates": [-122.1970062, 47.6949272]}}, {"type": "Feature", "properties": {"id": "0c25b50f-e42a-4f73-ab6f-16475610f764", "name": "The Park At Forbes Creek", "category": "park", "tags": ["park"], "sources": ["overture"], "website": "www.resortatforbescreek.com", "phone": "+18552254697", "address": "11110 Forbes Creek Dr"}, "geometry": {"type": "Point", "coordinates": [-122.1930389, 47.6971245]}}, {"type": "Feature", "properties": {"id": "761eac3b-2c72-4741-9595-b181bdb03ef5", "name": "Elevated Renovations Inc", "category": "doityourself", "tags": ["doityourself", "home", "improvement"], "sources": ["overture"], "website": "https://www.elevatedrenovationsinc.com/", "phone": "+14257543355", "address": "11110 Forbes Creek Dr"}, "geometry": {"type": "Point", "coordinates": [-122.1926117, 47.6963806]}}]}