{"type": "FeatureCollection", "features": [{"type": "Feature", "properties": {"id": "a9a16458-410c-40a9-95ce-4d38b0a0062c", "name": "San Cristobal Coffee Importers", "category": "cafe", "tags": ["cafe", "coffee"], "sources": ["overture"], "website": "http://www.sancristocafe.com/", "phone": "+14258259106", "address": "13244 Juanita Dr NE"}, "geometry": {"type": "Point", "coordinates": [-122.2374039, 47.7208977]}}, {"type": "Feature", "properties": {"id": "502f6f96-cd9d-4aa6-badd-be5ddd8880ba", "name": "Big Finn Hill Park", "category": "park", "tags": ["park"], "sources": ["overture"], "website": "http://www.kingcounty.gov/services/parks-recreation/parks/trails/backcountry-trails/BigFinn.aspx", "phone": "(425) 489-3388", "address": "13351 Juanita Dr"}, "geometry": {"type": "Point", "coordinates": [-122.2375793, 47.7252731]}}, {"type": "Feature", "properties": {"id": "b455d089-2742-4c40-aef3-853658fd67a9", "name": "Big Finn Hill Park", "category": "park", "tags": ["park"], "sources": ["overture"], "address": "12896, 12908 72nd Ave NE"}, "geometry": {"type": "Point", "coordinates": [-122.2337952, 47.7244453]}}, {"type": "Feature", "properties": {"id": "a7e370ca-dcaa-4096-b907-78cf7c1aa0b1", "name": "The First Iranian Library in Washington State", "category": "library", "tags": ["library"], "sources": ["overture"], "website": "http://isows.org/", "phone": "+14257536767", "address": "7718 NE 141st St"}, "geometry": {"type": "Point", "coordinates": [-122.2370605, 47.7285042]}}, {"type": "Feature", "properties": {"id": 975553955, "name": "Finn Hill Middle School Tennis Courts", "category": "sports_centre", "tags": ["sports-centre", "tennis"], "sources": ["osm"]}, "geometry": {"type": "Point", "coordinates": [-122.2329624, 47.7205181]}}]}