{"type": "FeatureCollection", "features": [{"type": "Feature", "properties": {"id": "c46a5f39-faaf-4e00-9b29-1e6fc1a72846", "name": "Vinason", "category": "fast_food", "tags": ["fast-food", "food", "truck"], "sources": ["overture"], "website": "vinason.net", "address": "1020 Bellevue Way NE", "stations": [{"stopCode": 58, "lines": "2", "name": "Bellevue Downtown Station", "walkingMeters": 1139, "walkingSeconds": 850, "band": 15}]}, "geometry": {"type": "Point", "coordinates": [-122.2011795, 47.6201782]}}, {"type": "Feature", "properties": {"id": "447fe3b4-c096-4b0b-b3af-a22a61c4f604", "name": "What'sup Dog", "category": "restaurant", "tags": ["restaurant", "hot-dog", "hot", "dog"], "sources": ["overture"], "website": "https://www.whatsupdogbellevue.com/?utm_source=bing&utm_medium=websiteurl&utm_campaign=search", "phone": "4254599333", "address": "10630 MAIN St"}, "geometry": {"type": "Point", "coordinates": [-122.205162, 47.6264725]}}, {"type": "Feature", "properties": {"id": "db13e787-a4ce-4454-8603-f9422496064e", "name": "Garlic Jim's Pizza", "category": "restaurant", "tags": ["restaurant", "pizza"], "sources": ["overture"], "website": "http://garlicjims.com", "phone": "(425) 455-5467", "address": "10445 NE 4th St"}, "geometry": {"type": "Point", "coordinates": [-122.2021103, 47.6201706]}}, {"type": "Feature", "properties": {"id": 5608446853, "name": "Bhojan Express", "category": "restaurant", "tags": ["restaurant", "indian"], "sources": ["osm"], "address": "1105 Bellevue Way Northeast"}, "geometry": {"type": "Point", "coordinates": [-122.2021448, 47.620165]}}, {"type": "Feature", "properties": {"id": "328f0d85-1f9b-4301-9776-7db685b73b0b", "name": "Don't Skip Breakfast", "category": "restaurant", "tags": ["restaurant", "breakfast-and-brunch", "breakfast", "brunch"], "sources": ["overture"], "website": "https://dontskipbreakfastinc.com", "phone": "(425) 449-2211", "address": "1020 Bellevue Way NE", "stations": [{"stopCode": 58, "lines": "2", "name": "Bellevue Downtown Station", "walkingMeters": 1395, "walkingSeconds": 1005, "band": 15}]}, "geometry": {"type": "Point", "coordinates": [-122.2013092, 47.6201744]}}, {"type": "Feature", "properties": {"id": "3bfc072d-0320-4608-a73d-f94d36334b2b", "name": "Primo's Bellevue", "category": "restaurant", "tags": ["restaurant", "french", "asian"], "sources": ["overture"], "website": "https://www.primosbellevue.com/", "phone": "+14259854765", "address": "1020 Bellevue Way NE", "stations": [{"stopCode": 58, "lines": "2", "name": "Bellevue Downtown Station", "walkingMeters": 1404, "walkingSeconds": 1011, "band": 15}]}, "geometry": {"type": "Point", "coordinates": [-122.20121, 47.6201477]}}, {"type": "Feature", "properties": {"id": "51fde2de-e704-4eb8-95a7-76477f5e3e4c", "name": "Bhojan Xpress", "category": "restaurant", "tags": ["restaurant", "indian"], "sources": ["overture"], "website": "http://www.bhojanxpress.com", "phone": "14254550807", "address": "1105 Bellevue Way Ne  Ste A4"}, "geometry": {"type": "Point", "coordinates": [-122.2020798, 47.6201782]}}, {"type": "Feature", "properties": {"id": "9d882e4c-ae71-4cf8-80fa-d5563cd17bdf", "name": "Le Chateau", "category": "attraction", "tags": ["attraction", "landmark", "historical", "building"], "sources": ["overture"], "website": "http://lechateaudowntownbellevue-com.webs.com/", "phone": "+14254531822", "address": "1111 102nd Ave NE"}, "geometry": {"type": "Point", "coordinates": [-122.2055054, 47.6204453]}}, {"type": "Feature", "properties": {"id": "3de38462-1193-4077-ac12-7d66cb1343a7", "name": "Park Bellevue", "category": "attraction", "tags": ["attraction", "landmark", "historical", "building"], "sources": ["overture"], "website": "https://www.theparkinbellevue.com/", "phone": "+14259061795", "address": "1515 Bellevue Way NE"}, "geometry": {"type": "Point", "coordinates": [-122.2028732, 47.6234703]}}, {"type": "Feature", "properties": {"id": "04bc1117-fba4-4ad9-8f4b-f313cc1758ba", "name": "Park East Apartments", "category": "attraction", "tags": ["attraction", "landmark", "historical", "building"], "sources": ["overture"], "phone": "+14254670288", "address": "1422-1482 Bellevue Way NE"}, "geometry": {"type": "Point", "coordinates": [-122.2018738, 47.6236534]}}, {"type": "Feature", "properties": {"id": "49660b63-5725-4901-82b7-996207e8ae34", "name": "12 Central Square", "category": "attraction", "tags": ["attraction", "landmark", "historical", "building"], "sources": ["overture"], "website": "https://www.12centralsquare.com/", "phone": "+18449283972", "address": "10290 NE 12th St"}, "geometry": {"type": "Point", "coordinates": [-122.2033539, 47.6218147]}}, {"type": "Feature", "properties": {"id": 1987569543, "name": "Adventure Kids Playcare", "category": "playground", "tags": ["playground"], "sources": ["osm"], "website": "https://adventurekidsplaycare.com/"}, "geometry": {"type": "Point", "coordinates": [-122.201437, 47.620416]}}, {"type": "Feature", "properties": {"id": 330733365, "name": "Chapin Property", "category": "park", "tags": ["park"], "sources": ["osm"]}, "geometry": {"type": "Point", "coordinates": [-122.2002801, 47.6277957]}}, {"type": "Feature", "properties": {"id": 342635489, "name": "BevMo!", "category": "alcohol", "tags": ["alcohol"], "sources": ["osm", "overture"], "website": "http://www.bevmo.com/", "phone": "+14254540121", "address": "1100 Bellevue Way NE", "stations": [{"stopCode": 58, "lines": "2", "name": "Bellevue Downtown Station", "walkingMeters": 1474, "walkingSeconds": 1062, "band": 15}]}, "geometry": {"type": "Point", "coordinates": [-122.200769, 47.6203933]}}, {"type": "Feature", "properties": {"id": 1987569546, "name": "AAA Cruises and Travel", "category": "outdoor", "tags": ["outdoor", "wheelchair-accessible"], "sources": ["osm"], "address": "1100 Bellevue Way Northeast", "hours": "Mo-Fr 09:00-18:00; Sa,Su off", "stations": [{"stopCode": 58, "lines": "2", "name": "Bellevue Downtown Station", "walkingMeters": 1528, "walkingSeconds": 1100, "band": 15}]}, "geometry": {"type": "Point", "coordinates": [-122.2001416, 47.6204739]}}, {"type": "Feature", "properties": {"id": "94c07648-72eb-48b2-ae9f-e094981b0f1a", "name": "Chico's", "category": "clothes", "tags": ["clothes", "womens"], "sources": ["overture"], "website": "https://www.chicos.com", "phone": "14254544654", "address": "2016 Bellevue Sq"}, "geometry": {"type": "Point", "coordinates": [-122.2009354, 47.6287231]}}, {"type": "Feature", "properties": {"id": "66ed3253-2fd0-43e4-b605-1804ac76208e", "name": "Foot Locker", "category": "shoes", "tags": ["shoes", "shoe"], "sources": ["overture"], "website": "http://www.footlocker.com", "phone": "14254514929", "address": "1100 Bellevue Sq", "stations": [{"stopCode": 58, "lines": "2", "name": "Bellevue Downtown Station", "walkingMeters": 1096, "walkingSeconds": 818, "band": 15}]}, "geometry": {"type": "Point", "coordinates": [-122.2003937, 47.6203346]}}, {"type": "Feature", "properties": {"id": "2101cd26-cf5a-457f-94db-8fb430cc092d", "name": "Pandora Jewelry", "category": "jewelry", "tags": ["jewelry"], "sources": ["overture"], "website": "https://stores.pandora.net/wa/bellevue/pandora-jewelry-us7cd5bd63.html", "phone": "4252868277", "address": "2088 Bellevue Sq"}, "geometry": {"type": "Point", "coordinates": [-122.2056198, 47.6282082]}}, {"type": "Feature", "properties": {"id": "f53d03f9-eadc-4637-ae1c-dbe7a7533c4e", "name": "State Liquor Store", "category": "alcohol", "tags": ["alcohol"], "sources": ["overture"], "website": "http://liq.wa.gov", "phone": "(425) 453-3080", "address": "1100 Bellevue Way NE", "stations": [{"stopCode": 58, "lines": "2", "name": "Bellevue Downtown Station", "walkingMeters": 1484, "walkingSeconds": 1069, "band": 15}]}, "geometry": {"type": "Point", "coordinates": [-122.2006836, 47.6203461]}}, {"type": "Feature", "properties": {"id": "1f30d8aa-f5bf-4057-8b11-456257b79604", "name": "Victorian Choice", "category": "clothes", "tags": ["clothes", "womens"], "sources": ["overture"], "website": "https://www.victorianchoice.com/", "phone": "+14252604851", "address": "1100 Bellevue Way NE Ste 8A - 77", "stations": [{"stopCode": 58, "lines": "2", "name": "Bellevue Downtown Station", "walkingMeters": 1498, "walkingSeconds": 1079, "band": 15}]}, "geometry": {"type": "Point", "coordinates": [-122.2005081, 47.6204414]}}, {"type": "Feature", "properties": {"id": "f958c83b-46e6-4db2-be7a-c57c221356f7", "name": "Snapdoodle Toys & Games Bellevue", "category": "toys", "tags": ["toys"], "sources": ["overture"], "website": "https://www.snapdoodletoys.com", "phone": "14255909576", "address": "1100 Bellevue Way Ne  Ste 6a", "stations": [{"stopCode": 58, "lines": "2", "name": "Bellevue Downtown Station", "walkingMeters": 1499, "walkingSeconds": 1080, "band": 15}]}, "geometry": {"type": "Point", "coordinates": [-122.2003937, 47.6203346]}}, {"type": "Feature", "properties": {"id": "dd094b5d-1102-4380-9e20-4e3aff365d19", "name": "Custom Prescriptions LLC", "category": "pharmacy", "tags": ["pharmacy"], "sources": ["overture"], "website": "http://www.custom-prescriptions.com/", "phone": "4252890347", "address": "1200 112th Ave NE Ste A102"}, "geometry": {"type": "Point", "coordinates": [-122.2041397, 47.6200676]}}, {"type": "Feature", "properties": {"id": "fab9159e-318f-454f-b6e8-66c178996d1c", "name": "The Bellevue Clinic At Overlake Hospital", "category": "hospital", "tags": ["hospital"], "sources": ["overture"], "phone": "+14254543938", "address": "1135 104th Ave NE"}, "geometry": {"type": "Point", "coordinates": [-122.2019119, 47.6204796]}}, {"type": "Feature", "properties": {"id": 33115500, "name": "Wells Fargo", "category": "bank", "tags": ["bank", "wheelchair-accessible", "credit", "union"], "sources": ["osm", "overture"], "website": "http://www.wellsfargo.com", "phone": "+14254625542", "address": "1130 Bellevue Way Ne", "hours": "Mo-Fr 09:00-17:00; Sa 09:00-12:00; Su off"}, "geometry": {"type": "Point", "coordinates": [-122.2010791, 47.6208362]}}, {"type": "Feature", "properties": {"id": "b4b3682f-e84d-4aba-98bc-4271f6f4ac1f", "name": "USPS", "category": "post_office", "tags": ["post-office", "office"], "sources": ["overture"], "website": "https://tools.usps.com/find-location.htm?location=1492994", "phone": "+14254535655", "address": "1171 BELLEVUE WAY NE"}, "geometry": {"type": "Point", "coordinates": [-122.2027435, 47.6206474]}}, {"type": "Feature", "properties": {"id": 30108218, "name": "Bellevue Post Office", "category": "post_office", "tags": ["post-office"], "sources": ["osm"], "phone": "+1-800-275-8777", "address": "1171 Bellevue Way Northeast"}, "geometry": {"type": "Point", "coordinates": [-122.2025428, 47.6205989]}}, {"type": "Feature", "properties": {"id": "dcdc5df5-3c3d-483e-a858-118f515669ca", "name": "US Post Office", "category": "post_office", "tags": ["post-office", "office"], "sources": ["overture"], "website": "http://www.usps.com", "address": "1171 Bellevue Way NE"}, "geometry": {"type": "Point", "coordinates": [-122.2014847, 47.6207085]}}, {"type": "Feature", "properties": {"id": "74668756-e921-4ff5-8b4c-1e9c6927e803", "name": "Bellevue Financial Advisors", "category": "bank", "tags": ["bank", "credit", "union"], "sources": ["overture"], "website": "https://www.bellevuefa.com/", "phone": "4232303332", "address": "1100 Bellevue Way NE, 8A 240", "stations": [{"stopCode": 58, "lines": "2", "name": "Bellevue Downtown Station", "walkingMeters": 1498, "walkingSeconds": 1079, "band": 15}]}, "geometry": {"type": "Point", "coordinates": [-122.2005005, 47.6203308]}}]}