{"type": "FeatureCollection", "features": [{"type": "Feature", "properties": {"id": 210697241, "name": "Enatai Neighborhood Park", "category": "park", "tags": ["park", "playground"], "sources": ["osm"], "website": "http://www.ci.bellevue.wa.us/enatai_neighborhood.htm", "address": "10661 Southeast 25th Street", "stations": [{"stopCode": 56, "lines": "2", "name": "South Bellevue Station", "walkingMeters": 956, "walkingSeconds": 717, "band": 15}]}, "geometry": {"type": "Point", "coordinates": [-122.1978415, 47.5873681]}}, {"type": "Feature", "properties": {"id": "c7779fb3-0f1a-4e67-b67c-40be2a7cbda7", "name": "Enatai Neighborhood Park", "category": "park", "tags": ["park"], "sources": ["overture"], "phone": "+14254526885", "address": "10643 SE 25th St", "stations": [{"stopCode": 56, "lines": "2", "name": "South Bellevue Station", "walkingMeters": 718, "walkingSeconds": 536, "band": 15}]}, "geometry": {"type": "Point", "coordinates": [-122.1974258, 47.5880394]}}]}