{"type": "FeatureCollection", "features": [{"type": "Feature", "properties": {"id": 11196816225, "name": "Gourmet Latte", "category": "cafe", "tags": ["cafe", "coffee"], "sources": ["osm", "overture"], "website": "https://gourmetlatte.com", "phone": "+14254864726", "address": "24019 Woodinville - Snohomish Rd B"}, "geometry": {"type": "Point", "coordinates": [-122.147478, 47.7781138]}}, {"type": "Feature", "properties": {"id": "c0ebd373-11fc-4c93-8e4c-ab4783b08dbb", "name": "Januik Winery", "category": "bar", "tags": ["bar", "wine"], "sources": ["overture"], "website": "http://www.januikwinery.com/", "phone": "(425) 481-5502", "address": "19730 144th Ave NE"}, "geometry": {"type": "Point", "coordinates": [-122.1473007, 47.7713356]}}, {"type": "Feature", "properties": {"id": "a447c237-c4a6-4e22-a2e6-e549e4dc199c", "name": "Rama's Kitchen", "category": "restaurant", "tags": ["restaurant", "indian"], "sources": ["overture"], "website": "https://www.ramaskitchens.com/", "phone": "+14259986386", "address": "19600 144th Ave NE"}, "geometry": {"type": "Point", "coordinates": [-122.1455231, 47.7700806]}}, {"type": "Feature", "properties": {"id": "58f52234-c32a-4ccb-89e1-0357799b4ec0", "name": "Kate's Bakery", "category": "bakery", "tags": ["bakery"], "sources": ["overture"], "website": "https://kates-bakery.com/", "phone": "+14252485969", "address": "19600 144th Ave NE"}, "geometry": {"type": "Point", "coordinates": [-122.1455154, 47.7700958]}}, {"type": "Feature", "properties": {"id": 1226375598, "name": "Efeste Winery", "category": "attraction", "tags": ["attraction", "winery", "wine"], "sources": ["osm"]}, "geometry": {"type": "Point", "coordinates": [-122.1471672, 47.7747671]}}, {"type": "Feature", "properties": {"id": "1449648d-2c30-4b6a-8b0d-3f7805e6f25c", "name": "W.T. Vintners", "category": "wine", "tags": ["wine", "winery"], "sources": ["overture"]}, "geometry": {"type": "Point", "coordinates": [-122.1415787, 47.7702065]}}, {"type": "Feature", "properties": {"id": "6323fd3c-b055-4e9e-92c2-03ac53b87f43", "name": "Efeste", "category": "wine", "tags": ["wine", "winery"], "sources": ["overture"], "website": "http://efeste.com/", "phone": "+14253987200", "address": "19730 144th Ave NE"}, "geometry": {"type": "Point", "coordinates": [-122.1458282, 47.771244]}}, {"type": "Feature", "properties": {"id": "251af418-3616-4917-a718-575cad23f301", "name": "QXO", "category": "doityourself", "tags": ["doityourself", "building", "supply"], "sources": ["overture"], "website": "https://www.qxo.com/", "phone": "4254871166", "address": "14390 NE 200th St"}, "geometry": {"type": "Point", "coordinates": [-122.1481705, 47.7727737]}}, {"type": "Feature", "properties": {"id": "962a511b-77a9-4b44-aea3-3c71c096251c", "name": "Eastside Glass & Paint Co.", "category": "doityourself", "tags": ["doityourself", "home", "improvement"], "sources": ["overture"], "website": "http://www.eastsideglass.com", "phone": "+14252052257", "address": "20205 144th Ave NE"}, "geometry": {"type": "Point", "coordinates": [-122.1487808, 47.7737885]}}, {"type": "Feature", "properties": {"id": "e3888877-0d17-4c8c-bb12-63bccf24f340", "name": "Pluto Home Services", "category": "doityourself", "tags": ["doityourself", "home", "improvement"], "sources": ["overture"], "website": "https://www.plutohomeservices.com/", "phone": "+14257904242", "address": "20250 144th Ave NE"}, "geometry": {"type": "Point", "coordinates": [-122.1471863, 47.7739143]}}, {"type": "Feature", "properties": {"id": "0332b77e-26db-4044-b503-0c023d295ecc", "name": "Bank of America ATM", "category": "bank", "tags": ["bank", "credit", "union"], "sources": ["overture"], "phone": "8004426680", "address": "24008 Snohomish Woodinville Rd"}, "geometry": {"type": "Point", "coordinates": [-122.1476974, 47.7796288]}}]}