{"type": "FeatureCollection", "features": [{"type": "Feature", "properties": {"id": 4426826491, "name": "Taco Time", "category": "fast_food", "tags": ["fast-food", "mexican", "takeaway", "vegetarian", "fast", "food", "taco"], "sources": ["osm", "overture"], "website": "https://order.tacotimenw.com/menu/bothell-canyon-park", "phone": "+14254814844", "address": "1317 228th St SE", "hours": "10:00-22:00"}, "geometry": {"type": "Point", "coordinates": [-122.214543, 47.7916066]}}, {"type": "Feature", "properties": {"id": 6268297986, "name": "Subway", "category": "fast_food", "tags": ["fast-food", "sandwich", "takeaway", "fast", "food"], "sources": ["osm", "overture"], "website": "https://restaurants.subway.com/united-states/wa/bothell/22910-bothell-everett-highway?utm_source=yxt-bing&utm_medium=local&utm_term=acq&utm_content=28852&utm_campaign=evergreen-2020&y_source=1_MTQ5MTY2NTUtNDgzLWxvY2F0aW9uLndlYnNpdGU%3D", "phone": "4254863626", "address": "22910 Bothell-Everett Highway, Suite 111A/1F", "hours": "09:00-22:00"}, "geometry": {"type": "Point", "coordinates": [-122.219321, 47.7904893]}}, {"type": "Feature", "properties": {"id": 5419094301, "name": "Starbucks", "category": "cafe", "tags": ["cafe", "coffee-shop", "takeaway"], "sources": ["osm", "overture"], "website": "https://www.starbucks.com/store-locator/store/1015640", "phone": "+14253753059", "address": "22020 17th Ave Se"}, "geometry": {"type": "Point", "coordinates": [-122.2117675, 47.7975943]}}, {"type": "Feature", "properties": {"id": 7508923211, "name": "Starbucks", "category": "cafe", "tags": ["cafe", "coffee-shop", "takeaway", "coffee"], "sources": ["osm", "overture"], "website": "https://www.starbucks.com/store-locator/store/15221/", "phone": "+14253986686", "address": "22904 Bothell Everett Hwy"}, "geometry": {"type": "Point", "coordinates": [-122.2185021, 47.7903413]}}, {"type": "Feature", "properties": {"id": 161392170, "name": "McDonald's", "category": "fast_food", "tags": ["fast-food", "burger", "takeaway", "drive-through", "wheelchair-accessible", "wifi", "fast", "food", "american"], "sources": ["osm", "overture"], "website": "https://www.mcdonalds.com/us/en-us/location/wa/bothell/22110-17th-ave-se/7617.html?cid=RF%3AYXT%3ARoN%3A%3AClicks%3Fcid%3DRF%3AYXT%3AFB%3A%3AClicks", "phone": "+14254868584", "address": "22110 17th Ave Se", "hours": "08:00-20:00"}, "geometry": {"type": "Point", "coordinates": [-122.2120101, 47.7970908]}}, {"type": "Feature", "properties": {"id": 6268262188, "name": "Papa Murphy's", "category": "fast_food", "tags": ["fast-food", "pizza", "takeaway"], "sources": ["osm"]}, "geometry": {"type": "Point", "coordinates": [-122.2149537, 47.7900005]}}, {"type": "Feature", "properties": {"id": "90b5c119-c62a-44ab-8a83-07b24ff6f95f", "name": "Burger King", "category": "fast_food", "tags": ["fast-food", "fast", "food", "burger"], "sources": ["overture"], "website": "http://www.burgerking.com/", "phone": "+14254853483"}, "geometry": {"type": "Point", "coordinates": [-122.2159653, 47.7929153]}}, {"type": "Feature", "properties": {"id": "b91ca16e-9f49-4630-8aeb-cc68fb4c6896", "name": "Mongolian Grill", "category": "restaurant", "tags": ["restaurant", "mongolian"], "sources": ["overture"], "website": "http://mongoliangrill.com/", "phone": "(425) 488-6158", "address": "22833 Bothell Everett Hwy #161"}, "geometry": {"type": "Point", "coordinates": [-122.2146606, 47.7908363]}}, {"type": "Feature", "properties": {"id": 1733690710, "name": "Inchins Bamboo Garden", "category": "restaurant", "tags": ["restaurant", "asian", "chinese", "wheelchair-accessible", "fusion"], "sources": ["osm", "overture"], "website": "http://www.bamboo-gardens.com/", "phone": "+14254834594", "address": "22010 17th Ave SE"}, "geometry": {"type": "Point", "coordinates": [-122.2115848, 47.7979647]}}, {"type": "Feature", "properties": {"id": 2137824762, "name": "Five Guys", "category": "fast_food", "tags": ["fast-food", "burger", "takeaway", "fast", "food", "american"], "sources": ["osm", "overture"], "website": "https://restaurants.fiveguys.com/1111-228th-st-se", "phone": "+14254898555", "address": "1111 228th St SE", "hours": "11:00-21:30"}, "geometry": {"type": "Point", "coordinates": [-122.2179064, 47.7918827]}}, {"type": "Feature", "properties": {"id": 2139480343, "name": "Viva Jalisco", "category": "restaurant", "tags": ["restaurant", "mexican"], "sources": ["osm"], "address": "1715 228th Street Southeast"}, "geometry": {"type": "Point", "coordinates": [-122.2115046, 47.7917496]}}, {"type": "Feature", "properties": {"id": "3b91267f-633f-4bba-98ec-a75deebe6e1f", "name": "Teriyaki Plus", "category": "restaurant", "tags": ["restaurant", "japanese"], "sources": ["overture"], "website": "http://teriyakiplus.com", "phone": "(425) 486-3391", "address": "22828 Bothell Everett Hwy"}, "geometry": {"type": "Point", "coordinates": [-122.2180405, 47.7905045]}}, {"type": "Feature", "properties": {"id": 6268264990, "name": "MOD Pizza", "category": "fast_food", "tags": ["fast-food", "pizza", "takeaway", "restaurant"], "sources": ["osm", "overture"], "website": "https://locations.modpizza.com/usa/wa/bothell/22833-bothell-everett-hwy?utm_source=facebook&utm_medium=yext", "phone": "+14254195578", "address": "22833 Bothell Everett Hwy Ste 161", "hours": "Mo-We 10:30-22:00; Th-Sa 10:30-23:00; Su 10:30-22:00"}, "geometry": {"type": "Point", "coordinates": [-122.214613, 47.7907542]}}, {"type": "Feature", "properties": {"id": "b4a4b3a4-70ab-4645-aa5e-12ae6c3a1327", "name": "Quiznos", "category": "restaurant", "tags": ["restaurant", "sandwich"], "sources": ["overture"], "website": "http://restaurants.quiznos.com/wa/bothell/canyonpark-98021", "phone": "(425) 424-0055", "address": "1427 228th St SE Ste D1"}, "geometry": {"type": "Point", "coordinates": [-122.213974, 47.7916794]}}, {"type": "Feature", "properties": {"id": 6268262085, "name": "Little Caesars", "category": "fast_food", "tags": ["fast-food", "pizza", "takeaway"], "sources": ["osm"]}, "geometry": {"type": "Point", "coordinates": [-122.213628, 47.7917024]}}, {"type": "Feature", "properties": {"id": 6126077868, "name": "Chaat House", "category": "restaurant", "tags": ["restaurant", "indian"], "sources": ["osm"], "address": "22612 Bothell-Everett Highway"}, "geometry": {"type": "Point", "coordinates": [-122.2157047, 47.7937321]}}, {"type": "Feature", "properties": {"id": 7508923213, "name": "Namasthe", "category": "restaurant", "tags": ["restaurant", "indian"], "sources": ["osm"], "address": "22910 Bothell-Everett Highway"}, "geometry": {"type": "Point", "coordinates": [-122.2193173, 47.7904274]}}, {"type": "Feature", "properties": {"id": 4426865589, "name": "What the Pho!", "category": "restaurant", "tags": ["restaurant", "vietnamese", "asian"], "sources": ["osm", "overture"], "website": "https://www.whatthepho-canyonpark.com/", "phone": "+14254857700", "address": "1317 228th St SE Ste A"}, "geometry": {"type": "Point", "coordinates": [-122.2145362, 47.7917281]}}, {"type": "Feature", "properties": {"id": 5377150931, "name": "Zeeks Pizza - Bothell", "category": "restaurant", "tags": ["restaurant", "pizza"], "sources": ["osm"], "website": "https://zeekspizza.com/", "address": "1715 228th Street Southeast", "hours": "Mo-Su 11:00-22:00"}, "geometry": {"type": "Point", "coordinates": [-122.2120055, 47.7917407]}}, {"type": "Feature", "properties": {"id": 5419094300, "name": "Rama House", "category": "restaurant", "tags": ["restaurant", "thai", "takeaway", "delivery"], "sources": ["osm", "overture"], "website": "http://www.ramahousebothell.com", "phone": "14254817262", "address": "22010 17th Ave Se  Ste C", "hours": "Mo-Sa 11:00-21:00; Su 12:00-21:00"}, "geometry": {"type": "Point", "coordinates": [-122.2113175, 47.7978772]}}, {"type": "Feature", "properties": {"id": 5448914230, "name": "90 Degree Bangkok", "category": "restaurant", "tags": ["restaurant", "thai"], "sources": ["osm"]}, "geometry": {"type": "Point", "coordinates": [-122.213556, 47.7917171]}}, {"type": "Feature", "properties": {"id": 5448914232, "name": "Zoup!", "category": "fast_food", "tags": ["fast-food", "soup", "sandwich", "takeaway", "restaurant"], "sources": ["osm", "overture"], "website": "http://www.zoup.com", "phone": "(425) 659-1700", "address": "1410 228th Street SE, Suite 100"}, "geometry": {"type": "Point", "coordinates": [-122.213487, 47.790899]}}, {"type": "Feature", "properties": {"id": 5448914233, "name": "Nakagawa", "category": "restaurant", "tags": ["restaurant", "japanese"], "sources": ["osm"]}, "geometry": {"type": "Point", "coordinates": [-122.2139271, 47.7916541]}}, {"type": "Feature", "properties": {"id": 6126077869, "name": "Namdo Korean BBQ", "category": "restaurant", "tags": ["restaurant", "korean", "barbecue", "outdoor-seating", "indoor-seating", "wheelchair-accessible", "air-conditioned"], "sources": ["osm"], "website": "https://namdokoreanbbq.com/", "phone": "+1 425-908-7475", "address": "22616 Bothell-Everett Highway", "hours": "11:30-22:00"}, "geometry": {"type": "Point", "coordinates": [-122.2160104, 47.7933323]}}, {"type": "Feature", "properties": {"id": 6268266787, "name": "Boba", "category": "cafe", "tags": ["cafe"], "sources": ["osm"]}, "geometry": {"type": "Point", "coordinates": [-122.214659, 47.7902925]}}, {"type": "Feature", "properties": {"id": 6268283485, "name": "Oh India", "category": "restaurant", "tags": ["restaurant"], "sources": ["osm"]}, "geometry": {"type": "Point", "coordinates": [-122.214661, 47.7901056]}}, {"type": "Feature", "properties": {"id": 7508923210, "name": "The Port of Peri Peri Open Flame Grill", "category": "restaurant", "tags": ["restaurant", "african", "south-african", "takeaway", "vegetarian", "halal"], "sources": ["osm"], "website": "https://myperiperi.com/pppbothell", "phone": "+1-425-286-6608", "address": "22612 Bothell-Everett Highway", "hours": "Mo-Th 11:00-23:00; Fr-Sa 11:00-12:00; Su 12:00-22:00"}, "geometry": {"type": "Point", "coordinates": [-122.2155379, 47.7936189]}}, {"type": "Feature", "properties": {"id": 7989291627, "name": "PC Restaurant", "category": "restaurant", "tags": ["restaurant", "chinese", "asian"], "sources": ["osm", "overture"], "website": "http://www.pcrestaurantbothell.com/", "phone": "+14258068488", "address": "1111 228th St SE"}, "geometry": {"type": "Point", "coordinates": [-122.218116, 47.7918896]}}, {"type": "Feature", "properties": {"id": "951a08f0-578a-4c10-bd0b-054728b951d6", "name": "Zeeks Pizza", "category": "restaurant", "tags": ["restaurant", "pizza", "italian"], "sources": ["overture"], "website": "https://zeekspizza.com/locations/", "phone": "+14254831786", "address": "1715 228th St SE"}, "geometry": {"type": "Point", "coordinates": [-122.2119217, 47.7916336]}}, {"type": "Feature", "properties": {"id": 99046759, "name": "Chick-fil-A", "category": "fast_food", "tags": ["fast-food", "chicken", "indoor-seating", "takeaway", "delivery", "drive-through", "wifi", "restaurant"], "sources": ["osm", "overture"], "website": "https://www.chick-fil-a.com/locations/wa/bothell-canyon-park?utm_source=yext&utm_medium=link", "phone": "+14254020201", "address": "1220 228th St SE", "hours": "Mo-Sa 06:30-22:00"}, "geometry": {"type": "Point", "coordinates": [-122.2156662, 47.7909287]}}, {"type": "Feature", "properties": {"id": "026a8efe-2422-4bb3-89ff-be9cd4a97136", "name": "Jack in the Box", "category": "restaurant", "tags": ["restaurant", "taco", "burger", "fast-food", "mexican"], "sources": ["overture"], "website": "http://www.jackinthebox.com/locations/8302", "phone": "4254857364", "address": "22736 Bothell Everett Hwy"}, "geometry": {"type": "Point", "coordinates": [-122.2167206, 47.7925186]}}, {"type": "Feature", "properties": {"id": "e90aafb3-49a0-4fb7-9111-c13b7ef5979f", "name": "Denny's", "category": "restaurant", "tags": ["restaurant", "breakfast-and-brunch", "breakfast", "brunch"], "sources": ["overture"], "website": "http://locations.dennys.com/WA/BOTHELL/247129/", "phone": "4254868651", "address": "22833 Bothell Hwy"}, "geometry": {"type": "Point", "coordinates": [-122.2170639, 47.7905312]}}, {"type": "Feature", "properties": {"id": 533221287, "name": "Arby's", "category": "fast_food", "tags": ["fast-food", "sandwich", "indoor-seating", "takeaway", "drive-through", "wheelchair-accessible", "air-conditioned", "fast", "food", "american"], "sources": ["osm", "overture"], "website": "https://locations.arbys.com/wa/bothell/1027-228th-st-se.html", "phone": "+14252866246", "address": "1027 228th St SE", "hours": "10:00-22:00"}, "geometry": {"type": "Point", "coordinates": [-122.2185688, 47.7918566]}}, {"type": "Feature", "properties": {"id": 533221288, "name": "Outback Steakhouse", "category": "restaurant", "tags": ["restaurant", "american", "steak", "indoor-seating", "steakhouse", "australian"], "sources": ["osm", "overture"], "website": "https://locations.outback.com/washington/bothell/22606-bothell-everett-hwy?utm_source=gmb&utm_medium=local_search&utm_campaign=website_cta&y_source=1_MTU1MDI1OTAtNTU5LWxvY2F0aW9uLndlYnNpdGU%3D", "phone": "+14254867340", "address": "22606 Bothell Everett Hwy"}, "geometry": {"type": "Point", "coordinates": [-122.2168285, 47.794398]}}, {"type": "Feature", "properties": {"id": 653697979, "name": "Crystal Creek Cafe", "category": "restaurant", "tags": ["restaurant", "american", "indoor-seating", "wheelchair-accessible", "air-conditioned", "diner", "comfort-food"], "sources": ["osm", "overture"], "website": "http://crystalcreek.cafesinc.com/", "phone": "+14254867781", "address": "22620 Bothell Everett Hwy", "hours": "Mo-Su 06:00-21:00"}, "geometry": {"type": "Point", "coordinates": [-122.2160889, 47.7929246]}}, {"type": "Feature", "properties": {"id": "4e277db2-1780-4c98-8873-1836562d7711", "name": "Little Caesars Pizza", "category": "restaurant", "tags": ["restaurant", "pizza"], "sources": ["overture"], "phone": "+14253981120", "address": "1427 228th St SE"}, "geometry": {"type": "Point", "coordinates": [-122.2137527, 47.7916985]}}, {"type": "Feature", "properties": {"id": "d39bb85d-ae74-43e2-a746-7975f14523a9", "name": "Tully's Coffee", "category": "cafe", "tags": ["cafe", "coffee"], "sources": ["overture"], "website": "http://tullyscoffeeshops.com", "phone": "(425) 487-3517", "address": "22615 Bothell Everett Hwy"}, "geometry": {"type": "Point", "coordinates": [-122.2149429, 47.7926712]}}, {"type": "Feature", "properties": {"id": "d1c9d18a-d2c6-4976-b97d-d657fd788ffd", "name": "QDOBA Mexican Eats", "category": "fast_food", "tags": ["fast-food", "fast", "food", "mexican"], "sources": ["overture"], "website": "https://locations.qdoba.com/us/wa/bothell/22612-c-bothell-everett-hwy.html?utm_source=Listings", "phone": "4258061414", "address": "22612-C Bothell Everett Hwy Ste 5"}, "geometry": {"type": "Point", "coordinates": [-122.2156143, 47.7936974]}}, {"type": "Feature", "properties": {"id": "f63fd3f2-bab7-45ad-ba1b-92994f0c560f", "name": "Papa Murphy's Take 'N' Bake Pizza", "category": "restaurant", "tags": ["restaurant", "pizza"], "sources": ["overture"], "website": "https://order.papamurphys.com/menu/papa-murphys-bothell-everett", "phone": "4258067272", "address": "22833 Bothell Everett Hwy Ste 145"}, "geometry": {"type": "Point", "coordinates": [-122.2170029, 47.790493]}}, {"type": "Feature", "properties": {"id": "c2fd9b99-d88d-404f-84f4-4795a08ca954", "name": "Hyderabad Biryani Cafe", "category": "fast_food", "tags": ["fast-food", "fast", "food"], "sources": ["overture"], "phone": "14259087800", "address": "22910 Bothell Everett Hwy"}, "geometry": {"type": "Point", "coordinates": [-122.2193069, 47.7903252]}}, {"type": "Feature", "properties": {"id": "279375f9-7225-412e-ab8f-d15b1c29e785", "name": "Aca Las Tortas Bothell", "category": "restaurant", "tags": ["restaurant", "mexican", "latin-american"], "sources": ["overture"], "website": "http://www.acalastortaswa.com/", "phone": "+14254857510", "address": "22910 Bothell Everett Hwy Ste 150-A"}, "geometry": {"type": "Point", "coordinates": [-122.2194138, 47.7903061]}}, {"type": "Feature", "properties": {"id": "ae6be72b-6819-48ad-b712-4fa5cd36db5c", "name": "Namasthe Indian Restaurant", "category": "restaurant", "tags": ["restaurant", "indian"], "sources": ["overture"], "website": "http://namasthe.us/", "phone": "+14253333334", "address": "22910 Bothell Everett Hwy"}, "geometry": {"type": "Point", "coordinates": [-122.2195129, 47.7902603]}}, {"type": "Feature", "properties": {"id": "068edc3c-848c-4846-a5fe-04e75404e91f", "name": "Bamboo House", "category": "restaurant", "tags": ["restaurant", "vietnamese"], "sources": ["overture"], "website": "http://www.bamboohousebothell.com", "phone": "(425) 485-6737", "address": "22910 Bothell Everett Hwy"}, "geometry": {"type": "Point", "coordinates": [-122.2195511, 47.7903442]}}, {"type": "Feature", "properties": {"id": "fd43e6c5-69a9-4746-b18c-9ab8e3ae8a03", "name": "Aroma Restaurant & Venue", "category": "restaurant", "tags": ["restaurant", "indian"], "sources": ["overture"], "website": "https://aromarestaurant.us/", "phone": "+14256667799", "address": "22910 Bothell Everett Hwy #109a"}, "geometry": {"type": "Point", "coordinates": [-122.2195053, 47.7903252]}}, {"type": "Feature", "properties": {"id": "be5ef33b-1589-414e-bd7c-c414c627bd2b", "name": "Bonefish Grill", "category": "restaurant", "tags": ["restaurant", "seafood"], "sources": ["overture"], "phone": "4254850305", "address": "22616 Bothell Everett Hwy"}, "geometry": {"type": "Point", "coordinates": [-122.2160416, 47.7933273]}}, {"type": "Feature", "properties": {"id": "1e7c48fb-6179-45df-886c-07d7c000704c", "name": "Seoul Bowl Bothell", "category": "restaurant", "tags": ["restaurant", "korean"], "sources": ["overture"], "website": "https://seoul-bowl-bothell.square.site", "phone": "14259087643", "address": "22833 Bothell Everett Hwy  Ste 105"}, "geometry": {"type": "Point", "coordinates": [-122.2168198, 47.7905083]}}, {"type": "Feature", "properties": {"id": "2bf4d52a-1a5e-4c90-8ed8-422aa062150b", "name": "Cafe Bollywood Bothell", "category": "restaurant", "tags": ["restaurant", "indian"], "sources": ["overture"], "website": "http://www.cafebollywoodusa.com", "phone": "(425) 641-9996", "address": "22833 Bothell Everett Hwy Ste 150"}, "geometry": {"type": "Point", "coordinates": [-122.2144318, 47.7902069]}}, {"type": "Feature", "properties": {"id": "0b6e0529-7d9b-4591-a58d-9d5c1be4acdc", "name": "Ta Joia", "category": "restaurant", "tags": ["restaurant", "asian"], "sources": ["overture"], "website": "http://www.tajoiabothell.com", "phone": "+14258929523", "address": "22833 Bothell Everett Hwy"}, "geometry": {"type": "Point", "coordinates": [-122.2149124, 47.7901459]}}, {"type": "Feature", "properties": {"id": "1e2d0c67-8886-40a0-935d-24d01406bf60", "name": "90\u00b0 Bangkok cafe and bar", "category": "restaurant", "tags": ["restaurant", "thai", "asian"], "sources": ["overture"], "website": "https://www.90bangkok.com/", "phone": "+14254816800", "address": "1427 228th St SE"}, "geometry": {"type": "Point", "coordinates": [-122.2135468, 47.7916718]}}, {"type": "Feature", "properties": {"id": "7671c7bf-0432-4576-b328-20829bc39beb", "name": "Nakagawa Japanese Restaurant", "category": "restaurant", "tags": ["restaurant", "japanese", "sushi", "asian"], "sources": ["overture"], "website": "https://nakagawajapaneserestaurant.menu11.com/", "phone": "+14254832221", "address": "1427 228th St SE # D6"}, "geometry": {"type": "Point", "coordinates": [-122.2137527, 47.7917213]}}, {"type": "Feature", "properties": {"id": "ae5fd2b0-55b2-4c93-b10e-0afd60465f7b", "name": "Ta-Ke", "category": "restaurant", "tags": ["restaurant", "japanese"], "sources": ["overture"], "website": "http://takebothell.com/", "phone": "(425) 398-0953", "address": "1427 228th St SE"}, "geometry": {"type": "Point", "coordinates": [-122.2137222, 47.7916756]}}, {"type": "Feature", "properties": {"id": "60816fa3-a35e-474b-b23f-7072e017ee01", "name": "Yamasan", "category": "restaurant", "tags": ["restaurant"], "sources": ["overture"], "address": "1427 228th St Se Ste D6"}, "geometry": {"type": "Point", "coordinates": [-122.2137527, 47.7916985]}}, {"type": "Feature", "properties": {"id": "ffb67240-7484-4cbe-b1c9-7edb5785b3dd", "name": "Bothell \u2013 Canyon Park", "category": "fast_food", "tags": ["fast-food", "fast", "food"], "sources": ["overture"], "website": "https://tacotimenw.com/find-us/bothell-canyon-park/", "address": "1317 228th Street SE Bothell, WA 98011"}, "geometry": {"type": "Point", "coordinates": [-122.2144852, 47.7916451]}}, {"type": "Feature", "properties": {"id": "5136e4f1-9c12-45f1-aca0-c03d720d1de4", "name": "Big Fish Sushi", "category": "restaurant", "tags": ["restaurant", "sushi", "japanese", "asian"], "sources": ["overture"], "website": "http://www.bigfishsushi.com/", "phone": "+14254869008", "address": "1410 228th St SE"}, "geometry": {"type": "Point", "coordinates": [-122.213501, 47.7910233]}}, {"type": "Feature", "properties": {"id": "7f46dec8-6bf7-4008-a625-df464748293e", "name": "Viva Jalisco Mexican Restaurant", "category": "restaurant", "tags": ["restaurant", "mexican", "latin-american", "taco"], "sources": ["overture"], "website": "http://www.viva-jalisco.com", "phone": "+14254813931", "address": "1715 228th St SE"}, "geometry": {"type": "Point", "coordinates": [-122.2114792, 47.7916489]}}, {"type": "Feature", "properties": {"id": "b3f12fa6-b2b9-44df-8ef4-26afbf85c2df", "name": "Mito Corporation", "category": "restaurant", "tags": ["restaurant"], "sources": ["overture"], "address": "1715 228th St Se Ste 102"}, "geometry": {"type": "Point", "coordinates": [-122.2107315, 47.7918015]}}, {"type": "Feature", "properties": {"id": "d475f6fb-2129-4419-a3a1-1e5fae6b9852", "name": "Bothell Chaat House", "category": "restaurant", "tags": ["restaurant", "indian", "vegetarian", "asian"], "sources": ["overture"], "website": "http://www.bothellchaathouse.com/", "phone": "+14254870001", "address": "22612 Bothell Everett Hwy"}, "geometry": {"type": "Point", "coordinates": [-122.2157669, 47.7936478]}}, {"type": "Feature", "properties": {"id": "3891fb6b-0ccf-4504-99ee-3a8069776a44", "name": "The Port Of Peri Peri - Bothell", "category": "restaurant", "tags": ["restaurant", "chicken", "burger", "halal"], "sources": ["overture"], "website": "https://www.myperiperi.com/", "phone": "+14252866608", "address": "22612 Bothell Everett Hwy Ste C"}, "geometry": {"type": "Point", "coordinates": [-122.2157059, 47.7937241]}}, {"type": "Feature", "properties": {"id": "2dc716ad-05a2-4d3b-8fef-232cc503172c", "name": "La Gloria Modern Mexican Bar", "category": "bar", "tags": ["bar", "cocktail", "mexican"], "sources": ["overture"], "website": "http://votethepnw.com/", "phone": "+14252199957", "address": "22010 17th Ave SE"}, "geometry": {"type": "Point", "coordinates": [-122.2113419, 47.7978783]}}, {"type": "Feature", "properties": {"id": "5f4a093d-c042-4304-a92b-b37ec5e9fc94", "name": "Canyons Restaurant", "category": "restaurant", "tags": ["restaurant", "burger", "vegetarian"], "sources": ["overture"], "website": "http://www.canyonsrestaurant.com/", "phone": "4254853288", "address": "22010 17th Ave SE Ste D"}, "geometry": {"type": "Point", "coordinates": [-122.210701, 47.7980537]}}, {"type": "Feature", "properties": {"id": 469221703, "name": "Cedar Grove Park", "category": "park", "tags": ["park"], "sources": ["osm", "overture"], "website": "http://www.ci.bothell.wa.us/1021/Cedar-Grove-Park", "phone": "(425) 486-7430", "address": "9th Avenue Southeast"}, "geometry": {"type": "Point", "coordinates": [-122.2193841, 47.7946664]}}, {"type": "Feature", "properties": {"id": 161392152, "name": "Extended Stay America", "category": "hotel", "tags": ["hotel"], "sources": ["osm"], "address": "22122 17th Avenue Southeast"}, "geometry": {"type": "Point", "coordinates": [-122.2116811, 47.7962578]}}, {"type": "Feature", "properties": {"id": 653697974, "name": "Extended Stay America", "category": "hotel", "tags": ["hotel", "wheelchair-accessible", "air-conditioned"], "sources": ["osm", "overture"], "website": "http://dms.netmng.com/si/cm/tracking/dgtrackingredirect.aspx?siclientid=2918&sisearchengine=1524&siredirect=http:%2f%2fwww.extendedstayamerica.com%2fhotels%2fwa%2fseattle%2fbothell-west&siproduct=2805_bus", "phone": "+14254024252", "address": "923 228th St SE"}, "geometry": {"type": "Point", "coordinates": [-122.2191736, 47.792183]}}, {"type": "Feature", "properties": {"id": 152905180, "name": "Comfort Inn & Suites - Bothell Seattle North", "category": "hotel", "tags": ["hotel"], "sources": ["osm"], "website": "https://www.choicehotels.com/washington/tukwila/woodspring-hotels", "phone": "+1-425-402-0900", "address": "1414 228th Street"}, "geometry": {"type": "Point", "coordinates": [-122.2135365, 47.790457]}}, {"type": "Feature", "properties": {"id": 547371383, "name": "Hilton Garden Inn", "category": "hotel", "tags": ["hotel"], "sources": ["osm"], "website": "https://hiltongardeninn3.hilton.com/en/hotels/washington/hilton-garden-inn-seattle-bothell-wa-SEABOGI/index.html", "phone": "+1-425-486-0400", "address": "22600 Bothell Everett Highway"}, "geometry": {"type": "Point", "coordinates": [-122.2176051, 47.7956274]}}, {"type": "Feature", "properties": {"id": "720e3273-54c2-4bfd-8b46-24317736ab42", "name": "Comfort Inn and Suites Bothell Seattle North", "category": "hotel", "tags": ["hotel"], "sources": ["overture"], "website": "https://www.choicehotels.com/washington/bothell/comfort-inn-hotels/wa704?pmf=yext&mc=llyxyxpx", "phone": "+14254020900", "address": "1414 228th St SE"}, "geometry": {"type": "Point", "coordinates": [-122.2136154, 47.7904701]}}, {"type": "Feature", "properties": {"id": "35976bff-8679-478c-b892-c57e14a84e37", "name": "Hilton Garden Inn Seattle/bothell, Wa", "category": "hotel", "tags": ["hotel"], "sources": ["overture"], "website": "https://www.hilton.com", "phone": "14254860400", "address": "22600 Bothell Everett Hwy"}, "geometry": {"type": "Point", "coordinates": [-122.2177658, 47.7954826]}}, {"type": "Feature", "properties": {"id": 5448914231, "name": "Mud Bay", "category": "pet", "tags": ["pet"], "sources": ["osm", "overture"], "website": "https://www.mudbay.com/pet-store/CNP-bothell-WA", "phone": "4254878616", "address": "1410 228th St SE"}, "geometry": {"type": "Point", "coordinates": [-122.213729, 47.7908963]}}, {"type": "Feature", "properties": {"id": 5467633713, "name": "Petco", "category": "pet", "tags": ["pet"], "sources": ["osm", "overture"], "website": "https://stores.petco.com/wa/bothell/pet-supplies-bothell-wa-1290.html", "phone": "+14259516198", "address": "22621 Bothell Everett Hwy Ste Gl2a", "hours": "Mo-We 09:00-21:00; Th 09:00-20:00; Fr-Sa 09:00-21:00; Su 10:00-19:00"}, "geometry": {"type": "Point", "coordinates": [-122.2141545, 47.792627]}}, {"type": "Feature", "properties": {"id": 4377499029, "name": "PCC Community Market", "category": "supermarket", "tags": ["supermarket", "air-conditioned", "organic"], "sources": ["osm"], "website": "https://www.pccmarkets.com/stores/bothell/", "phone": "+1-425-492-0122", "address": "22621 Bothell-Everett Highway", "hours": "06:00-23:00"}, "geometry": {"type": "Point", "coordinates": [-122.2145576, 47.7926305]}}, {"type": "Feature", "properties": {"id": 5448883321, "name": "Big 5 Sporting Goods", "category": "sports", "tags": ["sports"], "sources": ["osm"], "phone": "+1-425-402-9723"}, "geometry": {"type": "Point", "coordinates": [-122.2126375, 47.7926892]}}, {"type": "Feature", "properties": {"id": 6268297985, "name": "Brooks", "category": "shoes", "tags": ["shoes"], "sources": ["osm"]}, "geometry": {"type": "Point", "coordinates": [-122.213751, 47.7926042]}}, {"type": "Feature", "properties": {"id": 653697993, "name": "Jacksons", "category": "convenience", "tags": ["convenience"], "sources": ["osm"], "address": "22802 Bothell-Everett Highway"}, "geometry": {"type": "Point", "coordinates": [-122.2179837, 47.7905809]}}, {"type": "Feature", "properties": {"id": 13204590781, "name": "PayMore - Buy, Sell & Trade Electronics", "category": "electronics", "tags": ["electronics", "second-hand"], "sources": ["osm"], "website": "https://bothellwa.paymore.com", "hours": "Mo-Fr 10:00-18:00; Sa 11:00-15:00; Su off"}, "geometry": {"type": "Point", "coordinates": [-122.2171916, 47.7929099]}}, {"type": "Feature", "properties": {"id": "63026d47-0130-48d8-bc38-3bd0780e8f26", "name": "Jacksons Food Stores", "category": "convenience", "tags": ["convenience"], "sources": ["overture"], "website": "http://www.jacksonsfoodstores.com/", "phone": "4254810926", "address": "22727 Bothell Everett Hwy"}, "geometry": {"type": "Point", "coordinates": [-122.2156677, 47.7916222]}}, {"type": "Feature", "properties": {"id": "ed7bb9b8-d742-4085-a9a4-212561801887", "name": "BECU ATM", "category": "doityourself", "tags": ["doityourself", "building", "supply"], "sources": ["overture"], "website": "http://www.becu.org/", "phone": "8002332328", "address": "22833 Bothell Everett Hwy"}, "geometry": {"type": "Point", "coordinates": [-122.216835, 47.7905731]}}, {"type": "Feature", "properties": {"id": "41495ce4-7f73-4e9a-b978-5a6d4ee8de4a", "name": "Brooks Sports", "category": "shoes", "tags": ["shoes", "shoe"], "sources": ["overture"], "website": "http://www.brooksrunning.com", "phone": "+14254021632", "address": "22627 Bothell Everett Hwy"}, "geometry": {"type": "Point", "coordinates": [-122.2136459, 47.7926788]}}, {"type": "Feature", "properties": {"id": 5448882920, "name": "Rite Aid", "category": "pharmacy", "tags": ["pharmacy", "convenience"], "sources": ["osm", "overture"], "website": "https://www.riteaid.com/locations/wa/bothell/22631-bothell-everett-highway.html", "phone": "4254818667", "address": "22631 Bothell Everett Hwy"}, "geometry": {"type": "Point", "coordinates": [-122.2130808, 47.7926939]}}, {"type": "Feature", "properties": {"id": 5425775032, "name": "Spine Institute Northwest", "category": "clinic", "tags": ["clinic"], "sources": ["osm"], "website": "https://www.spineinstitutenorthwest.com/", "address": "1629 220th Street Southeast"}, "geometry": {"type": "Point", "coordinates": [-122.2110352, 47.7989462]}}, {"type": "Feature", "properties": {"id": "2cb3a4b4-da9b-41eb-bf5e-1ebecfb2f174", "name": "Bartell Drugs", "category": "pharmacy", "tags": ["pharmacy"], "sources": ["overture"], "phone": "14254853525", "address": "22833 Bothell Everett Hwy"}, "geometry": {"type": "Point", "coordinates": [-122.2168198, 47.7905083]}}, {"type": "Feature", "properties": {"id": "6ac11841-f280-4b15-835f-7c68c2c541af", "name": "Philips Healthcare", "category": "clinic", "tags": ["clinic", "medical"], "sources": ["overture"], "website": "http://www.healthcare.philips.com/in_en/index.wpd", "phone": "(425) 487-7479", "address": "22100 Bothell Everett Hwy"}, "geometry": {"type": "Point", "coordinates": [-122.2154312, 47.797493]}}, {"type": "Feature", "properties": {"id": 1145772213, "name": "Bank of America", "category": "bank", "tags": ["bank"], "sources": ["osm"], "website": "https://locators.bankofamerica.com/wa/bothell/financial-centers-bothell-15792.html"}, "geometry": {"type": "Point", "coordinates": [-122.2173591, 47.7917441]}}, {"type": "Feature", "properties": {"id": 653697983, "name": "Wells Fargo", "category": "bank", "tags": ["bank", "credit", "union"], "sources": ["osm", "overture"], "website": "http://www.wellsfargo.com", "phone": "+14254890341", "address": "22707 Bothell Everett Hwy"}, "geometry": {"type": "Point", "coordinates": [-122.2153258, 47.7920281]}}, {"type": "Feature", "properties": {"id": 653697991, "name": "Chase", "category": "bank", "tags": ["bank", "drive-through"], "sources": ["osm"], "website": "https://locator.chase.com/wa/bothell/22833-bothell-everett-hwy", "phone": "+1-425-487-6860", "address": "22833 Bothell-Everett Highway", "hours": "Mo-Fr 09:00-17:00; Sa 09:00-13:00; Su closed"}, "geometry": {"type": "Point", "coordinates": [-122.2168351, 47.7905777]}}, {"type": "Feature", "properties": {"id": 7508923212, "name": "Washington Federal", "category": "bank", "tags": ["bank"], "sources": ["osm"], "address": "22904 Bothell-Everett Highway"}, "geometry": {"type": "Point", "coordinates": [-122.2182663, 47.7902771]}}, {"type": "Feature", "properties": {"id": "e4bb631c-05c1-4dc6-a8aa-44f7eee0e633", "name": "Bank of America ATM", "category": "bank", "tags": ["bank", "credit", "union"], "sources": ["overture"], "website": "https://locators.bankofamerica.com/wa/bothell/financial-centers-bothell-15792.html", "phone": "8444018500", "address": "1115 228th St SE"}, "geometry": {"type": "Point", "coordinates": [-122.2173538, 47.7917023]}}, {"type": "Feature", "properties": {"id": "033745ae-fb83-4ded-a2e4-5e3dcf78bdd0", "name": "Bank of America Atm", "category": "bank", "tags": ["bank", "credit", "union"], "sources": ["overture"], "phone": "8004426680", "address": "22833 Bothell Everett Hwy 115"}, "geometry": {"type": "Point", "coordinates": [-122.2159805, 47.7901421]}}, {"type": "Feature", "properties": {"id": "ce2a7685-88fa-4864-9335-169cfc907eb0", "name": "Medallion Bank", "category": "bank", "tags": ["bank", "credit", "union"], "sources": ["overture"], "website": "http://hil.medallionbank.com/", "phone": "8888338570", "address": "22232 17th Ave SE Ste 308"}, "geometry": {"type": "Point", "coordinates": [-122.2115479, 47.795536]}}, {"type": "Feature", "properties": {"id": 7530150086, "name": "Club Pilates", "category": "fitness_centre", "tags": ["fitness-centre", "pilates", "studio"], "sources": ["osm", "overture"], "website": "http://www.clubpilates.com/bothell", "phone": "+14253222007", "address": "22833 Bothell Everett Hwy"}, "geometry": {"type": "Point", "coordinates": [-122.214831, 47.7900012]}}, {"type": "Feature", "properties": {"id": 5425775031, "name": "LA Fitness", "category": "fitness_centre", "tags": ["fitness-centre", "gym"], "sources": ["osm", "overture"], "website": "https://www.lafitness.com/Pages/clubhome.aspx?clubid=1123", "phone": "4254833330", "address": "1629 220th St SE"}, "geometry": {"type": "Point", "coordinates": [-122.2110681, 47.7988626]}}, {"type": "Feature", "properties": {"id": 6268295685, "name": "Orangetheory Fitness", "category": "fitness_centre", "tags": ["fitness-centre", "gym"], "sources": ["osm", "overture"], "website": "https://www.orangetheory.com/en-us/locations/washington/bothell/22627-bothell-everett-hwy-suite-a/?utm_medium=seo&utm_source=bing&utm_term=tombras&utm_campaign=reputationdotcom--National", "phone": "4253187353", "address": "22627 Bothell Everett Hwy Ste A"}, "geometry": {"type": "Point", "coordinates": [-122.213461, 47.7926141]}}, {"type": "Feature", "properties": {"id": "8df13cd6-2789-4ad7-be36-db9b4235306d", "name": "Fusion Hot Yoga", "category": "fitness_centre", "tags": ["fitness-centre", "yoga", "studio"], "sources": ["overture"], "website": "http://www.fusionhotyoga.com/", "phone": "+14254249642", "address": "22618 Bothell Everett Hwy"}, "geometry": {"type": "Point", "coordinates": [-122.2172241, 47.7931824]}}, {"type": "Feature", "properties": {"id": "7abc8a9f-28d9-4376-9399-ffa520a0fe2d", "name": "OTF Bothell", "category": "fitness_centre", "tags": ["fitness-centre", "gym"], "sources": ["overture"], "website": "https://www.orangetheory.com/en-us/locations/bothell-washington-0473?utm_medium=seo&utm_source=fb&utm_term=corporate&utm_campaign=soci", "phone": "+14253187353", "address": "22627 Bothell Everett Hwy Ste A"}, "geometry": {"type": "Point", "coordinates": [-122.2136459, 47.7925339]}}]}