{"type": "FeatureCollection", "features": [{"type": "Feature", "properties": {"id": "bdab603b-1837-44da-82f4-a4d25b03438f", "name": "Papa Murphy's", "category": "restaurant", "tags": ["restaurant", "pizza"], "sources": ["overture"], "website": "http://www.papamurphys.com", "phone": "(425) 643-7272", "address": "551 156th Ave SE"}, "geometry": {"type": "Point", "coordinates": [-122.1317673, 47.6042366]}}, {"type": "Feature", "properties": {"id": "e03e7eac-d671-4f76-b628-ee2266a1b8ab", "name": "HardWok Cafe", "category": "restaurant", "tags": ["restaurant", "taiwanese", "asian"], "sources": ["overture"], "website": "http://www.hardwokcafeseattle.com/", "phone": "4255909058", "address": "667 156th Ave SE"}, "geometry": {"type": "Point", "coordinates": [-122.1327057, 47.60429]}}, {"type": "Feature", "properties": {"id": 11142010886, "name": "YangGuoFu MalaTang", "category": "restaurant", "tags": ["restaurant", "chinese", "takeaway", "vegetarian", "vegan", "wifi"], "sources": ["osm"], "website": "https://ygfmalatangwa.com/", "address": "683 156th Avenue Southeast"}, "geometry": {"type": "Point", "coordinates": [-122.1326366, 47.6040681]}}, {"type": "Feature", "properties": {"id": 4790755654, "name": "Lin Handmade Dumplings", "category": "restaurant", "tags": ["restaurant", "dumplings"], "sources": ["osm", "overture"], "website": "http://www.danskitchen677.com", "phone": "(360) 644-7107", "address": "677 156th Ave SE"}, "geometry": {"type": "Point", "coordinates": [-122.1326409, 47.604139]}}, {"type": "Feature", "properties": {"id": 4790755655, "name": "Malay Satay Hut", "category": "restaurant", "tags": ["restaurant", "malaysian", "asian"], "sources": ["osm", "overture"], "website": "http://malaysataysea.com/", "phone": "+14255640888", "address": "667 156th Ave SE"}, "geometry": {"type": "Point", "coordinates": [-122.1326469, 47.6042959]}}, {"type": "Feature", "properties": {"id": 4790755661, "name": "Shabu Shabu Kyoto", "category": "restaurant", "tags": ["restaurant", "japanese"], "sources": ["osm"], "phone": "+1-425-502-9489", "address": "627 156th Avenue Southeast"}, "geometry": {"type": "Point", "coordinates": [-122.1324554, 47.6046109]}}, {"type": "Feature", "properties": {"id": 4790755662, "name": "The Waffler", "category": "restaurant", "tags": ["restaurant", "breakfast", "breakfast-and-brunch", "brunch"], "sources": ["osm", "overture"], "website": "https://www.thewaffler.com", "phone": "(425) 449-8010", "address": "615 156th Ave SE"}, "geometry": {"type": "Point", "coordinates": [-122.1323373, 47.6046403]}}, {"type": "Feature", "properties": {"id": 9660036921, "name": "Meet Fresh", "category": "restaurant", "tags": ["restaurant", "taiwanese"], "sources": ["osm"], "phone": "+1-425-449-8748", "address": "15552 Lake Hills Boulevard"}, "geometry": {"type": "Point", "coordinates": [-122.1322365, 47.6035845]}}, {"type": "Feature", "properties": {"id": "05e28391-093e-424a-a9b6-6850556d21cf", "name": "Kizuki Ramen & Izakaya", "category": "restaurant", "tags": ["restaurant"], "sources": ["overture"], "website": "https://www.kizuki.com", "address": "655 156th Ave SE"}, "geometry": {"type": "Point", "coordinates": [-122.1322174, 47.6039047]}}, {"type": "Feature", "properties": {"id": 11725933237, "name": "Lucky Cube", "category": "ice_cream", "tags": ["ice-cream", "frozen-yogurt"], "sources": ["osm"]}, "geometry": {"type": "Point", "coordinates": [-122.1326357, 47.6040038]}}, {"type": "Feature", "properties": {"id": 12066684617, "name": "Jayam\u2019s Tiffins & Thali", "category": "restaurant", "tags": ["restaurant", "indian"], "sources": ["osm"], "website": "https://jayamstiffinsandthali.com", "address": "15540 Lake Hills Boulevard"}, "geometry": {"type": "Point", "coordinates": [-122.1323994, 47.603584]}}, {"type": "Feature", "properties": {"id": "10b80334-2589-48cc-b491-d59ce798d7c3", "name": "Crossroads Italiano", "category": "restaurant", "tags": ["restaurant", "sandwich"], "sources": ["overture"], "website": "https://crossroadsitaliano.com/", "phone": "4255620210", "address": "15600 NE 8th St, PM 18 (Inside Crossroads Mall Food Court)"}, "geometry": {"type": "Point", "coordinates": [-122.1304321, 47.6028557]}}, {"type": "Feature", "properties": {"id": "e072ffe5-ca8a-45f2-aa92-e4517d61cff3", "name": "Baitong on Wheels - Mercer Island", "category": "fast_food", "tags": ["fast-food", "food", "truck"], "sources": ["overture"], "website": "http://www.baitongonwheels.com/", "phone": "2067715550", "address": "2900 78th Ave SE"}, "geometry": {"type": "Point", "coordinates": [-122.135704, 47.6023369]}}, {"type": "Feature", "properties": {"id": "1cbf3ce5-82fd-4b69-b874-40df82359480", "name": "Dog Room Bar & Grill", "category": "restaurant", "tags": ["restaurant", "bar-and-grill", "bar", "grill"], "sources": ["overture"], "address": "613 154th Ave SE"}, "geometry": {"type": "Point", "coordinates": [-122.1359482, 47.6041412]}}, {"type": "Feature", "properties": {"id": "3e37d7fb-16dd-4ebf-b8b0-bed89b7c9abc", "name": "Stallion Strong Llc", "category": "restaurant", "tags": ["restaurant"], "sources": ["overture"], "address": "15053 Main St"}, "geometry": {"type": "Point", "coordinates": [-122.1396637, 47.6089058]}}, {"type": "Feature", "properties": {"id": "3f545abc-a4e7-4412-a442-6dc47e049d0e", "name": "Shabu Shabu Kyoto Japanese Restaurant", "category": "restaurant", "tags": ["restaurant", "japanese", "asian"], "sources": ["overture"], "website": "https://shabushabukyoto.net/", "phone": "+14255029489", "address": "627 156th Ave SE"}, "geometry": {"type": "Point", "coordinates": [-122.1324692, 47.6045532]}}, {"type": "Feature", "properties": {"id": "1f80c21a-ab34-4eda-85d5-059288647177", "name": "Huo Yan Llc", "category": "restaurant", "tags": ["restaurant"], "sources": ["overture"], "address": "627 156th Ave SE"}, "geometry": {"type": "Point", "coordinates": [-122.1324463, 47.6046143]}}, {"type": "Feature", "properties": {"id": "7a9646da-784c-48b7-bb90-d86e0d2330eb", "name": "Little Ting\u2019s Dumplings", "category": "restaurant", "tags": ["restaurant", "asian", "pan", "soup", "dumplings"], "sources": ["overture"], "website": "https://littletingsdumplingsbellevue.com/", "address": "683 156th Ave SE"}, "geometry": {"type": "Point", "coordinates": [-122.1327133, 47.6040268]}}, {"type": "Feature", "properties": {"id": "e7b6f01b-d57b-42b2-9a7c-e3ce9f47f49c", "name": "YGF MaLaTang Bellevue", "category": "restaurant", "tags": ["restaurant", "chinese"], "sources": ["overture"], "website": "http://ygfmalatangwa.com", "phone": "(425) 362-6976", "address": "683 156th Ave SE"}, "geometry": {"type": "Point", "coordinates": [-122.1327972, 47.6041183]}}, {"type": "Feature", "properties": {"id": "5a29c861-889f-4509-8106-006516279b82", "name": "Hapa Food Company", "category": "restaurant", "tags": ["restaurant"], "sources": ["overture"], "website": "http://www.hapafoodco.com", "phone": "+14252363941", "address": "15231 Lake Hills Blvd"}, "geometry": {"type": "Point", "coordinates": [-122.135498, 47.6017723]}}, {"type": "Feature", "properties": {"id": "3dea4056-59ac-4f95-a975-51a89efebdbd", "name": "Brunchbar", "category": "restaurant", "tags": ["restaurant", "breakfast-and-brunch", "breakfast", "brunch"], "sources": ["overture"], "website": "https://www.clover.com/online-ordering/brunchbar-bellevue", "address": "623 156th Ave SE"}, "geometry": {"type": "Point", "coordinates": [-122.1323776, 47.6044693]}}, {"type": "Feature", "properties": {"id": "03500564-5221-4b37-bd26-649af26f024a", "name": "Twinkle Land Play Cafe", "category": "cafe", "tags": ["cafe"], "sources": ["overture"], "website": "https://www.twinklelandplaycafe.com/", "phone": "+14255982904", "address": "15510 Lake Hills Blvd Suite A1 & A2"}, "geometry": {"type": "Point", "coordinates": [-122.1316452, 47.6035156]}}, {"type": "Feature", "properties": {"id": "fdb1261c-0b1b-4838-974e-512a671717aa", "name": "Monarch Manor", "category": "attraction", "tags": ["attraction", "landmark", "historical", "building"], "sources": ["overture"], "address": "203 154th Pl SE"}, "geometry": {"type": "Point", "coordinates": [-122.1350098, 47.607666]}}, {"type": "Feature", "properties": {"id": "71ff8712-02ac-4ee2-bdfb-8f89796a7e73", "name": "The Villas In Bellevue", "category": "attraction", "tags": ["attraction", "landmark", "historical", "building"], "sources": ["overture"], "website": "https://www.villasinbellevue.com/", "phone": "+14256714174", "address": "595 156th Ave SE"}, "geometry": {"type": "Point", "coordinates": [-122.1328964, 47.6040535]}}, {"type": "Feature", "properties": {"id": 12118486144, "name": "Twinkle Land", "category": "playground", "tags": ["playground"], "sources": ["osm"]}, "geometry": {"type": "Point", "coordinates": [-122.1316697, 47.6038871]}}, {"type": "Feature", "properties": {"id": "cc9bf9bb-b1a6-4702-a337-f5980719dbd0", "name": "Evergreen Park", "category": "playground", "tags": ["playground"], "sources": ["overture"], "website": "http://www.ci.bellevue.wa.us/evergreen.htm", "phone": "(425) 452-6885", "address": "15701 SE Lake Hills Blvd"}, "geometry": {"type": "Point", "coordinates": [-122.1304703, 47.6018257]}}, {"type": "Feature", "properties": {"id": 2392134329, "name": "Walmart Neighborhood Market", "category": "supermarket", "tags": ["supermarket"], "sources": ["osm", "overture"], "website": "https://www.walmart.com/store/3098", "phone": "+14256439054", "address": "15063 Main St", "hours": "Mo-Su 06:00-24:00"}, "geometry": {"type": "Point", "coordinates": [-122.1396314, 47.6087019]}}, {"type": "Feature", "properties": {"id": 11725933238, "name": "International Food Bazaar & Market", "category": "convenience", "tags": ["convenience", "halal"], "sources": ["osm"], "website": "https://www.ifoodbazaar.com/", "address": "655 156th Avenue Southeast", "hours": "Mo-Su 10:00-22:00"}, "geometry": {"type": "Point", "coordinates": [-122.1317366, 47.6040001]}}, {"type": "Feature", "properties": {"id": 12066684603, "name": "Gold \u2018N Looks", "category": "gift", "tags": ["gift"], "sources": ["osm"], "address": "15526 Lake Hills Boulevard"}, "geometry": {"type": "Point", "coordinates": [-122.1326477, 47.6035809]}}, {"type": "Feature", "properties": {"id": "f9877be4-6d07-497a-ab8a-78936a6577ad", "name": "Walmart Deli", "category": "deli", "tags": ["deli", "delicatessen"], "sources": ["overture"], "website": "https://www.walmart.com", "address": "15063 Main St"}, "geometry": {"type": "Point", "coordinates": [-122.1394501, 47.6087494]}}, {"type": "Feature", "properties": {"id": "dafe8374-995a-4e76-983f-94464cde77fa", "name": "Prestige Flooring NW", "category": "doityourself", "tags": ["doityourself", "building", "supply"], "sources": ["overture"], "website": "https://prestige-floor.com", "phone": "(425) 326-9559", "address": "600 155th Ave SE"}, "geometry": {"type": "Point", "coordinates": [-122.1337509, 47.6046906]}}, {"type": "Feature", "properties": {"id": "8c707e90-7887-46e5-8b42-2162ebbd414b", "name": "Ifb Market", "category": "supermarket", "tags": ["supermarket"], "sources": ["overture"], "phone": "14256140500", "address": "655 156th Ave Se  Ste A103"}, "geometry": {"type": "Point", "coordinates": [-122.1322174, 47.6039047]}}, {"type": "Feature", "properties": {"id": 4539970591, "name": "Overlake Medical Center", "category": "clinic", "tags": ["clinic"], "sources": ["osm"], "address": "619 156th Avenue Southeast"}, "geometry": {"type": "Point", "coordinates": [-122.1322252, 47.6046825]}}, {"type": "Feature", "properties": {"id": "273e331f-5cfa-4548-9752-e3769bc4fc4a", "name": "Unity Health Center", "category": "clinic", "tags": ["clinic", "medical"], "sources": ["overture"], "website": "http://www.drwuhealth.com", "phone": "+14256162668", "address": "693 156th Ave SE"}, "geometry": {"type": "Point", "coordinates": [-122.1325378, 47.6039886]}}, {"type": "Feature", "properties": {"id": "a0f4b2a7-27e7-4a03-b756-cc5b6c39812c", "name": "Bank of America", "category": "bank", "tags": ["bank", "credit", "union"], "sources": ["overture"], "phone": "2063582500", "address": "15550 Lake Hills Blvd"}, "geometry": {"type": "Point", "coordinates": [-122.1315308, 47.6033096]}}, {"type": "Feature", "properties": {"id": 478994253, "name": "Lake Hills Library", "category": "library", "tags": ["library"], "sources": ["osm", "overture"], "website": "http://www.kcls.org/lakehills", "phone": "+14257473350", "address": "15590 Lake Hills Blvd", "hours": "Mo, Th-Fr 10:00-18:00; Sa 11:00-18:00; Tu-We 12:00-20:00"}, "geometry": {"type": "Point", "coordinates": [-122.1314121, 47.6035525]}}, {"type": "Feature", "properties": {"id": 12066684628, "name": "LA Fitness", "category": "fitness_centre", "tags": ["fitness-centre", "gym"], "sources": ["osm", "overture"], "website": "https://www.lafitness.com/Pages/clubhome.aspx?clubid=685&&utm_source=facebook&utm_medium=facebooklocations&utm_campaign=maps", "phone": "+14256982575", "address": "15053 Main St"}, "geometry": {"type": "Point", "coordinates": [-122.1396607, 47.6092083]}}, {"type": "Feature", "properties": {"id": 160067703, "name": "Samena Swim & Recreation Club", "category": "sports_centre", "tags": ["sports-centre", "swimming"], "sources": ["osm"]}, "geometry": {"type": "Point", "coordinates": [-122.1355828, 47.6019807]}}, {"type": "Feature", "properties": {"id": "460b7142-a728-4312-8e43-950e6c293bb1", "name": "Stallion Smoothies", "category": "fitness_centre", "tags": ["fitness-centre", "gym"], "sources": ["overture"], "website": "https://www.stallionsmoothies.com", "phone": "+14254296442", "address": "15053 Main St"}, "geometry": {"type": "Point", "coordinates": [-122.1395645, 47.609169]}}]}