{"type": "FeatureCollection", "features": [{"type": "Feature", "properties": {"id": 6371591587, "name": "The Ponies", "category": "artwork", "tags": ["artwork"], "sources": ["osm"]}, "geometry": {"type": "Point", "coordinates": [-122.3330516, 47.7558423]}}, {"type": "Feature", "properties": {"id": 9888706389, "name": "Meridian Park Mailbox", "category": "artwork", "tags": ["artwork"], "sources": ["osm"]}, "geometry": {"type": "Point", "coordinates": [-122.3383126, 47.7517997]}}, {"type": "Feature", "properties": {"id": 11146189142, "name": "The Kiss", "category": "artwork", "tags": ["artwork"], "sources": ["osm"]}, "geometry": {"type": "Point", "coordinates": [-122.33238, 47.7553165]}}, {"type": "Feature", "properties": {"id": 427900430, "name": "James Keough Park", "category": "park", "tags": ["park"], "sources": ["osm"], "website": "https://www.cityofshoreline.com/government/departments/parks-recreation-cultural-services/parks-and-facilities/parks", "address": "2350 North 167th Street"}, "geometry": {"type": "Point", "coordinates": [-122.3306862, 47.7514463]}}, {"type": "Feature", "properties": {"id": "61b5d037-c6e8-4a87-a421-03fb9c69731c", "name": "James Keough Park", "category": "park", "tags": ["park"], "sources": ["overture"], "phone": "+12068012700", "address": "2350 N 167th St"}, "geometry": {"type": "Point", "coordinates": [-122.3308029, 47.750618]}}, {"type": "Feature", "properties": {"id": 471191463, "name": "Ronald Bog Park", "category": "park", "tags": ["park"], "sources": ["osm", "overture"], "website": "https://www.discovertheforest.org/", "address": "2155 N 175th St"}, "geometry": {"type": "Point", "coordinates": [-122.3326364, 47.7550054]}}, {"type": "Feature", "properties": {"id": 677347028, "name": "Meridian Park", "category": "park", "tags": ["park"], "sources": ["osm", "overture"], "website": "https://www.discovertheforest.org", "phone": "+12068012600", "address": "16765 Wallingford Ave N"}, "geometry": {"type": "Point", "coordinates": [-122.3390507, 47.7517031]}}, {"type": "Feature", "properties": {"id": 1180949006, "name": "Pacific Northwest Conifer Arboretum", "category": "garden", "tags": ["garden"], "sources": ["osm"]}, "geometry": {"type": "Point", "coordinates": [-122.3310801, 47.7555313]}}, {"type": "Feature", "properties": {"id": 1365934926, "name": "Meridian Park Swim Club", "category": "swimming_pool", "tags": ["swimming-pool"], "sources": ["osm"], "website": "https://www.mpswimclub.com/"}, "geometry": {"type": "Point", "coordinates": [-122.3310528, 47.7538461]}}]}