{"type": "FeatureCollection", "features": [{"type": "Feature", "properties": {"id": 9766844905, "name": "Starbucks", "category": "cafe", "tags": ["cafe", "coffee-shop", "takeaway", "wheelchair-accessible"], "sources": ["osm"], "website": "https://www.starbucks.com/store-locator/store/8532/qfc-seattle-866-11100-roosevelt-way-ne-seattle-wa-981256234-us", "phone": "+1-206-361-4849", "address": "11100 Roosevelt Way Northeast", "hours": "Mo-Su 05:00-19:00"}, "geometry": {"type": "Point", "coordinates": [-122.3169544, 47.7094477]}}, {"type": "Feature", "properties": {"id": 2433072451, "name": "Baskin-Robbins", "category": "ice_cream", "tags": ["ice-cream"], "sources": ["osm"], "website": "https://locations.baskinrobbins.com/wa/seattle/826-ne-northgate-way-360703-br", "phone": "+1-206-364-4320", "address": "826 Northeast Northgate Way", "hours": "Mo-Fr 11:00-20:00; Sa,Su 11:00-21:00"}, "geometry": {"type": "Point", "coordinates": [-122.3192572, 47.7095572]}}, {"type": "Feature", "properties": {"id": "8f316246-e8ce-4a13-907b-ea701ceb6977", "name": "Patty's Eggnest", "category": "restaurant", "tags": ["restaurant", "breakfast-and-brunch", "breakfast", "brunch"], "sources": ["overture"], "website": "http://pattyseggnestrestaurant.net", "phone": "(206) 364-3463", "address": "1000 NE Northgate Way"}, "geometry": {"type": "Point", "coordinates": [-122.317543, 47.7087669]}}, {"type": "Feature", "properties": {"id": 13342087601, "name": "La Cuadra Tacos", "category": "restaurant", "tags": ["restaurant", "mexican"], "sources": ["osm"], "address": "Roosevelt Way Northeast", "stations": [{"stopCode": 45, "lines": "1,2", "name": "Northgate Station", "walkingMeters": 1276, "walkingSeconds": 918, "band": 15}]}, "geometry": {"type": "Point", "coordinates": [-122.3191395, 47.7086892]}}, {"type": "Feature", "properties": {"id": "175ecfb7-58ab-4adb-95d9-41002daf52d3", "name": "Starbucks Coffee Company", "category": "cafe", "tags": ["cafe", "coffee"], "sources": ["overture"], "website": "http://www.starbucks.com/", "phone": "+12063614849", "address": "11100 Roosevelt Way NE"}, "geometry": {"type": "Point", "coordinates": [-122.3174973, 47.7091255]}}, {"type": "Feature", "properties": {"id": "8509498b-54e1-4b1a-b6db-6088d89955de", "name": "Mrbeast Burger", "category": "restaurant", "tags": ["restaurant", "burger"], "sources": ["overture"], "website": "https://seasideonthepier.com", "address": "825 NE Northgate Way", "stations": [{"stopCode": 45, "lines": "1,2", "name": "Northgate Station", "walkingMeters": 1124, "walkingSeconds": 839, "band": 15}]}, "geometry": {"type": "Point", "coordinates": [-122.3191376, 47.7077751]}}, {"type": "Feature", "properties": {"id": "db7042d5-353e-4868-9670-fef602b50048", "name": "Barstool Bites", "category": "restaurant", "tags": ["restaurant"], "sources": ["overture"], "website": "https://seasideonthepier.com", "address": "825 NE Northgate Way", "stations": [{"stopCode": 45, "lines": "1,2", "name": "Northgate Station", "walkingMeters": 1124, "walkingSeconds": 839, "band": 15}]}, "geometry": {"type": "Point", "coordinates": [-122.3191376, 47.7077751]}}, {"type": "Feature", "properties": {"id": "71ab338d-0273-465f-9342-d352ed7e1e23", "name": "Man Vs Fries", "category": "restaurant", "tags": ["restaurant", "american"], "sources": ["overture"], "website": "www.manvsfries.com", "address": "825 NE Northgate Way", "stations": [{"stopCode": 45, "lines": "1,2", "name": "Northgate Station", "walkingMeters": 1284, "walkingSeconds": 924, "band": 15}]}, "geometry": {"type": "Point", "coordinates": [-122.3191376, 47.7077751]}}, {"type": "Feature", "properties": {"id": "2f85fb89-8569-47cc-987c-8d5d2e089622", "name": "Casner Park", "category": "bar", "tags": ["bar", "wine"], "sources": ["overture"], "address": "1538 NE 107th St"}, "geometry": {"type": "Point", "coordinates": [-122.3110199, 47.7071381]}}, {"type": "Feature", "properties": {"id": "78f40f3b-b9d0-4fee-9380-2eb155c5b28f", "name": "Seattle Crab Co", "category": "restaurant", "tags": ["restaurant", "seafood"], "sources": ["overture"], "phone": "2063669225", "address": "1000 NE Northgate Way"}, "geometry": {"type": "Point", "coordinates": [-122.3174667, 47.708786]}}, {"type": "Feature", "properties": {"id": "bbd4cdbc-7371-4eb1-8367-63a1bc4d6313", "name": "Setsuna Japanese Restaurant", "category": "restaurant", "tags": ["restaurant", "japanese"], "sources": ["overture"], "website": "http://setsunarestaurant.com", "phone": "(206) 417-3175", "address": "11204 Roosevelt Way NE"}, "geometry": {"type": "Point", "coordinates": [-122.3173904, 47.7099724]}}, {"type": "Feature", "properties": {"id": 69708554, "name": "Victory Creek Park", "category": "park", "tags": ["park"], "sources": ["osm", "overture"], "website": "http://seattle.gov/parks/park_detail.asp?ID=4443", "phone": "+12066844075", "address": "1056 NE Northgate Way"}, "geometry": {"type": "Point", "coordinates": [-122.3154182, 47.7092576]}}, {"type": "Feature", "properties": {"id": "ef4b0951-a4ed-4075-af86-95cb526d7506", "name": "Victory Creek Confluence Natural Area on TC", "category": "park", "tags": ["park"], "sources": ["overture"], "address": "1221 NE 108TH ST"}, "geometry": {"type": "Point", "coordinates": [-122.3162003, 47.7069054]}}, {"type": "Feature", "properties": {"id": "33191ef2-4243-41c6-9bbf-b4089e2de5c7", "name": "Beaver Pond Natural Area", "category": "park", "tags": ["park"], "sources": ["overture"], "website": "http://seattle.gov/parks/park_detail.asp?ID=4481", "phone": "+12064081659", "address": "13002 10th Ave NE", "stations": [{"stopCode": 45, "lines": "1,2", "name": "Northgate Station", "walkingMeters": 1074, "walkingSeconds": 772, "band": 15}]}, "geometry": {"type": "Point", "coordinates": [-122.3184891, 47.7064285]}}, {"type": "Feature", "properties": {"id": 77303389, "name": "QFC", "category": "supermarket", "tags": ["supermarket", "wheelchair-accessible"], "sources": ["osm", "overture"], "website": "https://www.qfc.com/stores/grocery/wa/seattle/northgate/705/00866?cid=loc_70500866_fb", "phone": "+12063614849", "address": "11100 Roosevelt Way NE", "hours": "Mo-Su 05:00-01:00"}, "geometry": {"type": "Point", "coordinates": [-122.3172445, 47.7093742]}}, {"type": "Feature", "properties": {"id": 161569974, "name": "TJ Maxx", "category": "department_store", "tags": ["department-store", "department"], "sources": ["osm", "overture"], "website": "https://tjmaxx.tjx.com/store/index.jsp", "phone": "+12063639511", "address": "11029 Roosevelt Way Ne", "hours": "Mo-Sa 09:30-19:00; Su 10:00-19:00"}, "geometry": {"type": "Point", "coordinates": [-122.3184044, 47.7094234]}}, {"type": "Feature", "properties": {"id": 77304253, "name": "ampm", "category": "convenience", "tags": ["convenience"], "sources": ["osm", "overture"], "website": "https://www.ampm.com/", "phone": "+12063673086", "address": "10822 Roosevelt Way NE", "hours": "24/7"}, "geometry": {"type": "Point", "coordinates": [-122.3173842, 47.7082186]}}, {"type": "Feature", "properties": {"id": 2463977672, "name": "Cricket Wireless", "category": "mobile_phone", "tags": ["mobile-phone"], "sources": ["osm"], "address": "829 Northeast Northgate Way", "hours": "Mo-Sa 10:00-19:00; Su 12:00-17:00", "stations": [{"stopCode": 45, "lines": "1,2", "name": "Northgate Station", "walkingMeters": 1282, "walkingSeconds": 922, "band": 15}]}, "geometry": {"type": "Point", "coordinates": [-122.3192113, 47.7083044]}}, {"type": "Feature", "properties": {"id": "92ecbd41-9ffd-4806-acf7-414aeda5b8f0", "name": "Cricket Wireless Authorized Retailer", "category": "mobile_phone", "tags": ["mobile-phone", "mobile"], "sources": ["overture"], "website": "https://www.cricketwireless.com/stores/wa/seattle/829-ne-northgate-way?utm_source=Facebook&utm_medium=Organic_Search&utm_campaign=Yext_Listings", "phone": "+12063614832", "address": "829 NE Northgate Way", "stations": [{"stopCode": 45, "lines": "1,2", "name": "Northgate Station", "walkingMeters": 1169, "walkingSeconds": 872, "band": 15}]}, "geometry": {"type": "Point", "coordinates": [-122.3191833, 47.7083015]}}, {"type": "Feature", "properties": {"id": "759901c2-b87b-4884-8f33-e03777e42b75", "name": "Merced Market Inc", "category": "supermarket", "tags": ["supermarket"], "sources": ["overture"], "address": "10822 Roosevelt Way NE"}, "geometry": {"type": "Point", "coordinates": [-122.317337, 47.7082939]}}, {"type": "Feature", "properties": {"id": 11762103461, "name": "Walgreens", "category": "pharmacy", "tags": ["pharmacy", "wheelchair-accessible"], "sources": ["osm"], "website": "https://www.walgreens.com/locator/walgreens-859+ne+northgate+way-seattle-wa-98125/id=4157", "phone": "+1-206-417-0520", "address": "859 Northeast Northgate Way", "hours": "Mo-Fr 09:00-13:30,14:00-21:00; Sa,Su 10:00-13:30,14:00-18:30", "stations": [{"stopCode": 45, "lines": "1,2", "name": "Northgate Station", "walkingMeters": 1292, "walkingSeconds": 929, "band": 15}]}, "geometry": {"type": "Point", "coordinates": [-122.3181043, 47.7081711]}}, {"type": "Feature", "properties": {"id": "d5926484-80f3-4b12-a3e5-f1cb81c7d711", "name": "Concentra Urgent Care", "category": "clinic", "tags": ["clinic", "medical"], "sources": ["overture"], "website": "https://www.concentra.com/urgent-care-centers/washington/portland/northgate-urgent-care/?utm_source=Yext&utm_medium=Referral&utm_campaign=LocalPage", "phone": "+12067840737", "address": "836 NE Northgate Way"}, "geometry": {"type": "Point", "coordinates": [-122.3197708, 47.7097588]}}, {"type": "Feature", "properties": {"id": 11698984711, "name": "QFC Pharmacy", "category": "pharmacy", "tags": ["pharmacy"], "sources": ["osm"], "phone": "+1-206-361-0188", "hours": "Mo-Fr 09:00-13:00,13:30-20:00; Sa 09:00-13:00,13:30-18:00; Su 11:00-13:00,13:30-18:00"}, "geometry": {"type": "Point", "coordinates": [-122.3175985, 47.7092659]}}, {"type": "Feature", "properties": {"id": "06a16688-74d5-4931-b4e4-f2ebe441e187", "name": "Quality Food Center", "category": "pharmacy", "tags": ["pharmacy"], "sources": ["overture"], "website": "https://www.qfc.com/rx/pharmacy/details/705/00866", "address": "11100 Roosevelt Way NE"}, "geometry": {"type": "Point", "coordinates": [-122.3172455, 47.7093697]}}, {"type": "Feature", "properties": {"id": "85f9cf7d-c028-4a48-93ee-237aa9032334", "name": "Walgreens Pharmacy", "category": "pharmacy", "tags": ["pharmacy"], "sources": ["overture"], "website": "https://www.walgreens.com", "phone": "+12064170520", "address": "859 NE Northgate Way", "stations": [{"stopCode": 45, "lines": "1,2", "name": "Northgate Station", "walkingMeters": 1330, "walkingSeconds": 956, "band": 15}]}, "geometry": {"type": "Point", "coordinates": [-122.3182602, 47.7082405]}}, {"type": "Feature", "properties": {"id": 356551372, "name": "Northgate Post Office", "category": "post_office", "tags": ["post-office"], "sources": ["osm"], "website": "https://tools.usps.com/locations/details/1375526", "address": "11036 8th Avenue Northeast", "hours": "24/7"}, "geometry": {"type": "Point", "coordinates": [-122.319557, 47.7099438]}}, {"type": "Feature", "properties": {"id": "aff9ec97-a7e5-413a-a523-a09a3cf1549d", "name": "Umpqua Bank", "category": "bank", "tags": ["bank", "credit", "union"], "sources": ["overture"], "website": "http://umpquabank.com/locations/washington/seattle/seattle-northgate/", "phone": "2063617279", "address": "828 NE Northgate Way", "stations": [{"stopCode": 45, "lines": "1,2", "name": "Northgate Station", "walkingMeters": 1312, "walkingSeconds": 943, "band": 15}]}, "geometry": {"type": "Point", "coordinates": [-122.3197174, 47.7087631]}}, {"type": "Feature", "properties": {"id": 221261304, "name": "U.S. Bank", "category": "bank", "tags": ["bank", "credit", "union"], "sources": ["osm", "overture"], "website": "https://www.usbank.com/locations/washington/seattle/815-ne-northgate-way-bank-atm/?utm_source=facebook&utm_medium=organic&utm_campaign=facebook_listing", "phone": "+12064945643", "address": "815 NE Northgate Way", "hours": "Mo-Fr 09:00-17:00; Sa 10:00-13:00", "stations": [{"stopCode": 45, "lines": "1,2", "name": "Northgate Station", "walkingMeters": 1297, "walkingSeconds": 933, "band": 15}]}, "geometry": {"type": "Point", "coordinates": [-122.3197791, 47.7083686]}}, {"type": "Feature", "properties": {"id": 39935921, "name": "Columbia Bank", "category": "bank", "tags": ["bank", "credit", "union"], "sources": ["osm", "overture"], "website": "https://locations.umpquabank.com/wa/seattle/828-ne-northgate-way", "phone": "2063617279", "address": "828 NE Northgate Way, 1st Floor", "hours": "Mo-Fr 09:00-17:00", "stations": [{"stopCode": 45, "lines": "1,2", "name": "Northgate Station", "walkingMeters": 1298, "walkingSeconds": 933, "band": 15}]}, "geometry": {"type": "Point", "coordinates": [-122.3195249, 47.7088571]}}, {"type": "Feature", "properties": {"id": 5591299618, "name": "Global Credit Union", "category": "bank", "tags": ["bank", "wheelchair-accessible"], "sources": ["osm"], "website": "https://www.globalcu.org/branches/northgate/", "address": "11100 Roosevelt Way Northeast", "hours": "Mo-Fr 10:00-18:00"}, "geometry": {"type": "Point", "coordinates": [-122.316869, 47.7092999]}}, {"type": "Feature", "properties": {"id": "b6092af4-9aae-40b0-8e93-1358a4ee6b21", "name": "United States Postal Service", "category": "post_office", "tags": ["post-office", "office"], "sources": ["overture"], "website": "https://tools.usps.com/locations/details/1375526?utm_source=website-url&utm_medium=search&utm_campaign=yext", "phone": "8002758777", "address": "11036 8th Ave NE"}, "geometry": {"type": "Point", "coordinates": [-122.319603, 47.7099686]}}, {"type": "Feature", "properties": {"id": "c57f89b2-b680-411a-9a66-72ce89c0c13b", "name": "U.S. Bank ATM", "category": "bank", "tags": ["bank", "credit", "union"], "sources": ["overture"], "website": "http://www.usbank.com/locations", "phone": "8008722657", "address": "815 NE Northgate Way", "stations": [{"stopCode": 45, "lines": "1,2", "name": "Northgate Station", "walkingMeters": 1220, "walkingSeconds": 877, "band": 15}]}, "geometry": {"type": "Point", "coordinates": [-122.3197632, 47.7085609]}}, {"type": "Feature", "properties": {"id": "010cb10a-1ea6-480a-a998-25562414a5cc", "name": "Post Office Northgate", "category": "post_office", "tags": ["post-office", "office"], "sources": ["overture"], "website": "http://www.usps.com", "phone": "+12063640546", "address": "11036 8th Ave NE"}, "geometry": {"type": "Point", "coordinates": [-122.3197327, 47.7099419]}}, {"type": "Feature", "properties": {"id": "b01f5044-b1fc-4324-beb5-24a166ab5134", "name": "Hatha Yoga Center", "category": "fitness_centre", "tags": ["fitness-centre", "yoga", "studio"], "sources": ["overture"], "website": "http://hathayogacenter.com/", "phone": "+12066321443", "address": "1020 NE 112th St"}, "geometry": {"type": "Point", "coordinates": [-122.3170395, 47.7099266]}}]}