{"type": "FeatureCollection", "features": [{"type": "Feature", "properties": {"id": "0c5c6cc2-a717-453d-85ab-b3bd80240de5", "name": "Starbucks", "category": "cafe", "tags": ["cafe", "coffee"], "sources": ["overture"], "website": "http://starbucks.com", "stations": [{"stopCode": 63, "lines": "2", "name": "Redmond Technology Center Station", "walkingMeters": 472, "walkingSeconds": 340, "band": 10}]}, "geometry": {"type": "Point", "coordinates": [-122.1331711, 47.6469498]}}, {"type": "Feature", "properties": {"id": 11372369931, "name": "Salt & Straw", "category": "ice_cream", "tags": ["ice-cream"], "sources": ["osm"], "hours": "Mo-Fr 12:00-16:00", "stations": [{"stopCode": 63, "lines": "2", "name": "Redmond Technology Center Station", "walkingMeters": 608, "walkingSeconds": 438, "band": 10}, {"stopCode": 62, "lines": "2", "name": "Overlake Village Station", "walkingMeters": 1138, "walkingSeconds": 821, "band": 15}]}, "geometry": {"type": "Point", "coordinates": [-122.1300425, 47.641624]}}, {"type": "Feature", "properties": {"id": "99d79a29-0de2-4ace-84bc-68996eaa0684", "name": "Mod Pizza", "category": "fast_food", "tags": ["fast-food", "fast", "food"], "sources": ["overture"], "website": "https://modpizza.com", "address": "15255 NE 40th St", "stations": [{"stopCode": 63, "lines": "2", "name": "Redmond Technology Center Station", "walkingMeters": 374, "walkingSeconds": 279, "band": 10}, {"stopCode": 62, "lines": "2", "name": "Overlake Village Station", "walkingMeters": 1199, "walkingSeconds": 895, "band": 15}]}, "geometry": {"type": "Point", "coordinates": [-122.1374435, 47.6445427]}}, {"type": "Feature", "properties": {"id": "98800701-1533-4a39-acc7-e7167100e193", "name": "Mr. Gyros", "category": "fast_food", "tags": ["fast-food", "food", "truck"], "sources": ["overture"], "website": "http://www.mrgyroseattle.com", "address": "15010 NE 36th St", "stations": [{"stopCode": 63, "lines": "2", "name": "Redmond Technology Center Station", "walkingMeters": 481, "walkingSeconds": 359, "band": 10}, {"stopCode": 62, "lines": "2", "name": "Overlake Village Station", "walkingMeters": 904, "walkingSeconds": 675, "band": 15}]}, "geometry": {"type": "Point", "coordinates": [-122.1370316, 47.6424332]}}, {"type": "Feature", "properties": {"id": "7dc0b377-17ec-44fe-82f0-596187f2acc8", "name": "Dote Coffee Bar", "category": "cafe", "tags": ["cafe", "coffee"], "sources": ["overture"], "website": "https://www.dailydote.com/visit", "phone": "(425) 429-3292", "address": "3849 156th Ave NE", "stations": [{"stopCode": 63, "lines": "2", "name": "Redmond Technology Center Station", "walkingMeters": 485, "walkingSeconds": 350, "band": 5}, {"stopCode": 62, "lines": "2", "name": "Overlake Village Station", "walkingMeters": 1169, "walkingSeconds": 841, "band": 15}]}, "geometry": {"type": "Point", "coordinates": [-122.1326828, 47.6438904]}}, {"type": "Feature", "properties": {"id": 11372369934, "name": "DOTE Espresso", "category": "cafe", "tags": ["cafe"], "sources": ["osm"], "website": "https://www.dailydote.com/", "phone": "+1-425-429-3292", "address": "15745 Northeast 36st Street", "hours": "Mo-Fr 07:30-16:00", "stations": [{"stopCode": 63, "lines": "2", "name": "Redmond Technology Center Station", "walkingMeters": 608, "walkingSeconds": 438, "band": 10}, {"stopCode": 62, "lines": "2", "name": "Overlake Village Station", "walkingMeters": 1178, "walkingSeconds": 849, "band": 15}]}, "geometry": {"type": "Point", "coordinates": [-122.1301472, 47.6416799]}}, {"type": "Feature", "properties": {"id": 1020679320, "name": "DOTE Espresso", "category": "cafe", "tags": ["cafe", "coffee-shop", "vegetarian", "air-conditioned"], "sources": ["osm"], "website": "https://www.dailydote.com/", "phone": "+1-425-429-3292", "address": "3849 156th Avenue Northeast", "hours": "Mo-Fr 08:00-17:30", "stations": [{"stopCode": 63, "lines": "2", "name": "Redmond Technology Center Station", "walkingMeters": 471, "walkingSeconds": 339, "band": 5}, {"stopCode": 62, "lines": "2", "name": "Overlake Village Station", "walkingMeters": 1184, "walkingSeconds": 852, "band": 15}]}, "geometry": {"type": "Point", "coordinates": [-122.132705, 47.6439252]}}, {"type": "Feature", "properties": {"id": 11372369935, "name": "Craft75 Gastropub", "category": "pub", "tags": ["pub", "outdoor-seating"], "sources": ["osm"], "hours": "Mo-Fr 11:00-14:00,16:00-19:00", "stations": [{"stopCode": 63, "lines": "2", "name": "Redmond Technology Center Station", "walkingMeters": 558, "walkingSeconds": 402, "band": 10}, {"stopCode": 62, "lines": "2", "name": "Overlake Village Station", "walkingMeters": 1089, "walkingSeconds": 785, "band": 15}]}, "geometry": {"type": "Point", "coordinates": [-122.1304638, 47.641278]}}, {"type": "Feature", "properties": {"id": 13728665376, "name": "Bobae Coffee & Tea", "category": "cafe", "tags": ["cafe", "bubble-tea", "air-conditioned"], "sources": ["osm"], "website": "https://www.bobaeusa.com", "hours": "Mo-Fr 11:00-16:00", "stations": [{"stopCode": 63, "lines": "2", "name": "Redmond Technology Center Station", "walkingMeters": 610, "walkingSeconds": 439, "band": 10}, {"stopCode": 62, "lines": "2", "name": "Overlake Village Station", "walkingMeters": 1176, "walkingSeconds": 848, "band": 15}]}, "geometry": {"type": "Point", "coordinates": [-122.1300492, 47.6417286]}}, {"type": "Feature", "properties": {"id": 135576072, "name": "The Boardwalk", "category": "restaurant", "tags": ["restaurant", "american", "vegetarian", "vegan"], "sources": ["osm"], "address": "15251 Northeast 40th Street", "stations": [{"stopCode": 63, "lines": "2", "name": "Redmond Technology Center Station", "walkingMeters": 593, "walkingSeconds": 426, "band": 10}, {"stopCode": 62, "lines": "2", "name": "Overlake Village Station", "walkingMeters": 1193, "walkingSeconds": 870, "band": 15}]}, "geometry": {"type": "Point", "coordinates": [-122.1378304, 47.6441302]}}, {"type": "Feature", "properties": {"id": "8888f03b-289f-48e9-ba3b-6c5194446a2d", "name": "Starbucks Coffee Company", "category": "cafe", "tags": ["cafe", "coffee"], "sources": ["overture"], "website": "https://www.starbucks.ca/store-locator/store/1033145", "phone": "+12068489850", "address": "15255 NE 40th St", "stations": [{"stopCode": 63, "lines": "2", "name": "Redmond Technology Center Station", "walkingMeters": 577, "walkingSeconds": 415, "band": 10}, {"stopCode": 62, "lines": "2", "name": "Overlake Village Station", "walkingMeters": 1312, "walkingSeconds": 944, "band": 15}]}, "geometry": {"type": "Point", "coordinates": [-122.1375656, 47.6447639]}}, {"type": "Feature", "properties": {"id": "7a5b571e-d7aa-4d32-b35c-8b1598cbb3db", "name": "Boardwalk", "category": "restaurant", "tags": ["restaurant", "american", "bar-and-grill"], "sources": ["overture"], "website": "http://dining.azurewebsites.net/boardwalk", "phone": "+14256989718", "address": "15251 NE 40th St", "stations": [{"stopCode": 63, "lines": "2", "name": "Redmond Technology Center Station", "walkingMeters": 593, "walkingSeconds": 426, "band": 10}, {"stopCode": 62, "lines": "2", "name": "Overlake Village Station", "walkingMeters": 1193, "walkingSeconds": 870, "band": 15}]}, "geometry": {"type": "Point", "coordinates": [-122.1378098, 47.6441574]}}, {"type": "Feature", "properties": {"id": "c64ddfff-477e-412f-8986-28b07e74b5b4", "name": "Soups On Llc", "category": "restaurant", "tags": ["restaurant"], "sources": ["overture"], "address": "15255 NE 40th St", "stations": [{"stopCode": 63, "lines": "2", "name": "Redmond Technology Center Station", "walkingMeters": 374, "walkingSeconds": 279, "band": 10}, {"stopCode": 62, "lines": "2", "name": "Overlake Village Station", "walkingMeters": 1199, "walkingSeconds": 895, "band": 15}]}, "geometry": {"type": "Point", "coordinates": [-122.1374435, 47.6445427]}}, {"type": "Feature", "properties": {"id": "142de48f-9e2b-4534-a4ee-f6f4a716b740", "name": "Veraci Pizza & Pasta", "category": "restaurant", "tags": ["restaurant"], "sources": ["overture"], "address": "15255 NE 40th St", "stations": [{"stopCode": 63, "lines": "2", "name": "Redmond Technology Center Station", "walkingMeters": 374, "walkingSeconds": 279, "band": 10}, {"stopCode": 62, "lines": "2", "name": "Overlake Village Station", "walkingMeters": 1199, "walkingSeconds": 895, "band": 15}]}, "geometry": {"type": "Point", "coordinates": [-122.1374435, 47.6445427]}}, {"type": "Feature", "properties": {"id": "95518d10-64bb-4a02-8598-a00144ee6758", "name": "Chandy's Natural Cafe", "category": "restaurant", "tags": ["restaurant", "american", "buffet"], "sources": ["overture"], "website": "http://twitter.com/ChandysRedmond", "phone": "+18774174551", "address": "15255 NE 40th St", "stations": [{"stopCode": 63, "lines": "2", "name": "Redmond Technology Center Station", "walkingMeters": 527, "walkingSeconds": 379, "band": 10}, {"stopCode": 62, "lines": "2", "name": "Overlake Village Station", "walkingMeters": 1165, "walkingSeconds": 838, "band": 15}]}, "geometry": {"type": "Point", "coordinates": [-122.1369629, 47.6444092]}}, {"type": "Feature", "properties": {"id": "dfc73c73-e624-4377-9449-a783ac98e739", "name": "Streets of Asia", "category": "restaurant", "tags": ["restaurant", "thai", "chinese", "asian"], "sources": ["overture"], "phone": "+14258617200", "address": "15255 NE 40th St", "stations": [{"stopCode": 63, "lines": "2", "name": "Redmond Technology Center Station", "walkingMeters": 533, "walkingSeconds": 384, "band": 10}, {"stopCode": 62, "lines": "2", "name": "Overlake Village Station", "walkingMeters": 1172, "walkingSeconds": 843, "band": 15}]}, "geometry": {"type": "Point", "coordinates": [-122.1369781, 47.644474]}}, {"type": "Feature", "properties": {"id": 4823592277, "name": "Microsoft Visitor Center", "category": "attraction", "tags": ["attraction"], "sources": ["osm"], "website": "https://www.microsoft.com/en-us/visitorcenter", "address": "15010 Northeast 36th Street", "stations": [{"stopCode": 63, "lines": "2", "name": "Redmond Technology Center Station", "walkingMeters": 663, "walkingSeconds": 477, "band": 10}, {"stopCode": 62, "lines": "2", "name": "Overlake Village Station", "walkingMeters": 912, "walkingSeconds": 656, "band": 15}]}, "geometry": {"type": "Point", "coordinates": [-122.1367701, 47.6423174]}}, {"type": "Feature", "properties": {"id": 11372411146, "name": "Microsoft Logo", "category": "attraction", "tags": ["attraction"], "sources": ["osm"], "stations": [{"stopCode": 63, "lines": "2", "name": "Redmond Technology Center Station", "walkingMeters": 543, "walkingSeconds": 390, "band": 10}, {"stopCode": 62, "lines": "2", "name": "Overlake Village Station", "walkingMeters": 1073, "walkingSeconds": 774, "band": 15}]}, "geometry": {"type": "Point", "coordinates": [-122.130645, 47.6409893]}}, {"type": "Feature", "properties": {"id": "8d259aab-8233-48e8-87d4-a6e14b6c450f", "name": "Microsoft Visitor Center and Company Store", "category": "museum", "tags": ["museum"], "sources": ["overture"], "website": "http://microsoft.com/visitorcenter", "phone": "+14257036214", "address": "15010 NE 36th St Building 92", "stations": [{"stopCode": 63, "lines": "2", "name": "Redmond Technology Center Station", "walkingMeters": 486, "walkingSeconds": 363, "band": 10}, {"stopCode": 62, "lines": "2", "name": "Overlake Village Station", "walkingMeters": 881, "walkingSeconds": 657, "band": 15}]}, "geometry": {"type": "Point", "coordinates": [-122.1367798, 47.642231]}}, {"type": "Feature", "properties": {"id": "d705f9f3-799a-454a-99c3-501059702c86", "name": "Avalon Redmond Campus", "category": "attraction", "tags": ["attraction", "landmark", "historical", "building"], "sources": ["overture"], "website": "https://www.avaloncommunities.com/washington/redmond-apartments/avalon-redmond-campus?utm_source=gmb&utm_medium=organic&utm_campaign=gmblist", "phone": "+14254705584", "address": "15602 NE 40th St", "stations": [{"stopCode": 63, "lines": "2", "name": "Redmond Technology Center Station", "walkingMeters": 367, "walkingSeconds": 264, "band": 10}]}, "geometry": {"type": "Point", "coordinates": [-122.1317215, 47.6467857]}}, {"type": "Feature", "properties": {"id": "6198cd0f-1a9d-4a00-a4a5-c0805bfbd3eb", "name": "T-Mobile", "category": "mobile_phone", "tags": ["mobile-phone", "mobile"], "sources": ["overture"], "website": "https://www.t-mobile.com/stores/bd/t-mobile-redmond-wa-98052-9735?utm_source=facebook&utm_medium=lastmile&utm_campaign=9735", "phone": "+14255564381", "address": "15255 NE 40th St Ste 98A", "stations": [{"stopCode": 63, "lines": "2", "name": "Redmond Technology Center Station", "walkingMeters": 609, "walkingSeconds": 438, "band": 10}, {"stopCode": 62, "lines": "2", "name": "Overlake Village Station", "walkingMeters": 1304, "walkingSeconds": 938, "band": 15}]}, "geometry": {"type": "Point", "coordinates": [-122.1372986, 47.6445274]}}, {"type": "Feature", "properties": {"id": 4823592278, "name": "Microsoft Company Store", "category": "gift", "tags": ["gift"], "sources": ["osm"], "stations": [{"stopCode": 63, "lines": "2", "name": "Redmond Technology Center Station", "walkingMeters": 651, "walkingSeconds": 468, "band": 10}, {"stopCode": 62, "lines": "2", "name": "Overlake Village Station", "walkingMeters": 1008, "walkingSeconds": 737, "band": 15}]}, "geometry": {"type": "Point", "coordinates": [-122.1370075, 47.6426967]}}, {"type": "Feature", "properties": {"id": 11372411100, "name": "Cone & Steiner Redmond", "category": "convenience", "tags": ["convenience"], "sources": ["osm"], "website": "https://www.coneandsteiner.com/", "address": "3460 156th Avenue Northeast", "hours": "Mo-Fr 07:00-19:00", "stations": [{"stopCode": 63, "lines": "2", "name": "Redmond Technology Center Station", "walkingMeters": 492, "walkingSeconds": 354, "band": 10}, {"stopCode": 62, "lines": "2", "name": "Overlake Village Station", "walkingMeters": 1050, "walkingSeconds": 757, "band": 15}]}, "geometry": {"type": "Point", "coordinates": [-122.1312114, 47.6411482]}}, {"type": "Feature", "properties": {"id": 13861035157, "name": "Microsoft Living Well Pharmacy", "category": "pharmacy", "tags": ["pharmacy"], "sources": ["osm"], "stations": [{"stopCode": 63, "lines": "2", "name": "Redmond Technology Center Station", "walkingMeters": 528, "walkingSeconds": 380, "band": 10}, {"stopCode": 62, "lines": "2", "name": "Overlake Village Station", "walkingMeters": 1152, "walkingSeconds": 829, "band": 15}]}, "geometry": {"type": "Point", "coordinates": [-122.1371215, 47.6440196]}}, {"type": "Feature", "properties": {"id": 11372411096, "name": "Wells Fargo", "category": "bank", "tags": ["bank"], "sources": ["osm"], "address": "3460 156th Avenue Northeast", "hours": "Mo-Fr 08:30-17:00", "stations": [{"stopCode": 63, "lines": "2", "name": "Redmond Technology Center Station", "walkingMeters": 622, "walkingSeconds": 448, "band": 10}, {"stopCode": 62, "lines": "2", "name": "Overlake Village Station", "walkingMeters": 946, "walkingSeconds": 683, "band": 15}]}, "geometry": {"type": "Point", "coordinates": [-122.131901, 47.6407579]}}, {"type": "Feature", "properties": {"id": 11372411097, "name": "Fidelity Engagement Center", "category": "bank", "tags": ["bank"], "sources": ["osm"], "address": "3460 156th Avenue Northeast", "stations": [{"stopCode": 63, "lines": "2", "name": "Redmond Technology Center Station", "walkingMeters": 463, "walkingSeconds": 333, "band": 10}, {"stopCode": 62, "lines": "2", "name": "Overlake Village Station", "walkingMeters": 1079, "walkingSeconds": 778, "band": 15}]}, "geometry": {"type": "Point", "coordinates": [-122.1315728, 47.6413573]}}, {"type": "Feature", "properties": {"id": "15cbd080-06af-496e-9a8b-78f3eda5edb0", "name": "Wells Fargo Bank", "category": "bank", "tags": ["bank", "credit", "union"], "sources": ["overture"], "website": "https://www.wellsfargo.com/locator/bank/3460__156TH__AVE__NE_REDMOND_WA_98052/?utm_campaign=Local_Listings&utm_source=Others&group=Community_Bank&loc=AD86787", "phone": "4256360317", "address": "3460 156TH Ave NE", "stations": [{"stopCode": 63, "lines": "2", "name": "Redmond Technology Center Station", "walkingMeters": 706, "walkingSeconds": 508, "band": 10}, {"stopCode": 62, "lines": "2", "name": "Overlake Village Station", "walkingMeters": 978, "walkingSeconds": 706, "band": 15}]}, "geometry": {"type": "Point", "coordinates": [-122.1322403, 47.6411934]}}]}