{"type": "FeatureCollection", "features": [{"type": "Feature", "properties": {"id": "c5582c86-bfd0-422b-a7af-8e73a8215771", "name": "Springbrook Reserve", "category": "attraction", "tags": ["attraction", "landmark", "historical", "building"], "sources": ["overture"], "website": "https://www.pacificaresidential-springbrook.com/?rcstdid=MTE%3D-aKFOxiSL8lQ%3D", "phone": "+18442987968", "address": "7035 S 133rd St"}, "geometry": {"type": "Point", "coordinates": [-122.2448273, 47.4838181]}}, {"type": "Feature", "properties": {"id": "c82999c8-6b39-4998-a891-26809ff228bf", "name": "Cambridge Park Villa", "category": "attraction", "tags": ["attraction", "landmark", "historical", "building"], "sources": ["overture"], "website": "http://www.cambridgeparkvilla.com/", "phone": "+12067722222", "address": "6801 S 133rd St"}, "geometry": {"type": "Point", "coordinates": [-122.2477036, 47.4837227]}}, {"type": "Feature", "properties": {"id": "7e37ef40-eab2-4cf0-98ee-e99703d70a49", "name": "Sunset View Apartments", "category": "attraction", "tags": ["attraction", "landmark", "historical", "building"], "sources": ["overture"], "website": "http://www.thesunsetviewapartments.com/", "phone": "+18442066246", "address": "2101 SW Sunset Blvd"}, "geometry": {"type": "Point", "coordinates": [-122.2437515, 47.480545]}}, {"type": "Feature", "properties": {"id": "86db703b-ba57-4f63-8bb2-f352476dcf7c", "name": "Blessed and Thankful", "category": "clothes", "tags": ["clothes"], "sources": ["overture"], "website": "http://www.Blessedandthankful365.com/", "phone": "+12063802041", "address": "7262 S 129th St"}, "geometry": {"type": "Point", "coordinates": [-122.2412491, 47.4877968]}}]}