{"type": "FeatureCollection", "features": [{"type": "Feature", "properties": {"id": 242311987, "name": "Subway", "category": "fast_food", "tags": ["fast-food", "sandwich", "indoor-seating", "takeaway", "wheelchair-accessible", "vegetarian", "restaurant"], "sources": ["osm", "overture"], "website": "https://restaurants.subway.com/united-states/wa/des-moines/21425-pacific-hwy-south", "phone": "+12068244575", "address": "21425 Pacific Hwy S", "hours": "Mo-Su 08:00-21:00", "stations": [{"stopCode": 66, "lines": "1", "name": "Kent Des Moines Station", "walkingMeters": 668, "walkingSeconds": 486, "band": 10}]}, "geometry": {"type": "Point", "coordinates": [-122.2995972, 47.4087437]}}, {"type": "Feature", "properties": {"id": 10012948994, "name": "Starbucks", "category": "cafe", "tags": ["cafe", "coffee-shop", "takeaway", "wheelchair-accessible", "vegetarian"], "sources": ["osm"], "website": "https://www.starbucks.com/store-locator/store/8880/safeway-seattle-3540-21401-pacific-hwy-s-des-moines-wa-981986074-us", "phone": "+1-206-824-2737", "address": "21401 Pacific Highway", "hours": "Mo-Fr 05:00-20:00; Sa,Su 06:00-20:00", "stations": [{"stopCode": 66, "lines": "1", "name": "Kent Des Moines Station", "walkingMeters": 756, "walkingSeconds": 552, "band": 10}]}, "geometry": {"type": "Point", "coordinates": [-122.299217, 47.4098103]}}, {"type": "Feature", "properties": {"id": "d22c40e1-e0d7-4999-b44e-a955c01f0b92", "name": "Starbucks", "category": "cafe", "tags": ["cafe", "coffee"], "sources": ["overture"], "phone": "2068242737", "address": "21401 International Blvd (Safeway-Seat, Tle #3540)", "stations": [{"stopCode": 66, "lines": "1", "name": "Kent Des Moines Station", "walkingMeters": 313, "walkingSeconds": 234, "band": 10}]}, "geometry": {"type": "Point", "coordinates": [-122.2981262, 47.4099922]}}, {"type": "Feature", "properties": {"id": 1191221975, "name": "Burger King", "category": "fast_food", "tags": ["fast-food", "burger", "indoor-seating", "takeaway", "drive-through", "wheelchair-accessible", "air-conditioned", "fast", "food", "american"], "sources": ["osm", "overture"], "website": "https://burgerking.com/store-locator/store/29063", "phone": "+14255280934", "address": "21920 Pacific Hwy S", "hours": "Mo-Sa 06:00-20:00; Su 07:00-20:00", "stations": [{"stopCode": 66, "lines": "1", "name": "Kent Des Moines Station", "walkingMeters": 907, "walkingSeconds": 658, "band": 10}]}, "geometry": {"type": "Point", "coordinates": [-122.2979036, 47.4052156]}}, {"type": "Feature", "properties": {"id": 12381971372, "name": "Kanishka Cuisine of India", "category": "restaurant", "tags": ["restaurant", "indian"], "sources": ["osm", "overture"], "website": "http://kanishkaredmond.com/", "phone": "+14255534446", "address": "22406 Pacific Hwy S Ste 104", "hours": "12:00-00:00", "stations": [{"stopCode": 67, "lines": "1", "name": "Star Lake Station", "walkingMeters": 896, "walkingSeconds": 645, "band": 15}, {"stopCode": 66, "lines": "1", "name": "Kent Des Moines Station", "walkingMeters": 1334, "walkingSeconds": 968, "band": 15}]}, "geometry": {"type": "Point", "coordinates": [-122.2970087, 47.4005303]}}, {"type": "Feature", "properties": {"id": 13085078890, "name": "Tandoori Slice", "category": "restaurant", "tags": ["restaurant", "pizza", "indian"], "sources": ["osm", "overture"], "website": "https://tandoorislicemenu.com/", "phone": "2064293555", "address": "21850 Pacific Highway S", "hours": "We-Su 12:00-21:00", "stations": [{"stopCode": 66, "lines": "1", "name": "Kent Des Moines Station", "walkingMeters": 817, "walkingSeconds": 594, "band": 10}]}, "geometry": {"type": "Point", "coordinates": [-122.2982076, 47.405491]}}, {"type": "Feature", "properties": {"id": 1191221972, "name": "Popeyes", "category": "fast_food", "tags": ["fast-food", "chicken", "indoor-seating", "takeaway", "delivery", "drive-through", "wheelchair-accessible", "air-conditioned", "wifi"], "sources": ["osm"], "website": "https://www.popeyes.com/store-locator/store/restaurant_240848", "phone": "+1-206-592-2349", "address": "21920 Pacific Highway South", "hours": "10:00-21:00", "stations": [{"stopCode": 66, "lines": "1", "name": "Kent Des Moines Station", "walkingMeters": 955, "walkingSeconds": 693, "band": 10}]}, "geometry": {"type": "Point", "coordinates": [-122.2978746, 47.4047524]}}, {"type": "Feature", "properties": {"id": 242290995, "name": "Cemitas Tepeaca 2", "category": "restaurant", "tags": ["restaurant", "mexican", "latin-american"], "sources": ["osm", "overture"], "website": "http://www.cemitastepeaca2.com", "phone": "+12068788202", "address": "21624 Pacific Hwy S", "stations": [{"stopCode": 66, "lines": "1", "name": "Kent Des Moines Station", "walkingMeters": 603, "walkingSeconds": 439, "band": 10}]}, "geometry": {"type": "Point", "coordinates": [-122.2978333, 47.4075296]}}, {"type": "Feature", "properties": {"id": 242425847, "name": "Emerald Thai Cuisine", "category": "restaurant", "tags": ["restaurant", "thai"], "sources": ["osm", "overture"], "website": "http://emeraldthai.com/", "phone": "(206) 878-9049", "address": "22228 Pacific Hwy S", "stations": [{"stopCode": 67, "lines": "1", "name": "Star Lake Station", "walkingMeters": 1132, "walkingSeconds": 817, "band": 15}, {"stopCode": 66, "lines": "1", "name": "Kent Des Moines Station", "walkingMeters": 1163, "walkingSeconds": 843, "band": 15}]}, "geometry": {"type": "Point", "coordinates": [-122.2976067, 47.4025958]}}, {"type": "Feature", "properties": {"id": "7a7d772a-0a24-4eb8-89cd-ea1871705e0f", "name": "Papa Murphy's Take 'N' Bake Pizza", "category": "restaurant", "tags": ["restaurant", "pizza"], "sources": ["overture"], "website": "https://order.papamurphys.com/menu/papa-murphys-wa201", "phone": "2068242023", "address": "21427 Pacific Highway S", "stations": [{"stopCode": 66, "lines": "1", "name": "Kent Des Moines Station", "walkingMeters": 564, "walkingSeconds": 413, "band": 10}]}, "geometry": {"type": "Point", "coordinates": [-122.2982788, 47.4086418]}}, {"type": "Feature", "properties": {"id": "c9ba9e98-27f4-440f-87da-e7bfcd520673", "name": "Tacos JR Mexican Food", "category": "restaurant", "tags": ["restaurant"], "sources": ["overture"], "phone": "+12064744668", "address": "21639 Pacific Hwy S", "stations": [{"stopCode": 66, "lines": "1", "name": "Kent Des Moines Station", "walkingMeters": 666, "walkingSeconds": 485, "band": 10}]}, "geometry": {"type": "Point", "coordinates": [-122.2989349, 47.4073944]}}, {"type": "Feature", "properties": {"id": "8603c685-4a0c-4380-9bef-c4a8be92bb50", "name": "Barakat Pizza", "category": "restaurant", "tags": ["restaurant", "pizza"], "sources": ["overture"], "website": "https://barakatpizza.com/", "phone": "+12068329041", "address": "21427 Pacific Hwy S", "stations": [{"stopCode": 66, "lines": "1", "name": "Kent Des Moines Station", "walkingMeters": 537, "walkingSeconds": 401, "band": 10}]}, "geometry": {"type": "Point", "coordinates": [-122.2995911, 47.40868]}}, {"type": "Feature", "properties": {"id": "e17a72e9-a8fc-4519-8bd7-a5a3a9be35b7", "name": "Yummy Chinese Restaurant", "category": "restaurant", "tags": ["restaurant"], "sources": ["overture"], "website": "https://www.yummychinesewa.com/", "phone": "2066517368", "address": "22228 Pacific Highway S", "stations": [{"stopCode": 67, "lines": "1", "name": "Star Lake Station", "walkingMeters": 1131, "walkingSeconds": 817, "band": 15}, {"stopCode": 66, "lines": "1", "name": "Kent Des Moines Station", "walkingMeters": 1162, "walkingSeconds": 842, "band": 15}]}, "geometry": {"type": "Point", "coordinates": [-122.2976151, 47.4025764]}}, {"type": "Feature", "properties": {"id": "ee4f48cc-1a1d-46fd-954b-6eb326e29e47", "name": "Popeyes Louisiana Kitchen", "category": "restaurant", "tags": ["restaurant"], "sources": ["overture"], "website": "https://www.popeyes.com/store-locator/store/restaurant_240848?utm_source=yext&utm_medium=referral&utm_campaign=organic-local-listings", "phone": "2065922349", "address": "21990 Pacific Hwy S", "stations": [{"stopCode": 66, "lines": "1", "name": "Kent Des Moines Station", "walkingMeters": 941, "walkingSeconds": 702, "band": 10}]}, "geometry": {"type": "Point", "coordinates": [-122.2979813, 47.404747]}}, {"type": "Feature", "properties": {"id": "98b7b20c-56f6-4c50-a974-4c4f5e23f849", "name": "Sunny's Cafe", "category": "cafe", "tags": ["cafe"], "sources": ["overture"], "website": "https://sunnyscafe1.com", "phone": "+12068242038", "address": "21624 Pacific Hwy S", "stations": [{"stopCode": 66, "lines": "1", "name": "Kent Des Moines Station", "walkingMeters": 564, "walkingSeconds": 421, "band": 10}]}, "geometry": {"type": "Point", "coordinates": [-122.2978745, 47.4075089]}}, {"type": "Feature", "properties": {"id": "8403a72b-4a60-46c0-ab2c-6fe29b758daf", "name": "Olympus Grille", "category": "restaurant", "tags": ["restaurant", "american", "bar-and-grill"], "sources": ["overture"], "website": "http://www.marriott.com/seasf", "phone": "+12536420100", "address": "22406 Pacific Hwy S Ste 104", "stations": [{"stopCode": 67, "lines": "1", "name": "Star Lake Station", "walkingMeters": 957, "walkingSeconds": 690, "band": 10}, {"stopCode": 66, "lines": "1", "name": "Kent Des Moines Station", "walkingMeters": 1380, "walkingSeconds": 999, "band": 15}]}, "geometry": {"type": "Point", "coordinates": [-122.2966537, 47.4002419]}}, {"type": "Feature", "properties": {"id": "e0b33f79-21c0-47ae-9b15-c8c5567b3866", "name": "Bay Club Apartments", "category": "attraction", "tags": ["attraction", "landmark", "historical", "building"], "sources": ["overture"], "website": "http://www.rentbayclubapartments.com/", "phone": "+18334520939", "address": "2701 S 224th St", "stations": [{"stopCode": 67, "lines": "1", "name": "Star Lake Station", "walkingMeters": 1134, "walkingSeconds": 846, "band": 15}]}, "geometry": {"type": "Point", "coordinates": [-122.2991409, 47.40065]}}, {"type": "Feature", "properties": {"id": "3000f5d3-f0fe-4ffc-927d-76981c19e2d9", "name": "Seafox Apartment Homes", "category": "attraction", "tags": ["attraction", "landmark", "historical", "building"], "sources": ["overture"], "website": "http://www.seafoxapartments.com/?rcstdid=MTE%3D-aKFOxiSL8lQ%3D", "phone": "+12069443769", "address": "2616 S 224th St", "stations": [{"stopCode": 67, "lines": "1", "name": "Star Lake Station", "walkingMeters": 1200, "walkingSeconds": 896, "band": 15}]}, "geometry": {"type": "Point", "coordinates": [-122.2992325, 47.4011497]}}, {"type": "Feature", "properties": {"id": "bad8ff91-da99-40a3-9115-69d463bcc17b", "name": "Wintergreen Place Apartments", "category": "attraction", "tags": ["attraction", "landmark", "historical", "building"], "sources": ["overture"], "phone": "+12068783669", "address": "3011 S 219th St", "stations": [{"stopCode": 66, "lines": "1", "name": "Kent Des Moines Station", "walkingMeters": 630, "walkingSeconds": 460, "band": 10}]}, "geometry": {"type": "Point", "coordinates": [-122.2946625, 47.4056396]}}, {"type": "Feature", "properties": {"id": "8fd9fad8-1c8f-4799-9f6a-6b57eac4a488", "name": "Waterview Crossing Apartments", "category": "attraction", "tags": ["attraction", "landmark", "historical", "building"], "sources": ["overture"], "website": "http://www.waterviewwa.com/?utm_knock=fb", "phone": "+12534667364", "address": "21800 Pacific Hwy S", "stations": [{"stopCode": 66, "lines": "1", "name": "Kent Des Moines Station", "walkingMeters": 721, "walkingSeconds": 525, "band": 10}]}, "geometry": {"type": "Point", "coordinates": [-122.2980423, 47.4063492]}}, {"type": "Feature", "properties": {"id": "317ee2b3-9c28-4367-935d-1a3d123e6029", "name": "Viewpoint Apartments", "category": "attraction", "tags": ["attraction", "landmark", "historical", "building"], "sources": ["overture"], "website": "http://www.wplassociates.com/property/viewpoint-apartment-homes", "phone": "+12066511009", "address": "21428 International Blvd", "stations": [{"stopCode": 66, "lines": "1", "name": "Kent Des Moines Station", "walkingMeters": 609, "walkingSeconds": 444, "band": 10}]}, "geometry": {"type": "Point", "coordinates": [-122.2976532, 47.4092903]}}, {"type": "Feature", "properties": {"id": 25425961, "name": "Midway Park", "category": "park", "tags": ["park"], "sources": ["osm", "overture"], "website": "http://www.dmsoccerclub.net", "phone": "+12068784595", "address": "29th Ave S &, 2885 S 221st St", "stations": [{"stopCode": 66, "lines": "1", "name": "Kent Des Moines Station", "walkingMeters": 949, "walkingSeconds": 689, "band": 10}, {"stopCode": 67, "lines": "1", "name": "Star Lake Station", "walkingMeters": 1332, "walkingSeconds": 959, "band": 15}]}, "geometry": {"type": "Point", "coordinates": [-122.2960264, 47.4031784]}}, {"type": "Feature", "properties": {"id": 241883427, "name": "The Legend Motel", "category": "motel", "tags": ["motel"], "sources": ["osm"], "address": "22204 Pacific Highway South", "stations": [{"stopCode": 66, "lines": "1", "name": "Kent Des Moines Station", "walkingMeters": 1150, "walkingSeconds": 833, "band": 15}, {"stopCode": 67, "lines": "1", "name": "Star Lake Station", "walkingMeters": 1180, "walkingSeconds": 852, "band": 15}]}, "geometry": {"type": "Point", "coordinates": [-122.2976562, 47.403057]}}, {"type": "Feature", "properties": {"id": 242290992, "name": "West View Motel", "category": "motel", "tags": ["motel"], "sources": ["osm"], "address": "2717 South 216th Street", "stations": [{"stopCode": 66, "lines": "1", "name": "Kent Des Moines Station", "walkingMeters": 627, "walkingSeconds": 456, "band": 10}]}, "geometry": {"type": "Point", "coordinates": [-122.2975476, 47.4077204]}}, {"type": "Feature", "properties": {"id": "26cea761-83dc-4c88-9c58-b70365f6da9d", "name": "West View Motel", "category": "motel", "tags": ["motel"], "sources": ["overture"], "website": "https://west-view-motel-wa.hub.biz/", "phone": "+12068780387", "address": "2717 S 216th St", "stations": [{"stopCode": 66, "lines": "1", "name": "Kent Des Moines Station", "walkingMeters": 392, "walkingSeconds": 287, "band": 5}]}, "geometry": {"type": "Point", "coordinates": [-122.2952881, 47.4079895]}}, {"type": "Feature", "properties": {"id": 242290999, "name": "New West Motel", "category": "motel", "tags": ["motel"], "sources": ["osm", "overture"], "website": "http://www.wa-motels-review.com/?n=new+west+motel&id=103262&t=hotel", "phone": "+12068244640", "address": "21450 International Blvd", "stations": [{"stopCode": 66, "lines": "1", "name": "Kent Des Moines Station", "walkingMeters": 505, "walkingSeconds": 369, "band": 10}]}, "geometry": {"type": "Point", "coordinates": [-122.2975059, 47.4086149]}}, {"type": "Feature", "properties": {"id": 418160867, "name": "Four Points by Sheraton Seattle Airport South", "category": "hotel", "tags": ["hotel"], "sources": ["osm"], "address": "22406 Pacific Highway South", "stations": [{"stopCode": 67, "lines": "1", "name": "Star Lake Station", "walkingMeters": 952, "walkingSeconds": 686, "band": 10}, {"stopCode": 66, "lines": "1", "name": "Kent Des Moines Station", "walkingMeters": 1375, "walkingSeconds": 996, "band": 15}]}, "geometry": {"type": "Point", "coordinates": [-122.2966809, 47.4002847]}}, {"type": "Feature", "properties": {"id": 653706754, "name": "Valu Inn Sea Tac", "category": "motel", "tags": ["motel"], "sources": ["osm", "overture"], "website": "http://www.seatacairportvalueinn.com", "phone": "(206) 878-8427", "address": "22246 Pacific Hwy S", "stations": [{"stopCode": 67, "lines": "1", "name": "Star Lake Station", "walkingMeters": 1102, "walkingSeconds": 796, "band": 15}, {"stopCode": 66, "lines": "1", "name": "Kent Des Moines Station", "walkingMeters": 1222, "walkingSeconds": 885, "band": 15}]}, "geometry": {"type": "Point", "coordinates": [-122.297543, 47.4020606]}}, {"type": "Feature", "properties": {"id": "26224ce8-e6ca-42b2-ba08-92ee1c1e88ca", "name": "Four Points By Sheraton", "category": "hotel", "tags": ["hotel"], "sources": ["overture"], "website": "https://www.marriott.com/en-us/hotels/seasf-four-points-seattle-airport-south/overview/?scid=d2406702-e8ea-4b45-bb9b-69cddaaef03d", "phone": "+12536420100", "address": "22406 Pacific Hwy S", "stations": [{"stopCode": 67, "lines": "1", "name": "Star Lake Station", "walkingMeters": 958, "walkingSeconds": 690, "band": 10}, {"stopCode": 66, "lines": "1", "name": "Kent Des Moines Station", "walkingMeters": 1380, "walkingSeconds": 1000, "band": 15}]}, "geometry": {"type": "Point", "coordinates": [-122.2966995, 47.4002266]}}, {"type": "Feature", "properties": {"id": "d3b1e5ca-ee70-4579-b583-d4797c1d8b65", "name": "Legend Motel", "category": "motel", "tags": ["motel"], "sources": ["overture"], "website": "http://www.legendmoteldesmoines.com", "phone": "+12068780366", "address": "22204 Pacific Hwy S", "stations": [{"stopCode": 66, "lines": "1", "name": "Kent Des Moines Station", "walkingMeters": 1149, "walkingSeconds": 833, "band": 15}, {"stopCode": 67, "lines": "1", "name": "Star Lake Station", "walkingMeters": 1179, "walkingSeconds": 851, "band": 15}]}, "geometry": {"type": "Point", "coordinates": [-122.2977676, 47.4031868]}}, {"type": "Feature", "properties": {"id": 242290994, "name": "7-Eleven", "category": "convenience", "tags": ["convenience", "wheelchair-accessible"], "sources": ["osm", "overture"], "website": "https://www.7-eleven.com/", "phone": "+12068783858", "address": "21454 International Blvd", "hours": "24/7", "stations": [{"stopCode": 66, "lines": "1", "name": "Kent Des Moines Station", "walkingMeters": 499, "walkingSeconds": 365, "band": 10}]}, "geometry": {"type": "Point", "coordinates": [-122.297624, 47.4085635]}}, {"type": "Feature", "properties": {"id": 651628185, "name": "Food Mart", "category": "convenience", "tags": ["convenience"], "sources": ["osm"], "address": "21449 International Boulevard", "stations": [{"stopCode": 66, "lines": "1", "name": "Kent Des Moines Station", "walkingMeters": 593, "walkingSeconds": 433, "band": 10}]}, "geometry": {"type": "Point", "coordinates": [-122.298669, 47.4087394]}}, {"type": "Feature", "properties": {"id": "d421fff4-f55c-409b-a007-43ac23a82897", "name": "Galls", "category": "clothes", "tags": ["clothes"], "sources": ["overture"], "website": "https://www.galls.com/", "phone": "2068785477", "address": "21621 Pacific Hwy S", "stations": [{"stopCode": 66, "lines": "1", "name": "Kent Des Moines Station", "walkingMeters": 712, "walkingSeconds": 518, "band": 10}]}, "geometry": {"type": "Point", "coordinates": [-122.2992401, 47.4076614]}}, {"type": "Feature", "properties": {"id": "2d949934-00bb-41f2-acf8-86e001736ef9", "name": "Blumenthal Uniforms & Equipment", "category": "clothes", "tags": ["clothes"], "sources": ["overture"], "website": "http://www.blumenthaluniforms.com", "phone": "+12068785922", "address": "21621 Pacific Hwy S", "stations": [{"stopCode": 66, "lines": "1", "name": "Kent Des Moines Station", "walkingMeters": 656, "walkingSeconds": 478, "band": 10}]}, "geometry": {"type": "Point", "coordinates": [-122.2992401, 47.4076309]}}, {"type": "Feature", "properties": {"id": "e74361e5-a829-4a5c-b777-ccf4978ba400", "name": "Madina Halal Market", "category": "supermarket", "tags": ["supermarket", "halal"], "sources": ["overture"], "phone": "+16086211250", "address": "21630 Pacific Hwy S", "stations": [{"stopCode": 66, "lines": "1", "name": "Kent Des Moines Station", "walkingMeters": 614, "walkingSeconds": 447, "band": 10}]}, "geometry": {"type": "Point", "coordinates": [-122.2980042, 47.4073715]}}, {"type": "Feature", "properties": {"id": "89f791ef-f001-448f-a16f-6a61bae514bd", "name": "Precision Waterscapes", "category": "doityourself", "tags": ["doityourself", "building", "supply"], "sources": ["overture"], "website": "http://precisionwaterscapes.com/", "phone": "+12069410768", "address": "22437 30th Ave S", "stations": [{"stopCode": 67, "lines": "1", "name": "Star Lake Station", "walkingMeters": 909, "walkingSeconds": 678, "band": 10}]}, "geometry": {"type": "Point", "coordinates": [-122.2956314, 47.400032]}}, {"type": "Feature", "properties": {"id": "ac453b9a-7c46-4b25-815a-12b5b8a794c3", "name": "Bartell Drugs", "category": "pharmacy", "tags": ["pharmacy"], "sources": ["overture"], "phone": "12068784628", "address": "21615 Pacific Hwy S", "stations": [{"stopCode": 66, "lines": "1", "name": "Kent Des Moines Station", "walkingMeters": 598, "walkingSeconds": 435, "band": 10}]}, "geometry": {"type": "Point", "coordinates": [-122.2991791, 47.4077644]}}, {"type": "Feature", "properties": {"id": "e5e9c8c5-c159-432a-9911-44e7a9f888ba", "name": "U.S. Bank", "category": "bank", "tags": ["bank", "credit", "union"], "sources": ["overture"], "website": "https://www.usbank.com/locations/washington/des-moines/21401-international-blvd-bank-atm/?utm_source=facebook&utm_medium=organic&utm_campaign=facebook_listing", "phone": "+12068244280", "address": "21401 International Blvd", "stations": [{"stopCode": 66, "lines": "1", "name": "Kent Des Moines Station", "walkingMeters": 764, "walkingSeconds": 557, "band": 10}]}, "geometry": {"type": "Point", "coordinates": [-122.2992325, 47.4098816]}}, {"type": "Feature", "properties": {"id": "9365eaf3-4433-4d52-9546-b42311973d1c", "name": "USPS", "category": "post_office", "tags": ["post-office", "office"], "sources": ["overture"], "website": "https://www.usps.com", "phone": "+18002758777", "address": "21615 Pacific Hwy S", "stations": [{"stopCode": 66, "lines": "1", "name": "Kent Des Moines Station", "walkingMeters": 546, "walkingSeconds": 398, "band": 10}]}, "geometry": {"type": "Point", "coordinates": [-122.2980576, 47.4079285]}}, {"type": "Feature", "properties": {"id": "39c76e59-8392-4420-8ba9-455e93cfacc7", "name": "U.S. Bank ATM", "category": "bank", "tags": ["bank", "credit", "union"], "sources": ["overture"], "website": "http://www.usbank.com/locations", "phone": "8008722657", "address": "21401 Pacific Highway S", "stations": [{"stopCode": 66, "lines": "1", "name": "Kent Des Moines Station", "walkingMeters": 714, "walkingSeconds": 522, "band": 10}]}, "geometry": {"type": "Point", "coordinates": [-122.2981262, 47.4099922]}}]}