{"type": "FeatureCollection", "features": [{"type": "Feature", "properties": {"id": "66b14462-6ed1-402d-9af3-c5c56076eff7", "name": "Starbucks", "category": "cafe", "tags": ["cafe", "coffee"], "sources": ["overture"], "website": "http://www.starbucks.com/", "phone": "(206) 762-3249", "address": "10100 E Marginal Way S"}, "geometry": {"type": "Point", "coordinates": [-122.2933731, 47.5124855]}}, {"type": "Feature", "properties": {"id": 4518830289, "name": "Wings Cafe", "category": "cafe", "tags": ["cafe", "fast-food", "outdoor-seating", "indoor-seating", "wheelchair-accessible", "american"], "sources": ["osm", "overture"], "website": "http://www.museumofflight.org/wings-cafe", "phone": "+12067624418", "address": "9404 E Marginal Wy S"}, "geometry": {"type": "Point", "coordinates": [-122.296739, 47.5189004]}}, {"type": "Feature", "properties": {"id": 499998235, "name": "Lucky Liquor", "category": "bar", "tags": ["bar", "dive"], "sources": ["osm", "overture"], "website": "http://luckyliquortavern.com", "phone": "+12066734081", "address": "10325 E Marginal Wy S"}, "geometry": {"type": "Point", "coordinates": [-122.2930042, 47.5104925]}}, {"type": "Feature", "properties": {"id": "de1da486-31db-4ce1-9abb-660e6bea89b3", "name": "O&e Liquor Llc", "category": "restaurant", "tags": ["restaurant"], "sources": ["overture"], "address": "10325 E Marginal Way S"}, "geometry": {"type": "Point", "coordinates": [-122.2929916, 47.5104713]}}, {"type": "Feature", "properties": {"id": "49b2a59f-f022-4e3b-88b9-74f9acc1669a", "name": "Annex Tavern", "category": "restaurant", "tags": ["restaurant"], "sources": ["overture"], "website": "https://www.annexhotelsurigao.com", "address": "10325 E Marginal Way S"}, "geometry": {"type": "Point", "coordinates": [-122.2929916, 47.5104713]}}, {"type": "Feature", "properties": {"id": "ce0c06a4-49ce-4810-9a13-971e3cf6d876", "name": "Randys Restaurant", "category": "restaurant", "tags": ["restaurant"], "sources": ["overture"], "website": "https://randysrestaurantaz.com", "address": "10016 E Marginal Way S"}, "geometry": {"type": "Point", "coordinates": [-122.2934494, 47.5130615]}}, {"type": "Feature", "properties": {"id": 4257837821, "name": "Maggie's Wind Garden", "category": "artwork", "tags": ["artwork"], "sources": ["osm"]}, "geometry": {"type": "Point", "coordinates": [-122.2967428, 47.5190825]}}, {"type": "Feature", "properties": {"id": 4553738683, "name": "Dreams Really Do Come True", "category": "artwork", "tags": ["artwork"], "sources": ["osm"]}, "geometry": {"type": "Point", "coordinates": [-122.2974874, 47.518685]}}, {"type": "Feature", "properties": {"id": 4553738684, "name": "Team Effort", "category": "artwork", "tags": ["artwork"], "sources": ["osm"]}, "geometry": {"type": "Point", "coordinates": [-122.2962873, 47.5185916]}}, {"type": "Feature", "properties": {"id": 9464767924, "name": "Lockheed 1049G Super Constellation", "category": "attraction", "tags": ["attraction"], "sources": ["osm"]}, "geometry": {"type": "Point", "coordinates": [-122.2960379, 47.5187128]}}, {"type": "Feature", "properties": {"id": 9464767925, "name": "McDonnell Douglas F/A-18A Hornet", "category": "attraction", "tags": ["attraction"], "sources": ["osm"]}, "geometry": {"type": "Point", "coordinates": [-122.2965004, 47.5173166]}}, {"type": "Feature", "properties": {"id": 10067923648, "name": "Amelia Earhart sculpture", "category": "artwork", "tags": ["artwork"], "sources": ["osm"]}, "geometry": {"type": "Point", "coordinates": [-122.2965284, 47.5175775]}}, {"type": "Feature", "properties": {"id": 12160551432, "name": "Air Force One", "category": "attraction", "tags": ["attraction"], "sources": ["osm"]}, "geometry": {"type": "Point", "coordinates": [-122.2999215, 47.5197808]}}, {"type": "Feature", "properties": {"id": 12160621098, "name": "Wright Flyer", "category": "attraction", "tags": ["attraction"], "sources": ["osm"]}, "geometry": {"type": "Point", "coordinates": [-122.2965786, 47.518137]}}, {"type": "Feature", "properties": {"id": 12197541339, "name": "Sputnik 1 (engineering model)", "category": "attraction", "tags": ["attraction"], "sources": ["osm"]}, "geometry": {"type": "Point", "coordinates": [-122.2964992, 47.5182671]}}, {"type": "Feature", "properties": {"id": 12197541342, "name": "LEM", "category": "attraction", "tags": ["attraction"], "sources": ["osm"]}, "geometry": {"type": "Point", "coordinates": [-122.2961157, 47.5180801]}}, {"type": "Feature", "properties": {"id": 12197541348, "name": "Resurs-500 Descent Module", "category": "attraction", "tags": ["attraction"], "sources": ["osm"]}, "geometry": {"type": "Point", "coordinates": [-122.2964438, 47.5182135]}}, {"type": "Feature", "properties": {"id": 12197541351, "name": "Apollo Command Module 007A", "category": "attraction", "tags": ["attraction"], "sources": ["osm"]}, "geometry": {"type": "Point", "coordinates": [-122.2961596, 47.5181945]}}, {"type": "Feature", "properties": {"id": 12197541356, "name": "Gemini Capsule", "category": "attraction", "tags": ["attraction"], "sources": ["osm"]}, "geometry": {"type": "Point", "coordinates": [-122.2963821, 47.5181676]}}, {"type": "Feature", "properties": {"id": 34746147, "name": "Museum of Flight", "category": "museum", "tags": ["museum"], "sources": ["osm"], "address": "9404 East Marginal Way South"}, "geometry": {"type": "Point", "coordinates": [-122.2967659, 47.518401]}}, {"type": "Feature", "properties": {"id": 165240425, "name": "Space Gallery", "category": "museum", "tags": ["museum"], "sources": ["osm"]}, "geometry": {"type": "Point", "coordinates": [-122.298943, 47.519092]}}, {"type": "Feature", "properties": {"id": 365410336, "name": "The Red Barn", "category": "museum", "tags": ["museum"], "sources": ["osm"]}, "geometry": {"type": "Point", "coordinates": [-122.2971137, 47.5185369]}}, {"type": "Feature", "properties": {"id": 459558710, "name": "Library and Archives", "category": "museum", "tags": ["museum"], "sources": ["osm"]}, "geometry": {"type": "Point", "coordinates": [-122.2992008, 47.5187054]}}, {"type": "Feature", "properties": {"id": 1470160602, "name": "Lockheed SR-71 Blackbird", "category": "attraction", "tags": ["attraction"], "sources": ["osm"]}, "geometry": {"type": "Point", "coordinates": [-122.2964044, 47.5178329]}}, {"type": "Feature", "properties": {"id": "08c8c466-0716-4ade-871b-09002501a0fc", "name": "The Red Barn at Museum of Flight", "category": "museum", "tags": ["museum"], "sources": ["overture"], "phone": "+12067645700"}, "geometry": {"type": "Point", "coordinates": [-122.2967834, 47.5184822]}}, {"type": "Feature", "properties": {"id": "5c8c752b-d33e-40f6-9dd0-7cc53fcd465f", "name": "Boeing Airplane Company Building No. 105", "category": "museum", "tags": ["museum"], "sources": ["overture"], "website": "http://pdfhost.focus.nps.gov/docs/NRHP/Text/71000872.pdf"}, "geometry": {"type": "Point", "coordinates": [-122.2964783, 47.5182877]}}, {"type": "Feature", "properties": {"id": "b348a6aa-5e4b-4a8f-bb3e-dbee421b5eb1", "name": "Muesum Of Flight", "category": "museum", "tags": ["museum", "history"], "sources": ["overture"]}, "geometry": {"type": "Point", "coordinates": [-122.2991943, 47.5193138]}}, {"type": "Feature", "properties": {"id": "32fc3aff-bcb0-43d1-9301-3c6b42265bcb", "name": "Space Shuttle Full Fuselage Trainer", "category": "attraction", "tags": ["attraction", "landmark", "historical", "building"], "sources": ["overture"], "website": "http://www.museumofflight.org", "phone": "(206) 764-5720", "address": "9404 E Marginal Way S"}, "geometry": {"type": "Point", "coordinates": [-122.2990341, 47.5192451]}}, {"type": "Feature", "properties": {"id": "8910f2cf-efdf-455e-8fcb-e09ed7c195ed", "name": "Museum of Flight Gift Shop", "category": "gift", "tags": ["gift"], "sources": ["overture"], "website": "http://www.museumofflight.org", "phone": "(206) 764-5720", "address": "9404 E Marginal Way S"}, "geometry": {"type": "Point", "coordinates": [-122.2965546, 47.5185127]}}, {"type": "Feature", "properties": {"id": "74365087-54b8-43fd-87c9-0736073c0cf8", "name": "Harl V Brackin Library", "category": "library", "tags": ["library"], "sources": ["overture"], "website": "https://www.museumofflight.org/education/explore-programs", "phone": "12067645720", "address": "9404 E Marginal Way S"}, "geometry": {"type": "Point", "coordinates": [-122.2963409, 47.5181808]}}]}