{"type": "FeatureCollection", "features": [{"type": "Feature", "properties": {"id": "98cb703a-a364-4d83-b04c-4a44bd4543b2", "name": "Twin Ponds Park", "category": "park", "tags": ["park"], "sources": ["overture"], "website": "http://cosweb.ci.shoreline.wa.us/uploads/attachments/par/webparks/twinponds.htm", "phone": "+12068012600", "address": "16501 N 155th St"}, "geometry": {"type": "Point", "coordinates": [-122.3301926, 47.7404327]}}, {"type": "Feature", "properties": {"id": 716831296, "name": "Mark F. McLaughlin Memorial Park", "category": "park", "tags": ["park"], "sources": ["osm"]}, "geometry": {"type": "Point", "coordinates": [-122.3326111, 47.7477223]}}, {"type": "Feature", "properties": {"id": "ed3bfc5c-70c3-428b-bd63-1ec2b704b1c3", "name": "Ymca Transitions", "category": "fitness_centre", "tags": ["fitness-centre", "gym"], "sources": ["overture"], "website": "http://www.ymca.com/", "phone": "+12063672606", "address": "15538 Meridian Ave N"}, "geometry": {"type": "Point", "coordinates": [-122.3338699, 47.7424622]}}]}