{"type": "FeatureCollection", "features": [{"type": "Feature", "properties": {"id": "d96a0d2f-b6e0-45c8-b2c1-d122b1669a09", "name": "Fairway Apartments", "category": "attraction", "tags": ["attraction", "landmark", "historical", "building"], "sources": ["overture"], "website": "http://www.apartmentguide.com/property/property.asp?wsv_pspr%2F", "phone": "+14253539033", "address": "7306-7312 208th St SW"}, "geometry": {"type": "Point", "coordinates": [-122.3318481, 47.8100128]}}, {"type": "Feature", "properties": {"id": "c4a7598a-597f-41e9-a686-861e1286b548", "name": "Candy Park, Lynnwood, Washington", "category": "park", "tags": ["park"], "sources": ["overture"]}, "geometry": {"type": "Point", "coordinates": [-122.3321838, 47.8150444]}}, {"type": "Feature", "properties": {"id": "53304a12-add6-48d7-bb8d-958101f21949", "name": "Roxy Glass", "category": "doityourself", "tags": ["doityourself", "building", "supply"], "sources": ["overture"], "website": "https://www.roxyglassllc.com", "phone": "(425) 967-7049", "address": "7615 206th St SW"}, "geometry": {"type": "Point", "coordinates": [-122.3369675, 47.8125725]}}]}