{"type": "FeatureCollection", "features": [{"type": "Feature", "properties": {"id": 6110149276, "name": "Pizza Time", "category": "restaurant", "tags": ["restaurant", "pizza", "indoor-seating", "takeaway", "wheelchair-accessible", "air-conditioned", "italian"], "sources": ["osm", "overture"], "website": "http://seatacpizzatime.com/", "phone": "+12068244122", "address": "20010 International Blvd", "hours": "Mo-Su 10:00-21:30", "stations": [{"stopCode": 65, "lines": "1", "name": "Angle Lake Station", "walkingMeters": 166, "walkingSeconds": 121, "band": 5}]}, "geometry": {"type": "Point", "coordinates": [-122.295842, 47.4222784]}}, {"type": "Feature", "properties": {"id": 4639914094, "name": "Taqueria Jacarandas", "category": "restaurant", "tags": ["restaurant", "mexican", "taco", "latin-american"], "sources": ["osm", "overture"], "website": "https://www.tjmexicanfood.com/", "phone": "+12068241263", "address": "20034 International Blvd", "stations": [{"stopCode": 65, "lines": "1", "name": "Angle Lake Station", "walkingMeters": 232, "walkingSeconds": 168, "band": 5}]}, "geometry": {"type": "Point", "coordinates": [-122.2961694, 47.4215713]}}, {"type": "Feature", "properties": {"id": 436819533, "name": "Bob's Burgers", "category": "restaurant", "tags": ["restaurant", "burger", "indoor-seating", "wheelchair-accessible", "vegetarian", "air-conditioned", "fast-food", "american"], "sources": ["osm", "overture"], "website": "http://bobsburgersandteriyaki.com/", "phone": "+12068243234", "address": "20054 International Blvd", "stations": [{"stopCode": 65, "lines": "1", "name": "Angle Lake Station", "walkingMeters": 302, "walkingSeconds": 219, "band": 5}]}, "geometry": {"type": "Point", "coordinates": [-122.2961155, 47.420939]}}, {"type": "Feature", "properties": {"id": 647240520, "name": "Las Palmas", "category": "restaurant", "tags": ["restaurant", "mexican"], "sources": ["osm"], "address": "19840 International Boulevard", "stations": [{"stopCode": 65, "lines": "1", "name": "Angle Lake Station", "walkingMeters": 252, "walkingSeconds": 183, "band": 5}]}, "geometry": {"type": "Point", "coordinates": [-122.2956945, 47.42339]}}, {"type": "Feature", "properties": {"id": "a66c8f72-6030-4fea-8bed-984ad415ce8d", "name": "Las Palmas Restaurant", "category": "restaurant", "tags": ["restaurant", "mexican", "latin-american"], "sources": ["overture"], "website": "http://www.lapalma-mexican-restaurant.com/", "phone": "+12068788469", "address": "19840 International Blvd", "stations": [{"stopCode": 65, "lines": "1", "name": "Angle Lake Station", "walkingMeters": 204, "walkingSeconds": 148, "band": 5}]}, "geometry": {"type": "Point", "coordinates": [-122.295784, 47.4233284]}}, {"type": "Feature", "properties": {"id": "72351d46-06d1-4094-8942-481555c7f42b", "name": "Las Delicias Panaderia y Antojitos", "category": "bakery", "tags": ["bakery"], "sources": ["overture"], "website": "http://las-y-antojitos.lany.io", "phone": "+12064292306", "address": "20028 International Blvd", "stations": [{"stopCode": 65, "lines": "1", "name": "Angle Lake Station", "walkingMeters": 198, "walkingSeconds": 148, "band": 5}]}, "geometry": {"type": "Point", "coordinates": [-122.2962494, 47.4217567]}}, {"type": "Feature", "properties": {"id": 8493260089, "name": "Cloud", "category": "artwork", "tags": ["artwork"], "sources": ["osm"], "stations": [{"stopCode": 65, "lines": "1", "name": "Angle Lake Station", "walkingMeters": 10, "walkingSeconds": 7, "band": 5}]}, "geometry": {"type": "Point", "coordinates": [-122.297803, 47.4227185]}}, {"type": "Feature", "properties": {"id": 8639160423, "name": "Immerse", "category": "artwork", "tags": ["artwork"], "sources": ["osm"], "website": "https://www.jillanholt.ca/filter/completed/Immerse", "stations": [{"stopCode": 65, "lines": "1", "name": "Angle Lake Station", "walkingMeters": 102, "walkingSeconds": 73, "band": 5}]}, "geometry": {"type": "Point", "coordinates": [-122.2981095, 47.4230808]}}, {"type": "Feature", "properties": {"id": "0d101c68-9b43-4faa-9754-01846e53ec10", "name": "Amelia at Angle Lake", "category": "attraction", "tags": ["attraction", "landmark", "historical", "building"], "sources": ["overture"], "website": "https://www.ameliaseatac.com/?utm_source=businessprofile&utm_medium=search&utm_campaign=general", "phone": "+18337196721", "address": "2929 S 200th St", "stations": [{"stopCode": 65, "lines": "1", "name": "Angle Lake Station", "walkingMeters": 207, "walkingSeconds": 150, "band": 5}]}, "geometry": {"type": "Point", "coordinates": [-122.2951126, 47.4225044]}}, {"type": "Feature", "properties": {"id": "cd8542e9-8e14-4981-8ee7-48207b2a63ca", "name": "Landing at Angle Lake", "category": "attraction", "tags": ["attraction", "landmark", "historical", "building"], "sources": ["overture"], "website": "https://www.pacificaresidential-landingatanglelake.com/?rcstdid=MTE%3D-aKFOxiSL8lQ%3D", "phone": "+18445404001", "address": "19800 International Blvd A101", "stations": [{"stopCode": 65, "lines": "1", "name": "Angle Lake Station", "walkingMeters": 353, "walkingSeconds": 256, "band": 5}]}, "geometry": {"type": "Point", "coordinates": [-122.2957001, 47.4245605]}}, {"type": "Feature", "properties": {"id": 250692222, "name": "Angle Lake Park", "category": "park", "tags": ["park"], "sources": ["osm", "overture"], "website": "http://www.ci.seatac.wa.us/index.aspx?page=144", "phone": "+12069734680", "address": "19408 International Blvd", "stations": [{"stopCode": 65, "lines": "1", "name": "Angle Lake Station", "walkingMeters": 834, "walkingSeconds": 602, "band": 10}]}, "geometry": {"type": "Point", "coordinates": [-122.2937983, 47.4281317]}}, {"type": "Feature", "properties": {"id": 436593735, "name": "Angle Lake Spray Park", "category": "playground", "tags": ["playground"], "sources": ["osm"], "stations": [{"stopCode": 65, "lines": "1", "name": "Angle Lake Station", "walkingMeters": 794, "walkingSeconds": 574, "band": 10}]}, "geometry": {"type": "Point", "coordinates": [-122.2945907, 47.4283432]}}, {"type": "Feature", "properties": {"id": "368eb77e-e6dc-4539-ad97-26f91b8a7f21", "name": "Comfort Inn & Suites", "category": "hotel", "tags": ["hotel"], "sources": ["overture"], "website": "https://www.choicehotels.com/washington/seatac/comfort-inn-hotels/wa403", "phone": "+12068781100", "address": "19333 International Blvd", "stations": [{"stopCode": 65, "lines": "1", "name": "Angle Lake Station", "walkingMeters": 838, "walkingSeconds": 605, "band": 10}]}, "geometry": {"type": "Point", "coordinates": [-122.2961884, 47.4291267]}}, {"type": "Feature", "properties": {"id": 647240178, "name": "Holiday Inn Express & Suites Seattle-Sea-Tac Airport", "category": "hotel", "tags": ["hotel", "wheelchair-accessible", "wifi"], "sources": ["osm"], "website": "https://www.ihg.com/holidayinnexpress/hotels/us/en/seatac/seaib/hoteldetail", "phone": "+1-206-824-3200", "address": "19621 International Boulevard", "stations": [{"stopCode": 65, "lines": "1", "name": "Angle Lake Station", "walkingMeters": 482, "walkingSeconds": 348, "band": 10}]}, "geometry": {"type": "Point", "coordinates": [-122.2968445, 47.4264]}}, {"type": "Feature", "properties": {"id": 647240250, "name": "Comfort Inn & Suites - Sea-Tac Airport", "category": "hotel", "tags": ["hotel", "wifi"], "sources": ["osm"], "website": "https://www.choicehotels.com/washington/seatac/comfort-inn-hotels/wa403", "phone": "+1-206-878-1100", "address": "19333 International Boulevard", "stations": [{"stopCode": 65, "lines": "1", "name": "Angle Lake Station", "walkingMeters": 844, "walkingSeconds": 610, "band": 10}]}, "geometry": {"type": "Point", "coordinates": [-122.2963085, 47.429143]}}, {"type": "Feature", "properties": {"id": 647240326, "name": "Fairfield Inn - Seattle/Sea-Tac", "category": "hotel", "tags": ["hotel"], "sources": ["osm"], "website": "https://www.marriott.com/en-us/hotels/seata-fairfield-inn-and-suites-seattle-sea-tac-airport/overview/", "phone": "+1-206-824-9909", "address": "19631 International Boulevard", "stations": [{"stopCode": 65, "lines": "1", "name": "Angle Lake Station", "walkingMeters": 461, "walkingSeconds": 332, "band": 5}]}, "geometry": {"type": "Point", "coordinates": [-122.29703, 47.4257695]}}, {"type": "Feature", "properties": {"id": 647240488, "name": "Hampton Inn Seattle-Airport", "category": "hotel", "tags": ["hotel", "wheelchair-accessible", "wifi"], "sources": ["osm", "overture"], "website": "https://www.hilton.com/en/hotels/seasthx-hampton-seattle-airport/", "phone": "+12068781700", "address": "19445 International Blvd", "stations": [{"stopCode": 65, "lines": "1", "name": "Angle Lake Station", "walkingMeters": 756, "walkingSeconds": 546, "band": 10}]}, "geometry": {"type": "Point", "coordinates": [-122.2969495, 47.428166]}}, {"type": "Feature", "properties": {"id": 651628116, "name": "Skyway Inn Hotel", "category": "hotel", "tags": ["hotel"], "sources": ["osm"], "phone": "+1-206-878-3310", "address": "20045 International Boulevard", "stations": [{"stopCode": 65, "lines": "1", "name": "Angle Lake Station", "walkingMeters": 281, "walkingSeconds": 204, "band": 5}]}, "geometry": {"type": "Point", "coordinates": [-122.2970816, 47.4210474]}}, {"type": "Feature", "properties": {"id": 660408712, "name": "Residence Inn Seattle Sea-Tac Airport", "category": "hotel", "tags": ["hotel", "dog-friendly", "wifi"], "sources": ["osm", "overture"], "website": "https://www.marriott.com/en-us/hotels/seara-residence-inn-seattle-sea-tac-airport/overview/?scid=d2406702-e8ea-4b45-bb9b-69cddaaef03d", "phone": "+12068786188", "address": "19608 International Blvd", "stations": [{"stopCode": 65, "lines": "1", "name": "Angle Lake Station", "walkingMeters": 522, "walkingSeconds": 378, "band": 10}]}, "geometry": {"type": "Point", "coordinates": [-122.2951839, 47.426131]}}, {"type": "Feature", "properties": {"id": "df6d6f82-b9b2-44dd-a5fd-1c935e59c2c4", "name": "Skyway Inn and Airport Parking", "category": "hotel", "tags": ["hotel"], "sources": ["overture"], "website": "http://www.skywayinnseattle.com/", "phone": "+12062421777", "address": "20045 International Blvd", "stations": [{"stopCode": 65, "lines": "1", "name": "Angle Lake Station", "walkingMeters": 192, "walkingSeconds": 140, "band": 5}]}, "geometry": {"type": "Point", "coordinates": [-122.2972412, 47.4211464]}}, {"type": "Feature", "properties": {"id": "73b108a3-75d0-4452-ac7a-3501b4a5f305", "name": "Fairfield by Marriott Inn & Suites Seattle Sea-Tac Airport", "category": "hotel", "tags": ["hotel"], "sources": ["overture"], "website": "https://www.marriott.com/en-us/hotels/seata-fairfield-inn-and-suites-seattle-sea-tac-airport/overview/?scid=d2406702-e8ea-4b45-bb9b-69cddaaef03d", "phone": "+12068249909", "address": "19631 International Blvd", "stations": [{"stopCode": 65, "lines": "1", "name": "Angle Lake Station", "walkingMeters": 453, "walkingSeconds": 328, "band": 5}]}, "geometry": {"type": "Point", "coordinates": [-122.297081, 47.4257584]}}, {"type": "Feature", "properties": {"id": "ffbe5051-3f40-4799-b111-63ab250cafdf", "name": "Holiday Inn Express & Suites Seattle-Sea-Tac Airport by IHG", "category": "hotel", "tags": ["hotel"], "sources": ["overture"], "website": "https://www.ihg.com/holidayinnexpress/hotels/us/en/seatac/seaib/hoteldetail?cm_mmc=FacebookMaps-_-EX-_-US-_-SEAIB", "phone": "+12068243200", "address": "19621 International Blvd", "stations": [{"stopCode": 65, "lines": "1", "name": "Angle Lake Station", "walkingMeters": 540, "walkingSeconds": 403, "band": 10}]}, "geometry": {"type": "Point", "coordinates": [-122.2967911, 47.4263878]}}, {"type": "Feature", "properties": {"id": "cb5fe12c-8cc7-4867-8938-5df32cde767c", "name": "Hampton by Hilton", "category": "hotel", "tags": ["hotel"], "sources": ["overture"], "website": "https://www.choicehotels.com/washington/seatac/comfort-inn-hotels/wa403?mc=llyxyxpx", "phone": "(206) 878-1100", "address": "19333 International Blvd", "stations": [{"stopCode": 65, "lines": "1", "name": "Angle Lake Station", "walkingMeters": 844, "walkingSeconds": 610, "band": 10}]}, "geometry": {"type": "Point", "coordinates": [-122.2963181, 47.4290543]}}, {"type": "Feature", "properties": {"id": "b72b5dec-239b-470c-a9dc-1d6df3255ec3", "name": "SureStay Plus by Best Western SeaTac Airport", "category": "hotel", "tags": ["hotel"], "sources": ["overture"], "website": "https://www.bestwestern.com/en_US/book/hotel-rooms.52107.html?iata=90000018&ssob=BLSSH0003G&cid=BLSSH0003G%3Ayext%3Awebsite%3A52107", "phone": "+12066709755", "address": "19260 28th Ave S", "stations": [{"stopCode": 65, "lines": "1", "name": "Angle Lake Station", "walkingMeters": 815, "walkingSeconds": 587, "band": 10}]}, "geometry": {"type": "Point", "coordinates": [-122.2974091, 47.4293938]}}, {"type": "Feature", "properties": {"id": 276667528, "name": "7-Eleven", "category": "convenience", "tags": ["convenience", "wheelchair-accessible"], "sources": ["osm", "overture"], "website": "https://www.7-eleven.com/", "phone": "+12067436959", "address": "20008 International Blvd", "hours": "24/7", "stations": [{"stopCode": 65, "lines": "1", "name": "Angle Lake Station", "walkingMeters": 159, "walkingSeconds": 116, "band": 5}]}, "geometry": {"type": "Point", "coordinates": [-122.2957474, 47.4223926]}}, {"type": "Feature", "properties": {"id": 647239251, "name": "Food Mart", "category": "convenience", "tags": ["convenience"], "sources": ["osm", "overture"], "phone": "+12068241902", "address": "19924 International Blvd", "stations": [{"stopCode": 65, "lines": "1", "name": "Angle Lake Station", "walkingMeters": 191, "walkingSeconds": 143, "band": 5}]}, "geometry": {"type": "Point", "coordinates": [-122.2957386, 47.4230125]}}, {"type": "Feature", "properties": {"id": 647240241, "name": "ExtraMile", "category": "convenience", "tags": ["convenience"], "sources": ["osm", "overture"], "website": "https://www.chevronextramile.com", "phone": "+12068248893", "address": "19923 International Blvd", "stations": [{"stopCode": 65, "lines": "1", "name": "Angle Lake Station", "walkingMeters": 108, "walkingSeconds": 80, "band": 5}]}, "geometry": {"type": "Point", "coordinates": [-122.2970851, 47.423159]}}, {"type": "Feature", "properties": {"id": 6110149234, "name": "All Star Grocery", "category": "convenience", "tags": ["convenience"], "sources": ["osm"], "address": "2825 South 200th Street", "stations": [{"stopCode": 65, "lines": "1", "name": "Angle Lake Station", "walkingMeters": 84, "walkingSeconds": 63, "band": 5}]}, "geometry": {"type": "Point", "coordinates": [-122.29713, 47.422395]}}, {"type": "Feature", "properties": {"id": "da35c090-d774-4f0e-94d6-182574b77720", "name": "Still Smokin", "category": "tobacco", "tags": ["tobacco"], "sources": ["overture"], "website": "http://www.stillsmokin.com", "phone": "(206) 878-0131", "address": "20028 International Blvd", "stations": [{"stopCode": 65, "lines": "1", "name": "Angle Lake Station", "walkingMeters": 223, "walkingSeconds": 162, "band": 5}]}, "geometry": {"type": "Point", "coordinates": [-122.2960281, 47.4217033]}}, {"type": "Feature", "properties": {"id": "be8a4be2-8c9a-4626-b6e4-e83c2008f35d", "name": "Al Shukr Mini Market And Bakery", "category": "supermarket", "tags": ["supermarket"], "sources": ["overture"], "address": "2823 S 200th St", "stations": [{"stopCode": 65, "lines": "1", "name": "Angle Lake Station", "walkingMeters": 64, "walkingSeconds": 48, "band": 5}]}, "geometry": {"type": "Point", "coordinates": [-122.2972565, 47.42239]}}, {"type": "Feature", "properties": {"id": "89e96601-f978-4466-8a7d-90cba7393509", "name": "Party's Over", "category": "clothes", "tags": ["clothes", "womens"], "sources": ["overture"], "phone": "+19167161932", "address": "19714 International Blvd", "stations": [{"stopCode": 65, "lines": "1", "name": "Angle Lake Station", "walkingMeters": 431, "walkingSeconds": 322, "band": 5}]}, "geometry": {"type": "Point", "coordinates": [-122.2954025, 47.4252434]}}]}