{"type": "FeatureCollection", "features": [{"type": "Feature", "properties": {"id": "69c1f206-4acb-42ce-a5b5-c9ae53cc1fd7", "name": "Wendy\u2019s", "category": "fast_food", "tags": ["fast-food", "fast", "food"], "sources": ["overture"], "website": "https://www.wendys.com", "phone": "(425) 235-8570", "address": "555 S Renton Village Pl"}, "geometry": {"type": "Point", "coordinates": [-122.2113037, 47.4690475]}}, {"type": "Feature", "properties": {"id": 222343223, "name": "Hilton Garden Inn", "category": "hotel", "tags": ["hotel"], "sources": ["osm"], "website": "https://www.hilton.com/en/hotels/searhgi-hilton-garden-inn-seattle-renton/", "phone": "+1-425-430-1414", "address": "1801 East Valley Road"}, "geometry": {"type": "Point", "coordinates": [-122.2195398, 47.4631483]}}, {"type": "Feature", "properties": {"id": 654885075, "name": "Larkspur Landing", "category": "hotel", "tags": ["hotel"], "sources": ["osm"], "address": "1701 East Valley Road"}, "geometry": {"type": "Point", "coordinates": [-122.2196381, 47.464068]}}, {"type": "Feature", "properties": {"id": "da303228-2d81-4eb2-a5df-3c805076e59c", "name": "Hilton Garden Inn Seattle/Renton", "category": "hotel", "tags": ["hotel"], "sources": ["overture"], "website": "http://hiltongardeninn3.hilton.com/en/hotels/washington/hilton-garden-inn-seattle-renton-SEARHGI/index.html", "phone": "+14254301414", "address": "1801 E Valley Rd"}, "geometry": {"type": "Point", "coordinates": [-122.2195206, 47.46315]}}, {"type": "Feature", "properties": {"id": "b20cd2f9-440c-47dc-8f82-70b40a7c0993", "name": "Larkspur Landing Extended Stay Suites Renton", "category": "hotel", "tags": ["hotel"], "sources": ["overture"], "website": "https://www.larkspurhotels.com/renton/", "phone": "+14252351212", "address": "1701 E Valley Rd"}, "geometry": {"type": "Point", "coordinates": [-122.2196274, 47.4641342]}}, {"type": "Feature", "properties": {"id": 191509621, "name": "Uwajimaya", "category": "supermarket", "tags": ["supermarket", "wheelchair-accessible"], "sources": ["osm"], "website": "https://www.uwajimaya.com/", "phone": "+1-425-277-1635", "address": "501 South Grady Way", "hours": "09:00-21:00"}, "geometry": {"type": "Point", "coordinates": [-122.2122397, 47.469859]}}, {"type": "Feature", "properties": {"id": "c0983e4f-e678-481b-8b7c-1a6c52761145", "name": "Uwajimaya Renton", "category": "supermarket", "tags": ["supermarket"], "sources": ["overture"], "website": "http://www.uwajimaya.com/", "phone": "+14252771635", "address": "501 S Grady Way"}, "geometry": {"type": "Point", "coordinates": [-122.2122803, 47.469986]}}, {"type": "Feature", "properties": {"id": 9885546471, "name": "Passport Health Renton Travel Clinic", "category": "clinic", "tags": ["clinic"], "sources": ["osm"], "address": "15 S Grady Way"}, "geometry": {"type": "Point", "coordinates": [-122.2154922, 47.4693209]}}, {"type": "Feature", "properties": {"id": "ef8e3a4c-e17e-4cde-8d83-c52d01a4f6fd", "name": "Hospital & Health Care Employees Union 1199 Northwest", "category": "hospital", "tags": ["hospital"], "sources": ["overture"], "website": "http://www.seiu1199nw.org", "phone": "+14259171199", "address": "15 S Grady Way"}, "geometry": {"type": "Point", "coordinates": [-122.2153931, 47.4695435]}}, {"type": "Feature", "properties": {"id": "e8aae113-825b-4242-bc6c-00f98c60bfdd", "name": "Bank of America", "category": "bank", "tags": ["bank", "credit", "union"], "sources": ["overture"], "website": "http://www.bankofamerica.com", "phone": "+14259819925", "address": "15 S Grady Way"}, "geometry": {"type": "Point", "coordinates": [-122.2191391, 47.4650764]}}, {"type": "Feature", "properties": {"id": "e872d506-0fe4-41cd-b53b-cc50d6d9d3db", "name": "Bank of America Mortgage", "category": "bank", "tags": ["bank", "credit", "union"], "sources": ["overture"], "phone": "4259819925", "address": "15 S Grady Way Ste 120"}, "geometry": {"type": "Point", "coordinates": [-122.2153397, 47.4692574]}}, {"type": "Feature", "properties": {"id": "e15edad8-5a73-4c21-ae07-2ae6e0aa749d", "name": "Viniyoga Seattle", "category": "fitness_centre", "tags": ["fitness-centre", "yoga", "studio"], "sources": ["overture"], "website": "http://viniyogaseattlewa.com/", "phone": "+14252078947", "address": "15 S Grady Way Ste 251"}, "geometry": {"type": "Point", "coordinates": [-122.2155075, 47.4691849]}}, {"type": "Feature", "properties": {"id": "2f4a0097-faff-4df0-9168-e22c18af142a", "name": "Wynn Fitt Llc", "category": "fitness_centre", "tags": ["fitness-centre", "gym"], "sources": ["overture"], "address": "55 SW 12th St"}, "geometry": {"type": "Point", "coordinates": [-122.2184219, 47.4696007]}}]}