{"type": "FeatureCollection", "features": [{"type": "Feature", "properties": {"id": 10690035300, "name": "Copperleaf Restaurant", "category": "restaurant", "tags": ["restaurant"], "sources": ["osm"], "phone": "+1-206-901-9268", "address": "18525 36th Avenue South"}, "geometry": {"type": "Point", "coordinates": [-122.2877014, 47.437472]}}, {"type": "Feature", "properties": {"id": "91b57f6f-b39e-4d5f-b5ea-ca9d46de99b6", "name": "Copperleaf Restaurant & Bar", "category": "restaurant", "tags": ["restaurant", "bar-and-grill", "bar", "grill", "american"], "sources": ["overture"], "website": "http://www.cedarbrooklodge.com", "phone": "+12062144282", "address": "18525 36th Ave S"}, "geometry": {"type": "Point", "coordinates": [-122.2876358, 47.4373207]}}, {"type": "Feature", "properties": {"id": "e645acbb-7358-4777-a1ab-aa03fa6f6e31", "name": "Pacific Ocean", "category": "attraction", "tags": ["attraction", "landmark", "historical", "building"], "sources": ["overture"]}, "geometry": {"type": "Point", "coordinates": [-122.2878952, 47.4369926]}}, {"type": "Feature", "properties": {"id": "09636d62-3d63-4dc4-b0e6-c31c86e61002", "name": "Anglelake Court Apartments", "category": "attraction", "tags": ["attraction", "landmark", "historical", "building"], "sources": ["overture"], "website": "http://www.lcsnw.org/seatac/seniorhousing.html", "phone": "+12069885916", "address": "4010 S 188th St #124"}, "geometry": {"type": "Point", "coordinates": [-122.2837982, 47.4346313]}}, {"type": "Feature", "properties": {"id": 647214562, "name": "Cedarbrook Lodge", "category": "hotel", "tags": ["hotel"], "sources": ["osm"], "website": "https://www.cedarbrooklodge.com/en-us/", "phone": "+1-206-901-9268;+1-877-515-2176", "address": "18525 36th Avenue South"}, "geometry": {"type": "Point", "coordinates": [-122.2876565, 47.4373967]}}, {"type": "Feature", "properties": {"id": "40807688-c094-495d-9445-1dd6b32861bd", "name": "Total Wine & More", "category": "alcohol", "tags": ["alcohol"], "sources": ["overture"], "website": "https://www.totalwine.com", "phone": "(206) 575-6280", "address": "2701 S 184TH St"}, "geometry": {"type": "Point", "coordinates": [-122.2892532, 47.4381599]}}, {"type": "Feature", "properties": {"id": "9dcaca43-954d-42cd-8cd5-bdb56c2fe114", "name": "HealthPoint SeaTac Pharmacy", "category": "pharmacy", "tags": ["pharmacy"], "sources": ["overture"], "website": "http://www.healthpointchc.org", "phone": "+18772330246", "address": "4040 S 188th St #201"}, "geometry": {"type": "Point", "coordinates": [-122.282486, 47.4347649]}}, {"type": "Feature", "properties": {"id": 647239368, "name": "Matt Griffin YMCA", "category": "sports_centre", "tags": ["sports-centre"], "sources": ["osm"], "address": "3595 South 188th Street"}, "geometry": {"type": "Point", "coordinates": [-122.2882835, 47.4337355]}}]}