{"type": "FeatureCollection", "features": [{"type": "Feature", "properties": {"id": 7127077398, "name": "Starbucks", "category": "cafe", "tags": ["cafe", "coffee-shop", "indoor-seating", "takeaway"], "sources": ["osm"], "website": "https://www.starbucks.com/store-locator/store/20036/safeway-seattle-1993-2201-e-madison-seattle-wa-981125336-us", "phone": "+1-206-494-1518", "address": "2201 East Madison"}, "geometry": {"type": "Point", "coordinates": [-122.3037961, 47.6180642]}}, {"type": "Feature", "properties": {"id": 6728320223, "name": "Papa John's", "category": "fast_food", "tags": ["fast-food", "pizza", "takeaway"], "sources": ["osm"], "address": "2116 East Denny Way", "hours": "Su-Th 10:00-24:00, Fr,Sa 10:00-01:00"}, "geometry": {"type": "Point", "coordinates": [-122.304214, 47.6182798]}}, {"type": "Feature", "properties": {"id": 1766985963, "name": "Katy's Corner Cafe", "category": "cafe", "tags": ["cafe", "coffee-shop", "outdoor-seating", "wheelchair-accessible", "breakfast-and-brunch"], "sources": ["osm", "overture"], "website": "https://www.katyscornercafe.com/", "phone": "+12063290121", "address": "2000 E Union St", "hours": "Mo-Sa 06:30-15:00; Su 08:00-15:00"}, "geometry": {"type": "Point", "coordinates": [-122.3060798, 47.6130546]}}, {"type": "Feature", "properties": {"id": 1766985977, "name": "CommuniTea Kombucha", "category": "cafe", "tags": ["cafe", "bar", "brewery"], "sources": ["osm", "overture"], "website": "https://www.communitea-kombucha.com", "phone": "12064206302", "address": "1409 21st Ave", "hours": "Mo,Fr 10:00-20:00; Tu-We 15:00-20:00; Th 16:30-20:00; Sa-Su off"}, "geometry": {"type": "Point", "coordinates": [-122.3051153, 47.6131561]}}, {"type": "Feature", "properties": {"id": 11938876909, "name": "Avole", "category": "cafe", "tags": ["cafe"], "sources": ["osm"], "address": "2330 East Union Street", "hours": "Mo-Fr 06:00-18:00; Sa 08:00-18:00; Su 08:00-16:00"}, "geometry": {"type": "Point", "coordinates": [-122.3017779, 47.6131079]}}, {"type": "Feature", "properties": {"id": 2375132080, "name": "Alexandra\u2019s Macarons", "category": "cafe", "tags": ["cafe", "macarons"], "sources": ["osm"], "website": "https://alexandrasmacarons.com", "phone": "+1-206-518-3895", "address": "1410 18th Avenue", "hours": "Fr 17:00-20:00; Sa-Su 08:00-14:00"}, "geometry": {"type": "Point", "coordinates": [-122.308691, 47.6132641]}}, {"type": "Feature", "properties": {"id": 2384439972, "name": "The BottleNeck Lounge", "category": "bar", "tags": ["bar", "indoor-seating"], "sources": ["osm", "overture"], "website": "http://www.bottlenecklounge.com/", "phone": "+12063231098", "address": "2328 E Madison St", "hours": "Mo-Su 16:00-02:00"}, "geometry": {"type": "Point", "coordinates": [-122.3016, 47.6199858]}}, {"type": "Feature", "properties": {"id": 5980329485, "name": "Tacos Chukis", "category": "restaurant", "tags": ["restaurant", "mexican", "wheelchair-accessible", "vegetarian", "vegan", "taco"], "sources": ["osm", "overture"], "website": "http://www.seattlechukis.com", "phone": "(206) 973-7994", "address": "2215 E Union St", "hours": "Mo-Su 11:00-21:00"}, "geometry": {"type": "Point", "coordinates": [-122.302989, 47.6127817]}}, {"type": "Feature", "properties": {"id": 3334425795, "name": "Bequest Coffee Co", "category": "cafe", "tags": ["cafe", "coffee-shop", "indoor-seating"], "sources": ["osm"], "website": "https://www.bequestcoffee.com", "address": "2200 East Madison Street", "hours": "Mo-Sa 07:00-15:00; Su 08:00-15:00"}, "geometry": {"type": "Point", "coordinates": [-122.303454, 47.6187802]}}, {"type": "Feature", "properties": {"id": 4281483342, "name": "El Coste\u00f1o", "category": "fast_food", "tags": ["fast-food", "mexican"], "sources": ["osm"]}, "geometry": {"type": "Point", "coordinates": [-122.305127, 47.6127753]}}, {"type": "Feature", "properties": {"id": 4281483343, "name": "Adey Abeba", "category": "restaurant", "tags": ["restaurant", "ethiopian", "takeaway", "vegetarian", "vegan"], "sources": ["osm"], "website": "https://adeyabeba.net/", "phone": "+1-206-322-1617", "address": "2123 East Union Street", "hours": "Mo-Sa 11:00-23:00"}, "geometry": {"type": "Point", "coordinates": [-122.3038368, 47.6127907]}}, {"type": "Feature", "properties": {"id": 4856214545, "name": "Squirrel Chops", "category": "cafe", "tags": ["cafe", "coffee-shop", "outdoor-seating", "wheelchair-accessible", "wifi", "coffee"], "sources": ["osm", "overture"], "website": "http://www.squirrelchops.com/", "phone": "+12066599931", "address": "2201 E Union St", "hours": "Mo-Tu 07:30-14:00, We-Fr 07:30-17:00, Sa 08:00-17:00, Su 09:00-17:00"}, "geometry": {"type": "Point", "coordinates": [-122.303374, 47.6127835]}}, {"type": "Feature", "properties": {"id": 4867020928, "name": "Thud Suan Kitchen & Bar", "category": "restaurant", "tags": ["restaurant", "thai", "takeaway", "delivery"], "sources": ["osm"], "website": "https://thudsuanthai.com/", "phone": "+1-206-556-4849", "address": "1818 East Madison Street", "hours": "Mo-Fr 11:30-15:00,16:00-22:00; Sa 16:00-22:00; Su 16:00-21:30", "stations": [{"stopCode": 49, "lines": "1,2", "name": "Capitol Hill Station", "walkingMeters": 1178, "walkingSeconds": 846, "band": 15}]}, "geometry": {"type": "Point", "coordinates": [-122.307612, 47.6168326]}}, {"type": "Feature", "properties": {"id": 5731571425, "name": "Kin Dee", "category": "restaurant", "tags": ["restaurant", "thai", "asian"], "sources": ["osm", "overture"], "website": "https://www.kindeeseattle.com/", "phone": "+12064535514", "address": "2301 E Madison St", "hours": "Tu-Th 12:00-21:00; Fr-Sa 12:00-22:00; Su 12:00-21:00"}, "geometry": {"type": "Point", "coordinates": [-122.302419, 47.6191297]}}, {"type": "Feature", "properties": {"id": 5724560022, "name": "Raised Doughnuts", "category": "cafe", "tags": ["cafe", "donut"], "sources": ["osm"], "website": "https://www.raiseddoughnuts.com", "phone": "+1-206-420-4077", "address": "2301 East Union Street"}, "geometry": {"type": "Point", "coordinates": [-122.3016849, 47.6127679]}}, {"type": "Feature", "properties": {"id": 6512342053, "name": "Feed Co. Burgers", "category": "fast_food", "tags": ["fast-food", "burger", "outdoor-seating", "takeaway", "wheelchair-accessible", "restaurant", "american"], "sources": ["osm", "overture"], "website": "https://feedcoburgers.com/", "phone": "+12067266000", "address": "1190 24th Ave", "hours": "11:00-21:00"}, "geometry": {"type": "Point", "coordinates": [-122.3012356, 47.6127674]}}, {"type": "Feature", "properties": {"id": 6887188997, "name": "Push x Pull", "category": "cafe", "tags": ["cafe", "coffee-shop", "outdoor-seating", "air-conditioned", "wifi"], "sources": ["osm"], "website": "https://pushxpullcoffee.com/pages/locations", "address": "2407 East Union Street", "hours": "08:00-15:00"}, "geometry": {"type": "Point", "coordinates": [-122.3011069, 47.6128058]}}, {"type": "Feature", "properties": {"id": 8731020436, "name": "Communion", "category": "restaurant", "tags": ["restaurant", "regional", "wheelchair-accessible"], "sources": ["osm"], "website": "https://www.communionseattle.com", "address": "2350 East Union Street", "hours": "Mo-Tu off; We-Th 16:00-21:00; Fr-Sa 16:00-22:30; Su 10:00-21:00"}, "geometry": {"type": "Point", "coordinates": [-122.3016354, 47.6131269]}}, {"type": "Feature", "properties": {"id": 9064812764, "name": "El Gallito", "category": "restaurant", "tags": ["restaurant", "mexican", "indoor-seating", "wheelchair-accessible", "latin-american"], "sources": ["osm", "overture"], "website": "http://elgallitorestaurant.com", "phone": "+12063298088", "address": "1700 20th Ave", "hours": "Mo-Fr 11:30-20:00,Sa 12:00-20:00", "stations": [{"stopCode": 49, "lines": "1,2", "name": "Capitol Hill Station", "walkingMeters": 1255, "walkingSeconds": 903, "band": 15}]}, "geometry": {"type": "Point", "coordinates": [-122.3058853, 47.6175236]}}, {"type": "Feature", "properties": {"id": 10968249307, "name": "Jerk Shack Kitchen", "category": "restaurant", "tags": ["restaurant", "caribbean", "outdoor-seating", "takeaway", "wheelchair-accessible"], "sources": ["osm", "overture"], "website": "http://www.jerkshackseattle.com/", "phone": "+12068984085", "address": "1133 24th Ave Ste N"}, "geometry": {"type": "Point", "coordinates": [-122.3018794, 47.6124849]}}, {"type": "Feature", "properties": {"id": 228855978, "name": "Chuck's Hop Shop", "category": "pub", "tags": ["pub", "outdoor-seating", "wheelchair-accessible", "brewery", "bar", "beer"], "sources": ["osm", "overture"], "website": "https://www.chuckshopshop.com/central-district", "phone": "+12064853421", "address": "2001 E Union St", "hours": "Mo-Fr,Su 11:00-22:00; Sa 11:00-23:00"}, "geometry": {"type": "Point", "coordinates": [-122.3057621, 47.6127009]}}, {"type": "Feature", "properties": {"id": 11572185540, "name": "KB Espresso", "category": "cafe", "tags": ["cafe", "coffee-shop", "coffee", "theme"], "sources": ["osm", "overture"], "website": "http://kbespresso.com/", "phone": "+13607229024", "address": "1701 E Madison St", "hours": "Mo,Tu,Th,Fr 06:00-17:00; Sa-Su 07:00-14:00", "stations": [{"stopCode": 49, "lines": "1,2", "name": "Capitol Hill Station", "walkingMeters": 1147, "walkingSeconds": 824, "band": 15}]}, "geometry": {"type": "Point", "coordinates": [-122.3099952, 47.6154053]}}, {"type": "Feature", "properties": {"id": 11938876901, "name": "The Neighbor Lady", "category": "pub", "tags": ["pub", "outdoor-seating", "wheelchair-accessible"], "sources": ["osm"], "phone": "+1-206-235-0596", "address": "1133 24th Avenue"}, "geometry": {"type": "Point", "coordinates": [-122.3021762, 47.6121611]}}, {"type": "Feature", "properties": {"id": 11938876904, "name": "Marjorie", "category": "restaurant", "tags": ["restaurant"], "sources": ["osm"], "address": "1133 24th Avenue"}, "geometry": {"type": "Point", "coordinates": [-122.3018796, 47.6122351]}}, {"type": "Feature", "properties": {"id": 12786894083, "name": "Hyson Boba & Tea", "category": "cafe", "tags": ["cafe", "korean", "vietnamese", "indoor-seating", "takeaway", "wheelchair-accessible", "air-conditioned", "wifi"], "sources": ["osm"], "phone": "+1-206-653-5326", "address": "2207 East Madison Street", "hours": "09:00-20:30"}, "geometry": {"type": "Point", "coordinates": [-122.3038632, 47.6181372]}}, {"type": "Feature", "properties": {"id": 13204174202, "name": "Sebi's Kitchen", "category": "restaurant", "tags": ["restaurant", "polish", "caterer", "takeaway", "reservations", "wheelchair-accessible", "vegetarian"], "sources": ["osm"], "website": "https://sebiskitchen.com", "phone": "+1-425-772-7342", "address": "1714 18th Avenue", "hours": "Fr 05:00-09:00", "stations": [{"stopCode": 49, "lines": "1,2", "name": "Capitol Hill Station", "walkingMeters": 1084, "walkingSeconds": 778, "band": 15}]}, "geometry": {"type": "Point", "coordinates": [-122.3083793, 47.6169838]}}, {"type": "Feature", "properties": {"id": 14080874101, "name": "Saigon \u01a0i! - Viet Kitchen & Bar", "category": "restaurant", "tags": ["restaurant", "vietnamese", "vegetarian"], "sources": ["osm", "overture"], "website": "http://saigonoi-seattle.com", "phone": "(206) 928-7888", "address": "2106 E Madison St", "hours": "Tu-Su 11:00-22:00"}, "geometry": {"type": "Point", "coordinates": [-122.3041059, 47.6183066]}}, {"type": "Feature", "properties": {"id": 228855832, "name": "Kanom Sai Cafe", "category": "restaurant", "tags": ["restaurant", "asian", "takeaway", "cafe"], "sources": ["osm", "overture"], "website": "https://www.yelp.com/biz/kanom-sai-cafe-seattle", "phone": "+12066191433", "address": "1101 23rd Ave"}, "geometry": {"type": "Point", "coordinates": [-122.303061, 47.6116892]}}, {"type": "Feature", "properties": {"id": "20a02471-c1a8-400a-bd0a-fb939be52458", "name": "Starbucks Coffee Company", "category": "cafe", "tags": ["cafe", "coffee"], "sources": ["overture"], "website": "https://www.starbucks.com/store-locator/store/20036", "phone": "+12064941518", "address": "2201 E Madison St"}, "geometry": {"type": "Point", "coordinates": [-122.3036652, 47.6180344]}}, {"type": "Feature", "properties": {"id": "8afa1fbb-2f9b-4d1e-bdaa-00bf5cbb6dc6", "name": "ZENSHI Handcrafted Sushi", "category": "restaurant", "tags": ["restaurant", "sushi", "japanese", "asian"], "sources": ["overture"], "website": "https://www.zenshisushi.com/", "phone": "+12064941518", "address": "2201 E Madison St"}, "geometry": {"type": "Point", "coordinates": [-122.3032837, 47.6179428]}}, {"type": "Feature", "properties": {"id": "b38abb10-1031-4f38-8d08-40f2e5d4aeb2", "name": "Lowrider Cookie Company", "category": "bakery", "tags": ["bakery"], "sources": ["overture"], "website": "http://www.lowridercookiecompany.com/", "phone": "+12064857266", "address": "2407 E Union St c"}, "geometry": {"type": "Point", "coordinates": [-122.301033, 47.6128387]}}, {"type": "Feature", "properties": {"id": "d050af87-27fc-4a8e-b388-7800f72beb1b", "name": "Kigo Kitchen", "category": "restaurant", "tags": ["restaurant", "chinese", "fast-food", "asian"], "sources": ["overture"], "website": "http://saigonoi-seattle.com/", "phone": "+12068058884", "address": "2106 E Madison St"}, "geometry": {"type": "Point", "coordinates": [-122.3040314, 47.6183128]}}, {"type": "Feature", "properties": {"id": "8f3df089-fe95-40b9-8d9a-418cb5849359", "name": "Tougo Coffee Co.", "category": "cafe", "tags": ["cafe", "coffee"], "sources": ["overture"], "website": "http://www.tougocoffee.com/", "phone": "(206) 329-2869", "address": "1410 18th Ave"}, "geometry": {"type": "Point", "coordinates": [-122.3087463, 47.6132813]}}, {"type": "Feature", "properties": {"id": "735143d6-256c-40d5-8e4e-6eecb198a011", "name": "Alexandras Macarons & Cafe", "category": "cafe", "tags": ["cafe", "pizza"], "sources": ["overture"], "website": "http://alexandrasmacarons.com/", "phone": "+12065183895", "address": "1410 18th Ave"}, "geometry": {"type": "Point", "coordinates": [-122.3087006, 47.613224]}}, {"type": "Feature", "properties": {"id": "0531a3d9-accd-4370-86ae-11271e6bea13", "name": "Thudsuan Kitchen and Bar", "category": "restaurant", "tags": ["restaurant", "thai"], "sources": ["overture"], "website": "http://www.thudsuankitchenandbar.com", "phone": "(206) 556-4849", "address": "1818 E Madison St", "stations": [{"stopCode": 49, "lines": "1,2", "name": "Capitol Hill Station", "walkingMeters": 1197, "walkingSeconds": 860, "band": 15}]}, "geometry": {"type": "Point", "coordinates": [-122.3078079, 47.6168327]}}, {"type": "Feature", "properties": {"id": "e4811b05-3b76-487a-b8f0-207d12777538", "name": "Sodam Chicken Capitol Hill", "category": "restaurant", "tags": ["restaurant", "korean", "chicken", "asian"], "sources": ["overture"], "website": "https://www.clover.com/online-ordering/sodam-chicken-2-seattle", "phone": "+12064023084", "address": "1818 E Madison St", "stations": [{"stopCode": 49, "lines": "1,2", "name": "Capitol Hill Station", "walkingMeters": 1203, "walkingSeconds": 864, "band": 15}]}, "geometry": {"type": "Point", "coordinates": [-122.3078308, 47.616848]}}, {"type": "Feature", "properties": {"id": "d2d068a6-b1c4-42e8-8fb3-56f5c677bdf5", "name": "PB Kitchen", "category": "restaurant", "tags": ["restaurant", "polish", "chicken"], "sources": ["overture"], "website": "http://www.pbkitchen.com/", "phone": "+12063223020", "address": "1714 18th Ave", "stations": [{"stopCode": 49, "lines": "1,2", "name": "Capitol Hill Station", "walkingMeters": 1178, "walkingSeconds": 879, "band": 15}]}, "geometry": {"type": "Point", "coordinates": [-122.3085098, 47.6169701]}}, {"type": "Feature", "properties": {"id": "9481305a-0187-49a8-a699-0f0d3b52d5c5", "name": "Sebi\u2019s Bistro", "category": "restaurant", "tags": ["restaurant", "european"], "sources": ["overture"], "website": "https://sebisbistro.com/", "phone": "+14257727342", "address": "1714 18th Ave", "stations": [{"stopCode": 49, "lines": "1,2", "name": "Capitol Hill Station", "walkingMeters": 1074, "walkingSeconds": 771, "band": 15}]}, "geometry": {"type": "Point", "coordinates": [-122.3085709, 47.6169434]}}, {"type": "Feature", "properties": {"id": "f76f6b85-deb2-44db-898b-1b282d6251c6", "name": "Philadelphia Fevre", "category": "restaurant", "tags": ["restaurant", "sandwich"], "sources": ["overture"], "website": "http://www.phillysteakshop.com", "phone": "(206) 323-1000", "address": "2332 E Madison St"}, "geometry": {"type": "Point", "coordinates": [-122.3013229, 47.6199875]}}, {"type": "Feature", "properties": {"id": "575564cd-d64e-4e55-a17d-958534bbefae", "name": "Queen Bee Cafe", "category": "cafe", "tags": ["cafe", "coffee"], "sources": ["overture"], "website": "http://www.queenbeecafe.com/", "phone": "2067576314", "address": "2200 E Madison St"}, "geometry": {"type": "Point", "coordinates": [-122.3034592, 47.6187515]}}, {"type": "Feature", "properties": {"id": "7be8750b-0a3a-4686-970f-e1c5523eca73", "name": "Bequest Coffee", "category": "restaurant", "tags": ["restaurant"], "sources": ["overture"], "website": "https://bequestcoffee.com", "address": "2200 E Madison St Ste B"}, "geometry": {"type": "Point", "coordinates": [-122.3034668, 47.6187363]}}, {"type": "Feature", "properties": {"id": "33e88f4b-bf18-496a-8b1c-ea05393b6a3b", "name": "El Portal Coffee Roasters", "category": "cafe", "tags": ["cafe", "coffee"], "sources": ["overture"], "phone": "2068606923", "address": "2310 E Madison St"}, "geometry": {"type": "Point", "coordinates": [-122.302002, 47.6199989]}}, {"type": "Feature", "properties": {"id": "a1358176-18f8-444c-be22-9cabab9ac54c", "name": "Surrell", "category": "restaurant", "tags": ["restaurant", "american"], "sources": ["overture"], "website": "http://www.surrellseattle.com/", "phone": "+12064025698", "address": "2319 E Madison St"}, "geometry": {"type": "Point", "coordinates": [-122.3019714, 47.6194496]}}, {"type": "Feature", "properties": {"id": "f18a7437-2c1e-47ab-b91f-1d22820f626f", "name": "Crush", "category": "restaurant", "tags": ["restaurant", "american"], "sources": ["overture"], "website": "http://chefjasonwilson.com", "phone": "(206) 302-7874", "address": "2319 E Madison St"}, "geometry": {"type": "Point", "coordinates": [-122.302002, 47.6194305]}}, {"type": "Feature", "properties": {"id": "05288561-55c1-4ecf-ae6c-f11f5154bd4d", "name": "Addo", "category": "restaurant", "tags": ["restaurant"], "sources": ["overture"], "website": "https://www.ericriveracooks.com/addoseattle", "phone": "(908) 433-6615", "address": "2319 E Madison St"}, "geometry": {"type": "Point", "coordinates": [-122.3019104, 47.6193466]}}, {"type": "Feature", "properties": {"id": "ea40abf3-062a-447d-88a9-cb736a935c4f", "name": "Philadelphia Fevre Steak Shop", "category": "restaurant", "tags": ["restaurant", "cheesesteak"], "sources": ["overture"], "phone": "2065880051", "address": "2332 E Madison St"}, "geometry": {"type": "Point", "coordinates": [-122.302002, 47.6189995]}}, {"type": "Feature", "properties": {"id": "09752d13-12d1-4455-a559-e3c30cdb2fd0", "name": "Tigerly Ox - Vietnamese Eatery", "category": "restaurant", "tags": ["restaurant", "vietnamese"], "sources": ["overture"], "website": "tigerlyox.com", "phone": "2063252255", "address": "2207 E Madison St"}, "geometry": {"type": "Point", "coordinates": [-122.3035126, 47.6181793]}}, {"type": "Feature", "properties": {"id": "55057be6-8f05-47ae-b0fe-cd4e32a25ba2", "name": "UMINORI", "category": "restaurant", "tags": ["restaurant", "japanese"], "sources": ["overture"], "website": "http://uminorisushi.com", "address": "2106 E Madison St"}, "geometry": {"type": "Point", "coordinates": [-122.3040771, 47.6183891]}}, {"type": "Feature", "properties": {"id": "1463b95b-e6b2-4c53-8a90-e815f1071e8f", "name": "Cafe Amore", "category": "restaurant", "tags": ["restaurant", "italian"], "sources": ["overture"], "website": "http://www.thatsamoreseattle.com", "phone": "(206) 322-3038", "address": "1416 24th Ave"}, "geometry": {"type": "Point", "coordinates": [-122.301239, 47.6133385]}}, {"type": "Feature", "properties": {"id": "61273ee6-aca7-48bd-a9a6-68a4aaa2a251", "name": "Cortona Cafe", "category": "cafe", "tags": ["cafe", "coffee"], "sources": ["overture"], "website": "http://www.cortonacafe.com", "phone": "(206) 327-9728", "address": "2425 E Union St"}, "geometry": {"type": "Point", "coordinates": [-122.3002701, 47.6128502]}}, {"type": "Feature", "properties": {"id": "d8db6854-242f-48fc-810d-513075d9fbff", "name": "FOOD at Cortona", "category": "restaurant", "tags": ["restaurant", "european"], "sources": ["overture"], "website": "http://www.foodtherestaurant.com", "phone": "(206) 696-0991", "address": "2425 E Union St"}, "geometry": {"type": "Point", "coordinates": [-122.3003998, 47.6127625]}}, {"type": "Feature", "properties": {"id": "2d84507f-5a29-4058-8141-af4c834ea971", "name": "Union - Seattle, WA", "category": "bar", "tags": ["bar", "wine"], "sources": ["overture"], "website": "https://unioncoffeeseattle.com/", "phone": "+17066314474", "address": "2407 E Union St"}, "geometry": {"type": "Point", "coordinates": [-122.301033, 47.6127396]}}, {"type": "Feature", "properties": {"id": "c472597d-2175-48b3-b878-8dcbbf72fb5c", "name": "Fatima Cafe", "category": "cafe", "tags": ["cafe", "coffee"], "sources": ["overture"], "website": "http://www.agr.wa.gov", "phone": "(206) 328-7068", "address": "2401 E Union St"}, "geometry": {"type": "Point", "coordinates": [-122.3012085, 47.612751]}}, {"type": "Feature", "properties": {"id": "725aec4e-d14b-4cfa-aa28-f10688ce65a8", "name": "Communion Seattle", "category": "restaurant", "tags": ["restaurant", "bar-and-grill", "bar", "grill"], "sources": ["overture"], "website": "http://communionseattle.com/", "phone": "+12068061916", "address": "2350 E Union St"}, "geometry": {"type": "Point", "coordinates": [-122.301651, 47.6130447]}}, {"type": "Feature", "properties": {"id": "658de2be-5b0f-4901-9ca7-aa3b8c32faa5", "name": "Avole Ethiopian Coffee", "category": "cafe", "tags": ["cafe", "coffee"], "sources": ["overture"], "website": "http://www.avolecoffee.com/", "phone": "+12065654884", "address": "2330 E Union St"}, "geometry": {"type": "Point", "coordinates": [-122.3017197, 47.6130562]}}, {"type": "Feature", "properties": {"id": "e461c31f-a6b1-406e-94d6-487cb5fe228a", "name": "Marjorie Restaurant", "category": "restaurant", "tags": ["restaurant", "american"], "sources": ["overture"], "website": "https://www.opentable.com/r/marjorie-restaurant-reservations-seattle?restref=83131&lang=en-US&ot_source=Facebook", "phone": "+12064419842", "address": "2301 E Union St"}, "geometry": {"type": "Point", "coordinates": [-122.301918, 47.6122665]}}, {"type": "Feature", "properties": {"id": "d24a71bd-c241-412c-820e-1cbabc1f0bb7", "name": "Neighbor Lady Public House", "category": "pub", "tags": ["pub"], "sources": ["overture"], "website": "http://neighborladyseattle.com", "phone": "+12064204374", "address": "1133 24th Ave"}, "geometry": {"type": "Point", "coordinates": [-122.3021545, 47.6125717]}}, {"type": "Feature", "properties": {"id": "f07aae68-c3ac-44ed-bbd7-8da4acec7588", "name": "Adey Abeba Ethiopian Restaurant", "category": "restaurant", "tags": ["restaurant", "ethiopian", "african"], "sources": ["overture"], "website": "https://adeyabeba.net/", "phone": "+12063221617", "address": "2123 E Union St"}, "geometry": {"type": "Point", "coordinates": [-122.303772, 47.6127701]}}, {"type": "Feature", "properties": {"id": "a345e836-0d49-4421-8339-22b9e9ea1c4b", "name": "Mercanta North America", "category": "cafe", "tags": ["cafe", "coffee"], "sources": ["overture"], "website": "http://www.coffeehunter.com", "phone": "12063222139", "address": "2012 E Union St"}, "geometry": {"type": "Point", "coordinates": [-122.3055573, 47.6131096]}}, {"type": "Feature", "properties": {"id": "7664836b-9ccb-4fea-82f6-3615ef7deabb", "name": "Fish Basket", "category": "fast_food", "tags": ["fast-food", "food", "truck"], "sources": ["overture"], "website": "http://www.fishbasketnw.com", "phone": "(253) 488-6500", "address": "401 Pine St"}, "geometry": {"type": "Point", "coordinates": [-122.3060684, 47.6127815]}}, {"type": "Feature", "properties": {"id": "3b2ca345-dd44-4585-baac-ce016c7480bb", "name": "Tat's Truck - East Coast Steak & Subs", "category": "fast_food", "tags": ["fast-food", "food", "truck"], "sources": ["overture"], "website": "http://www.tatstruck.com", "phone": "(206) 538-2133", "address": "159 Yesler Way, Seattle, WA 98104"}, "geometry": {"type": "Point", "coordinates": [-122.3058319, 47.6126976]}}, {"type": "Feature", "properties": {"id": "e501a0de-2906-45af-88b3-9fb67bbfdd31", "name": "The Wedge Catering", "category": "restaurant", "tags": ["restaurant"], "sources": ["overture"], "website": "http://www.thewedgecatering.com", "phone": "(206) 523-2560", "address": "1801 E Marion St"}, "geometry": {"type": "Point", "coordinates": [-122.3083649, 47.6101952]}}, {"type": "Feature", "properties": {"id": "a06f3458-df91-4128-b184-1162c5f0a1ba", "name": "Pyramid Catering", "category": "bakery", "tags": ["bakery"], "sources": ["overture"], "website": "http://www.pyramidcatering.com", "phone": "(206) 691-9918", "address": "1801 E Marion St"}, "geometry": {"type": "Point", "coordinates": [-122.3082733, 47.6101723]}}, {"type": "Feature", "properties": {"id": "a4cffb66-0517-4b47-8daa-9360ca9f3eb0", "name": "1700 Madison", "category": "attraction", "tags": ["attraction", "landmark", "historical", "building"], "sources": ["overture"], "website": "http://www.1700madison.com/", "phone": "+12063400123", "address": "1700 E Madison St", "stations": [{"stopCode": 49, "lines": "1,2", "name": "Capitol Hill Station", "walkingMeters": 1159, "walkingSeconds": 833, "band": 15}]}, "geometry": {"type": "Point", "coordinates": [-122.3094559, 47.6160088]}}, {"type": "Feature", "properties": {"id": "46bd504c-7b1f-4627-bf1a-0fa36147944f", "name": "Prince of Wales", "category": "attraction", "tags": ["attraction", "landmark", "historical", "building"], "sources": ["overture"], "website": "http://pacificliving.com/", "phone": "+12067075678", "address": "1818 20th Ave", "stations": [{"stopCode": 49, "lines": "1,2", "name": "Capitol Hill Station", "walkingMeters": 1152, "walkingSeconds": 829, "band": 15}]}, "geometry": {"type": "Point", "coordinates": [-122.3059998, 47.6182289]}}, {"type": "Feature", "properties": {"id": "f9671473-8109-4beb-8943-d6f8270aaf80", "name": "Ruth Court Apartments", "category": "attraction", "tags": ["attraction", "landmark", "historical", "building"], "sources": ["overture"], "website": "https://www.ruthcourtapts.com/", "phone": "+12063398219", "address": "123 18th Ave E", "stations": [{"stopCode": 49, "lines": "1,2", "name": "Capitol Hill Station", "walkingMeters": 978, "walkingSeconds": 704, "band": 15}]}, "geometry": {"type": "Point", "coordinates": [-122.3091431, 47.6193275]}}, {"type": "Feature", "properties": {"id": "62cf52ec-86c9-4f6c-87a5-bbee33c77470", "name": "Littlefield Apartments", "category": "attraction", "tags": ["attraction", "landmark", "historical", "building"], "sources": ["overture"], "phone": "+12064007295", "address": "205 19th Ave E", "stations": [{"stopCode": 49, "lines": "1,2", "name": "Capitol Hill Station", "walkingMeters": 1245, "walkingSeconds": 929, "band": 15}]}, "geometry": {"type": "Point", "coordinates": [-122.3074799, 47.6198883]}}, {"type": "Feature", "properties": {"id": "9b4970a4-d0e4-4190-9479-987595e35c49", "name": "Penn Hall Apartments", "category": "attraction", "tags": ["attraction", "landmark", "historical", "building"], "sources": ["overture"], "website": "http://www.washingtonmanagementcompany.com", "phone": "+12063236442", "address": "1907 E John St", "stations": [{"stopCode": 49, "lines": "1,2", "name": "Capitol Hill Station", "walkingMeters": 1288, "walkingSeconds": 961, "band": 15}]}, "geometry": {"type": "Point", "coordinates": [-122.3069916, 47.6195183]}}, {"type": "Feature", "properties": {"id": "f6756109-c127-4593-a44e-006d12f6df69", "name": "The Redwood", "category": "attraction", "tags": ["attraction", "landmark", "historical", "building"], "sources": ["overture"], "website": "https://www.theredwoodseattle.com/", "phone": "+18332244094", "address": "111 21st Ave E", "stations": [{"stopCode": 49, "lines": "1,2", "name": "Capitol Hill Station", "walkingMeters": 1237, "walkingSeconds": 890, "band": 15}]}, "geometry": {"type": "Point", "coordinates": [-122.3049393, 47.6189117]}}, {"type": "Feature", "properties": {"id": "5869e5e2-dd6d-46ea-b2a5-ddeafd839290", "name": "Na-Mu Lofts Apartments", "category": "attraction", "tags": ["attraction", "landmark", "historical", "building"], "sources": ["overture"], "website": "http://www.namuloft.com/", "phone": "+18882622835", "address": "2202 E Olive St"}, "geometry": {"type": "Point", "coordinates": [-122.3034439, 47.6171951]}}, {"type": "Feature", "properties": {"id": "10945e11-d542-4786-9eda-deace741c8ac", "name": "Studio Articolore", "category": "gallery", "tags": ["gallery", "art"], "sources": ["overture"], "website": "http://www.studioarticolore.com/", "address": "2202 E Olive St"}, "geometry": {"type": "Point", "coordinates": [-122.3034592, 47.6172829]}}, {"type": "Feature", "properties": {"id": "a50ce56f-e661-42f2-8d01-42504332d849", "name": "Summit at Madison Park Apartments", "category": "attraction", "tags": ["attraction", "landmark", "historical", "building"], "sources": ["overture"], "website": "https://www.summitatmadisonpark.com/?utm_knock=g", "phone": "+12067207697", "address": "1819 23rd Ave"}, "geometry": {"type": "Point", "coordinates": [-122.3028336, 47.6181412]}}, {"type": "Feature", "properties": {"id": "b15c0437-40ff-4b38-857a-dfffa3296081", "name": "Session", "category": "attraction", "tags": ["attraction", "landmark", "historical", "building"], "sources": ["overture"], "website": "https://www.sessionapartments.com", "phone": "+12063127183", "address": "1717 22nd Ave"}, "geometry": {"type": "Point", "coordinates": [-122.303894, 47.617733]}}, {"type": "Feature", "properties": {"id": "083895cf-f599-423f-b970-aa97a93622f5", "name": "Twenty20 Mad Apartments", "category": "attraction", "tags": ["attraction", "landmark", "historical", "building"], "sources": ["overture"], "website": "https://www.livetwenty20mad.com/", "phone": "+18554902169", "address": "2020 E Madison St"}, "geometry": {"type": "Point", "coordinates": [-122.3050385, 47.6178284]}}, {"type": "Feature", "properties": {"id": "9405b0ea-6157-4c06-8f53-1551b4acba34", "name": "The Nantucket", "category": "attraction", "tags": ["attraction", "landmark", "historical", "building", "seafood"], "sources": ["overture"], "website": "https://www.expedia.com/lp/flights/ack/sea/nantucket-to-seattle", "address": "2400 E Howell St"}, "geometry": {"type": "Point", "coordinates": [-122.3006821, 47.6178131]}}, {"type": "Feature", "properties": {"id": "e9c5c362-be51-4a7e-b596-269f72eb855f", "name": "Stencil Apartments", "category": "attraction", "tags": ["attraction", "landmark", "historical", "building"], "sources": ["overture"], "website": "https://www.stencilapartments.com/?utm_knock=g", "phone": "+12069443661", "address": "2407 E Union St"}, "geometry": {"type": "Point", "coordinates": [-122.3012161, 47.6126976]}}, {"type": "Feature", "properties": {"id": "d70191ca-9515-4cf1-b64c-9fa2d800c28c", "name": "Wa Na Wari", "category": "gallery", "tags": ["gallery", "art"], "sources": ["overture"], "website": "https://www.wanawari.org/", "phone": "+12064857563", "address": "911 24th Ave"}, "geometry": {"type": "Point", "coordinates": [-122.3017044, 47.6104164]}}, {"type": "Feature", "properties": {"id": "d95834f7-d7e8-4456-8b87-6b95245e9fb8", "name": "Africatown Plaza", "category": "attraction", "tags": ["attraction", "landmark", "historical", "building"], "sources": ["overture"], "website": "https://www.africatownplaza.org/", "phone": "+12068951400", "address": "1100 23rd Ave #108"}, "geometry": {"type": "Point", "coordinates": [-122.3019104, 47.6115646]}}, {"type": "Feature", "properties": {"id": "79801e68-3787-44b4-8f02-c313315bf6ec", "name": "East Union Apartments", "category": "attraction", "tags": ["attraction", "landmark", "historical", "building"], "sources": ["overture"], "website": "https://www.eastunionseattle.com/?utm_knock=sm", "phone": "+12069263933", "address": "2220 E Union St"}, "geometry": {"type": "Point", "coordinates": [-122.303215, 47.6130638]}}, {"type": "Feature", "properties": {"id": "bc2ff20d-cb20-4371-8fdc-900530949e38", "name": "The Central", "category": "attraction", "tags": ["attraction", "landmark", "historical", "building"], "sources": ["overture"], "website": "https://www.thecentralapartments.com/?utm_knock=sm", "phone": "+12069841419", "address": "2203 E Union St"}, "geometry": {"type": "Point", "coordinates": [-122.3032913, 47.6127739]}}, {"type": "Feature", "properties": {"id": "a2ea1a14-49de-4bf5-ad34-786fc33abf8c", "name": "Adrienne Key Studio", "category": "gallery", "tags": ["gallery", "art"], "sources": ["overture"], "website": "http://www.everlingjewelry.com/", "phone": "+12063709545", "address": "2106 E Union St"}, "geometry": {"type": "Point", "coordinates": [-122.3045883, 47.6131248]}}, {"type": "Feature", "properties": {"id": "136c03f2-941c-40a1-9c00-104ec1ab7462", "name": "Union 18", "category": "attraction", "tags": ["attraction", "landmark", "historical", "building"], "sources": ["overture"], "website": "http://www.Union18Seattle.com/", "phone": "+12069843573", "address": "1140 18th Ave"}, "geometry": {"type": "Point", "coordinates": [-122.3086853, 47.612648]}}, {"type": "Feature", "properties": {"id": "292d09bf-2ea0-4a41-9f17-93565c027fa0", "name": "17th and Union Court Apartments", "category": "attraction", "tags": ["attraction", "landmark", "historical", "building"], "sources": ["overture"], "phone": "+12064007295", "address": "1709 E Union St"}, "geometry": {"type": "Point", "coordinates": [-122.3096619, 47.6127853]}}, {"type": "Feature", "properties": {"id": 54905018, "name": "Homer Harris Park", "category": "park", "tags": ["park"], "sources": ["osm", "overture"], "website": "http://seattle.gov/parks/park_detail.asp?ID=4426", "phone": "+12066844075", "address": "2401 E Howell St"}, "geometry": {"type": "Point", "coordinates": [-122.3010134, 47.6173304]}}, {"type": "Feature", "properties": {"id": 215647949, "name": "Cayton Corner Park", "category": "park", "tags": ["park"], "sources": ["osm", "overture"], "website": "http://www.seattle.gov/parks/projects/cayton_corner/", "phone": "+12066844075", "address": "1831 E Madison St", "stations": [{"stopCode": 49, "lines": "1,2", "name": "Capitol Hill Station", "walkingMeters": 1229, "walkingSeconds": 883, "band": 15}]}, "geometry": {"type": "Point", "coordinates": [-122.3076846, 47.6163778]}}, {"type": "Feature", "properties": {"id": "98a35638-34cb-495a-b7a9-c5e51b913a86", "name": "Lighthouse Point, Deception Pass State Park", "category": "park", "tags": ["park"], "sources": ["overture"], "website": "www.wta.org/go-hiking/hikes/deception-pass-headlands", "stations": [{"stopCode": 49, "lines": "1,2", "name": "Capitol Hill Station", "walkingMeters": 1067, "walkingSeconds": 768, "band": 15}]}, "geometry": {"type": "Point", "coordinates": [-122.3078156, 47.6178284]}}, {"type": "Feature", "properties": {"id": "0564c2a8-3a32-48a9-a547-0218c0cb7fa2", "name": "Sculpture Park", "category": "park", "tags": ["park"], "sources": ["overture"], "address": "17th Ave"}, "geometry": {"type": "Point", "coordinates": [-122.3099442, 47.6122284]}}, {"type": "Feature", "properties": {"id": "9bc7adfb-6be4-4b74-9fd4-bafb5efcf5d9", "name": "The Corner House", "category": "guest_house", "tags": ["guest-house", "bed", "breakfast"], "sources": ["overture"], "website": "http://www.thecornerhousebandb.com", "phone": "+12063236039", "address": "102 18th Ave E", "stations": [{"stopCode": 49, "lines": "1,2", "name": "Capitol Hill Station", "walkingMeters": 924, "walkingSeconds": 665, "band": 15}]}, "geometry": {"type": "Point", "coordinates": [-122.3085785, 47.6186981]}}, {"type": "Feature", "properties": {"id": "34eb9190-ec82-4c45-8e6b-a907837b6c79", "name": "Foxglove Guesthouse", "category": "guest_house", "tags": ["guest-house", "bed", "breakfast"], "sources": ["overture"], "phone": "2063284173", "address": "117 18th Ave E", "stations": [{"stopCode": 49, "lines": "1,2", "name": "Capitol Hill Station", "walkingMeters": 957, "walkingSeconds": 690, "band": 15}]}, "geometry": {"type": "Point", "coordinates": [-122.3088074, 47.6190758]}}, {"type": "Feature", "properties": {"id": "8923891c-9461-4585-b601-05c5cc2ad174", "name": "Bed & Breakfast Inn Seattle", "category": "guest_house", "tags": ["guest-house", "bed", "breakfast"], "sources": ["overture"], "website": "http://www.seattlebednbreakfast.com/", "phone": "2064127378", "address": "1808 E Denny Way", "stations": [{"stopCode": 49, "lines": "1,2", "name": "Capitol Hill Station", "walkingMeters": 948, "walkingSeconds": 683, "band": 15}]}, "geometry": {"type": "Point", "coordinates": [-122.3082352, 47.6187782]}}, {"type": "Feature", "properties": {"id": "29c37916-a25f-41a2-a5fd-ef45ea9337ed", "name": "All The Best Pet Care", "category": "pet", "tags": ["pet"], "sources": ["overture"], "website": "https://www.allthebestpetcare.com/", "phone": "+12062582215", "address": "1122 23rd Ave"}, "geometry": {"type": "Point", "coordinates": [-122.3024597, 47.6121101]}}, {"type": "Feature", "properties": {"id": 228850113, "name": "Food Mart", "category": "convenience", "tags": ["convenience"], "sources": ["osm"], "address": "1701 East Madison Street", "stations": [{"stopCode": 49, "lines": "1,2", "name": "Capitol Hill Station", "walkingMeters": 1154, "walkingSeconds": 829, "band": 15}]}, "geometry": {"type": "Point", "coordinates": [-122.3096648, 47.6156206]}}, {"type": "Feature", "properties": {"id": 7633370253, "name": "PCC Community Market", "category": "supermarket", "tags": ["supermarket", "wheelchair-accessible"], "sources": ["osm"], "website": "https://www.pccmarkets.com/stores/central-district/", "address": "2230 East Union Street", "hours": "Mo-Su 06:00-22:00"}, "geometry": {"type": "Point", "coordinates": [-122.3029763, 47.6131191]}}, {"type": "Feature", "properties": {"id": 136571516, "name": "Safeway", "category": "supermarket", "tags": ["supermarket"], "sources": ["osm", "overture"], "website": "https://local.safeway.com/safeway/wa/seattle/2201-e-madison-st.html", "phone": "+12064941518", "address": "2201 E Madison St", "hours": "Mo-Su 05:00-01:00"}, "geometry": {"type": "Point", "coordinates": [-122.3035603, 47.6179913]}}, {"type": "Feature", "properties": {"id": 10968249308, "name": "All The Best", "category": "pet", "tags": ["pet", "wheelchair-accessible"], "sources": ["osm"], "website": "https://allthebestpetcare.com", "phone": "+1 206-258-2215", "address": "1122 23rd Avenue", "hours": "Mo-Sa 09:30-19:30; Su 10:00-19:00"}, "geometry": {"type": "Point", "coordinates": [-122.3025526, 47.6121775]}}, {"type": "Feature", "properties": {"id": 2375132257, "name": "20/20 Cycle", "category": "bicycle", "tags": ["bicycle"], "sources": ["osm"], "website": "https://2020cycle.com/", "phone": "+1-206-568-3090", "address": "2020 East Union Street", "hours": "We-Su 11:00-18:00"}, "geometry": {"type": "Point", "coordinates": [-122.305248, 47.6130622]}}, {"type": "Feature", "properties": {"id": "c4ab8bee-488f-4c00-8aaa-7a9f40b7bd66", "name": "Union Market", "category": "supermarket", "tags": ["supermarket"], "sources": ["overture"], "phone": "+12063229090", "address": "2101 E Union St"}, "geometry": {"type": "Point", "coordinates": [-122.304718, 47.612709]}}, {"type": "Feature", "properties": {"id": 6432190735, "name": "Union Market & Teriyaki", "category": "convenience", "tags": ["convenience"], "sources": ["osm"], "website": "http://places.singleplatform.com/union-teriyaki-and-burgers/menu", "phone": "+1-206-322-9090", "address": "996 21st Avenue", "hours": "Mo-Su 09:00-22:30"}, "geometry": {"type": "Point", "coordinates": [-122.304753, 47.6127443]}}, {"type": "Feature", "properties": {"id": 11043319650, "name": "Spice SPC", "category": "supermarket", "tags": ["supermarket"], "sources": ["osm"], "website": "https://www.spicespc.com/", "address": "2108 East Denny Way", "hours": "Mo-Su 11:00-20:00"}, "geometry": {"type": "Point", "coordinates": [-122.3043585, 47.6183983]}}, {"type": "Feature", "properties": {"id": 11938876905, "name": "Arte Noir", "category": "art", "tags": ["art", "gallery"], "sources": ["osm", "overture"], "website": "https://linktr.ee/artenoir", "phone": "+12064874977", "address": "2301 E Union St"}, "geometry": {"type": "Point", "coordinates": [-122.3024406, 47.6127766]}}, {"type": "Feature", "properties": {"id": 11949581717, "name": "Selector Records & Apparel", "category": "music", "tags": ["music"], "sources": ["osm"], "phone": "+1-206-867-0877", "address": "2310 East Madison Street", "hours": "We-Fr 16:00-20:00, Sa-Su 12:00-20:00, Mo-Tu \"by appointment only\""}, "geometry": {"type": "Point", "coordinates": [-122.3020862, 47.6196577]}}, {"type": "Feature", "properties": {"id": 228764306, "name": "Uncle Ike's - Bottle Shop", "category": "alcohol", "tags": ["alcohol"], "sources": ["osm", "overture"], "website": "http://ikes.com/", "phone": "+12067411991", "address": "1400 23rd Ave", "hours": "Su-We 10:00-22:00, Th-Sa 10:00-23:45"}, "geometry": {"type": "Point", "coordinates": [-122.3024556, 47.6131281]}}, {"type": "Feature", "properties": {"id": 228764964, "name": "Forbidden Cannabis Club", "category": "cannabis", "tags": ["cannabis"], "sources": ["osm"], "website": "https://forbiddencannabisclub.com", "phone": "+1-206-420-2180", "address": "2413 East Union Street", "hours": "Mo-Su 10:00-23:45"}, "geometry": {"type": "Point", "coordinates": [-122.3007593, 47.6127137]}}, {"type": "Feature", "properties": {"id": 363250197, "name": "Uncle Ike's Pot Shop", "category": "cannabis", "tags": ["cannabis"], "sources": ["osm"], "website": "https://ikes.com/locations/central-district", "address": "2310 East Union Street", "hours": "Mo-Su 08:00-23:45"}, "geometry": {"type": "Point", "coordinates": [-122.3021505, 47.6133313]}}, {"type": "Feature", "properties": {"id": "7c1a9355-8f46-4fdc-805b-0fda9814634f", "name": "Terra Building Inspection", "category": "doityourself", "tags": ["doityourself", "building", "supply"], "sources": ["overture"], "website": "http://terrabuildinginspection.com", "phone": "(206) 353-5116", "address": "1434 20th Ave"}, "geometry": {"type": "Point", "coordinates": [-122.3060074, 47.614006]}}, {"type": "Feature", "properties": {"id": "d4a4cecc-61db-4122-99ce-17b3f2236183", "name": "Dulces Bistro & Wine", "category": "wine", "tags": ["wine", "winery", "french", "latin-american", "spanish"], "sources": ["overture"], "phone": "2065577627", "address": "1818 E Madison St", "stations": [{"stopCode": 49, "lines": "1,2", "name": "Capitol Hill Station", "walkingMeters": 1218, "walkingSeconds": 875, "band": 15}]}, "geometry": {"type": "Point", "coordinates": [-122.3079987, 47.6166458]}}, {"type": "Feature", "properties": {"id": "bebdcd0b-b7dd-47fe-acc7-3a4597394200", "name": "Spice SPC Indian Grocery and Foods", "category": "supermarket", "tags": ["supermarket", "indian"], "sources": ["overture"], "website": "https://spicespc.com/", "phone": "+12068091254", "address": "2108 E Denny Way"}, "geometry": {"type": "Point", "coordinates": [-122.3041306, 47.6183052]}}, {"type": "Feature", "properties": {"id": "e6113fd8-0e2f-4baf-b8e8-8d53af3fd99a", "name": "Joel Shepard Furniture", "category": "furniture", "tags": ["furniture"], "sources": ["overture"], "website": "https://www.joelshepardfurniture.com", "phone": "12063249382", "address": "2118 E Olive St"}, "geometry": {"type": "Point", "coordinates": [-122.3040924, 47.6172829]}}, {"type": "Feature", "properties": {"id": "ffc40cdf-423a-48ed-b145-6ba4f5a100ad", "name": "Uncle Ike's Dispensary Seattle Central District", "category": "cannabis", "tags": ["cannabis"], "sources": ["overture"], "website": "https://ikes.com", "phone": "12064205770", "address": "2310 E Union St"}, "geometry": {"type": "Point", "coordinates": [-122.3021927, 47.6133347]}}, {"type": "Feature", "properties": {"id": "1991b048-ca9d-4291-8cb5-5ba31ae49185", "name": "Ponder", "category": "cannabis", "tags": ["cannabis"], "sources": ["overture"], "website": "http://ponderseattle.com/", "phone": "2064202180", "address": "2413 E Union St"}, "geometry": {"type": "Point", "coordinates": [-122.3007355, 47.6127853]}}, {"type": "Feature", "properties": {"id": "2d325e5f-69a8-4922-921f-d1f3d87c3e0a", "name": "Forbidden Cannabis Club Seattle Central District Capitol Hill Marijuana Dispensary", "category": "cannabis", "tags": ["cannabis"], "sources": ["overture"], "website": "https://www.forbiddencannabisclub.com", "phone": "12064202180", "address": "2413 E Union St"}, "geometry": {"type": "Point", "coordinates": [-122.3007584, 47.6126518]}}, {"type": "Feature", "properties": {"id": "e35bb74b-fff7-4448-87ea-ee26767f47e2", "name": "Super Chronic Club Seattle", "category": "cannabis", "tags": ["cannabis"], "sources": ["overture"], "website": "http://superchronicclub.com", "phone": "(206) 420-2180", "address": "2413 E Union St"}, "geometry": {"type": "Point", "coordinates": [-122.3009872, 47.6131554]}}, {"type": "Feature", "properties": {"id": "eab0d245-d654-4c7b-b4a9-56e3e956c355", "name": "99 Cents Only Store", "category": "variety_store", "tags": ["variety-store", "discount"], "sources": ["overture"], "phone": "+12063233283", "address": "1102 23rd Ave"}, "geometry": {"type": "Point", "coordinates": [-122.3022232, 47.6117783]}}, {"type": "Feature", "properties": {"id": "2e56b526-0b93-40af-8695-db3f69b66f37", "name": "Pcc Community Markets - Central District", "category": "supermarket", "tags": ["supermarket"], "sources": ["overture"], "website": "https://www.pccmarkets.com", "phone": "12066056053", "address": "2230 E Union St"}, "geometry": {"type": "Point", "coordinates": [-122.3030167, 47.6131058]}}, {"type": "Feature", "properties": {"id": "32340b0d-7d66-4bc4-96c0-7dd31deb1c3e", "name": "Exclusive Boutique", "category": "clothes", "tags": ["clothes"], "sources": ["overture"], "website": "http://givemeexclusive.com", "phone": "12067656496", "address": "2002 E Union St"}, "geometry": {"type": "Point", "coordinates": [-122.3059692, 47.613121]}}, {"type": "Feature", "properties": {"id": "ba467c07-5b28-41c8-90e8-1565c6b742e5", "name": "Gud Design Studio", "category": "clothes", "tags": ["clothes"], "sources": ["overture"], "website": "http://guddesignstudio.com", "phone": "(206) 225-3464", "address": "831 20th Ave"}, "geometry": {"type": "Point", "coordinates": [-122.3066711, 47.6100731]}}, {"type": "Feature", "properties": {"id": "757fc733-44ff-4477-a26e-fef3d45d3d58", "name": "Magpie Toys & Clothes", "category": "toys", "tags": ["toys"], "sources": ["overture"], "website": "http://www.magpiekid.com", "phone": "(206) 860-6035", "address": "1408 18th Ave"}, "geometry": {"type": "Point", "coordinates": [-122.3085785, 47.6131592]}}, {"type": "Feature", "properties": {"id": 228850149, "name": "Planned Parenthood", "category": "clinic", "tags": ["clinic"], "sources": ["osm"], "website": "https://www.plannedparenthood.org/health-center/washington/seattle/98122/central-district-health-center-3309-91810", "phone": "+1 800 769 0045", "address": "2001 East Madison Street", "hours": "Mo-We 08:30-16:30; Th-Sa 08:00-16:00"}, "geometry": {"type": "Point", "coordinates": [-122.3051416, 47.6174295]}}, {"type": "Feature", "properties": {"id": "07aced3c-10cd-4a77-a9c4-4f941b1b3a11", "name": "Vida Integrated Health", "category": "clinic", "tags": ["clinic", "medical"], "sources": ["overture"], "website": "https://thinkvida.com", "phone": "+12067269595", "address": "2014 E Madison St #100"}, "geometry": {"type": "Point", "coordinates": [-122.3057098, 47.6175728]}}, {"type": "Feature", "properties": {"id": "46df3260-64e7-4641-ab19-c0e2f270c96c", "name": "Safeway Pharmacy", "category": "pharmacy", "tags": ["pharmacy"], "sources": ["overture"], "website": "https://local.pharmacy.safeway.com/safeway/wa/seattle/2201-e-madison-st.html", "address": "2201 E Madison St"}, "geometry": {"type": "Point", "coordinates": [-122.3035278, 47.6178741]}}, {"type": "Feature", "properties": {"id": "099f3ed3-8da2-4467-9a21-add81012fa64", "name": "Health Street", "category": "clinic", "tags": ["clinic", "medical"], "sources": ["overture"], "website": "https://www.cvshealth.com", "phone": "+18883782499", "address": "550 17th Ave Ste 200", "stations": [{"stopCode": 49, "lines": "1,2", "name": "Capitol Hill Station", "walkingMeters": 1029, "walkingSeconds": 768, "band": 15}]}, "geometry": {"type": "Point", "coordinates": [-122.3097, 47.6198578]}}, {"type": "Feature", "properties": {"id": "bce1af5c-32a4-49bb-95d5-e5e89bff73c9", "name": "Seattle Childrens Hospital", "category": "hospital", "tags": ["hospital"], "sources": ["overture"], "phone": "+12063255576", "address": "1740 23rd Ave"}, "geometry": {"type": "Point", "coordinates": [-122.3023605, 47.6174889]}}, {"type": "Feature", "properties": {"id": 4856210822, "name": "East Union Post Office", "category": "post_office", "tags": ["post-office", "wheelchair-accessible"], "sources": ["osm"], "website": "https://tools.usps.com/locations/details/1552633", "address": "2207 East Union Street", "hours": "Mo-Fr 09:00-17:30"}, "geometry": {"type": "Point", "coordinates": [-122.303108, 47.6127843]}}, {"type": "Feature", "properties": {"id": "b5411203-2220-4291-9936-af22d468c9d7", "name": "United States Postal Service", "category": "post_office", "tags": ["post-office", "office"], "sources": ["overture"], "website": "https://tools.usps.com/locations/details/1552633?utm_source=website-url&utm_medium=search&utm_campaign=yext", "phone": "8002758777", "address": "2207 E Union St"}, "geometry": {"type": "Point", "coordinates": [-122.3031998, 47.612709]}}, {"type": "Feature", "properties": {"id": "251d43d7-f6bf-4a0d-b173-73f7c634e28d", "name": "Seattle Central  College", "category": "library", "tags": ["library"], "sources": ["overture"], "website": "https://libguides.seattlecentral.edu/library", "address": "1701 Broadway"}, "geometry": {"type": "Point", "coordinates": [-122.304985, 47.6114693]}}, {"type": "Feature", "properties": {"id": 2384460468, "name": "Anytime Fitness", "category": "fitness_centre", "tags": ["fitness-centre", "gym"], "sources": ["osm", "overture"], "website": "https://www.anytimefitness.com/locations/seattle-washington-2816/", "phone": "+12063284455", "address": "1700 E Madison St", "hours": "24/7", "stations": [{"stopCode": 49, "lines": "1,2", "name": "Capitol Hill Station", "walkingMeters": 1150, "walkingSeconds": 826, "band": 15}]}, "geometry": {"type": "Point", "coordinates": [-122.3096671, 47.6160857]}}, {"type": "Feature", "properties": {"id": 1766985953, "name": "Mind & Body Pilates", "category": "fitness_centre", "tags": ["fitness-centre", "pilates"], "sources": ["osm"], "website": "https://www.seattlepilates.com/", "address": "2022 East Union Street"}, "geometry": {"type": "Point", "coordinates": [-122.3051344, 47.613083]}}, {"type": "Feature", "properties": {"id": 2384460881, "name": "Flex", "category": "fitness_centre", "tags": ["fitness-centre"], "sources": ["osm"], "address": "1920 East Madison Street", "stations": [{"stopCode": 49, "lines": "1,2", "name": "Capitol Hill Station", "walkingMeters": 1240, "walkingSeconds": 892, "band": 15}]}, "geometry": {"type": "Point", "coordinates": [-122.3063262, 47.6173394]}}, {"type": "Feature", "properties": {"id": 6579698689, "name": "Breathe Hot Yoga", "category": "fitness_centre", "tags": ["fitness-centre", "gym"], "sources": ["osm", "overture"], "website": "http://www.breathehotyoga.com/", "phone": "2067087913", "address": "1818 E Madison St", "stations": [{"stopCode": 49, "lines": "1,2", "name": "Capitol Hill Station", "walkingMeters": 1194, "walkingSeconds": 858, "band": 15}]}, "geometry": {"type": "Point", "coordinates": [-122.3076778, 47.6167491]}}, {"type": "Feature", "properties": {"id": 11938876907, "name": "HIIT Lab", "category": "fitness_centre", "tags": ["fitness-centre"], "sources": ["osm"], "website": "https://hiitlab.com/", "address": "1122 23rd Avenue"}, "geometry": {"type": "Point", "coordinates": [-122.3025493, 47.6124184]}}, {"type": "Feature", "properties": {"id": 11949581716, "name": "Emerald City CrossFit", "category": "fitness_centre", "tags": ["fitness-centre", "gym"], "sources": ["osm", "overture"], "website": "http://emeraldcitycrossfit.com/", "phone": "+12069457983", "address": "2308 E Madison St"}, "geometry": {"type": "Point", "coordinates": [-122.3022453, 47.6195535]}}, {"type": "Feature", "properties": {"id": 12340950960, "name": "30 Minute Hit", "category": "fitness_centre", "tags": ["fitness-centre", "gym"], "sources": ["osm", "overture"], "website": "https://www.30minutehit.com/locations/gym/seattle-capitolhill-kickboxing-boxing-fitness.html", "phone": "2068801135", "address": "2026 E Madison St", "hours": "Mo,We,Fr 07:00-11:00, Mo-Th 16:00-20:00, Sa 08:00-12:00"}, "geometry": {"type": "Point", "coordinates": [-122.3049455, 47.6179075]}}, {"type": "Feature", "properties": {"id": "1c1cfcb7-fc69-4cb4-8902-17aad5219d1f", "name": "YMCA", "category": "fitness_centre", "tags": ["fitness-centre", "gym"], "sources": ["overture"], "website": "http://www.ymca.net", "phone": "(206) 322-6969", "address": "1700 23rd Ave"}, "geometry": {"type": "Point", "coordinates": [-122.3020401, 47.6166916]}}, {"type": "Feature", "properties": {"id": 228763842, "name": "YMCA - Meredith Mathews East Madison", "category": "sports_centre", "tags": ["sports-centre"], "sources": ["osm"], "address": "1700 23rd Avenue"}, "geometry": {"type": "Point", "coordinates": [-122.3019799, 47.6167755]}}, {"type": "Feature", "properties": {"id": "7579b0e5-73a4-41c1-852a-723b12608a07", "name": "Flex Training Gym", "category": "fitness_centre", "tags": ["fitness-centre", "gym"], "sources": ["overture"], "website": "http://www.flextraininggym.com/", "phone": "+12062286610", "address": "1920 E Madison St", "stations": [{"stopCode": 49, "lines": "1,2", "name": "Capitol Hill Station", "walkingMeters": 1237, "walkingSeconds": 890, "band": 15}]}, "geometry": {"type": "Point", "coordinates": [-122.306282, 47.6173477]}}, {"type": "Feature", "properties": {"id": "39c7adfc-ad4b-475a-89e6-16c134e4b150", "name": "Mind and Body Pilates", "category": "fitness_centre", "tags": ["fitness-centre", "pilates", "studio"], "sources": ["overture"], "website": "http://www.seattlepilates.com/", "phone": "+12063253328", "address": "2022 E Union St"}, "geometry": {"type": "Point", "coordinates": [-122.3050613, 47.6130829]}}]}