{"type": "FeatureCollection", "features": [{"type": "Feature", "properties": {"id": 3641744815, "name": "Subway", "category": "fast_food", "tags": ["fast-food", "sandwich", "takeaway", "restaurant"], "sources": ["osm", "overture"], "website": "https://www.subway.com", "phone": "12538593517", "address": "1529 W Meeker St  Ste 101", "hours": "Mo-Fr 07:00-22:00; Sa 08:00-22:00; Su 09:00-22:00"}, "geometry": {"type": "Point", "coordinates": [-122.2552207, 47.3815219]}}, {"type": "Feature", "properties": {"id": 3595586299, "name": "Starbucks", "category": "cafe", "tags": ["cafe", "coffee-shop", "takeaway", "wifi", "coffee"], "sources": ["osm", "overture"], "website": "https://www.starbucks.com/store-locator/store/16702/", "phone": "+12538505810", "address": "1428 W Meeker St 101", "hours": "Mo-Fr 04:30-20:30; Sa-Su 05:30-20:00"}, "geometry": {"type": "Point", "coordinates": [-122.2529003, 47.3808904]}}, {"type": "Feature", "properties": {"id": 6867566136, "name": "Papa John's", "category": "fast_food", "tags": ["fast-food", "pizza", "takeaway", "delivery"], "sources": ["osm"], "website": "https://locations.papajohns.com/united-states/wa/98032/kent/1432-w-meeker-street-102", "phone": "+1-253-893-1111", "address": "1426 West Meeker Street", "hours": "Mo-Su 10:00-21:30"}, "geometry": {"type": "Point", "coordinates": [-122.2534592, 47.3808889]}}, {"type": "Feature", "properties": {"id": 3595586300, "name": "Dickey's Barbecue Pit", "category": "restaurant", "tags": ["restaurant", "barbecue", "wifi", "fast-food"], "sources": ["osm", "overture"], "website": "https://kent.orderdickeysbbq.com/?utm_source=bing&utm_medium=websiteurl&utm_campaign=search", "phone": "2538525251", "address": "1428 W Meeker St Ste 102", "hours": "Mo-Su 11:00-21:00"}, "geometry": {"type": "Point", "coordinates": [-122.2530193, 47.380892]}}, {"type": "Feature", "properties": {"id": 4318673390, "name": "Kent Valley Ice Centre Cafe", "category": "cafe", "tags": ["cafe"], "sources": ["osm"]}, "geometry": {"type": "Point", "coordinates": [-122.258637, 47.3857681]}}, {"type": "Feature", "properties": {"id": 638886656, "name": "Lucky Cup Coffee", "category": "cafe", "tags": ["cafe", "coffee-shop", "coffee"], "sources": ["osm", "overture"], "website": "http://www.stmarksrichmond.org", "phone": "(253) 335-0496", "address": "1513 West Meeker Street", "hours": "Mo-Fr 04:30-17:00; Sa 06:00-17:00; Su 07:00-16:00"}, "geometry": {"type": "Point", "coordinates": [-122.2541325, 47.3813734]}}, {"type": "Feature", "properties": {"id": 638886847, "name": "Meeker Street Bar & Grill", "category": "restaurant", "tags": ["restaurant", "regional"], "sources": ["osm"], "phone": "+1-253-856-0069", "address": "1721 West Meeker Street", "hours": "Mo-Fr 11:00-13:30; Sa-Su 09:00-13:30"}, "geometry": {"type": "Point", "coordinates": [-122.2584361, 47.3815464]}}, {"type": "Feature", "properties": {"id": 638886851, "name": "Monte Carlo Tavern", "category": "pub", "tags": ["pub"], "sources": ["osm"], "phone": "+1-253-852-9463", "address": "24437 Russell Road South", "hours": "Mo-Su 10:30-02:00"}, "geometry": {"type": "Point", "coordinates": [-122.2563404, 47.3815955]}}, {"type": "Feature", "properties": {"id": 638886856, "name": "Mr. Camar\u00f3n", "category": "restaurant", "tags": ["restaurant", "mexican"], "sources": ["osm"], "phone": "+1-253-852-0710", "address": "1819 West Meeker Street", "hours": "Mo-Th 10:00-21:00; Fr-Su 10:00-02:00"}, "geometry": {"type": "Point", "coordinates": [-122.2596487, 47.3815099]}}, {"type": "Feature", "properties": {"id": 638886861, "name": "Friday's Fried Chicken", "category": "restaurant", "tags": ["restaurant", "chicken"], "sources": ["osm"], "address": "1605 West Meeker Street"}, "geometry": {"type": "Point", "coordinates": [-122.2559717, 47.3815416]}}, {"type": "Feature", "properties": {"id": "38a6f41a-c13f-4143-91ae-da3a1a8d013d", "name": "Papa John's Pizza", "category": "fast_food", "tags": ["fast-food", "fast", "food", "pizza"], "sources": ["overture"], "website": "https://www.papajohns.com/", "phone": "2538931111", "address": "1432 W Meeker St Ste 102"}, "geometry": {"type": "Point", "coordinates": [-122.2534103, 47.3808212]}}, {"type": "Feature", "properties": {"id": "7d974acf-2fd8-460a-8e2c-ad3fe1bf8645", "name": "Blend On Meeker", "category": "cafe", "tags": ["cafe", "coffee"], "sources": ["overture"], "phone": "+12533985494", "address": "1601 W Meeker St"}, "geometry": {"type": "Point", "coordinates": [-122.2554321, 47.3815689]}}, {"type": "Feature", "properties": {"id": "9e8af9ec-a3a2-4beb-9df2-2e007030a41e", "name": "Asian Table", "category": "restaurant", "tags": ["restaurant", "asian"], "sources": ["overture"], "website": "https://www.asiantablekent.com", "phone": "12532773046", "address": "1428 W Meeker St  Ste 102"}, "geometry": {"type": "Point", "coordinates": [-122.2530899, 47.3808479]}}, {"type": "Feature", "properties": {"id": "fa79bdc5-b0b8-43ba-bb1a-2f726734c6a8", "name": "Meeker Street Bar and Grill", "category": "restaurant", "tags": ["restaurant", "bar-and-grill", "bar", "grill"], "sources": ["overture"], "website": "https://g.co/kgs/jo3Bb6", "phone": "+12538560069", "address": "1721 W Meeker St"}, "geometry": {"type": "Point", "coordinates": [-122.2585068, 47.3813629]}}, {"type": "Feature", "properties": {"id": "e287c452-052a-4335-b4c7-4e63d6b5ae7b", "name": "Mr. Camaron Bar and Grill", "category": "restaurant", "tags": ["restaurant", "bar-and-grill", "bar", "grill"], "sources": ["overture"], "website": "https://mrcamaron.com", "phone": "+12538544342", "address": "1819 W Meeker St"}, "geometry": {"type": "Point", "coordinates": [-122.2597198, 47.3814354]}}, {"type": "Feature", "properties": {"id": "9fb3dae4-bb6d-4413-b696-4b00fc091e48", "name": "EL Pastorsito Taqueria", "category": "restaurant", "tags": ["restaurant", "taco", "mexican", "latin-american"], "sources": ["overture"], "phone": "+12538544342", "address": "1819 W Meeker St"}, "geometry": {"type": "Point", "coordinates": [-122.2597504, 47.3814888]}}, {"type": "Feature", "properties": {"id": "4703b07a-047d-4ef3-ae95-4b93e0ffb184", "name": "El Habanero", "category": "restaurant", "tags": ["restaurant", "mexican", "seafood"], "sources": ["overture"], "website": "https://issuu.com/evelop/docs/evelop_nov16_ebook", "phone": "+12538520710", "address": "1819 W Meeker St"}, "geometry": {"type": "Point", "coordinates": [-122.2597046, 47.3814964]}}, {"type": "Feature", "properties": {"id": "37aec881-e996-456c-a5e0-210657e698da", "name": "Los \u00c1ngeles taqueria", "category": "restaurant", "tags": ["restaurant"], "sources": ["overture"], "address": "1637 W Meeker St"}, "geometry": {"type": "Point", "coordinates": [-122.2569122, 47.3815536]}}, {"type": "Feature", "properties": {"id": "3fa82fd7-9d58-4817-85a0-49ee4ff9b069", "name": "Monte Carlo Pub", "category": "pub", "tags": ["pub"], "sources": ["overture"], "phone": "2538529463", "address": "1617 W Meeker St"}, "geometry": {"type": "Point", "coordinates": [-122.25634, 47.3815842]}}, {"type": "Feature", "properties": {"id": "56f3b17a-fa1b-4639-9cf8-b7a8984313d1", "name": "Ventana", "category": "attraction", "tags": ["attraction", "landmark", "historical", "building"], "sources": ["overture"], "website": "https://www.ventanawa.com/", "phone": "+12538541700", "address": "329 Ridgeview Dr"}, "geometry": {"type": "Point", "coordinates": [-122.2506027, 47.3839569]}}, {"type": "Feature", "properties": {"id": "d541619e-d0ba-4e0e-821a-0df775b3f7dc", "name": "Driftwood Apartments", "category": "attraction", "tags": ["attraction", "landmark", "historical", "building"], "sources": ["overture"], "website": "http://www.livedriftwood.com/", "phone": "+12533647479", "address": "1610 W James Pl"}, "geometry": {"type": "Point", "coordinates": [-122.2528229, 47.3861389]}}, {"type": "Feature", "properties": {"id": "ee1ea021-6730-4a50-b950-2a182e3220f1", "name": "ReNew on James", "category": "attraction", "tags": ["attraction", "landmark", "historical", "building"], "sources": ["overture"], "website": "http://www.atriumonjames.com/", "phone": "+18778289180", "address": "6248 S 242nd Pl"}, "geometry": {"type": "Point", "coordinates": [-122.2550583, 47.3848228]}}, {"type": "Feature", "properties": {"id": "a3e8a400-ded4-4627-8f14-404395165f0a", "name": "Arbor Chase Apartment Homes", "category": "attraction", "tags": ["attraction", "landmark", "historical", "building"], "sources": ["overture"], "website": "https://arborchaseapartmenthomes.com/", "phone": "+12538930004", "address": "1615 W Smith St"}, "geometry": {"type": "Point", "coordinates": [-122.2527466, 47.383873]}}, {"type": "Feature", "properties": {"id": "641fe652-f461-4b17-9e98-20869beaea87", "name": "Park Court Apartments", "category": "attraction", "tags": ["attraction", "landmark", "historical", "building"], "sources": ["overture"], "website": "http://www.housing4seniors.com", "phone": "+12538508998", "address": "24510 64th Ave S"}, "geometry": {"type": "Point", "coordinates": [-122.252655, 47.3817101]}}, {"type": "Feature", "properties": {"id": "a5c8b9b7-81b0-4aeb-964d-c87163467b74", "name": "Tri Court", "category": "attraction", "tags": ["attraction", "landmark", "historical", "building"], "sources": ["overture"], "website": "http://www.shagtricourt.com", "phone": "+12532184183", "address": "24510 64th Ave S"}, "geometry": {"type": "Point", "coordinates": [-122.2526779, 47.3817673]}}, {"type": "Feature", "properties": {"id": "7954cb2a-bacf-4433-90c1-6d64867e5daa", "name": "Midtown 64 Apartments", "category": "attraction", "tags": ["attraction", "landmark", "historical", "building"], "sources": ["overture"], "website": "https://www.bozzuto.com/apartments-for-rent/wa/kent/midtown-64-apartments?utm_source=SocialMedia&utm_medium=social-media&utm_campaign=Midtown64Apartments_Facebook", "phone": "+12534997735", "address": "24615 64th Ave S"}, "geometry": {"type": "Point", "coordinates": [-122.2542419, 47.3810959]}}, {"type": "Feature", "properties": {"id": "324d4077-509b-40cc-8d2e-0cb4d14911db", "name": "Riverwood Apartments", "category": "attraction", "tags": ["attraction", "landmark", "historical", "building"], "sources": ["overture"], "website": "http://www.kentwashingtonapartments.com/", "phone": "+18443480142", "address": "24620 Russell Rd"}, "geometry": {"type": "Point", "coordinates": [-122.2599335, 47.3807907]}}, {"type": "Feature", "properties": {"id": "380eb920-586a-4306-92f2-6bd3cdc5a4c0", "name": "ReNew Water's Edge", "category": "attraction", "tags": ["attraction", "landmark", "historical", "building"], "sources": ["overture"], "website": "https://www.renewwatersedge.com/?utm_source=facebook&utm_medium=social", "phone": "+18669161841", "address": "6305 S 238th Pl"}, "geometry": {"type": "Point", "coordinates": [-122.2573853, 47.3878441]}}, {"type": "Feature", "properties": {"id": "a33ca1f2-2531-4ee2-88a1-0ab1e79ad37a", "name": "Hogan Park at Russell Road", "category": "park", "tags": ["park"], "sources": ["overture"], "website": "http://www.kentwa.gov/Home/Components/FacilityDirectory/FacilityDirectory/256/318", "phone": "+12538565120", "address": "24400 Russell Rd"}, "geometry": {"type": "Point", "coordinates": [-122.259697, 47.3846397]}}, {"type": "Feature", "properties": {"id": "057ba0ca-02d1-4853-8793-76fed63f1a5f", "name": "Russell Road Park", "category": "park", "tags": ["park"], "sources": ["overture"], "website": "http://www.ci.kent.wa.us/content.aspx?id=11920&terms=russell%20road%20park", "phone": "+12538565000", "address": "24400 Russell Rd"}, "geometry": {"type": "Point", "coordinates": [-122.259079, 47.3845024]}}, {"type": "Feature", "properties": {"id": 638886897, "name": "Clarion Pointe", "category": "hotel", "tags": ["hotel", "wifi"], "sources": ["osm"], "phone": "+1-253-854-1950", "address": "1711 West Meeker Street"}, "geometry": {"type": "Point", "coordinates": [-122.2577071, 47.3817376]}}, {"type": "Feature", "properties": {"id": "ce29e86b-95b5-4659-8273-d0f5f9906037", "name": "Clarion Pointe Kent - Seattle South", "category": "hotel", "tags": ["hotel"], "sources": ["overture"], "website": "https://www.choicehotels.com/washington/puyallup/suburban-hotels", "address": "1711 W. Meeker Street"}, "geometry": {"type": "Point", "coordinates": [-122.2578735, 47.3813133]}}, {"type": "Feature", "properties": {"id": "75b1a562-cc22-4899-b248-1bc982594739", "name": "Quality Inn Hotel, Kent - Seattle", "category": "hotel", "tags": ["hotel", "resort"], "sources": ["overture"], "phone": "2538541950", "address": "1711 W Meeker St"}, "geometry": {"type": "Point", "coordinates": [-122.2578125, 47.3817062]}}, {"type": "Feature", "properties": {"id": 649041314, "name": "7-Eleven", "category": "convenience", "tags": ["convenience"], "sources": ["osm", "overture"], "website": "https://www.7-eleven.com/", "phone": "+12538548949", "address": "1481 W Meeker St", "hours": "24/7"}, "geometry": {"type": "Point", "coordinates": [-122.2531099, 47.3816054]}}, {"type": "Feature", "properties": {"id": "2bf0f19f-0b75-4e8c-ac0e-70c637dc6e16", "name": "Circle K", "category": "convenience", "tags": ["convenience"], "sources": ["overture"], "website": "https://www.circlek.com/", "phone": "+12538542013", "address": "1809 W Meeker St"}, "geometry": {"type": "Point", "coordinates": [-122.2590256, 47.3813095]}}, {"type": "Feature", "properties": {"id": 638886859, "name": "ampm", "category": "convenience", "tags": ["convenience"], "sources": ["osm", "overture"], "website": "http://www.ampm.com/", "phone": "2538598062", "address": "1809 W Meeker St", "hours": "24/7"}, "geometry": {"type": "Point", "coordinates": [-122.2592104, 47.3815222]}}, {"type": "Feature", "properties": {"id": 3595586301, "name": "EZ Tobacco Plus", "category": "tobacco", "tags": ["tobacco"], "sources": ["osm"]}, "geometry": {"type": "Point", "coordinates": [-122.2531408, 47.3808936]}}, {"type": "Feature", "properties": {"id": 6124414685, "name": "Boost Mobile", "category": "mobile_phone", "tags": ["mobile-phone", "mobile"], "sources": ["osm", "overture"], "website": "https://retail.boostmobile.com/33872?ll=1&utm_source=bing&utm_medium=lastmile&utm_campaign=0018000001Z3sprAAB", "phone": "2532468103", "address": "1432 W Meeker St Ste 101"}, "geometry": {"type": "Point", "coordinates": [-122.253353, 47.3808909]}}, {"type": "Feature", "properties": {"id": 3641744809, "name": "Babylon Hookah House", "category": "tobacco", "tags": ["tobacco"], "sources": ["osm"], "address": "1529 West Meeker Street", "hours": "Mo-Th 13:00-01:00; Fr-Sa 14:00-02:00; Su 14:00-00:00"}, "geometry": {"type": "Point", "coordinates": [-122.2553123, 47.3815208]}}, {"type": "Feature", "properties": {"id": 3641744810, "name": "Babylon Halal Food", "category": "supermarket", "tags": ["supermarket"], "sources": ["osm"], "address": "1529 West Meeker Street", "hours": "Mo-Sa 10:00-22:00; Su 11:00-22:00"}, "geometry": {"type": "Point", "coordinates": [-122.2553955, 47.3815196]}}, {"type": "Feature", "properties": {"id": 3641744811, "name": "Kent Smoke Shop", "category": "tobacco", "tags": ["tobacco"], "sources": ["osm", "overture"], "website": "http://www.kentsmokeshopwa.com/", "phone": "+12538524356", "address": "1601 W Meeker St"}, "geometry": {"type": "Point", "coordinates": [-122.2554753, 47.3815203]}}, {"type": "Feature", "properties": {"id": 3641744813, "name": "Tetesita's Mini Market", "category": "convenience", "tags": ["convenience"], "sources": ["osm"], "address": "1529 West Meeker Street", "hours": "Mo-Su 08:30-21:00"}, "geometry": {"type": "Point", "coordinates": [-122.2549818, 47.3815225]}}, {"type": "Feature", "properties": {"id": 638886659, "name": "Meeker Market", "category": "convenience", "tags": ["convenience"], "sources": ["osm", "overture"], "phone": "+12532367868", "address": "64th Ave S"}, "geometry": {"type": "Point", "coordinates": [-122.2542825, 47.3816652]}}, {"type": "Feature", "properties": {"id": "f81b2c7d-7777-485e-a8ff-88ac0e624625", "name": "Bishops' Storehouse", "category": "supermarket", "tags": ["supermarket"], "sources": ["overture"], "website": "providentliving.churchofjesuschrist.org", "phone": "12538528552", "address": "1412 W Morton St"}, "geometry": {"type": "Point", "coordinates": [-122.2529907, 47.3876152]}}, {"type": "Feature", "properties": {"id": "6e4932cd-bbb9-4497-b511-203d701eff13", "name": "Teresita's Mini Market", "category": "convenience", "tags": ["convenience"], "sources": ["overture"], "website": "https://teresita-s-mini-market.hub.biz", "phone": "+12538596461", "address": "1529 W Meeker St"}, "geometry": {"type": "Point", "coordinates": [-122.2550201, 47.3815117]}}, {"type": "Feature", "properties": {"id": "507878ac-3373-4080-8d3f-bbf8f10c431f", "name": "Taqueria Mi Pueblo", "category": "supermarket", "tags": ["supermarket"], "sources": ["overture"], "website": "https://www.mipueblorestaurant.com", "address": "1513 W Meeker St"}, "geometry": {"type": "Point", "coordinates": [-122.2540741, 47.3815155]}}, {"type": "Feature", "properties": {"id": "15eb46aa-5d27-4762-8e98-b139bf5cb53f", "name": "Porter's Of Ars - Shell Gas Station", "category": "convenience", "tags": ["convenience"], "sources": ["overture"], "website": "https://www.porters.ca", "phone": "+12538598062", "address": "1809 W Meeker St"}, "geometry": {"type": "Point", "coordinates": [-122.259079, 47.3814316]}}, {"type": "Feature", "properties": {"id": 3699318055, "name": "Sea Mar Community Health Center - Behavioral Health", "category": "clinic", "tags": ["clinic"], "sources": ["osm"], "address": "1529 West Meeker Street", "hours": "Mo-Fr 08:00-17:00"}, "geometry": {"type": "Point", "coordinates": [-122.2555693, 47.3816467]}}, {"type": "Feature", "properties": {"id": "38cc8312-a330-4225-b826-f72cf4e93dea", "name": "Russell Road Sports Complex", "category": "fitness_centre", "tags": ["fitness-centre", "gym"], "sources": ["overture"], "address": "24400 Russell Rd"}, "geometry": {"type": "Point", "coordinates": [-122.259079, 47.3845024]}}]}