{"type": "FeatureCollection", "features": [{"type": "Feature", "properties": {"id": 485149429, "name": "Cascade Behavioral Health", "category": "hospital", "tags": ["hospital"], "sources": ["osm"], "website": "https://www.cascadebh.com/", "phone": "+1-206-244-0180", "address": "12844 Military Road South"}, "geometry": {"type": "Point", "coordinates": [-122.2957506, 47.487416]}}, {"type": "Feature", "properties": {"id": "c80a2935-2a56-4306-a15e-9f14c711ecf9", "name": "Highline Medical Center Imaging Services", "category": "hospital", "tags": ["hospital"], "sources": ["overture"], "website": "www.feldmanlee.com", "phone": "+12062484770", "address": "12844 Military Rd S"}, "geometry": {"type": "Point", "coordinates": [-122.2958984, 47.4876862]}}, {"type": "Feature", "properties": {"id": "71231188-5fc5-49ff-8662-395826dd343f", "name": "The Work Clinic", "category": "clinic", "tags": ["clinic", "medical"], "sources": ["overture"], "website": "http://Theworkclinic.com/", "phone": "+12062439675", "address": "13030 Military Rd S"}, "geometry": {"type": "Point", "coordinates": [-122.2951202, 47.485981]}}, {"type": "Feature", "properties": {"id": "0a5c24f3-0c0f-4a7f-b877-35489bd672b6", "name": "Southeast X-Ray", "category": "clinic", "tags": ["clinic", "medical"], "sources": ["overture"], "website": "http://www.sxrmedical.com", "phone": "(206) 241-0284", "address": "13030 Military Rd S"}, "geometry": {"type": "Point", "coordinates": [-122.2950439, 47.4858894]}}, {"type": "Feature", "properties": {"id": "1d4da17f-d3c6-42d9-985d-37b2baf1b577", "name": "HealthPoint Tukwila", "category": "clinic", "tags": ["clinic", "medical"], "sources": ["overture"], "website": "https://ididmypartkingcounty.com/", "phone": "+12064393289", "address": "13030 Military Road South Second Floor, 13030 Military Rd S #200"}, "geometry": {"type": "Point", "coordinates": [-122.2950821, 47.4859772]}}, {"type": "Feature", "properties": {"id": "fe1f5518-532f-4997-9c42-7f407c9919bd", "name": "Regional Hospital for Respiratory & Complex Care", "category": "hospital", "tags": ["hospital"], "sources": ["overture"], "website": "http://regionalhospital.org", "phone": "+12062484548", "address": "12844 Military Rd S"}, "geometry": {"type": "Point", "coordinates": [-122.2959671, 47.4876289]}}]}