{"type": "FeatureCollection", "features": [{"type": "Feature", "properties": {"id": 3786512569, "name": "Subway", "category": "fast_food", "tags": ["fast-food", "sandwich", "takeaway", "restaurant"], "sources": ["osm", "overture"], "website": "https://restaurants.subway.com/united-states/wa/kent/8433-s-212th-st", "phone": "+12538724466", "address": "8433 S 212th St Suite 101", "hours": "Mo-Fr 07:00-22:00; Sa 08:00-22:00; Su 09:00-20:00"}, "geometry": {"type": "Point", "coordinates": [-122.2269695, 47.4116308]}}, {"type": "Feature", "properties": {"id": 653645138, "name": "McDonald's", "category": "fast_food", "tags": ["fast-food", "burger", "takeaway", "drive-through", "wifi", "fast", "food", "american"], "sources": ["osm", "overture"], "website": "https://www.mcdonalds.com/us/en-us/location/wa/kent/8320-s-212th-st/12175.html?cid=RF%3AYXT%3ARoN%3A%3AClicks%3Fcid%3DRF%3AYXT%3AFB%3A%3AClicks", "phone": "+12538729588", "address": "8320 S 212th St", "hours": "07:00-21:00"}, "geometry": {"type": "Point", "coordinates": [-122.2286316, 47.4127022]}}, {"type": "Feature", "properties": {"id": 3786512572, "name": "Jimmy John's", "category": "fast_food", "tags": ["fast-food", "sandwich", "takeaway", "restaurant"], "sources": ["osm", "overture"], "website": "https://locations.jimmyjohns.com/wa/kent/sandwiches-2253.html", "phone": "+12538729900", "address": "21110 84th Ave S Ste. 100"}, "geometry": {"type": "Point", "coordinates": [-122.2273916, 47.4125963]}}, {"type": "Feature", "properties": {"id": 3875629659, "name": "Amante Pizza & Pasta", "category": "restaurant", "tags": ["restaurant", "pizza", "indoor-seating"], "sources": ["osm"], "phone": "+1-253-395-2777", "address": "21020 South 210th Street", "hours": "Mo-Fr 10:00-21:00; Sa,Su 11:00-21:00"}, "geometry": {"type": "Point", "coordinates": [-122.2273717, 47.4130915]}}, {"type": "Feature", "properties": {"id": 3875629672, "name": "Emerald City Smoothie", "category": "cafe", "tags": ["cafe", "smoothie", "wheelchair-accessible", "vegetarian"], "sources": ["osm"], "hours": "Mo-Fr 07:00-19:00; Sa 09:00-17:00; Su off"}, "geometry": {"type": "Point", "coordinates": [-122.2273658, 47.4129758]}}, {"type": "Feature", "properties": {"id": 653645134, "name": "BigFoot Java", "category": "cafe", "tags": ["cafe", "coffee-shop", "coffee"], "sources": ["osm", "overture"], "website": "https://bigfootjava.com/locations/kent-bigfoot-java/", "phone": "+12533953339", "address": "21116 84th Ave S", "hours": "24/7"}, "geometry": {"type": "Point", "coordinates": [-122.2275771, 47.4123012]}}, {"type": "Feature", "properties": {"id": 3786512568, "name": "J's Gourmet Burger", "category": "restaurant", "tags": ["restaurant", "burger"], "sources": ["osm"]}, "geometry": {"type": "Point", "coordinates": [-122.2264614, 47.4114907]}}, {"type": "Feature", "properties": {"id": 3875629662, "name": "Paparepas Venezuelan Food", "category": "restaurant", "tags": ["restaurant", "arepa", "empanada"], "sources": ["osm"], "address": "21224 84th Avenue South", "hours": "Mo-Fr 08:00-15:00; Sa 10:00-15:00"}, "geometry": {"type": "Point", "coordinates": [-122.2274074, 47.4110221]}}, {"type": "Feature", "properties": {"id": 3875629666, "name": "Kent Hot Pho", "category": "restaurant", "tags": ["restaurant", "vietnamese"], "sources": ["osm"], "phone": "+1-253-395-7777", "address": "21218 South 212th Street"}, "geometry": {"type": "Point", "coordinates": [-122.2273486, 47.4111894]}}, {"type": "Feature", "properties": {"id": 3875629678, "name": "Green Valley Chinese Cuisine", "category": "restaurant", "tags": ["restaurant", "chinese"], "sources": ["osm"]}, "geometry": {"type": "Point", "coordinates": [-122.2274, 47.410944]}}, {"type": "Feature", "properties": {"id": 3875629686, "name": "La Bamba Mexican Restaurant", "category": "restaurant", "tags": ["restaurant", "mexican", "spanish"], "sources": ["osm", "overture"], "website": "http://www.labambakent.com/", "phone": "2538727654", "address": "21240 84th Ave S", "hours": "Mo-Fr 10:30-21:00; Sa 12:00-21:00; Su 12:00-20:00"}, "geometry": {"type": "Point", "coordinates": [-122.227396, 47.4105943]}}, {"type": "Feature", "properties": {"id": 4208207730, "name": "Big Boys Kainan", "category": "restaurant", "tags": ["restaurant", "filipino", "hawaiian", "asian"], "sources": ["osm", "overture"], "website": "http://www.bigboysfilipinofood.com/", "phone": "+12532852414", "address": "21230 84th Ave S", "hours": "Mo-Th 11:00-19:30; Fr-Sa 11:00-20:00"}, "geometry": {"type": "Point", "coordinates": [-122.2273957, 47.4108471]}}, {"type": "Feature", "properties": {"id": 4376647789, "name": "Saya Restaurant", "category": "restaurant", "tags": ["restaurant", "japanese", "thai", "asian"], "sources": ["osm", "overture"], "website": "https://www.menuism.com/restaurants/saya-restaurant-kent-395757", "phone": "+12533957987", "address": "8455 S 212th St", "hours": "Mo-Sa 10:00-20:00"}, "geometry": {"type": "Point", "coordinates": [-122.2266855, 47.4114867]}}, {"type": "Feature", "properties": {"id": 5720669423, "name": "Cravings", "category": "cafe", "tags": ["cafe"], "sources": ["osm"]}, "geometry": {"type": "Point", "coordinates": [-122.2273645, 47.4160593]}}, {"type": "Feature", "properties": {"id": 6745431143, "name": "Pok\u00e9 Bar", "category": "fast_food", "tags": ["fast-food", "asian"], "sources": ["osm"]}, "geometry": {"type": "Point", "coordinates": [-122.2271986, 47.4125978]}}, {"type": "Feature", "properties": {"id": 420942916, "name": "Pony Keg Grill & Bar", "category": "restaurant", "tags": ["restaurant", "american", "bar-and-grill", "bar", "grill"], "sources": ["osm", "overture"], "website": "http://www.ponykeg.com", "phone": "+12533958022", "address": "8535 S 212th St", "hours": "Mo-Sa 10:00-02:00"}, "geometry": {"type": "Point", "coordinates": [-122.2259284, 47.4115711]}}, {"type": "Feature", "properties": {"id": 653645185, "name": "Dillanos Coffee Roasters", "category": "cafe", "tags": ["cafe", "coffee-shop"], "sources": ["osm"], "address": "20241 84th Avenue South"}, "geometry": {"type": "Point", "coordinates": [-122.2284178, 47.4199914]}}, {"type": "Feature", "properties": {"id": 653689082, "name": "Seattle Coffee Bean", "category": "cafe", "tags": ["cafe", "coffee-shop"], "sources": ["osm"], "address": "8315 South 212th Street"}, "geometry": {"type": "Point", "coordinates": [-122.228706, 47.4115217]}}, {"type": "Feature", "properties": {"id": "d316246c-2556-41ac-8c78-c9816fb1efb3", "name": "Seattle's Favorite", "category": "bakery", "tags": ["bakery"], "sources": ["overture"], "website": "https://seattlesfavorite.com", "phone": "12065740577", "address": "20620 84th Ave S"}, "geometry": {"type": "Point", "coordinates": [-122.2273178, 47.416275]}}, {"type": "Feature", "properties": {"id": "24a8dbc8-7131-400c-b9a1-d275a09e3f15", "name": "J'S GOURMET BURGERS", "category": "restaurant", "tags": ["restaurant", "burger"], "sources": ["overture"], "website": "https://www.jsgourmetburgers.com/?utm_source=bing&utm_medium=websiteurl&utm_campaign=search", "phone": "2532208098", "address": "8463 S 212th St"}, "geometry": {"type": "Point", "coordinates": [-122.2263718, 47.4114227]}}, {"type": "Feature", "properties": {"id": "842502eb-e923-4f90-8ae6-1ff86711f838", "name": "Curry in a Hurry & Pizza", "category": "restaurant", "tags": ["restaurant", "pizza"], "sources": ["overture"], "phone": "2068897774", "address": "8463 S 212th St"}, "geometry": {"type": "Point", "coordinates": [-122.2263718, 47.4114227]}}, {"type": "Feature", "properties": {"id": "0d37f83b-9d0b-4bc1-a609-253de7cff426", "name": "Chao Praya", "category": "restaurant", "tags": ["restaurant", "thai"], "sources": ["overture"], "phone": "+12533957777", "address": "21222 84th Ave S"}, "geometry": {"type": "Point", "coordinates": [-122.2273941, 47.4110794]}}, {"type": "Feature", "properties": {"id": "bdbb5f81-0e43-4b24-bcca-c763caa1f9b1", "name": "Paparepas Venezuelan Food (kent)", "category": "restaurant", "tags": ["restaurant", "venezuelan"], "sources": ["overture"], "website": "https://www.paparepas.com", "phone": "12539814810", "address": "21224 84th Ave S"}, "geometry": {"type": "Point", "coordinates": [-122.2273788, 47.4110184]}}, {"type": "Feature", "properties": {"id": "b1fe24ce-1bab-4d3b-8c3e-1a79b455e6b1", "name": "La Bamba de Kent", "category": "restaurant", "tags": ["restaurant", "bar-and-grill", "bar", "grill", "latin-american"], "sources": ["overture"], "website": "http://www.labambaburritos.com/", "phone": "+12538727654", "address": "21240 84th Ave S"}, "geometry": {"type": "Point", "coordinates": [-122.2275085, 47.4105911]}}, {"type": "Feature", "properties": {"id": "d2db8410-1803-43aa-b56f-36a44e49ab29", "name": "Green Valley - Kent", "category": "restaurant", "tags": ["restaurant", "chinese", "hawaiian", "poke"], "sources": ["overture"], "website": "http://www.greenvalleykent.com/", "phone": "+12538726820", "address": "21226 84th Ave S"}, "geometry": {"type": "Point", "coordinates": [-122.2275391, 47.4109306]}}, {"type": "Feature", "properties": {"id": "05b9c459-6903-46c4-99bc-97b43e09172e", "name": "Hot Pho", "category": "restaurant", "tags": ["restaurant", "vietnamese", "asian"], "sources": ["overture"], "website": "https://hot-pho-meal-delivery.business.site", "phone": "+12533957777", "address": "21222 84th Ave S"}, "geometry": {"type": "Point", "coordinates": [-122.2275238, 47.411129]}}, {"type": "Feature", "properties": {"id": "0ce806a7-8c49-41dc-8257-63b9fcc759e8", "name": "Amante Pizza & Pasta - Kent", "category": "restaurant", "tags": ["restaurant", "italian", "pizza"], "sources": ["overture"], "website": "http://amantepizzaandpasta.com/", "phone": "+12533952777", "address": "21020 84th Ave S"}, "geometry": {"type": "Point", "coordinates": [-122.2275238, 47.4130287]}}, {"type": "Feature", "properties": {"id": "b0cb5f34-3835-4519-90ea-46dfd3ad1e16", "name": "Poke Motto", "category": "restaurant", "tags": ["restaurant", "poke", "japanese", "seafood"], "sources": ["overture"], "website": "http://www.ilovepokebar.com/", "phone": "+12533951070", "address": "21110 84th Ave S #103"}, "geometry": {"type": "Point", "coordinates": [-122.2274246, 47.4125748]}}, {"type": "Feature", "properties": {"id": "6e841505-fdac-42ee-bd23-2bf1c7067041", "name": "Seattle Coffee Bean Co.", "category": "cafe", "tags": ["cafe", "coffee"], "sources": ["overture"], "website": "http://www.seattlecoffeebean.com", "address": "8315 S 212th St"}, "geometry": {"type": "Point", "coordinates": [-122.2285919, 47.4116707]}}, {"type": "Feature", "properties": {"id": "aa6b22c0-4bf0-4607-b44f-010fef793e2d", "name": "Wsc, Corporation Dba Asia Pacific International", "category": "restaurant", "tags": ["restaurant"], "sources": ["overture"], "address": "20612 84th Ave S"}, "geometry": {"type": "Point", "coordinates": [-122.2273865, 47.4168091]}}, {"type": "Feature", "properties": {"id": "9797d489-63c4-4289-991b-7988db884cb6", "name": "Cc Seattle, Llc.dba California Closets", "category": "restaurant", "tags": ["restaurant"], "sources": ["overture"], "phone": "+12532464090", "address": "20450 84th Ave S"}, "geometry": {"type": "Point", "coordinates": [-122.2267151, 47.4172401]}}, {"type": "Feature", "properties": {"id": "62bd3175-c274-453a-bf46-a0413690d0be", "name": "Maplehurst Bakeries", "category": "bakery", "tags": ["bakery"], "sources": ["overture"], "website": "http://www.maplehurstbakeries.com", "phone": "+12538727300", "address": "21331 88th Pl S"}, "geometry": {"type": "Point", "coordinates": [-122.2218781, 47.410202]}}, {"type": "Feature", "properties": {"id": 53275783, "name": "ampm", "category": "convenience", "tags": ["convenience"], "sources": ["osm", "overture"], "website": "https://www.ampm.com/", "phone": "+12538720463", "address": "21214 84th Ave S"}, "geometry": {"type": "Point", "coordinates": [-122.2273327, 47.4115724]}}, {"type": "Feature", "properties": {"id": 4106682589, "name": "California Closets", "category": "furniture", "tags": ["furniture"], "sources": ["osm"]}, "geometry": {"type": "Point", "coordinates": [-122.227226, 47.417886]}}, {"type": "Feature", "properties": {"id": 653689205, "name": "ExtraMile", "category": "convenience", "tags": ["convenience"], "sources": ["osm", "overture"], "website": "https://www.chevronextramile.com/station-finder/8315-s-212th-st-kent-wa-98032-1928-id205191", "phone": "2538725150", "address": "8315 S 212th St"}, "geometry": {"type": "Point", "coordinates": [-122.2288526, 47.4116215]}}, {"type": "Feature", "properties": {"id": 4208090590, "name": "Fireside Fireplaces and Garage Doors", "category": "furniture", "tags": ["furniture"], "sources": ["osm"]}, "geometry": {"type": "Point", "coordinates": [-122.2273782, 47.4102082]}}, {"type": "Feature", "properties": {"id": 4376167997, "name": "Blind Dragon Hobbies", "category": "toys", "tags": ["toys"], "sources": ["osm", "overture"], "website": "http://www.blinddragonhobbies.com/", "phone": "+12532365685", "address": "8465 S 212th St", "hours": "Mo-Fr 01:00-21:00; Sa 12:00-21:00; Su 12:00-19:00"}, "geometry": {"type": "Point", "coordinates": [-122.2263627, 47.4114953]}}, {"type": "Feature", "properties": {"id": 4376170095, "name": "Smoke + Vape", "category": "tobacco", "tags": ["tobacco"], "sources": ["osm"], "hours": "Mo-Sa 09:30-20:00"}, "geometry": {"type": "Point", "coordinates": [-122.2265549, 47.4114889]}}, {"type": "Feature", "properties": {"id": 4376696793, "name": "Inca's Secret", "category": "pet", "tags": ["pet"], "sources": ["osm"], "hours": "Mo-Fr 10:00-18:00; Sa 11:00-18:00"}, "geometry": {"type": "Point", "coordinates": [-122.2270006, 47.4114901]}}, {"type": "Feature", "properties": {"id": 472682338, "name": "H&E Equipment", "category": "hardware", "tags": ["hardware"], "sources": ["osm"]}, "geometry": {"type": "Point", "coordinates": [-122.2224602, 47.4166457]}}, {"type": "Feature", "properties": {"id": 653689172, "name": "Hi Strength Bolt Company", "category": "hardware", "tags": ["hardware"], "sources": ["osm"], "address": "21257 84th Avenue South"}, "geometry": {"type": "Point", "coordinates": [-122.228675, 47.4104229]}}, {"type": "Feature", "properties": {"id": "4879df02-3673-460d-9fc5-486afaae3ddb", "name": "Acme Construction Supply", "category": "hardware", "tags": ["hardware"], "sources": ["overture"], "website": "http://www.acmetool.com", "phone": "+12064641480", "address": "20476 84th Ave S"}, "geometry": {"type": "Point", "coordinates": [-122.2263947, 47.4175491]}}, {"type": "Feature", "properties": {"id": "bf28cdb2-da15-4ddd-afce-92e745d23542", "name": "Therm-All", "category": "hardware", "tags": ["hardware"], "sources": ["overture"], "website": "http://www.therm-all.com", "phone": "+12538724100", "address": "8467 S 208th St"}, "geometry": {"type": "Point", "coordinates": [-122.225647, 47.4138145]}}, {"type": "Feature", "properties": {"id": "f6454768-0e0a-47ab-8cfe-a4fdae65f59e", "name": "Bathroom and Kitchen Outlet", "category": "doityourself", "tags": ["doityourself", "home", "improvement"], "sources": ["overture"], "website": "http://Bandkoutlet.com/", "phone": "+12536568063", "address": "8603 S 212th St"}, "geometry": {"type": "Point", "coordinates": [-122.2252197, 47.4116821]}}, {"type": "Feature", "properties": {"id": "e02bf9b4-c064-4915-a298-470bab673610", "name": "Thomasville of Bellevue", "category": "furniture", "tags": ["furniture"], "sources": ["overture"], "website": "https://www.thomasville.com/Bellevue-WA-Furniture-Store.aspx", "phone": "(253) 638-7784", "address": "8731 S 212th St"}, "geometry": {"type": "Point", "coordinates": [-122.2225113, 47.4111252]}}, {"type": "Feature", "properties": {"id": "f8dd28f0-1c4a-4705-b93d-e54412ce597a", "name": "Simply Blue Apparel Inc", "category": "clothes", "tags": ["clothes"], "sources": ["overture"], "phone": "4253761090", "address": "8609 S 208th St  # O"}, "geometry": {"type": "Point", "coordinates": [-122.2244034, 47.4154053]}}, {"type": "Feature", "properties": {"id": "23bbda8f-3fe8-4890-a80e-612fd449d582", "name": "Jag Jeans", "category": "clothes", "tags": ["clothes"], "sources": ["overture"], "website": "jagjeans.com", "phone": "4258610888", "address": "8609 S 208th St  # O"}, "geometry": {"type": "Point", "coordinates": [-122.2244034, 47.4154053]}}, {"type": "Feature", "properties": {"id": "6263d4fa-de3c-477e-a069-a2c8e55b9fa7", "name": "Service Partners", "category": "doityourself", "tags": ["doityourself", "building", "supply"], "sources": ["overture"], "website": "https://www.service-partners.com/branches/wa/seattle/a37/?utm_source=fb&utm_medium=Yext", "phone": "+13603577849", "address": "8609 S 208th St"}, "geometry": {"type": "Point", "coordinates": [-122.2242966, 47.4153519]}}, {"type": "Feature", "properties": {"id": "1be907bc-8bd8-42b1-9492-c90a21adb87a", "name": "Inca's Secret Parrot & Bird Toys/Boarding", "category": "pet", "tags": ["pet"], "sources": ["overture"], "website": "http://www.incassecret.com/", "phone": "+12534371312", "address": "8433 S 212th St"}, "geometry": {"type": "Point", "coordinates": [-122.226944, 47.4115143]}}, {"type": "Feature", "properties": {"id": "f7589035-dab3-484e-a3a7-d2099659b45c", "name": "Smokeless In Seattle", "category": "tobacco", "tags": ["tobacco"], "sources": ["overture"], "phone": "2538724586", "address": "8465 S 212th St"}, "geometry": {"type": "Point", "coordinates": [-122.227066, 47.4120102]}}, {"type": "Feature", "properties": {"id": "e5a8ef90-98ad-464e-8b23-5c47f9a1381e", "name": "Hi Strength Bolt", "category": "hardware", "tags": ["hardware"], "sources": ["overture"], "website": "https://www.histrength.com", "phone": "12538727905", "address": "21257 84th Ave S"}, "geometry": {"type": "Point", "coordinates": [-122.2285767, 47.4104118]}}, {"type": "Feature", "properties": {"id": "1133911d-2dd8-41a2-85d2-3251d1489257", "name": "Amazon BFI6", "category": "supermarket", "tags": ["supermarket"], "sources": ["overture"], "website": "http://Amazon.com/fresh", "address": "20202 84th Ave S"}, "geometry": {"type": "Point", "coordinates": [-122.2267838, 47.4199219]}}, {"type": "Feature", "properties": {"id": "b45f2025-943b-47d7-8d4f-a9de077a3569", "name": "Apex Facility Resources", "category": "furniture", "tags": ["furniture"], "sources": ["overture"], "phone": "12066863357", "address": "20219 87th Ave S"}, "geometry": {"type": "Point", "coordinates": [-122.224968, 47.4187126]}}, {"type": "Feature", "properties": {"id": "f38a8d0c-35e1-4321-a9f0-a0583fd95979", "name": "Used Office Furniture Seattle", "category": "furniture", "tags": ["furniture"], "sources": ["overture"], "website": "http://www.usedofficefurnitureseattle.com/", "phone": "+18773159168", "address": "20219 87th Ave S"}, "geometry": {"type": "Point", "coordinates": [-122.2246094, 47.4186325]}}, {"type": "Feature", "properties": {"id": "01ffbc99-b76a-401c-a41d-dab196002a47", "name": "Commercial Office Interiors", "category": "furniture", "tags": ["furniture"], "sources": ["overture"], "website": "http://www.coi.com", "phone": "+12067354408", "address": "20211 87th Ave S"}, "geometry": {"type": "Point", "coordinates": [-122.2244034, 47.4196129]}}, {"type": "Feature", "properties": {"id": "c6218063-2eeb-43bc-a9be-bc4bf02c74d4", "name": "H&E Equipment Services", "category": "hardware", "tags": ["hardware"], "sources": ["overture"], "website": "https://www.he-equipment.com/locations/seattle-wa", "phone": "(253) 872-8800", "address": "8810 S 208th St"}, "geometry": {"type": "Point", "coordinates": [-122.2227325, 47.4167976]}}, {"type": "Feature", "properties": {"id": 3875629658, "name": "All Fitness", "category": "fitness_centre", "tags": ["fitness-centre", "gym"], "sources": ["osm", "overture"], "website": "http://www.allfitnesskent.com/", "phone": "+12532290852", "address": "21028 84th Ave S"}, "geometry": {"type": "Point", "coordinates": [-122.227357, 47.412838]}}, {"type": "Feature", "properties": {"id": "477caf96-b2e6-41cf-b1db-81501391c1f0", "name": "BLUE Fitness and Performance", "category": "fitness_centre", "tags": ["fitness-centre", "gym"], "sources": ["overture"], "website": "http://bluefitnessandperformance.com", "phone": "(425) 247-4426", "address": "8725 S 212th St"}, "geometry": {"type": "Point", "coordinates": [-122.2226868, 47.4115143]}}, {"type": "Feature", "properties": {"id": "51f36a8c-8b59-400c-830f-af93debec820", "name": "Nw Arp", "category": "fitness_centre", "tags": ["fitness-centre", "fitness", "trainer"], "sources": ["overture"], "website": "https://www.nwarp.com", "phone": "14056256700", "address": "21030 84th Ave S"}, "geometry": {"type": "Point", "coordinates": [-122.2273178, 47.4129105]}}]}