{"type": "FeatureCollection", "features": [{"type": "Feature", "properties": {"id": 1297521123, "name": "Boathouse Deli", "category": "cafe", "tags": ["cafe", "sandwich", "deli", "delicatessen", "american"], "sources": ["osm", "overture"], "website": "http://boathousedeliseattle.24cafes.com", "phone": "+12062835042", "address": "1818 Westlake Ave N"}, "geometry": {"type": "Point", "coordinates": [-122.3398693, 47.6353957]}}, {"type": "Feature", "properties": {"id": "9edc3aa5-5960-41cc-8e74-387fcf4446ab", "name": "Lake Union", "category": "park", "tags": ["park"], "sources": ["overture"], "website": "http://www.seattle.gov/parks/find/parks/lake-union-park", "phone": "+12066844075"}, "geometry": {"type": "Point", "coordinates": [-122.3332825, 47.6396255]}}, {"type": "Feature", "properties": {"id": 5080397421, "name": "Seattle Scuba", "category": "outdoor", "tags": ["outdoor"], "sources": ["osm"]}, "geometry": {"type": "Point", "coordinates": [-122.3399758, 47.6368107]}}, {"type": "Feature", "properties": {"id": 12333978840, "name": "Neuroveda Health", "category": "clinic", "tags": ["clinic", "medical"], "sources": ["osm", "overture"], "website": "http://www.NeuroVedaHealth.com/", "phone": "+12063791213", "address": "1700 Westlake Ave N Ste 100", "hours": "Mo-Th 09:00-17:00"}, "geometry": {"type": "Point", "coordinates": [-122.339748, 47.63449]}}, {"type": "Feature", "properties": {"id": 2415568557, "name": "Energy Fitness & Wellness", "category": "fitness_centre", "tags": ["fitness-centre", "fitness"], "sources": ["osm"], "website": "http://energyfitandwell.com"}, "geometry": {"type": "Point", "coordinates": [-122.3397723, 47.6374914]}}, {"type": "Feature", "properties": {"id": 2415568558, "name": "Lake Union Swim Academy", "category": "swimming_pool", "tags": ["swimming-pool", "swimming"], "sources": ["osm"], "website": "https://www.lakeunionswimacademy.com", "address": "2040 Westlake Avenue North"}, "geometry": {"type": "Point", "coordinates": [-122.3397371, 47.637316]}}, {"type": "Feature", "properties": {"id": "30f7992e-2889-4a96-a4df-31a7965ec8f7", "name": "StudioJacks Pilates", "category": "fitness_centre", "tags": ["fitness-centre", "pilates", "studio"], "sources": ["overture"], "website": "http://www.studiojacks.com/", "phone": "+12067307768", "address": "1818 Westlake Ave N"}, "geometry": {"type": "Point", "coordinates": [-122.3399506, 47.6354027]}}]}