{"type": "FeatureCollection", "features": [{"type": "Feature", "properties": {"id": 1226375611, "name": "Challenger Ridge Winery", "category": "attraction", "tags": ["attraction", "winery", "wine"], "sources": ["osm"], "address": "14356 Woodinville-Redmond Road Northeast"}, "geometry": {"type": "Point", "coordinates": [-122.139463, 47.7309051]}}, {"type": "Feature", "properties": {"id": 1226375617, "name": "Hollywood Hill Winery", "category": "attraction", "tags": ["attraction", "winery", "wine"], "sources": ["osm"], "address": "14366 Woodinville-Redmond Road Northeast"}, "geometry": {"type": "Point", "coordinates": [-122.139692, 47.7311442]}}, {"type": "Feature", "properties": {"id": "9a2b880c-5f9e-4813-8653-6edcd56fb407", "name": "Genoa Cellars", "category": "wine", "tags": ["wine", "winery"], "sources": ["overture"], "website": "http://www.genoacellars.com", "phone": "(425) 296-9660", "address": "14356 Woodinville Redmond Rd NE"}, "geometry": {"type": "Point", "coordinates": [-122.1395111, 47.7308769]}}, {"type": "Feature", "properties": {"id": "ebec6a54-3a15-42b7-a8b3-f47a244f2070", "name": "Patit Creek Cellars", "category": "wine", "tags": ["wine", "winery"], "sources": ["overture"], "website": "http://www.patitcreekcellars.com", "phone": "(509) 522-4684", "address": "14344 Woodinville Redmond Rd"}, "geometry": {"type": "Point", "coordinates": [-122.1393356, 47.7306633]}}, {"type": "Feature", "properties": {"id": "aa899be8-3c76-400a-91ec-d060fdfa8924", "name": "Cougar Crest Estate Winery", "category": "wine", "tags": ["wine", "winery"], "sources": ["overture"], "website": "http://www.cougarcrestwinery.com/", "phone": "+14253989999", "address": "14366 Woodinville Redmond Rd NE"}, "geometry": {"type": "Point", "coordinates": [-122.1397934, 47.7311974]}}, {"type": "Feature", "properties": {"id": "3ed50790-eeb7-49b9-9047-65b89ebab7df", "name": "Cave B Estate Winery", "category": "wine", "tags": ["wine", "winery"], "sources": ["overture"], "website": "http://www.caveb.com", "phone": "+14259497152", "address": "14356 Woodinville Redmond Rd NE"}, "geometry": {"type": "Point", "coordinates": [-122.1398087, 47.7308235]}}]}