{"type": "FeatureCollection", "features": [{"type": "Feature", "properties": {"id": 275866493, "name": "Highlands Forest View Park", "category": "park", "tags": ["park"], "sources": ["osm"], "address": "14354 Southeast 92nd Street"}, "geometry": {"type": "Point", "coordinates": [-122.1488754, 47.5188878]}}, {"type": "Feature", "properties": {"id": "152427b4-72a5-4470-925f-bcd7633f8a09", "name": "Glencoe Park", "category": "park", "tags": ["park"], "sources": ["overture"], "address": "NE 24th St"}, "geometry": {"type": "Point", "coordinates": [-122.1437683, 47.5131493]}}]}