{"type": "FeatureCollection", "features": [{"type": "Feature", "properties": {"id": 7539446086, "name": "Banh Mi Pho U!", "category": "restaurant", "tags": ["restaurant", "vietnamese", "asian"], "sources": ["osm", "overture"], "website": "https://us.orderspoon.com/banh-mi-pho-u", "phone": "+14254194849", "address": "22118 20th Ave SE"}, "geometry": {"type": "Point", "coordinates": [-122.2056331, 47.7970752]}}, {"type": "Feature", "properties": {"id": "0a019b2e-6f50-4cb3-b61f-076d73c126e0", "name": "Doc's Hideaway Grill", "category": "restaurant", "tags": ["restaurant", "american"], "sources": ["overture"], "website": "http://www.docshideawaygrill.com/", "phone": "(425) 486-4433", "address": "22118 20th Ave SE"}, "geometry": {"type": "Point", "coordinates": [-122.2056351, 47.7971687]}}, {"type": "Feature", "properties": {"id": "a8629873-ad0b-4f2a-8e54-3fca941cdbf5", "name": "See Kai Run", "category": "shoes", "tags": ["shoes", "shoe"], "sources": ["overture"], "website": "http://www.seekairun.com", "phone": "+18885247463", "address": "22118 20th Ave SE #130th"}, "geometry": {"type": "Point", "coordinates": [-122.2056808, 47.7972488]}}, {"type": "Feature", "properties": {"id": "e58de64a-bdad-4484-91a6-8c64093e5a41", "name": "Vision Quest Sport and Fitness", "category": "fitness_centre", "tags": ["fitness-centre", "gym"], "sources": ["overture"], "website": "http://www.visionquestsportandfitness.com/", "phone": "4254833330", "address": "1629 220th St SE"}, "geometry": {"type": "Point", "coordinates": [-122.2099686, 47.7983589]}}]}