{"type": "FeatureCollection", "features": [{"type": "Feature", "properties": {"id": 5613005008, "name": "Sin Pancho Mexican Restaurant & Bar", "category": "restaurant", "tags": ["restaurant", "mexican"], "sources": ["osm"]}, "geometry": {"type": "Point", "coordinates": [-122.221916, 47.3445134]}}, {"type": "Feature", "properties": {"id": "5191b14c-49de-4651-a689-bb8fbf1edb02", "name": "Little Caesars Pizza", "category": "restaurant", "tags": ["restaurant", "pizza"], "sources": ["overture"], "website": "https://www.littlecaesars.com", "phone": "12532497302", "address": "415 Auburn Way N"}, "geometry": {"type": "Point", "coordinates": [-122.2208252, 47.3460464]}}, {"type": "Feature", "properties": {"id": "0478fdec-d0e3-4ee2-b8fd-209c5a24c415", "name": "Islander's Restaurant & Bar", "category": "restaurant", "tags": ["restaurant", "american"], "sources": ["overture"], "website": "http://www.islandersrestaurantandbar.com", "phone": "(253) 447-0711", "address": "4202 Auburn Way N #1"}, "geometry": {"type": "Point", "coordinates": [-122.2217026, 47.3445129]}}, {"type": "Feature", "properties": {"id": "b6180173-1685-43bb-9c1c-666ed5f7924c", "name": "Sin Pancho", "category": "restaurant", "tags": ["restaurant", "mexican"], "sources": ["overture"], "website": "https://www.restaurant.com/sin-pancho-auburn-pid=242750", "phone": "+12532368450", "address": "4202 Auburn Wy N #1"}, "geometry": {"type": "Point", "coordinates": [-122.221756, 47.3444862]}}, {"type": "Feature", "properties": {"id": "22b2570f-af60-4f3b-9a08-661989c51c20", "name": "Punta Del Mar seafood", "category": "fast_food", "tags": ["fast-food", "fast", "food", "mexican", "seafood"], "sources": ["overture"], "phone": "+12066653883", "address": "3821 H St NE"}, "geometry": {"type": "Point", "coordinates": [-122.2209091, 47.3416252]}}, {"type": "Feature", "properties": {"id": "9bbd7e08-7b13-4fed-aa6e-5dc628d02fd3", "name": "Jag Gill Enterprise Inc", "category": "restaurant", "tags": ["restaurant"], "sources": ["overture"], "address": "3702 Auburn Way N"}, "geometry": {"type": "Point", "coordinates": [-122.2217636, 47.3404999]}}, {"type": "Feature", "properties": {"id": 12566619413, "name": "Pancho", "category": "artwork", "tags": ["artwork"], "sources": ["osm"]}, "geometry": {"type": "Point", "coordinates": [-122.2228571, 47.3460733]}}, {"type": "Feature", "properties": {"id": "ff7f6c94-eb49-4a3f-9343-5453f98c688f", "name": "Copper Gate", "category": "attraction", "tags": ["attraction", "landmark", "historical", "building"], "sources": ["overture"], "website": "https://www.coppergateapts.com/", "phone": "+14255417162", "address": "4750 Auburn Wy N"}, "geometry": {"type": "Point", "coordinates": [-122.2250595, 47.3498039]}}, {"type": "Feature", "properties": {"id": "ae0ac913-8be1-4a35-b5cc-1328c7725549", "name": "Mallard Pointe at Riverbend", "category": "attraction", "tags": ["attraction", "landmark", "historical", "building"], "sources": ["overture"], "website": "http://www.mallardpointeatriverbend.com", "phone": "+12533720221", "address": "802 45th St NE"}, "geometry": {"type": "Point", "coordinates": [-122.2215805, 47.347805]}}, {"type": "Feature", "properties": {"id": "afa02917-08a8-4772-acbd-91677689bd86", "name": "Auburn Square Apartments", "category": "attraction", "tags": ["attraction", "landmark", "historical", "building"], "sources": ["overture"], "website": "http://www.auburnsquareapartments.com/?rcstdid=MTE%3D-aKFOxiSL8lQ%3D", "phone": "+12538938268", "address": "3740 H St NE"}, "geometry": {"type": "Point", "coordinates": [-122.2203369, 47.3413849]}}, {"type": "Feature", "properties": {"id": 85878493, "name": "7-Eleven", "category": "convenience", "tags": ["convenience"], "sources": ["osm", "overture"], "website": "https://www.7-eleven.com/", "phone": "+12537351331", "address": "3702 Auburn Way North", "hours": "24/7"}, "geometry": {"type": "Point", "coordinates": [-122.2217617, 47.340501]}}, {"type": "Feature", "properties": {"id": 5613004995, "name": "5 Star Appliance Repair", "category": "electronics", "tags": ["electronics"], "sources": ["osm"]}, "geometry": {"type": "Point", "coordinates": [-122.2218919, 47.3442753]}}, {"type": "Feature", "properties": {"id": 654415993, "name": "Country Square", "category": "clothes", "tags": ["clothes"], "sources": ["osm"], "address": "4337 Auburn Way North"}, "geometry": {"type": "Point", "coordinates": [-122.2231843, 47.3460799]}}, {"type": "Feature", "properties": {"id": "f3e11fce-6f3f-4719-8ec0-6dc4d2352273", "name": "MJ Family Auto Sales", "category": "variety_store", "tags": ["variety-store", "discount"], "sources": ["overture"], "website": "https://www.mjfamilyautosales.com/", "phone": "2537375216", "address": "7418 S 212th St"}, "geometry": {"type": "Point", "coordinates": [-122.2217865, 47.3429947]}}, {"type": "Feature", "properties": {"id": "7020fa84-3cc0-47c0-a150-49252b497566", "name": "Pac-Van, Seattle Office", "category": "doityourself", "tags": ["doityourself", "building", "supply"], "sources": ["overture"], "website": "http://www.pacvan.com/", "phone": "2538865627", "address": "4530 B St NW Ste D"}, "geometry": {"type": "Point", "coordinates": [-122.2289734, 47.3479195]}}, {"type": "Feature", "properties": {"id": "ea2f53af-b63b-4ef0-b08d-f39bd4ab910c", "name": "DanceTrendz", "category": "shoes", "tags": ["shoes", "shoe"], "sources": ["overture"], "website": "https://www.dancetrendz.org/", "phone": "+12069227878", "address": "3902 Auburn Way N"}, "geometry": {"type": "Point", "coordinates": [-122.2216415, 47.3422127]}}, {"type": "Feature", "properties": {"id": "d5e10dd9-8761-4d8c-9df3-92a82bb59327", "name": "Star Rentals Inc", "category": "doityourself", "tags": ["doityourself", "building", "supply"], "sources": ["overture"], "website": "http://www.starrentals.com/", "phone": "2538543922", "address": "4517 Auburn Way N"}, "geometry": {"type": "Point", "coordinates": [-122.2242813, 47.3476486]}}, {"type": "Feature", "properties": {"id": "5df158e6-2962-4876-8974-4ec18df40926", "name": "Williams Flower & Gift - Auburn", "category": "florist", "tags": ["florist"], "sources": ["overture"], "website": "https://www.williamsflowers.com", "phone": "+12532593255", "address": "4425 Auburn Way N Ste 2"}, "geometry": {"type": "Point", "coordinates": [-122.2241669, 47.3468742]}}, {"type": "Feature", "properties": {"id": "ed6732b4-2283-48c2-ade4-2ee1982a188c", "name": "City Sheet Metal", "category": "doityourself", "tags": ["doityourself", "building", "supply"], "sources": ["overture"], "website": "http://www.cityenergysystems.net", "phone": "(253) 852-2174", "address": "4202 Auburn Way N Ste 8"}, "geometry": {"type": "Point", "coordinates": [-122.2218857, 47.3448524]}}, {"type": "Feature", "properties": {"id": "990e2b15-0244-4997-8fac-c38a244f07b2", "name": "LaJoye Cellars", "category": "wine", "tags": ["wine", "winery"], "sources": ["overture"], "website": "www.lajoyespirits.com", "phone": "+12532497203", "address": "3810 Auburn Wy N"}, "geometry": {"type": "Point", "coordinates": [-122.2218933, 47.3419647]}}, {"type": "Feature", "properties": {"id": "f7fbb85a-3394-4508-8763-8e444648fb81", "name": "Country Square Western Wear", "category": "clothes", "tags": ["clothes"], "sources": ["overture"], "website": "http://www.CountrySquareWesternWear.com/", "phone": "+12532207674", "address": "4337 Auburn Wy N"}, "geometry": {"type": "Point", "coordinates": [-122.222847, 47.3460732]}}, {"type": "Feature", "properties": {"id": "ef94d65d-309a-4cb0-a7ed-845d1a883ce3", "name": "Helly Hansen (US) Head Office", "category": "clothes", "tags": ["clothes"], "sources": ["overture"], "website": "www.hellyhansen.com", "phone": "+12533723000", "address": "4104 C St NE"}, "geometry": {"type": "Point", "coordinates": [-122.2257309, 47.3434486]}}, {"type": "Feature", "properties": {"id": "2cfc55c2-53b3-49c4-951f-afda039bceca", "name": "Foremost Tarp Co.", "category": "hardware", "tags": ["hardware"], "sources": ["overture"], "website": "http://www.foremosttarp.com/", "phone": "+12538543204", "address": "DISTRIBUTION CENTER, 20 42nd St NE B"}, "geometry": {"type": "Point", "coordinates": [-122.2299042, 47.3446617]}}, {"type": "Feature", "properties": {"id": 6624381685, "name": "Auburn Way Wellness Center", "category": "clinic", "tags": ["clinic"], "sources": ["osm"]}, "geometry": {"type": "Point", "coordinates": [-122.221851, 47.3419585]}}, {"type": "Feature", "properties": {"id": "83475fcc-98c5-42e7-b716-951d8b35ec14", "name": "Genoa Healthcare", "category": "pharmacy", "tags": ["pharmacy"], "sources": ["overture"], "website": "http://www.genoahealthcare.com/", "phone": "2533739944", "address": "4508 Auburn Way N Ste A-104"}, "geometry": {"type": "Point", "coordinates": [-122.2234039, 47.3478355]}}]}