{"type": "FeatureCollection", "features": [{"type": "Feature", "properties": {"id": "bba66416-33c0-4c71-82ab-030bb3363a12", "name": "Morrill Meadows Park", "category": "park", "tags": ["park"], "sources": ["overture"], "website": "http://www.ci.kent.wa.us/content.aspx?id=17622", "address": "248 SE Th St"}, "geometry": {"type": "Point", "coordinates": [-122.1863785, 47.3796539]}}, {"type": "Feature", "properties": {"id": "86a847f2-0656-4609-8526-3499f76f92c6", "name": "Sound Siding", "category": "doityourself", "tags": ["doityourself", "building", "supply"], "sources": ["overture"], "website": "http://www.soundsiding.com", "phone": "(253) 639-8728", "address": "25510 119th Ct SE"}, "geometry": {"type": "Point", "coordinates": [-122.1816864, 47.3731079]}}]}