{"type": "FeatureCollection", "features": [{"type": "Feature", "properties": {"id": 12834593274, "name": "Costco Food Court", "category": "fast_food", "tags": ["fast-food", "hot-dog", "pizza", "sandwich", "takeaway"], "sources": ["osm"], "website": "https://costco.com/warehouse-locations/kirkland-wa-8.html", "phone": "+1-425-893-6953", "address": "8629 120th Avenue Northeast", "hours": "Mo-Fr 10:00-20:30; Sa 09:30-18:00; Su 10:00-18:00"}, "geometry": {"type": "Point", "coordinates": [-122.1816758, 47.6811727]}}, {"type": "Feature", "properties": {"id": 3915648142, "name": "hawk house", "category": "artwork", "tags": ["artwork"], "sources": ["osm"], "website": "https://www.thehawkhouse.com/", "phone": "+1-425-773-3714"}, "geometry": {"type": "Point", "coordinates": [-122.1897065, 47.6894337]}}, {"type": "Feature", "properties": {"id": "8a46ff3c-1ac4-450e-aeb2-c4c38852b3dd", "name": "Spinney Homestead Park", "category": "park", "tags": ["park"], "sources": ["overture"], "website": "http://parksofkirkland.com/spinney-homestead-park/", "address": "11710 NE 100th St"}, "geometry": {"type": "Point", "coordinates": [-122.1831131, 47.68964]}}, {"type": "Feature", "properties": {"id": 327194700, "name": "Kush Kirkland", "category": "cannabis", "tags": ["cannabis"], "sources": ["osm"], "address": "11834 Northeast 90th Street", "hours": "Mo-Th 08:30-23:00; Fr,Sa 08:30-23:45; Su 08:30-22:00"}, "geometry": {"type": "Point", "coordinates": [-122.1819038, 47.6826689]}}, {"type": "Feature", "properties": {"id": "35197e51-6503-4137-885e-9dc1dea4948d", "name": "AT&T Store", "category": "mobile_phone", "tags": ["mobile-phone", "mobile"], "sources": ["overture"], "website": "http://get.att.com/washington/kirkland/costco-store-8/", "phone": "8335781868", "address": "8629 120TH Ave NE"}, "geometry": {"type": "Point", "coordinates": [-122.1815414, 47.6806183]}}, {"type": "Feature", "properties": {"id": "7632261a-c849-4961-9e40-f8910222f245", "name": "Kush", "category": "cannabis", "tags": ["cannabis", "clinic"], "sources": ["overture"], "website": "http://kushkirkland.com/", "phone": "+14258289999", "address": "11834 NE 90th St"}, "geometry": {"type": "Point", "coordinates": [-122.1818619, 47.6825409]}}, {"type": "Feature", "properties": {"id": 12832781401, "name": "Costco Pharmacy", "category": "pharmacy", "tags": ["pharmacy"], "sources": ["osm"], "website": "https://costco.com/warehouse-locations/kirkland-wa-8.html", "phone": "+1-425-822-0414", "address": "8629 120th Avenue Northeast", "hours": "Mo-Fr 10:00-20:30; Sa 09:30-18:00"}, "geometry": {"type": "Point", "coordinates": [-122.1810657, 47.680384]}}, {"type": "Feature", "properties": {"id": "aaf19590-37f8-48da-9098-4641523142d5", "name": "Costco Pharmacy", "category": "pharmacy", "tags": ["pharmacy"], "sources": ["overture"], "phone": "+14258220414", "address": "8629 120th Ave NE #8b"}, "geometry": {"type": "Point", "coordinates": [-122.1820908, 47.6807213]}}, {"type": "Feature", "properties": {"id": "44690986-1e75-4cbd-bef9-ece1038b44f5", "name": "Starbuds", "category": "pharmacy", "tags": ["pharmacy"], "sources": ["overture"], "website": "http://www.shop.kushkirkland.com/kirkland", "phone": "+14258289999", "address": "11834 NE 90th St"}, "geometry": {"type": "Point", "coordinates": [-122.1818619, 47.6826324]}}, {"type": "Feature", "properties": {"id": "858922a0-c5c6-483a-921b-b13569be7359", "name": "Bank of America ATM", "category": "bank", "tags": ["bank", "credit", "union"], "sources": ["overture"], "phone": "8004426680", "address": "8629 120th Ave NE"}, "geometry": {"type": "Point", "coordinates": [-122.180603, 47.6807365]}}, {"type": "Feature", "properties": {"id": "7047fdb6-d777-4e23-a618-7192a8bfd6e4", "name": "Little Free Library #42173", "category": "library", "tags": ["library"], "sources": ["overture"], "website": "http://littlefreelibrary.org/", "address": "9006 116th Ave NE"}, "geometry": {"type": "Point", "coordinates": [-122.1856918, 47.6828575]}}]}