{"type": "FeatureCollection", "features": [{"type": "Feature", "properties": {"id": 9538586035, "name": "Water Molecule", "category": "artwork", "tags": ["artwork"], "sources": ["osm"]}, "geometry": {"type": "Point", "coordinates": [-122.1413175, 47.7903542]}}, {"type": "Feature", "properties": {"id": 9538586036, "name": "Bio Boulevard", "category": "artwork", "tags": ["artwork"], "sources": ["osm"]}, "geometry": {"type": "Point", "coordinates": [-122.1428385, 47.7903367]}}, {"type": "Feature", "properties": {"id": "4d6258a7-5274-47d5-902d-13cd2634b858", "name": "Woodinville North Business Park, Woodinville, Washington", "category": "park", "tags": ["park"], "sources": ["overture"]}, "geometry": {"type": "Point", "coordinates": [-122.1414108, 47.791832]}}, {"type": "Feature", "properties": {"id": "85e604a7-6b61-40f0-8f89-208d057f9f43", "name": "Integrated Sports Conditioning", "category": "fitness_centre", "tags": ["fitness-centre", "gym"], "sources": ["overture"], "phone": "+14254034042", "address": "22620 WA-9"}, "geometry": {"type": "Point", "coordinates": [-122.1462631, 47.7917747]}}]}