{"type": "FeatureCollection", "features": [{"type": "Feature", "properties": {"id": 309142850, "name": "Taco Time", "category": "fast_food", "tags": ["fast-food", "mexican", "takeaway", "wheelchair-accessible", "vegetarian"], "sources": ["osm"], "website": "https://tacotimenw.com/find-us/shoreline/", "phone": "+1-206-957-0711", "address": "15010 Aurora Avenue North", "hours": "Mo-Su 10:00-22:00"}, "geometry": {"type": "Point", "coordinates": [-122.344706, 47.7382073]}}, {"type": "Feature", "properties": {"id": 681679646, "name": "Starbucks", "category": "cafe", "tags": ["cafe", "coffee-shop", "takeaway"], "sources": ["osm"], "website": "https://www.starbucks.com/store-locator/store/1023885/aurora-ave-n-n-155th-st-15226-aurora-ave-north-shoreline-wa-981336124-us", "phone": "+1-206-485-5427", "address": "15226 Aurora Avenue North"}, "geometry": {"type": "Point", "coordinates": [-122.3447178, 47.7397904]}}, {"type": "Feature", "properties": {"id": 309142851, "name": "McDonald's", "category": "fast_food", "tags": ["fast-food", "burger", "takeaway", "delivery", "drive-through", "wifi", "fast", "food", "american"], "sources": ["osm", "overture"], "website": "https://www.mcdonalds.com/us/en-us/location/wa/shoreline/15201-aurora-ave-n/1022.html?cid=RF%3AYXT%3ARoN%3A%3AClicks%3Fcid%3DRF%3AYXT%3AFB%3A%3AClicks", "phone": "+12063624560", "address": "15201 Aurora Ave N", "hours": "Mo-Su 06:00-23:00"}, "geometry": {"type": "Point", "coordinates": [-122.3458282, 47.7386492]}}, {"type": "Feature", "properties": {"id": 775389525, "name": "Las Margaritas", "category": "restaurant", "tags": ["restaurant", "mexican", "latin-american"], "sources": ["osm", "overture"], "website": "http://www.lasmargaritasrest.com/", "phone": "+12063627527", "address": "14356 Aurora Ave N", "hours": "Su-Th 11:00-21:30; Fr,Sa 11:00-22:00"}, "geometry": {"type": "Point", "coordinates": [-122.3445722, 47.7339391]}}, {"type": "Feature", "properties": {"id": "1484ccef-a450-481d-bab7-3cb407879547", "name": "Taco Bell", "category": "fast_food", "tags": ["fast-food", "fast", "food"], "sources": ["overture"], "website": "http://www.tacobell.com", "phone": "(206) 365-2221", "address": "15010 Aurora Ave N"}, "geometry": {"type": "Point", "coordinates": [-122.3447571, 47.7381744]}}, {"type": "Feature", "properties": {"id": "63ae5ab4-9ded-4052-80b0-0b96955f21a8", "name": "Wendy's", "category": "fast_food", "tags": ["fast-food", "fast", "food"], "sources": ["overture"], "website": "http://www.wendys.com", "phone": "(206) 365-2085", "address": "15226 Aurora Ave N"}, "geometry": {"type": "Point", "coordinates": [-122.344635, 47.7397957]}}, {"type": "Feature", "properties": {"id": 4873116741, "name": "Fam House", "category": "restaurant", "tags": ["restaurant", "korean"], "sources": ["osm"], "address": "13754 Aurora Avenue North", "hours": "Mo-Sa 11:00-08:30"}, "geometry": {"type": "Point", "coordinates": [-122.344635, 47.7302026]}}, {"type": "Feature", "properties": {"id": 5458154276, "name": "Crisp & Dip", "category": "restaurant", "tags": ["restaurant", "wheelchair-accessible"], "sources": ["osm"], "website": "https://www.i-sandwiches.com/", "address": "14705 Aurora Avenue North", "hours": "Mo-Fr 10:00-19:00"}, "geometry": {"type": "Point", "coordinates": [-122.3457088, 47.7353264]}}, {"type": "Feature", "properties": {"id": 5610875730, "name": "Old Village", "category": "restaurant", "tags": ["restaurant", "korean"], "sources": ["osm"], "website": "https://oldvillagekoreanbbq.com/", "address": "15200 Aurora Avenue North"}, "geometry": {"type": "Point", "coordinates": [-122.3448939, 47.7392017]}}, {"type": "Feature", "properties": {"id": "92cf3006-6f03-40c3-814c-d25e1960d9bd", "name": "Broiler Bay", "category": "restaurant", "tags": ["restaurant", "burger"], "sources": ["overture"], "website": "http://www.broilerbay.com", "phone": "(206) 367-1210", "address": "15226 Aurora Ave N"}, "geometry": {"type": "Point", "coordinates": [-122.344635, 47.7397957]}}, {"type": "Feature", "properties": {"id": 13185540801, "name": "Indian-Nepali Kitchen", "category": "restaurant", "tags": ["restaurant", "indian", "himalayan-nepalese", "asian"], "sources": ["osm", "overture"], "website": "http://indiannepalikitchenseattle.com/", "phone": "+12063973211", "address": "13754 Aurora Ave N Suit D"}, "geometry": {"type": "Point", "coordinates": [-122.3445575, 47.730175]}}, {"type": "Feature", "properties": {"id": 6383905142, "name": "Le\u2019s Pho T\u00e1i", "category": "restaurant", "tags": ["restaurant", "vietnamese"], "sources": ["osm"], "phone": "+1-206-364-5444", "address": "15210 Aurora Avenue North"}, "geometry": {"type": "Point", "coordinates": [-122.3440574, 47.7395007]}}, {"type": "Feature", "properties": {"id": "7da3f633-d69e-4a62-a239-bdde1cc985c4", "name": "Gyro House", "category": "restaurant", "tags": ["restaurant", "mediterranean"], "sources": ["overture"], "website": "http://www.seattlegyrohouse.com/", "phone": "(206) 364-1044", "address": "1125 N 152nd St"}, "geometry": {"type": "Point", "coordinates": [-122.3441772, 47.7388077]}}, {"type": "Feature", "properties": {"id": 7924554388, "name": "Grumpy's Taco Truck", "category": "restaurant", "tags": ["restaurant", "mexican"], "sources": ["osm"], "phone": "+1-206-339-8793", "address": "13760 Aurora Avenue North"}, "geometry": {"type": "Point", "coordinates": [-122.344762, 47.7303347]}}, {"type": "Feature", "properties": {"id": 8419519012, "name": "Pho Ha", "category": "restaurant", "tags": ["restaurant", "vietnamese", "asian", "noodles"], "sources": ["osm", "overture"], "website": "http://phoharestaurants.com/", "phone": "+12063683887", "address": "15215 Aurora Ave N"}, "geometry": {"type": "Point", "coordinates": [-122.3455474, 47.7394431]}}, {"type": "Feature", "properties": {"id": 9917420497, "name": "Xiao Long Bao House", "category": "restaurant", "tags": ["restaurant", "chinese"], "sources": ["osm", "overture"], "website": "https://www.xiaolongbaohouse.com", "phone": "12064574483", "address": "14725 Aurora Ave N"}, "geometry": {"type": "Point", "coordinates": [-122.3455105, 47.7358025]}}, {"type": "Feature", "properties": {"id": 11527103069, "name": "The Hidden Door", "category": "bar", "tags": ["bar", "barbecue"], "sources": ["osm"], "website": "https://www.thehiddendoorbbq.com", "phone": "+1-206-420-7285", "address": "14525 Aurora Avenue North", "hours": "Mo-Fr 12:00-02:00; Sa-Su 11:00-02:00"}, "geometry": {"type": "Point", "coordinates": [-122.3454442, 47.7349954]}}, {"type": "Feature", "properties": {"id": 13242475502, "name": "Nara Teriyaki", "category": "restaurant", "tags": ["restaurant", "asian", "chinese", "korean"], "sources": ["osm", "overture"], "website": "http://www.nara-chinese-restaurant.com", "phone": "+12064179978", "address": "15033 Aurora Ave N", "hours": "Mo-Sa 11:00-00:00; Su 12:00-00:00"}, "geometry": {"type": "Point", "coordinates": [-122.3462145, 47.7383841]}}, {"type": "Feature", "properties": {"id": 13242481201, "name": "Happy Pub Hookah Lounge", "category": "pub", "tags": ["pub", "bar", "hookah"], "sources": ["osm", "overture"], "website": "https://locu.com/places/shoreline-hookah-lounge-huntington-beach-us", "phone": "+14252434258", "address": "15019 Aurora Ave N", "hours": "Mo-Sa 13:00-02:00; Su 14:00-02:00"}, "geometry": {"type": "Point", "coordinates": [-122.3463829, 47.7379213]}}, {"type": "Feature", "properties": {"id": 13242488402, "name": "Jung's Kitchen", "category": "restaurant", "tags": ["restaurant", "korean"], "sources": ["osm"], "phone": "+1-206-906-9789", "address": "15021 Aurora Avenue North", "hours": "We-Mo 10:00-19:00"}, "geometry": {"type": "Point", "coordinates": [-122.3463506, 47.7379821]}}, {"type": "Feature", "properties": {"id": 13242494001, "name": "Hae-Nam Kalbi & Calamari", "category": "restaurant", "tags": ["restaurant", "korean", "barbecue", "asian"], "sources": ["osm", "overture"], "website": "https://haenam-bbq-restaurant-wa.hub.biz", "phone": "+12063677843", "address": "15001 Aurora Ave N", "hours": "Su 11:30-22:00; Mo-We 11:00-21:30; Fr-Sa 11:00-00:00"}, "geometry": {"type": "Point", "coordinates": [-122.3455354, 47.7379149]}}, {"type": "Feature", "properties": {"id": "c9402a00-4722-4920-a2c4-bb381764d94d", "name": "Aliberto\u2019s Jr", "category": "restaurant", "tags": ["restaurant", "mexican"], "sources": ["overture"], "website": "https://alibertosjrs.com", "phone": "(206) 466-5626", "address": "14300 Aurora Ave N"}, "geometry": {"type": "Point", "coordinates": [-122.3446655, 47.732502]}}, {"type": "Feature", "properties": {"id": "36491e79-36a9-4dbc-9fe7-10d29a901f81", "name": "Kidd Valley", "category": "restaurant", "tags": ["restaurant", "burger", "fast-food"], "sources": ["overture"], "website": "http://www.kiddvalley.com/", "phone": "2063648493", "address": "14303 Aurora Ave N"}, "geometry": {"type": "Point", "coordinates": [-122.3451233, 47.7325287]}}, {"type": "Feature", "properties": {"id": 219481419, "name": "Grounds Coffee Co.", "category": "cafe", "tags": ["cafe", "coffee-shop"], "sources": ["osm"], "address": "14313 Aurora Avenue North"}, "geometry": {"type": "Point", "coordinates": [-122.3456315, 47.7327732]}}, {"type": "Feature", "properties": {"id": 220667326, "name": "Aliberto's", "category": "restaurant", "tags": ["restaurant", "mexican", "drive-through"], "sources": ["osm"], "address": "14300 Aurora Avenue North"}, "geometry": {"type": "Point", "coordinates": [-122.3446328, 47.7325122]}}, {"type": "Feature", "properties": {"id": 309142818, "name": "Pho Tic-Tac", "category": "restaurant", "tags": ["restaurant", "vietnamese", "asian", "noodles"], "sources": ["osm", "overture"], "website": "https://yelp.to/8ViXW27UKrb", "phone": "+12064025638", "address": "14515 Aurora Ave N", "hours": "Mo-Su 11:00-21:00"}, "geometry": {"type": "Point", "coordinates": [-122.3454478, 47.7346493]}}, {"type": "Feature", "properties": {"id": 309142854, "name": "Jersey's", "category": "bar", "tags": ["bar"], "sources": ["osm"], "address": "1125 North 152nd Street"}, "geometry": {"type": "Point", "coordinates": [-122.3440774, 47.7388207]}}, {"type": "Feature", "properties": {"id": 309142861, "name": "Taqueria El Sabor", "category": "restaurant", "tags": ["restaurant", "mexican", "outdoor-seating", "takeaway", "vegetarian", "taco", "latin-american"], "sources": ["osm", "overture"], "website": "https://taqueriaselsabor.com/", "phone": "+12064173346", "address": "15221 Aurora Ave N", "hours": "Su-Th 09:00-23:00; Fr-Sa 09:00-24:00"}, "geometry": {"type": "Point", "coordinates": [-122.3456908, 47.7397141]}}, {"type": "Feature", "properties": {"id": 429148140, "name": "Gorgeous Grounds Bikini Coffee", "category": "cafe", "tags": ["cafe", "drive-through"], "sources": ["osm"], "address": "14507 Aurora Avenue North"}, "geometry": {"type": "Point", "coordinates": [-122.3454359, 47.7343991]}}, {"type": "Feature", "properties": {"id": "f2122b13-afeb-4099-bcba-62fa1647c788", "name": "Starbucks Coffee Company", "category": "cafe", "tags": ["cafe", "coffee"], "sources": ["overture"], "website": "https://www.starbucks.com/store-locator/store/1023885", "phone": "+12064855427", "address": "15226 Aurora Ave N"}, "geometry": {"type": "Point", "coordinates": [-122.3446274, 47.7397423]}}, {"type": "Feature", "properties": {"id": "bd4169d6-2178-44f4-a39b-3ab1a1c7e540", "name": "\u4e00\u54c1\u5ddd\u6e58", "category": "restaurant", "tags": ["restaurant", "chinese"], "sources": ["overture"], "website": "https://www.xiaolongbaohouse.com/", "phone": "+12064574483", "address": "14725 Aurora Ave N"}, "geometry": {"type": "Point", "coordinates": [-122.3455276, 47.7356071]}}, {"type": "Feature", "properties": {"id": "ee1c7365-6b67-4405-a3f0-b5d10eb83d7f", "name": "Godfathers Pizza", "category": "fast_food", "tags": ["fast-food", "fast", "food"], "sources": ["overture"], "website": "http://www.godfatherspizza.com", "phone": "(206) 367-2778", "address": "15216 Aurora Ave N"}, "geometry": {"type": "Point", "coordinates": [-122.3449936, 47.7390862]}}, {"type": "Feature", "properties": {"id": "63f3e53c-640a-4857-adc4-e44f212e0479", "name": "Taco Time Nw", "category": "restaurant", "tags": ["restaurant", "mexican"], "sources": ["overture"], "website": "https://www.tacotimenw.com", "phone": "12063622115", "address": "15010 Aurora Ave N"}, "geometry": {"type": "Point", "coordinates": [-122.3447342, 47.7381897]}}, {"type": "Feature", "properties": {"id": "b1d39dea-ee44-4b2f-9ff4-ba35cbd8df98", "name": "Yetgol Old Village Korean BBQ", "category": "restaurant", "tags": ["restaurant", "korean", "barbecue", "asian"], "sources": ["overture"], "website": "http://www.oldvillagekoreanbbq.com", "phone": "+12063656679", "address": "15200 Aurora Ave N"}, "geometry": {"type": "Point", "coordinates": [-122.3446045, 47.7391396]}}, {"type": "Feature", "properties": {"id": "b12ec7b0-b75e-42e5-bba5-12af570c2965", "name": "Jk Restaurant Inc", "category": "restaurant", "tags": ["restaurant"], "sources": ["overture"], "address": "15200 Aurora Ave N"}, "geometry": {"type": "Point", "coordinates": [-122.3446808, 47.7391624]}}, {"type": "Feature", "properties": {"id": "4ad67b10-fa04-4f1a-b7a1-d12296e60868", "name": "YG Korean BBQ & Gopchang \uc61b\uace8 \ucf54\ub9ac\uc548 \ubc14\ube44\ud050", "category": "restaurant", "tags": ["restaurant", "korean", "asian", "barbecue"], "sources": ["overture"], "phone": "+14255595106", "address": "15200 Aurora Ave N"}, "geometry": {"type": "Point", "coordinates": [-122.3447723, 47.7391281]}}, {"type": "Feature", "properties": {"id": "2e6e3cb7-482e-4bba-a1bb-f6baa7730921", "name": "Shoreline", "category": "fast_food", "tags": ["fast-food", "fast", "food"], "sources": ["overture"], "website": "https://tacotimenw.com/find-us/shoreline/", "address": "15010 Aurora Avenue North, Seattle, WA, USA"}, "geometry": {"type": "Point", "coordinates": [-122.3447189, 47.7381973]}}, {"type": "Feature", "properties": {"id": "2b9e16e8-6219-4f14-8e40-68a295fffc53", "name": "Los Pollos Hermanos", "category": "restaurant", "tags": ["restaurant", "peruvian"], "sources": ["overture"], "website": "https://los-pollos-hermanos.netlify.app", "address": "15009 Aurora Ave N"}, "geometry": {"type": "Point", "coordinates": [-122.345871, 47.737915]}}, {"type": "Feature", "properties": {"id": "c1bc05c8-49ac-471b-beb1-9b151aad979b", "name": "Jbh Enterprises, Inc", "category": "restaurant", "tags": ["restaurant"], "sources": ["overture"], "address": "15001 Aurora Ave N"}, "geometry": {"type": "Point", "coordinates": [-122.3460541, 47.738163]}}, {"type": "Feature", "properties": {"id": "4f3846e0-160f-436a-8980-1cf7bf912322", "name": "Smokin' Pete's BBQ", "category": "restaurant", "tags": ["restaurant", "barbecue", "southern"], "sources": ["overture"], "website": "https://www.smokinpetesbbq.com/", "phone": "+12067830454", "address": "15009 Aurora Ave N"}, "geometry": {"type": "Point", "coordinates": [-122.3460159, 47.738018]}}, {"type": "Feature", "properties": {"id": "86e25f05-0887-44b0-8aa1-baa780908aaa", "name": "Yang's Noodle House", "category": "restaurant", "tags": ["restaurant", "chinese"], "sources": ["overture"], "website": "http://www.shorelineyangsnoodle.com", "phone": "(206) 362-1206", "address": "14725 Aurora Ave N"}, "geometry": {"type": "Point", "coordinates": [-122.3456421, 47.7359047]}}, {"type": "Feature", "properties": {"id": "8c6cece8-9439-4314-9cff-4fd8c8c7ca30", "name": "Royal Dumplings House", "category": "restaurant", "tags": ["restaurant", "dumplings"], "sources": ["overture"], "website": "http://www.royaldumplingshouse.com", "phone": "(206) 457-4483", "address": "14725 Aurora Ave N"}, "geometry": {"type": "Point", "coordinates": [-122.3456345, 47.7359619]}}, {"type": "Feature", "properties": {"id": "564ba2b1-0f95-468f-a81b-cfbc6b9e5c43", "name": "Cascade Press", "category": "restaurant", "tags": ["restaurant"], "sources": ["overture"], "website": "cascadepress.com", "address": "14741 Aurora Ave N"}, "geometry": {"type": "Point", "coordinates": [-122.3455353, 47.7360649]}}, {"type": "Feature", "properties": {"id": "02498d15-5ef6-4b62-a1cb-2d37e6766e66", "name": "iSandwiches & Teriyaki", "category": "restaurant", "tags": ["restaurant", "asian", "pan"], "sources": ["overture"], "website": "https://www.isandwichesteriyaki.com/?utm_source=bing&utm_medium=websiteurl&utm_campaign=search", "phone": "2065293221", "address": "14705 Aurora Ave N"}, "geometry": {"type": "Point", "coordinates": [-122.3458633, 47.7353592]}}, {"type": "Feature", "properties": {"id": "955bf992-881c-4f2b-8473-2a0df62725a5", "name": "Grumpy's Food Truck", "category": "restaurant", "tags": ["restaurant", "mexican", "american"], "sources": ["overture"], "website": "http://grumpysfoodtruck.com/", "phone": "+12069817010", "address": "14507 Aurora Ave N"}, "geometry": {"type": "Point", "coordinates": [-122.3453903, 47.7346382]}}, {"type": "Feature", "properties": {"id": "00835402-485d-45a3-b5a8-12b509161b36", "name": "GRUMPY'S FOOD TRUCK", "category": "fast_food", "tags": ["fast-food", "food", "truck", "mexican"], "sources": ["overture"], "website": "https://auroraaven.grumpysfoodtruck.com/?utm_source=bing&utm_medium=websiteurl&utm_campaign=search", "phone": "2064204204", "address": "13760 Aurora Ave N"}, "geometry": {"type": "Point", "coordinates": [-122.3446808, 47.7303314]}}, {"type": "Feature", "properties": {"id": "4e3e27e9-c515-47c0-9d02-3628711537bf", "name": "Black Rock Coffee Bar", "category": "cafe", "tags": ["cafe", "coffee"], "sources": ["overture"], "website": "https://br.coffee", "phone": "(702) 998-9709"}, "geometry": {"type": "Point", "coordinates": [-122.3456421, 47.7325935]}}, {"type": "Feature", "properties": {"id": "4e62402e-f982-467c-a78d-a5232501e650", "name": "Mezcales Grill", "category": "restaurant", "tags": ["restaurant", "latin-american", "american"], "sources": ["overture"], "website": "https://mezcalesgrill.com", "phone": "(206) 501-4441", "address": "14018 Aurora Ave N"}, "geometry": {"type": "Point", "coordinates": [-122.3445511, 47.730938]}}, {"type": "Feature", "properties": {"id": "a5a8ba05-e94a-4c17-bcbb-fd74a3498126", "name": "Las Adelitas", "category": "restaurant", "tags": ["restaurant", "mexican", "bar-and-grill", "latin-american"], "sources": ["overture"], "website": "http://www.lasadelitasbarandgrill.com", "phone": "+12069132136", "address": "14018 Aurora Ave N"}, "geometry": {"type": "Point", "coordinates": [-122.3448334, 47.7309074]}}, {"type": "Feature", "properties": {"id": "6a30404c-1476-4ad1-bb85-f0b84d5a92fd", "name": "Serrano's Food Truck", "category": "restaurant", "tags": ["restaurant", "mexican"], "sources": ["overture"], "phone": "12065880144", "address": "13760 Aurora Ave N"}, "geometry": {"type": "Point", "coordinates": [-122.3446121, 47.7303391]}}, {"type": "Feature", "properties": {"id": "74fbe5f6-75e2-4bf4-a014-7bb0410413f5", "name": "Indo Cafe", "category": "restaurant", "tags": ["restaurant", "indonesian"], "sources": ["overture"], "website": "https://www.myindocafe.com", "phone": "12063610699", "address": "13754 Aurora Ave N  Ste D"}, "geometry": {"type": "Point", "coordinates": [-122.3445816, 47.7301903]}}, {"type": "Feature", "properties": {"id": "b0383e68-1cd0-4553-8100-3a0b40934eb5", "name": "Sunny Teriyaki #9", "category": "restaurant", "tags": ["restaurant", "japanese"], "sources": ["overture"], "website": "https://sunnyteriyakiseattle3.cafecityguide.website", "phone": "(206) 417-4848", "address": "13754 Aurora Ave N #C"}, "geometry": {"type": "Point", "coordinates": [-122.3446579, 47.7302208]}}, {"type": "Feature", "properties": {"id": "d9d43b72-eacf-4fba-963d-1ffece957b85", "name": "Jersey's Great Food and Spirits", "category": "bar", "tags": ["bar", "sports", "bar-and-grill"], "sources": ["overture"], "website": "http://www.jerseysgreatfood.com/", "phone": "+12065464054", "address": "1125 N 152nd St"}, "geometry": {"type": "Point", "coordinates": [-122.3441467, 47.738884]}}, {"type": "Feature", "properties": {"id": "4e3334da-9fe4-42c6-b93a-0b0b2d5c4c07", "name": "Le's Pho Tai and Sandwiches", "category": "restaurant", "tags": ["restaurant", "vietnamese", "asian", "noodles"], "sources": ["overture"], "website": "http://www.lesphotai.com", "phone": "+12063645444", "address": "15210 Aurora Ave N"}, "geometry": {"type": "Point", "coordinates": [-122.3441238, 47.7394638]}}, {"type": "Feature", "properties": {"id": 3211770341, "name": "Seattle Scatter Piece", "category": "artwork", "tags": ["artwork"], "sources": ["osm"]}, "geometry": {"type": "Point", "coordinates": [-122.3485964, 47.7321318]}}, {"type": "Feature", "properties": {"id": 9908555476, "name": "Lantern Man Milemarkers", "category": "artwork", "tags": ["artwork"], "sources": ["osm"]}, "geometry": {"type": "Point", "coordinates": [-122.3476599, 47.7343036]}}, {"type": "Feature", "properties": {"id": "62bbeb50-89f1-4efe-8264-14689c22d507", "name": "Northline Apartments", "category": "attraction", "tags": ["attraction", "landmark", "historical", "building"], "sources": ["overture"], "website": "https://www.northlineapts.com/?utm_knock=sm", "phone": "+12067597982", "address": "14355 Linden Ave N"}, "geometry": {"type": "Point", "coordinates": [-122.3483582, 47.7338753]}}, {"type": "Feature", "properties": {"id": "42c73370-726d-4ad6-a706-3aa9f06c5939", "name": "Autumn Ridge Apartments", "category": "attraction", "tags": ["attraction", "landmark", "historical", "building"], "sources": ["overture"], "website": "http://www.autumnridge.graninc.com/", "phone": "+12063633117", "address": "15135 Stone Ln N"}, "geometry": {"type": "Point", "coordinates": [-122.3422394, 47.7376747]}}, {"type": "Feature", "properties": {"id": "ac04d89e-4718-4d65-8cb8-ceb83cf6a268", "name": "Linden II", "category": "attraction", "tags": ["attraction", "landmark", "historical", "building"], "sources": ["overture"], "phone": "+12532215502", "address": "14507 Stone Ave N"}, "geometry": {"type": "Point", "coordinates": [-122.3426514, 47.7345238]}}, {"type": "Feature", "properties": {"id": "b03938be-c51d-44b4-925f-2d7662ecc0e1", "name": "Malmo Apartments", "category": "attraction", "tags": ["attraction", "landmark", "historical", "building"], "sources": ["overture"], "website": "https://www.malmoapts.com/?utm_source=businessprofile&utm_medium=search&utm_campaign=general", "phone": "+18555161757", "address": "1210 N 152nd St"}, "geometry": {"type": "Point", "coordinates": [-122.3431778, 47.7392159]}}, {"type": "Feature", "properties": {"id": 50536563, "name": "Bitter Lake Reservoir Open Space", "category": "park", "tags": ["park"], "sources": ["osm"], "website": "https://www.seattle.gov/parks/allparks/bitter-lake-reservoir-open-space", "address": "14201 Linden Avenue North", "hours": "04:00-23:30"}, "geometry": {"type": "Point", "coordinates": [-122.3491868, 47.7309686]}}, {"type": "Feature", "properties": {"id": 797212812, "name": "Washington International School Preschool Park", "category": "park", "tags": ["park"], "sources": ["osm"]}, "geometry": {"type": "Point", "coordinates": [-122.3438183, 47.7339393]}}, {"type": "Feature", "properties": {"id": "cb04887b-f92c-4c29-a8e5-38f3171e85cb", "name": "Bitter Lake Reservoir Park", "category": "park", "tags": ["park"], "sources": ["overture"], "website": "http://www.seattle.gov/parks/projects/bitter_lake_reservoir/enhancement.htm", "phone": "+12066844075", "address": "14201 Linden Ave N"}, "geometry": {"type": "Point", "coordinates": [-122.3484573, 47.7321167]}}, {"type": "Feature", "properties": {"id": "a75786ea-eae1-4c12-a40f-10a38a39f934", "name": "Americas Inn and Suite", "category": "motel", "tags": ["motel"], "sources": ["overture"], "website": "https://www.redlion.com/americas-best-value-inns-suites", "phone": "+12063677880", "address": "14817 Aurora Ave N"}, "geometry": {"type": "Point", "coordinates": [-122.3456879, 47.7363243]}}, {"type": "Feature", "properties": {"id": 9917420498, "name": "Metro by T-Mobile", "category": "mobile_phone", "tags": ["mobile-phone"], "sources": ["osm"], "address": "14717 Aurora Avenue North", "hours": "Mo-Sa 10:00-20:00; Su 11:00-18:00"}, "geometry": {"type": "Point", "coordinates": [-122.345711, 47.7356478]}}, {"type": "Feature", "properties": {"id": 4483046845, "name": "Arcane Comics and More", "category": "books", "tags": ["books"], "sources": ["osm"], "website": "https://www.arcanecomicbooks.com/", "phone": "+1-206-781-4875", "address": "15202 Aurora Avenue North"}, "geometry": {"type": "Point", "coordinates": [-122.3440338, 47.739108]}}, {"type": "Feature", "properties": {"id": 6383905136, "name": "Ebenezer Tienda Latina & Telefon\u00eda M\u00f3vil", "category": "mobile_phone", "tags": ["mobile-phone"], "sources": ["osm"], "phone": "+1-206-420-8053", "address": "13754 Aurora Avenue North"}, "geometry": {"type": "Point", "coordinates": [-122.3447243, 47.7302042]}}, {"type": "Feature", "properties": {"id": "1baaf53b-c222-4fe7-af21-1937c31bf248", "name": "Dockside Cannabis", "category": "cannabis", "tags": ["cannabis", "clinic"], "sources": ["overture"], "website": "http://www.docksidecannabis.com", "phone": "+18443625420", "address": "15029 Aurora Ave N"}, "geometry": {"type": "Point", "coordinates": [-122.346199, 47.7382202]}}, {"type": "Feature", "properties": {"id": 9487658330, "name": "Seattle Ski & Snowboard", "category": "sports", "tags": ["sports"], "sources": ["osm"]}, "geometry": {"type": "Point", "coordinates": [-122.345506, 47.7372272]}}, {"type": "Feature", "properties": {"id": 9917420500, "name": "PC Fix Shoreline", "category": "electronics", "tags": ["electronics"], "sources": ["osm"], "address": "14723 Aurora Avenue North"}, "geometry": {"type": "Point", "coordinates": [-122.3455847, 47.7358045]}}, {"type": "Feature", "properties": {"id": 11228225794, "name": "Fil-Am Food & Gifts", "category": "convenience", "tags": ["convenience"], "sources": ["osm"], "address": "15206 Aurora Avenue North"}, "geometry": {"type": "Point", "coordinates": [-122.3440645, 47.7393199]}}, {"type": "Feature", "properties": {"id": "fe6a4937-b369-4c28-8c59-acacac4b93e1", "name": "Alternative Health Treatment and Healing Center", "category": "cannabis", "tags": ["cannabis"], "sources": ["overture"], "phone": "2065339420", "address": "18820 Aurora Ave N Ste 104B"}, "geometry": {"type": "Point", "coordinates": [-122.3449326, 47.7395706]}}, {"type": "Feature", "properties": {"id": "7cba5331-5f7b-4d59-bb5f-7f5acd926f83", "name": "Harambe Market", "category": "supermarket", "tags": ["supermarket"], "sources": ["overture"], "phone": "12064024159", "address": "15005 Aurora Ave N"}, "geometry": {"type": "Point", "coordinates": [-122.3457184, 47.737915]}}, {"type": "Feature", "properties": {"id": "51b23235-3d96-430b-bcdd-61f2b02a9a1e", "name": "Wireless Connect Llc", "category": "mobile_phone", "tags": ["mobile-phone", "mobile"], "sources": ["overture"], "website": "www.ipterra.net", "phone": "12066195401", "address": "14723 Aurora Ave N"}, "geometry": {"type": "Point", "coordinates": [-122.3455887, 47.7358055]}}, {"type": "Feature", "properties": {"id": "d795bbe4-642c-49bb-8ae1-4d8dbf6698b6", "name": "Long Shadows Vintners", "category": "wine", "tags": ["wine", "winery", "american"], "sources": ["overture"], "website": "http://longshadows.com", "phone": "+12063660335", "address": "911 N 145th St"}, "geometry": {"type": "Point", "coordinates": [-122.3472366, 47.7338257]}}, {"type": "Feature", "properties": {"id": "c336a5c8-c623-466c-a019-1f78cccd059e", "name": "The Laurel Group", "category": "gift", "tags": ["gift"], "sources": ["overture"], "website": "http://www.laurel-group.com", "phone": "(206) 767-4100", "address": "911 N 145th St"}, "geometry": {"type": "Point", "coordinates": [-122.3473358, 47.7339058]}}, {"type": "Feature", "properties": {"id": "70eb9c27-4ae4-4d5e-900b-5ea35d6ced45", "name": "Avant Garden Florist", "category": "florist", "tags": ["florist"], "sources": ["overture"], "website": "http://www.avantgardenseattle.com/", "phone": "2063610779", "address": "14032 Aurora Ave N Ste D"}, "geometry": {"type": "Point", "coordinates": [-122.3450851, 47.7312889]}}, {"type": "Feature", "properties": {"id": "13d57bce-a78e-42fa-952b-2c1cdf0df205", "name": "Card Exchange", "category": "gift", "tags": ["gift"], "sources": ["overture"], "website": "https://cardexchangesports.com/", "phone": "+12064405467", "address": "14020 Aurora Ave N"}, "geometry": {"type": "Point", "coordinates": [-122.3449249, 47.7309494]}}, {"type": "Feature", "properties": {"id": "27902b6a-5053-499b-9e0c-ec725a77a086", "name": "Ebenezer Tienda Latina", "category": "supermarket", "tags": ["supermarket"], "sources": ["overture"], "website": "http://ebenezertiendalatina.com/", "phone": "+12064208053", "address": "13754 Aurora Ave N suite b"}, "geometry": {"type": "Point", "coordinates": [-122.3447418, 47.7301636]}}, {"type": "Feature", "properties": {"id": "9ff10a77-81a2-48e9-9c72-044435afdf39", "name": "Fil-Am Food and Gifts", "category": "supermarket", "tags": ["supermarket"], "sources": ["overture"], "website": "http://filamsantos.wixsite.com/filamstore", "phone": "+12063674832", "address": "15206 Aurora Ave N"}, "geometry": {"type": "Point", "coordinates": [-122.3441315, 47.739315]}}, {"type": "Feature", "properties": {"id": 309142827, "name": "Walgreens", "category": "pharmacy", "tags": ["pharmacy"], "sources": ["osm", "overture"], "website": "https://www.walgreens.com", "phone": "+12063618826", "address": "14510 Aurora Ave N", "hours": "Mo-Su 07:00-22:00"}, "geometry": {"type": "Point", "coordinates": [-122.3445244, 47.7349312]}}, {"type": "Feature", "properties": {"id": 6383905141, "name": "One Medical", "category": "clinic", "tags": ["clinic"], "sources": ["osm"], "address": "15214 Aurora Avenue North", "hours": "Mo-Fr 08:30-17:00"}, "geometry": {"type": "Point", "coordinates": [-122.344057, 47.7396355]}}, {"type": "Feature", "properties": {"id": 6383905143, "name": "Dr. Kim's Clinic", "category": "clinic", "tags": ["clinic"], "sources": ["osm"], "phone": "+1-206-362-3361", "address": "15208 Aurora Avenue North"}, "geometry": {"type": "Point", "coordinates": [-122.3440545, 47.7394217]}}, {"type": "Feature", "properties": {"id": 35451610, "name": "Bitter Lake Post Office", "category": "post_office", "tags": ["post-office"], "sources": ["osm"], "website": "https://tools.usps.com/locations/details/1355040", "address": "929 North 145th Street", "hours": "Mo-Fr 08:30-18:00; Sa 08:30-15:00; Su off"}, "geometry": {"type": "Point", "coordinates": [-122.3462948, 47.7336898]}}, {"type": "Feature", "properties": {"id": "01c6a247-91de-4632-bef1-1ec89e43974b", "name": "United States Postal Service", "category": "post_office", "tags": ["post-office", "office"], "sources": ["overture"], "website": "https://tools.usps.com/find-location.htm?location=1355040", "phone": "+18002758777", "address": "929 N 145th St"}, "geometry": {"type": "Point", "coordinates": [-122.346199, 47.7338257]}}, {"type": "Feature", "properties": {"id": "f2494039-8e02-4cb0-946f-5dda3faa321b", "name": "Post Office Bitter Lake", "category": "post_office", "tags": ["post-office", "office"], "sources": ["overture"], "website": "http://www.usps.com", "phone": "+12063640663", "address": "929 N 145th St"}, "geometry": {"type": "Point", "coordinates": [-122.3461914, 47.7338448]}}, {"type": "Feature", "properties": {"id": 6383905144, "name": "Martial Arts Center", "category": "sports_centre", "tags": ["sports-centre", "martial-arts"], "sources": ["osm"], "website": "https://www.themacenter.com/", "address": "15202 Aurora Avenue North"}, "geometry": {"type": "Point", "coordinates": [-122.344053, 47.7392278]}}, {"type": "Feature", "properties": {"id": "21d7cc68-c871-4e1e-9696-e7bde367708f", "name": "Shoreline MMA", "category": "fitness_centre", "tags": ["fitness-centre", "gym"], "sources": ["overture"], "phone": "2064239951", "address": "14023 Midvale Ave N #B"}, "geometry": {"type": "Point", "coordinates": [-122.3443527, 47.7310829]}}]}