{"type": "FeatureCollection", "features": [{"type": "Feature", "properties": {"id": "9e3e425c-def9-4250-8209-418ebbe55c9f", "name": "ZENSHI Handcrafted Sushi", "category": "restaurant", "tags": ["restaurant", "sushi", "japanese", "asian"], "sources": ["overture"], "website": "https://www.zenshisushi.com/", "phone": "+12536397408", "address": "16735 SE 272nd St"}, "geometry": {"type": "Point", "coordinates": [-122.1202087, 47.3561668]}}, {"type": "Feature", "properties": {"id": 4646505391, "name": "Marshalls", "category": "department_store", "tags": ["department-store"], "sources": ["osm"]}, "geometry": {"type": "Point", "coordinates": [-122.1264607, 47.3558547]}}, {"type": "Feature", "properties": {"id": 656071860, "name": "Ulta Beauty", "category": "cosmetics", "tags": ["cosmetics"], "sources": ["osm"], "website": "https://www.ulta.com/stores/covington-wa-1319", "phone": "+1-253-631-0300", "address": "27339 Covington Way Southeast", "hours": "Mo-Sa 10:00-21:00; Su 11:00-18:00"}, "geometry": {"type": "Point", "coordinates": [-122.1249812, 47.3561709]}}, {"type": "Feature", "properties": {"id": 4854471222, "name": "Famous Footwear", "category": "shoes", "tags": ["shoes", "wifi"], "sources": ["osm"]}, "geometry": {"type": "Point", "coordinates": [-122.1256728, 47.3562599]}}, {"type": "Feature", "properties": {"id": 4158754689, "name": "Fred Meyer Fuel Center", "category": "convenience", "tags": ["convenience"], "sources": ["osm"], "hours": "Mo-Su 07:00-23:00"}, "geometry": {"type": "Point", "coordinates": [-122.1203414, 47.3561664]}}, {"type": "Feature", "properties": {"id": 646722129, "name": "Rocket", "category": "convenience", "tags": ["convenience"], "sources": ["osm", "overture"], "website": "https://rocketstores.com", "phone": "+12536311885", "address": "16405 SE 272nd St"}, "geometry": {"type": "Point", "coordinates": [-122.1228596, 47.3576218]}}, {"type": "Feature", "properties": {"id": 4608477817, "name": "Euphorium", "category": "cannabis", "tags": ["cannabis", "clinic"], "sources": ["osm", "overture"], "website": "http://euphorium502.com/", "phone": "+12534554582", "address": "27623 Covington Way SE"}, "geometry": {"type": "Point", "coordinates": [-122.1228283, 47.3538199]}}, {"type": "Feature", "properties": {"id": 7317283285, "name": "World of Books", "category": "books", "tags": ["books"], "sources": ["osm"]}, "geometry": {"type": "Point", "coordinates": [-122.1255265, 47.3563597]}}, {"type": "Feature", "properties": {"id": 13341367651, "name": "SEA Mart", "category": "supermarket", "tags": ["supermarket"], "sources": ["osm"]}, "geometry": {"type": "Point", "coordinates": [-122.1257546, 47.3561913]}}, {"type": "Feature", "properties": {"id": "19a430c2-dff5-4dc7-bd0d-a553a3743531", "name": "LifeSafer Ignition Interlock", "category": "clothes", "tags": ["clothes"], "sources": ["overture"], "website": "https://www.lifesafer.com/locations/washington/covington/7968?utm_source=exnet&utm_medium=localseo&utm_campaign=yext", "phone": "2536520931", "address": "27635 Covington Way SE Ste 4"}, "geometry": {"type": "Point", "coordinates": [-122.1220703, 47.3531685]}}, {"type": "Feature", "properties": {"id": "a8e846d2-bdf9-43ff-ba40-84fbef95bcb1", "name": "Walls of Books", "category": "books", "tags": ["books"], "sources": ["overture"], "website": "https://www.wallsofbookswa.com/", "phone": "+12536313976", "address": "27339 Covington Way SE Ste C-2"}, "geometry": {"type": "Point", "coordinates": [-122.1257095, 47.3562584]}}, {"type": "Feature", "properties": {"id": "feac5bc7-43e6-4597-83f1-58d990cd235e", "name": "T-Mobile at Costco", "category": "mobile_phone", "tags": ["mobile-phone", "mobile"], "sources": ["overture"], "website": "https://www.t-mobile.com/stores/bd/t-mobile-covington-wa-98042-2c88?utm_source=facebook&utm_medium=lastmile&utm_campaign=2C88", "phone": "+12533345057", "address": "27520 Covington Way SE"}, "geometry": {"type": "Point", "coordinates": [-122.1220703, 47.3554306]}}, {"type": "Feature", "properties": {"id": 4957720622, "name": "Costco Pharmacy", "category": "pharmacy", "tags": ["pharmacy"], "sources": ["osm"], "hours": "Mo-Fr 10:00-20:30; Sa 09:30-18:00"}, "geometry": {"type": "Point", "coordinates": [-122.1221063, 47.3549442]}}, {"type": "Feature", "properties": {"id": "4ffcf014-8340-4cd3-b425-20bbdf33f5f8", "name": "USPS", "category": "post_office", "tags": ["post-office", "office"], "sources": ["overture"], "website": "https://www.usps.com", "phone": "+18002758777", "address": "27520 Covington Way Se"}, "geometry": {"type": "Point", "coordinates": [-122.1226273, 47.3541145]}}, {"type": "Feature", "properties": {"id": 92446332, "name": "Covington Library", "category": "library", "tags": ["library"], "sources": ["osm", "overture"], "website": "http://www.kcls.org/covington", "phone": "+12536308761", "address": "27100 164th Ave SE", "hours": "Mo 10:00-18:00; Tu,We 12:00-20:00; Th,Fr 10:00-18:00; Sa 11:00-18:00"}, "geometry": {"type": "Point", "coordinates": [-122.1217879, 47.3591093]}}]}