{"type": "FeatureCollection", "features": [{"type": "Feature", "properties": {"id": "5b40596e-dfb0-455b-885c-e854801eb3e7", "name": "Guardian Home Services", "category": "doityourself", "tags": ["doityourself", "building", "supply"], "sources": ["overture"], "website": "https://www.guardianhome.com", "phone": "(206) 735-4663", "address": "1400 W Main St Ste B"}, "geometry": {"type": "Point", "coordinates": [-122.247467, 47.3060722]}}, {"type": "Feature", "properties": {"id": "2f7689ef-9fc3-4d42-85ab-627134e6b196", "name": "Washington Cedar & Supply - Auburn", "category": "doityourself", "tags": ["doityourself", "building", "supply"], "sources": ["overture"], "website": "http://washingtoncedar.com/", "phone": "8003004899", "address": "1400 W Main St Ste A"}, "geometry": {"type": "Point", "coordinates": [-122.2476196, 47.3066139]}}, {"type": "Feature", "properties": {"id": "bd1859be-a7b0-4a16-a51e-e6e611f10096", "name": "Pitman Company", "category": "art", "tags": ["art", "supply"], "sources": ["overture"], "phone": "+12537356700", "address": "116 Clay St Nw Ste B4"}, "geometry": {"type": "Point", "coordinates": [-122.2401962, 47.3090134]}}, {"type": "Feature", "properties": {"id": "292fae66-4953-4051-b9a7-8acda33f7797", "name": "Syntrix", "category": "pharmacy", "tags": ["pharmacy"], "sources": ["overture"], "website": "https://www.syntrixbio.com", "phone": "+12538338009", "address": "215 Clay St Nw Ste B5"}, "geometry": {"type": "Point", "coordinates": [-122.2415771, 47.3099632]}}]}