{"type": "FeatureCollection", "features": [{"type": "Feature", "properties": {"id": "1a715de9-07d6-439c-ba76-7f381b32c1c3", "name": "Cafecito Mexican Bakery", "category": "bakery", "tags": ["bakery", "mexican", "latin-american"], "sources": ["overture"], "website": "http://www.CafecitoMexicanBakery.com/", "phone": "+14259817200", "address": "15364 NE 96th Pl"}, "geometry": {"type": "Point", "coordinates": [-122.1336136, 47.6872292]}}, {"type": "Feature", "properties": {"id": "6a16b2f9-9233-46ac-a121-5048271434c1", "name": "Catering By John", "category": "restaurant", "tags": ["restaurant"], "sources": ["overture"], "website": "https://cateringbyjohn.com", "address": "15364 NE 96th Pl"}, "geometry": {"type": "Point", "coordinates": [-122.1337433, 47.6872292]}}, {"type": "Feature", "properties": {"id": "85a33d00-7ac6-4171-bac9-55b3193d0107", "name": "Marymoor Construction", "category": "restaurant", "tags": ["restaurant"], "sources": ["overture"], "website": "marymoorconstruction.com", "address": "15328 NE 96th Pl"}, "geometry": {"type": "Point", "coordinates": [-122.134819, 47.6870461]}}, {"type": "Feature", "properties": {"id": "df1a0214-fe0f-4167-bbf3-33bb52094fef", "name": "King & Prince Seafood", "category": "restaurant", "tags": ["restaurant", "seafood"], "sources": ["overture"], "website": "http://kpseafood.com", "phone": "+14258811919", "address": "15110 NE 90th St Ste 110"}, "geometry": {"type": "Point", "coordinates": [-122.1362305, 47.6825485]}}, {"type": "Feature", "properties": {"id": 92973542, "name": "Tot Lot", "category": "playground", "tags": ["playground"], "sources": ["osm"]}, "geometry": {"type": "Point", "coordinates": [-122.1311853, 47.6860833]}}, {"type": "Feature", "properties": {"id": 92973550, "name": "Avignon Estate Community Park", "category": "park", "tags": ["park"], "sources": ["osm"]}, "geometry": {"type": "Point", "coordinates": [-122.1303602, 47.6861124]}}, {"type": "Feature", "properties": {"id": 92974832, "name": "Avignon Estate Community Park", "category": "park", "tags": ["park"], "sources": ["osm"]}, "geometry": {"type": "Point", "coordinates": [-122.130997, 47.6877551]}}, {"type": "Feature", "properties": {"id": "86da632e-6d05-4240-81c3-4f82fba34116", "name": "Redmond Pse Trail Site", "category": "park", "tags": ["park"], "sources": ["overture"], "website": "https://www.redmond.gov/ParksRecreation/Trails", "address": "Puget Sound Energy Trl"}, "geometry": {"type": "Point", "coordinates": [-122.1341934, 47.6898499]}}, {"type": "Feature", "properties": {"id": 746959417, "name": "Embroidery Northwest", "category": "clothes", "tags": ["clothes"], "sources": ["osm"]}, "geometry": {"type": "Point", "coordinates": [-122.1357598, 47.6812503]}}, {"type": "Feature", "properties": {"id": 1365116001, "name": "Emerald City Clostes & Beds of Seattle", "category": "furniture", "tags": ["furniture"], "sources": ["osm"]}, "geometry": {"type": "Point", "coordinates": [-122.1399002, 47.687531]}}, {"type": "Feature", "properties": {"id": 1418071085, "name": "Eastside Gym", "category": "sports", "tags": ["sports", "fitness-centre", "gym"], "sources": ["osm", "overture"], "website": "http://www.eastsidegym.com/", "phone": "+14258827764", "address": "15040 NE 95th St"}, "geometry": {"type": "Point", "coordinates": [-122.1397682, 47.6862466]}}, {"type": "Feature", "properties": {"id": "71c05ebe-a5ac-48a2-b579-e78376b5d20d", "name": "Sherwin-Williams", "category": "doityourself", "tags": ["doityourself", "building", "supply"], "sources": ["overture"], "website": "https://www.sherwin-williams.com/store-locator/commercial-paint-store/redmond/wa/708260", "phone": "+14258817775", "address": "15340 NE 92nd St Ste C1"}, "geometry": {"type": "Point", "coordinates": [-122.1335144, 47.684391]}}, {"type": "Feature", "properties": {"id": "356e5d6b-7bfc-4521-86b4-27ef7b25e563", "name": "Interior Woodworking Specialists", "category": "doityourself", "tags": ["doityourself", "building", "supply"], "sources": ["overture"], "website": "https://www.interiorwoodworking.com/", "phone": "4258811328", "address": "15337 NE 92nd St"}, "geometry": {"type": "Point", "coordinates": [-122.1358032, 47.683754]}}, {"type": "Feature", "properties": {"id": "1281b2a1-14f5-457a-abc6-1f1896c128f4", "name": "Shoperies", "category": "supermarket", "tags": ["supermarket"], "sources": ["overture"], "address": "15241 NE 90th St"}, "geometry": {"type": "Point", "coordinates": [-122.1364594, 47.6807938]}}, {"type": "Feature", "properties": {"id": "a35ec7ff-11f1-4727-991e-458d078591b1", "name": "Second Stitch Clothing", "category": "clothes", "tags": ["clothes"], "sources": ["overture"], "website": "http://secondstitchclothing.com", "address": "9900 Willows Rd NE"}, "geometry": {"type": "Point", "coordinates": [-122.1390762, 47.6890335]}}, {"type": "Feature", "properties": {"id": 10713154025, "name": "Y-CPR Academy", "category": "clinic", "tags": ["clinic"], "sources": ["osm"], "website": "https://ycpracademy.com/", "phone": "+1-425-941-0306", "address": "9123 151st Avenue Northeast"}, "geometry": {"type": "Point", "coordinates": [-122.1398963, 47.6836658]}}, {"type": "Feature", "properties": {"id": "4b8d4b91-5cfc-4798-9f22-37bcdff0e2a3", "name": "Varta Fitness", "category": "fitness_centre", "tags": ["fitness-centre", "fitness", "trainer"], "sources": ["overture"], "website": "https://vartafitnessandnutrition.com", "phone": "+12064566914", "address": "15205 NE 95th St"}, "geometry": {"type": "Point", "coordinates": [-122.1372299, 47.6855392]}}, {"type": "Feature", "properties": {"id": "ae7e0d01-cfc8-41d4-bc34-d6be9bb718d0", "name": "Fulcrum Training Hall", "category": "fitness_centre", "tags": ["fitness-centre", "gym"], "sources": ["overture"], "website": "http://www.fulcrumtraininghall.com/", "phone": "+14255223523", "address": "15310 NE 96th Pl"}, "geometry": {"type": "Point", "coordinates": [-122.1350021, 47.6869545]}}, {"type": "Feature", "properties": {"id": "d657681c-6717-4844-ae96-cf1fcb7be34e", "name": "Buelt2last Fitness", "category": "fitness_centre", "tags": ["fitness-centre", "fitness", "trainer"], "sources": ["overture"], "phone": "14256330878", "address": "15205 NE 95th St"}, "geometry": {"type": "Point", "coordinates": [-122.1372299, 47.6855392]}}, {"type": "Feature", "properties": {"id": "a1f1a29a-9c96-4358-8b46-fa204cab2c2f", "name": "Serious About Fitness", "category": "fitness_centre", "tags": ["fitness-centre", "gym"], "sources": ["overture"], "website": "http://www.seriousaboutfitness.net/", "phone": "+12068180775", "address": "15205 NE 95th St"}, "geometry": {"type": "Point", "coordinates": [-122.137146, 47.6855583]}}, {"type": "Feature", "properties": {"id": "83acf7a8-95ae-4437-ad4e-c43911a3c5aa", "name": "Tcmm Fitness Studio", "category": "fitness_centre", "tags": ["fitness-centre", "fitness", "trainer"], "sources": ["overture"], "phone": "+14255222564", "address": "8820 152nd Ave NE"}, "geometry": {"type": "Point", "coordinates": [-122.1370926, 47.680954]}}, {"type": "Feature", "properties": {"id": "e491dff2-26bc-4821-a1df-e450c3353b1b", "name": "Acuo CrossFit", "category": "fitness_centre", "tags": ["fitness-centre", "gym"], "sources": ["overture"], "website": "http://www.acuocrossfit.com/", "phone": "+14253071800", "address": "8545 152nd Ave NE"}, "geometry": {"type": "Point", "coordinates": [-122.1379395, 47.680275]}}, {"type": "Feature", "properties": {"id": "1a58e262-9b0f-4925-8861-acf052f9f48b", "name": "Raw Power And Performance", "category": "fitness_centre", "tags": ["fitness-centre", "fitness", "trainer"], "sources": ["overture"], "phone": "+14252867835", "address": "15040 NE 95th St"}, "geometry": {"type": "Point", "coordinates": [-122.1398697, 47.686657]}}, {"type": "Feature", "properties": {"id": "21431f1b-e7db-4497-bc64-42784d00c545", "name": "Foundation Fitness", "category": "fitness_centre", "tags": ["fitness-centre", "fitness", "trainer"], "sources": ["overture"], "website": "https://www.foundationfitness.net", "phone": "+12064190869", "address": "15040 NE 95th St"}, "geometry": {"type": "Point", "coordinates": [-122.1398697, 47.686657]}}]}