{"type": "FeatureCollection", "features": [{"type": "Feature", "properties": {"id": "3b26182b-edc5-4a8e-a156-6d1e4a242308", "name": "Starbucks", "category": "cafe", "tags": ["cafe", "coffee"], "sources": ["overture"], "website": "http://www.starbucks.com/", "phone": "(425) 821-9224", "address": "10020 NE 137th St"}, "geometry": {"type": "Point", "coordinates": [-122.1991119, 47.7199936]}}, {"type": "Feature", "properties": {"id": "fa0c53dc-1711-4070-b688-ed0d16a05e8b", "name": "Starbucks", "category": "cafe", "tags": ["cafe", "coffee"], "sources": ["overture"], "website": "https://www.starbucks.com/store-locator/store/7326", "phone": "4258218502", "address": "11224 NE 124th St"}, "geometry": {"type": "Point", "coordinates": [-122.1912079, 47.7122955]}}, {"type": "Feature", "properties": {"id": "99639913-d989-489b-b220-0eab23e9874e", "name": "Starbucks", "category": "cafe", "tags": ["cafe", "coffee"], "sources": ["overture"], "website": "http://starbucks.com", "address": "11215 NE 124th St"}, "geometry": {"type": "Point", "coordinates": [-122.1906586, 47.7169609]}}, {"type": "Feature", "properties": {"id": 3326287923, "name": "Papa Murphy's", "category": "fast_food", "tags": ["fast-food", "pizza", "takeaway", "restaurant"], "sources": ["osm", "overture"], "website": "https://locations.papamurphys.com/wa/kirkland/11312-ne-124th-street", "phone": "+14258257272", "address": "11312 NE 124th Street"}, "geometry": {"type": "Point", "coordinates": [-122.1900563, 47.7115794]}}, {"type": "Feature", "properties": {"id": 3326287919, "name": "Five Guys", "category": "fast_food", "tags": ["fast-food", "burger", "takeaway", "restaurant", "american"], "sources": ["osm", "overture"], "website": "https://restaurants.fiveguys.com/11220-northeast-124th-street", "phone": "+14258143256", "address": "11220 NE 124th St", "hours": "11:00-22:00"}, "geometry": {"type": "Point", "coordinates": [-122.1914273, 47.7114885]}}, {"type": "Feature", "properties": {"id": 3326287921, "name": "Sip Thai Zooom", "category": "restaurant", "tags": ["restaurant", "outdoor-seating", "child-friendly", "air-conditioned"], "sources": ["osm"], "address": "11308 Northeast 124th Street"}, "geometry": {"type": "Point", "coordinates": [-122.190201, 47.7115811]}}, {"type": "Feature", "properties": {"id": "b4e98dc5-1451-434e-9d9a-0b5032737197", "name": "Northwest Quality Frozen Foods Llc", "category": "restaurant", "tags": ["restaurant"], "sources": ["overture"], "address": "11308 NE 124th St"}, "geometry": {"type": "Point", "coordinates": [-122.1901932, 47.7116013]}}, {"type": "Feature", "properties": {"id": "a65066cf-1bd2-4dfc-a218-1e2cddd2a27a", "name": "Emerson Apartments", "category": "attraction", "tags": ["attraction", "landmark", "historical", "building"], "sources": ["overture"], "website": "https://home.securityproperties.com/emerson/?utm_source=Facebook", "phone": "+14253321868", "address": "11010 NE 124th Ln"}, "geometry": {"type": "Point", "coordinates": [-122.194603, 47.7121239]}}, {"type": "Feature", "properties": {"id": "9a6c879b-487a-4bb7-a11f-65b19a4a1201", "name": "Kirkland Place Condominiums", "category": "attraction", "tags": ["attraction", "landmark", "historical", "building"], "sources": ["overture"], "phone": "+14258217500", "address": "11100 NE 124th Ln"}, "geometry": {"type": "Point", "coordinates": [-122.1925354, 47.7121086]}}, {"type": "Feature", "properties": {"id": "d3061859-4534-4a41-bff8-d47450682b65", "name": "Edith Moulton Park", "category": "park", "tags": ["park"], "sources": ["overture"], "website": "http://www.kirklandwa.gov", "phone": "(425) 587-3300", "address": "13438 108th Ave NE"}, "geometry": {"type": "Point", "coordinates": [-122.1990433, 47.7199936]}}, {"type": "Feature", "properties": {"id": 785736355, "name": "Josten Park", "category": "park", "tags": ["park"], "sources": ["osm", "overture"], "phone": "+14255873300", "address": "112th Pl NE & Northeast 129th Street", "hours": "sunrise-sunset"}, "geometry": {"type": "Point", "coordinates": [-122.1914219, 47.716139]}}, {"type": "Feature", "properties": {"id": "ef570e24-3d78-4090-b6da-38c9b0d6a7d4", "name": "Colfax Peak", "category": "park", "tags": ["park"], "sources": ["overture"], "address": "Colfax Peak"}, "geometry": {"type": "Point", "coordinates": [-122.1963196, 47.7122726]}}, {"type": "Feature", "properties": {"id": 161778007, "name": "Courtyard By Marriott Seattle Kirkland", "category": "hotel", "tags": ["hotel", "wifi"], "sources": ["osm", "overture"], "website": "https://www.marriott.com/en-us/hotels/seatc-courtyard-seattle-kirkland/overview/?scid=d2406702-e8ea-4b45-bb9b-69cddaaef03d", "phone": "+14256023200", "address": "11215 NE 124th St"}, "geometry": {"type": "Point", "coordinates": [-122.1912222, 47.7107534]}}, {"type": "Feature", "properties": {"id": 161814382, "name": "QFC", "category": "supermarket", "tags": ["supermarket", "wifi"], "sources": ["osm", "overture"], "website": "https://www.qfc.com/stores/grocery/wa/kirkland/qfc-totem-lake/705/00828?cid=loc_70500828_fb", "phone": "+14258218502", "address": "11224 NE 124th St", "hours": "24/7"}, "geometry": {"type": "Point", "coordinates": [-122.1911886, 47.7123762]}}, {"type": "Feature", "properties": {"id": "67564e96-87b0-40e1-bea3-9055df480de6", "name": "AT&T", "category": "mobile_phone", "tags": ["mobile-phone", "mobile"], "sources": ["overture"], "website": "https://www.att.com/stores/washington/kirkland/122201", "phone": "(425) 820-9225", "address": "11310 NE 124th St"}, "geometry": {"type": "Point", "coordinates": [-122.1900482, 47.7116699]}}, {"type": "Feature", "properties": {"id": "40f69333-ce6c-445d-9a9a-30ca77a555a6", "name": "Quality Food Center", "category": "pharmacy", "tags": ["pharmacy"], "sources": ["overture"], "website": "https://www.qfc.com/rx/pharmacy/details/705/00828", "address": "11224 NE 124th St"}, "geometry": {"type": "Point", "coordinates": [-122.191185, 47.7124023]}}, {"type": "Feature", "properties": {"id": 5170489957, "name": "Be One Yoga", "category": "fitness_centre", "tags": ["fitness-centre", "yoga"], "sources": ["osm"], "website": "https://www.beoneyogastudio.com/", "address": "1220 Northeast 124th Street"}, "geometry": {"type": "Point", "coordinates": [-122.191428, 47.7115778]}}, {"type": "Feature", "properties": {"id": "0e6d550b-e92e-40fb-8055-c163d98466f3", "name": "Brave Whales Swimming School WA", "category": "swimming_pool", "tags": ["swimming-pool", "swimming", "pool"], "sources": ["overture"], "address": "10601 NE 132nd St"}, "geometry": {"type": "Point", "coordinates": [-122.1986237, 47.7154999]}}, {"type": "Feature", "properties": {"id": "c0cc1fa6-2450-486a-b8fe-5ad05da39dbc", "name": "Be One Yoga Studio", "category": "fitness_centre", "tags": ["fitness-centre", "yoga", "studio"], "sources": ["overture"], "website": "http://www.BeOneYogaStudio.com/", "phone": "+14258209642", "address": "11220 NE 124th St #101"}, "geometry": {"type": "Point", "coordinates": [-122.191391, 47.7115746]}}]}