{"type": "FeatureCollection", "features": [{"type": "Feature", "properties": {"id": 31929281, "name": "Crystal Springs Park", "category": "park", "tags": ["park"], "sources": ["osm"]}, "geometry": {"type": "Point", "coordinates": [-122.2703413, 47.4592536]}}, {"type": "Feature", "properties": {"id": 119997490, "name": "Crestview Park", "category": "park", "tags": ["park"], "sources": ["osm", "overture"], "website": "http://www.crestviewpark.com", "phone": "+12067682822", "address": "16200 42nd Ave S"}, "geometry": {"type": "Point", "coordinates": [-122.2789291, 47.4579712]}}, {"type": "Feature", "properties": {"id": "1bc06d80-114c-4587-8999-68e97a461158", "name": "The Dancer's Gift Shop", "category": "gift", "tags": ["gift"], "sources": ["overture"], "website": "http://www.thedancersgiftshop.com/", "phone": "2064331750", "address": "4445 S 168th St"}, "geometry": {"type": "Point", "coordinates": [-122.2771225, 47.4525871]}}, {"type": "Feature", "properties": {"id": "f063aa3d-379b-4dd4-a227-54a0e55c4ce2", "name": "Nordstrom Southcenter", "category": "department_store", "tags": ["department-store", "department"], "sources": ["overture"], "website": "https://www.nordstrom.com/store-details/nordstrom-southcenter", "address": "100 Southcenter Mall"}, "geometry": {"type": "Point", "coordinates": [-122.2717285, 47.4528313]}}]}