{"type": "FeatureCollection", "features": [{"type": "Feature", "properties": {"id": "22def868-700f-461f-b0d2-bb909fc303f6", "name": "Flycaster Brewing", "category": "bar", "tags": ["bar", "brewery"], "sources": ["overture"], "website": "http://flycasterbrewing.com/", "phone": "2069636626", "address": "12815 NE 124th St Ste I"}, "geometry": {"type": "Point", "coordinates": [-122.169014, 47.7104874]}}, {"type": "Feature", "properties": {"id": "c03cd06a-46af-4da4-a8f1-ed5f2c8dced3", "name": "Savage Brewing Company", "category": "bar", "tags": ["bar", "brewery"], "sources": ["overture"], "website": "https://www.savagebrewingcompany.com/", "phone": "+14252859761"}, "geometry": {"type": "Point", "coordinates": [-122.169075, 47.710453]}}, {"type": "Feature", "properties": {"id": "c5fd0e04-cfa2-4a5c-bd48-46a0239b9abd", "name": "Hollywood Baked Goods", "category": "bakery", "tags": ["bakery"], "sources": ["overture"], "website": "http://www.hollywoodbakedgoods.com/", "phone": "+14259993544", "address": "12815 NE 124th St Ste q"}, "geometry": {"type": "Point", "coordinates": [-122.1687927, 47.7106438]}}, {"type": "Feature", "properties": {"id": 1291671683, "name": "Individually We Transform, Together We Soar", "category": "artwork", "tags": ["artwork"], "sources": ["osm"]}, "geometry": {"type": "Point", "coordinates": [-122.1659711, 47.7169517]}}, {"type": "Feature", "properties": {"id": "415b54bd-d872-457f-8177-7f1670f79b31", "name": "Kirkland Heights Apartments", "category": "attraction", "tags": ["attraction", "landmark", "historical", "building"], "sources": ["overture"], "website": "http://www.quantumms.com/kirkland-wa/kirkland-heights", "phone": "+14258212228", "address": "13317 NE 133rd St"}, "geometry": {"type": "Point", "coordinates": [-122.1618195, 47.7190285]}}, {"type": "Feature", "properties": {"id": 31877353, "name": "132nd Square Park", "category": "park", "tags": ["park"], "sources": ["osm", "overture"], "website": "http://132park.wordpress.com", "phone": "+14255873300", "address": "13159 132nd Ave NE", "hours": "sunrise-23:00"}, "geometry": {"type": "Point", "coordinates": [-122.1657675, 47.7174789]}}, {"type": "Feature", "properties": {"id": "104062c0-00ef-46e8-b370-e74d60296d7a", "name": "Rainbow Play Systems of Washington", "category": "playground", "tags": ["playground"], "sources": ["overture"], "website": "http://www.rainbowplay.com/", "phone": "4258218779", "address": "11801 NE 116th St"}, "geometry": {"type": "Point", "coordinates": [-122.166832, 47.7120934]}}, {"type": "Feature", "properties": {"id": "858c15cf-67a2-43b5-bfc7-ee929c5f290a", "name": "Reynolds Resort", "category": "hotel", "tags": ["hotel", "bar-and-grill"], "sources": ["overture"], "address": "128th Pl"}, "geometry": {"type": "Point", "coordinates": [-122.1656647, 47.7153091]}}, {"type": "Feature", "properties": {"id": 3329431655, "name": "Ames", "category": "hardware", "tags": ["hardware"], "sources": ["osm"], "address": "12815 Northeast 124th Street"}, "geometry": {"type": "Point", "coordinates": [-122.1696516, 47.7102974]}}, {"type": "Feature", "properties": {"id": 3329431660, "name": "Fena Flowers", "category": "florist", "tags": ["florist"], "sources": ["osm"], "website": "https://fenaflowers.com", "address": "12815 Northeast 124th Street"}, "geometry": {"type": "Point", "coordinates": [-122.168848, 47.7105636]}}, {"type": "Feature", "properties": {"id": 326315524, "name": "Denny's Pet World", "category": "pet", "tags": ["pet"], "sources": ["osm", "overture"], "website": "http://www.dennyspet.com/", "phone": "+14258213800", "address": "13123 NE 124th St", "hours": "Mo-Sa 09:00-20:00; Su 10:00-18:00"}, "geometry": {"type": "Point", "coordinates": [-122.1651122, 47.7110198]}}, {"type": "Feature", "properties": {"id": 326315527, "name": "NW Water Sports", "category": "sports", "tags": ["sports"], "sources": ["osm"], "address": "13131 Northeast 124th Street"}, "geometry": {"type": "Point", "coordinates": [-122.164541, 47.7110759]}}, {"type": "Feature", "properties": {"id": "cc9cea83-34fa-4409-84b1-c28278b87295", "name": "AMES Tools", "category": "doityourself", "tags": ["doityourself", "building", "supply"], "sources": ["overture"], "website": "https://www.shopamestools.com/", "phone": "4258200782", "address": "12815 NE 124th St, C"}, "geometry": {"type": "Point", "coordinates": [-122.169014, 47.7104454]}}, {"type": "Feature", "properties": {"id": "c5a37884-b5bf-4c4e-90d7-0ad8a7d2326c", "name": "Praxair Distribution, Inc.", "category": "doityourself", "tags": ["doityourself", "building", "supply"], "sources": ["overture"], "website": "https://www.lindedirect.com", "phone": "+14258212423", "address": "13115 NE 124th St"}, "geometry": {"type": "Point", "coordinates": [-122.1658401, 47.7110405]}}, {"type": "Feature", "properties": {"id": "8df98e19-8243-40b4-ad99-b99c7a294d03", "name": "Grand Reve Vintners", "category": "wine", "tags": ["wine", "winery"], "sources": ["overture"], "phone": "14259987383", "address": "12514 130th Ln NE"}, "geometry": {"type": "Point", "coordinates": [-122.1669235, 47.7130051]}}, {"type": "Feature", "properties": {"id": "159110bf-2f78-43ca-842f-12e1187fd293", "name": "Force Majeure", "category": "wine", "tags": ["wine", "winery"], "sources": ["overture"], "website": "https://forcemajeurevineyards.com", "phone": "+14259987383", "address": "12514 130th Ln NE"}, "geometry": {"type": "Point", "coordinates": [-122.1671448, 47.7129936]}}, {"type": "Feature", "properties": {"id": 3329431653, "name": "DM Athletics", "category": "clinic", "tags": ["clinic"], "sources": ["osm"], "address": "12815 Northeast 124th Street"}, "geometry": {"type": "Point", "coordinates": [-122.1693186, 47.7103808]}}, {"type": "Feature", "properties": {"id": 3329431661, "name": "F3 FUNctional Fitness LLC", "category": "clinic", "tags": ["clinic", "fitness-centre", "gym"], "sources": ["osm", "overture"], "website": "https://www.f3-functionalfitness.com", "phone": "14258984003", "address": "12815 Ne 124th St  Ste L"}, "geometry": {"type": "Point", "coordinates": [-122.1687426, 47.7105828]}}]}