{"type": "FeatureCollection", "features": [{"type": "Feature", "properties": {"id": 1234307419, "name": "Subway", "category": "fast_food", "tags": ["fast-food", "sandwich", "takeaway", "restaurant"], "sources": ["osm", "overture"], "website": "https://www.subway.com", "phone": "14258890711", "address": "255 Central Way", "hours": "Mo-Th 07:30-20:30; Fr 07:30-22:30; Sa 08:30-22:30; Su 09:30-19:30"}, "geometry": {"type": "Point", "coordinates": [-122.203689, 47.6771487]}}, {"type": "Feature", "properties": {"id": "ea7cd161-bbea-48f7-b3fa-ea046a645bf4", "name": "Pho Tai", "category": "restaurant", "tags": ["restaurant", "vietnamese"], "sources": ["overture"], "website": "https://orderphotaikirkland.com", "phone": "(425) 576-5407", "address": "147 Park Ln"}, "geometry": {"type": "Point", "coordinates": [-122.2050858, 47.6762161]}}, {"type": "Feature", "properties": {"id": "36eb59ae-a15c-465f-b17f-f568e2a91d50", "name": "Starbucks", "category": "cafe", "tags": ["cafe", "coffee", "fast-food"], "sources": ["overture"], "website": "https://www.starbucks.com/store-locator/store/17162/", "phone": "+14258039086", "address": "116 Lake St"}, "geometry": {"type": "Point", "coordinates": [-122.2066269, 47.6758499]}}, {"type": "Feature", "properties": {"id": 2973921857, "name": "Just Pok\u00e9", "category": "restaurant", "tags": ["restaurant", "hawaiian"], "sources": ["osm", "overture"], "website": "https://www.justpoke.com", "address": "117 Kirkland Ave", "hours": "Mo-Su 11:00-20:00"}, "geometry": {"type": "Point", "coordinates": [-122.2056298, 47.6754433]}}, {"type": "Feature", "properties": {"id": 1234307240, "name": "Taco Del Mar", "category": "fast_food", "tags": ["fast-food", "mexican", "takeaway", "restaurant", "taco", "texmex"], "sources": ["osm", "overture"], "website": "http://www.tacodelmar.com/", "phone": "+14258270177", "address": "210 Main St", "hours": "Mo-Sa 10:30-20:30; Su 11:00-20:00"}, "geometry": {"type": "Point", "coordinates": [-122.2046819, 47.6766457]}}, {"type": "Feature", "properties": {"id": 1030892566, "name": "Zoka Coffee - Kirkland", "category": "cafe", "tags": ["cafe", "coffee-shop"], "sources": ["osm"], "phone": "+1-425-284-1830", "address": "129 Central Way", "hours": "Mo-Su 06:30-18:00,Sa-Su 07:00-19:00"}, "geometry": {"type": "Point", "coordinates": [-122.207194, 47.6763592]}}, {"type": "Feature", "properties": {"id": 1030894537, "name": "Jimmy John's", "category": "fast_food", "tags": ["fast-food", "sandwich", "takeaway", "restaurant"], "sources": ["osm", "overture"], "website": "https://locations.jimmyjohns.com/wa/kirkland/sandwiches-1074.html", "phone": "+14258289000", "address": "92 Central Way", "hours": "Mo-Su 10:30-20:00"}, "geometry": {"type": "Point", "coordinates": [-122.2085004, 47.6764951]}}, {"type": "Feature", "properties": {"id": 1145788549, "name": "Santorini Greek Grill", "category": "restaurant", "tags": ["restaurant", "greek", "mediterranean", "european"], "sources": ["osm", "overture"], "website": "http://santorinigreekgrill.t2-food.com", "phone": "+14258220555", "address": "106 Central Way", "hours": "11:00-20:00"}, "geometry": {"type": "Point", "coordinates": [-122.2080093, 47.6765461]}}, {"type": "Feature", "properties": {"id": "d980f613-8264-4886-a5a6-1b24fc7ab0cb", "name": "The French Bakery", "category": "bakery", "tags": ["bakery"], "sources": ["overture"], "address": "219 Kirkland Ave Ste 102"}, "geometry": {"type": "Point", "coordinates": [-122.2061844, 47.6756706]}}, {"type": "Feature", "properties": {"id": 1234296252, "name": "Caffe Ladro", "category": "cafe", "tags": ["cafe"], "sources": ["osm"], "address": "104 Central Way", "hours": "Mo-Su 07:00-19:00"}, "geometry": {"type": "Point", "coordinates": [-122.208106, 47.6765294]}}, {"type": "Feature", "properties": {"id": 1234306484, "name": "Moss Bay Hall", "category": "pub", "tags": ["pub", "restaurant"], "sources": ["osm", "overture"], "website": "https://www.thehall.group/", "phone": "+14252859132", "address": "111 Central Way"}, "geometry": {"type": "Point", "coordinates": [-122.2078125, 47.6762912]}}, {"type": "Feature", "properties": {"id": 1234306561, "name": "Hanuman Thai Caf\u00e9", "category": "restaurant", "tags": ["restaurant", "thai", "takeaway"], "sources": ["osm"], "website": "https://hanumanthai-cafe.com/", "address": "115 Central Way", "hours": "Mo-Th 11:00-21:30; Fr-Sa 11:00-22:00; Su 12:00-21:30"}, "geometry": {"type": "Point", "coordinates": [-122.2075082, 47.6763092]}}, {"type": "Feature", "properties": {"id": 1234307039, "name": "Zeeks Pizza - Kirkland", "category": "restaurant", "tags": ["restaurant", "pizza"], "sources": ["osm"], "website": "http://zeekspizzakirkland.com/", "address": "124 Park Lane", "hours": "Mo-Su 11:00-22:00"}, "geometry": {"type": "Point", "coordinates": [-122.2058461, 47.6762669]}}, {"type": "Feature", "properties": {"id": 1234307482, "name": "Sushi & Bowls", "category": "restaurant", "tags": ["restaurant", "japanese", "sushi", "takeaway"], "sources": ["osm"], "website": "https://www.sbsushiandbowls.com/", "phone": "+1-425-298-5135", "address": "211 3rd Street", "hours": "Mo-Sa 11:00-14:30,16:30-20:30"}, "geometry": {"type": "Point", "coordinates": [-122.2036345, 47.6768124]}}, {"type": "Feature", "properties": {"id": 1234308158, "name": "Zoq", "category": "restaurant", "tags": ["restaurant", "pakistani"], "sources": ["osm"], "address": "212 Central Way"}, "geometry": {"type": "Point", "coordinates": [-122.2054028, 47.6771259]}}, {"type": "Feature", "properties": {"id": 1234308907, "name": "Afghan Cusine", "category": "restaurant", "tags": ["restaurant", "afghan", "arabic", "kebab", "vegetarian", "halal"], "sources": ["osm"], "phone": "+1-425-553-1476", "address": "110 Central Way", "hours": "Su-Th 11:00-21:00; Fr 11:00-21:30; Sa 12:00-21:30"}, "geometry": {"type": "Point", "coordinates": [-122.2078154, 47.6765902]}}, {"type": "Feature", "properties": {"id": 1234309418, "name": "Zeitoon Grill", "category": "restaurant", "tags": ["restaurant", "persian", "wifi"], "sources": ["osm"], "address": "21 Central Way", "hours": "Tu-Su 11:00-21:00"}, "geometry": {"type": "Point", "coordinates": [-122.2084407, 47.6762282]}}, {"type": "Feature", "properties": {"id": "d8993cbd-e799-4615-9eb7-4b29bd8a88ff", "name": "Los Chilangos", "category": "restaurant", "tags": ["restaurant", "mexican"], "sources": ["overture"], "website": "http://www.loschilangos.com", "phone": "14255981286", "address": "406 Central Way"}, "geometry": {"type": "Point", "coordinates": [-122.2007217, 47.6785622]}}, {"type": "Feature", "properties": {"id": 712534101, "name": "Shake Shack", "category": "fast_food", "tags": ["fast-food", "burger", "takeaway", "restaurant"], "sources": ["osm", "overture"], "website": "https://www.shakeshack.com/location/kirkland-wa/?utm_source=facebook&utm_medium=listing", "phone": "+14252508318", "address": "300 Peter Kirk Lane", "hours": "10:30-23:00"}, "geometry": {"type": "Point", "coordinates": [-122.2001617, 47.6776568]}}, {"type": "Feature", "properties": {"id": "8f5ce5e9-8056-4fc0-a658-c925b34c6d37", "name": "Bobae Coffee and Tea", "category": "cafe", "tags": ["cafe", "coffee"], "sources": ["overture"], "website": "https://www.bobaeusa.com", "phone": "+14258183228", "address": "168 Lake St S"}, "geometry": {"type": "Point", "coordinates": [-122.205925, 47.674305]}}, {"type": "Feature", "properties": {"id": 1713727901, "name": "VoVina", "category": "bar", "tags": ["bar"], "sources": ["osm"]}, "geometry": {"type": "Point", "coordinates": [-122.2073403, 47.6760103]}}, {"type": "Feature", "properties": {"id": 1970998262, "name": "RockCreek Seafood & Spirits", "category": "restaurant", "tags": ["restaurant", "seafood", "outdoor-seating"], "sources": ["osm"], "website": "https://rockcreekseafood.com/kirkland-rock-creek-seafood/", "phone": "+1-425-285-7088", "address": "89 Kirkland Avenue", "hours": "Su-Th 16:00-22:00,Fr-Sa 16:00-21:00"}, "geometry": {"type": "Point", "coordinates": [-122.2068721, 47.6752132]}}, {"type": "Feature", "properties": {"id": 1971024628, "name": "Anthony's HomePort Kirkland", "category": "restaurant", "tags": ["restaurant", "seafood", "american"], "sources": ["osm", "overture"], "website": "https://www.anthonys.com/restaurants/detail/anthonys-homeport-kirkland", "phone": "+14258220225", "address": "135 Lake St S", "hours": "Mo-Th 04:30-21:00; Fr-Sa 04:30-22:00; Su 10:00-21:00"}, "geometry": {"type": "Point", "coordinates": [-122.206514, 47.6742361]}}, {"type": "Feature", "properties": {"id": 1971028518, "name": "Ben & Jerry's", "category": "ice_cream", "tags": ["ice-cream", "outdoor-seating"], "sources": ["osm"], "address": "176 Lake Street South"}, "geometry": {"type": "Point", "coordinates": [-122.2057816, 47.6741901]}}, {"type": "Feature", "properties": {"id": 1971030987, "name": "Isarn", "category": "restaurant", "tags": ["restaurant", "thai", "vegetarian", "vegan"], "sources": ["osm"], "address": "170 Lake Street South"}, "geometry": {"type": "Point", "coordinates": [-122.2058545, 47.6743278]}}, {"type": "Feature", "properties": {"id": 1971043409, "name": "George's", "category": "restaurant", "tags": ["restaurant", "greek", "american", "mediterranean", "breakfast-and-brunch"], "sources": ["osm", "overture"], "website": "http://www.georgeskirkland.com/", "phone": "+14258276622", "address": "108 Kirkland Ave", "hours": "Mo-Th 08:00-20:00; Fr 08:00-21:00; Sa 07:00-21:00; Su 07:00-20:00"}, "geometry": {"type": "Point", "coordinates": [-122.2060934, 47.6756507]}}, {"type": "Feature", "properties": {"id": 1971046899, "name": "Central Tavern", "category": "bar", "tags": ["bar"], "sources": ["osm"], "website": "http://www.centralclubkirkland.com/", "address": "124 Kirkland Avenue"}, "geometry": {"type": "Point", "coordinates": [-122.2055416, 47.6756461]}}, {"type": "Feature", "properties": {"id": 1971051661, "name": "Volterra", "category": "restaurant", "tags": ["restaurant", "italian", "european"], "sources": ["osm", "overture"], "website": "http://volterrakirkland.com", "phone": "+14252027201", "address": "121 Kirkland Ave"}, "geometry": {"type": "Point", "coordinates": [-122.2052842, 47.6754527]}}, {"type": "Feature", "properties": {"id": 1971057581, "name": "The Whole Cat and Kaboodle", "category": "cafe", "tags": ["cafe", "smoking"], "sources": ["osm"], "website": "https://www.wholecatandkaboodle.com/", "phone": "+1-425-307-1008", "address": "202 Kirkland Avenue", "hours": "Su-Fr 09:00-18:00; Sa 09:00-17:00"}, "geometry": {"type": "Point", "coordinates": [-122.2047388, 47.6758027]}}, {"type": "Feature", "properties": {"id": 1971071822, "name": "Hearth", "category": "restaurant", "tags": ["restaurant", "american", "comfort-food"], "sources": ["osm", "overture"], "website": "http://hearthkirkland.com", "phone": "+14252845900", "address": "220 Kirkland Ave"}, "geometry": {"type": "Point", "coordinates": [-122.2037164, 47.6756459]}}, {"type": "Feature", "properties": {"id": 1973302876, "name": "Supreme Dumplings", "category": "restaurant", "tags": ["restaurant", "chinese", "asian"], "sources": ["osm", "overture"], "website": "https://www.supreme-dumplings.com", "phone": "+18773092755", "address": "120 Park Ln #B"}, "geometry": {"type": "Point", "coordinates": [-122.2060378, 47.676225]}}, {"type": "Feature", "properties": {"id": 1973303893, "name": "Restaurante Paradiso", "category": "restaurant", "tags": ["restaurant", "italian"], "sources": ["osm"], "website": "https://www.ristoranteparadiso.com/", "address": "120 Park Lane"}, "geometry": {"type": "Point", "coordinates": [-122.205942, 47.6762459]}}, {"type": "Feature", "properties": {"id": 1973304016, "name": "Feast", "category": "restaurant", "tags": ["restaurant", "french"], "sources": ["osm"], "website": "http://feast-kirkland.com/", "phone": "+1-425-822-0788", "address": "115 Park Lane", "hours": "Tu,We 16:30-21:00; Th 16:30-21:30; Fr,Sa 12:00-21:30; Su 12:00-20:30"}, "geometry": {"type": "Point", "coordinates": [-122.206022, 47.6759934]}}, {"type": "Feature", "properties": {"id": 1973304104, "name": "Cactus - Kirkland", "category": "restaurant", "tags": ["restaurant", "mexican", "bar", "cocktail", "texmex"], "sources": ["osm", "overture"], "website": "http://www.cactusrestaurants.com", "phone": "+14258939799", "address": "121 Park Ln", "hours": "Mo-Th 11:00-22:00; Fr 11:00-23:00; Sa 10:00-23:00; Su 10:00-22:00"}, "geometry": {"type": "Point", "coordinates": [-122.205641, 47.6760837]}}, {"type": "Feature", "properties": {"id": 1973306119, "name": "Thruline Coffee Co.", "category": "cafe", "tags": ["cafe", "coffee-shop", "outdoor-seating", "coffee"], "sources": ["osm", "overture"], "website": "http://www.thrulinecoffee.com/", "phone": "+18559762626", "address": "136 Park Ln", "hours": "Mo-Su 07:00-21:00"}, "geometry": {"type": "Point", "coordinates": [-122.205367, 47.6763719]}}, {"type": "Feature", "properties": {"id": 1973307104, "name": "Kokio Chicken", "category": "restaurant", "tags": ["restaurant", "chicken"], "sources": ["osm"], "website": "https://www.kokiochicken.com", "address": "147 Park Lane", "hours": "Mo-Su 11:00-22:00"}, "geometry": {"type": "Point", "coordinates": [-122.205092, 47.6761977]}}, {"type": "Feature", "properties": {"id": 1973308077, "name": "Bottle & Bull", "category": "pub", "tags": ["pub", "american", "italian", "wheelchair-accessible", "vegetarian", "vegan", "cocktails", "bar", "cocktail"], "sources": ["osm", "overture"], "website": "http://www.bottle-bull.com/", "phone": "+14252984972", "address": "105 Lake St S", "hours": "Su-Th 16:00-23:00; Fr-Sa 16:00-24:00"}, "geometry": {"type": "Point", "coordinates": [-122.2065667, 47.6751652]}}, {"type": "Feature", "properties": {"id": 1973310158, "name": "Alanya D\u00f6ner", "category": "cafe", "tags": ["cafe", "turkish", "restaurant", "mediterranean"], "sources": ["osm", "overture"], "website": "http://alanyacafekirkland.com/", "phone": "+14257394747", "address": "1 Lake St", "hours": "Mo-Sa 11:00-20:00; Su 11:00-18:00"}, "geometry": {"type": "Point", "coordinates": [-122.2068162, 47.6756509]}}, {"type": "Feature", "properties": {"id": 1973310181, "name": "Rimini Restaurant", "category": "restaurant", "tags": ["restaurant", "italian"], "sources": ["osm", "overture"], "website": "https://www.instagram.com/riminirestaurant/", "phone": "+14252420070", "address": "3 Lake St", "hours": "Tu-Su 16:00-22:00"}, "geometry": {"type": "Point", "coordinates": [-122.2068401, 47.6757103]}}, {"type": "Feature", "properties": {"id": 1973313617, "name": "Noii", "category": "restaurant", "tags": ["restaurant", "sushi"], "sources": ["osm"], "website": "https://www.noiisushi.com", "address": "107 Lake Street"}, "geometry": {"type": "Point", "coordinates": [-122.2070947, 47.6761531]}}, {"type": "Feature", "properties": {"id": "f4d9a32d-5a8e-41e0-a9df-45eddf477bb4", "name": "Flatstick Pub", "category": "restaurant", "tags": ["restaurant", "pub"], "sources": ["overture"], "website": "https://flatstickpub.com/kirkland/", "phone": "+14252421618", "address": "15 Lake St Ste 100"}, "geometry": {"type": "Point", "coordinates": [-122.2073364, 47.6758957]}}, {"type": "Feature", "properties": {"id": 9834786068, "name": "Emerald City Smoothie", "category": "fast_food", "tags": ["fast-food", "juice", "takeaway"], "sources": ["osm"]}, "geometry": {"type": "Point", "coordinates": [-122.2016996, 47.6781112]}}, {"type": "Feature", "properties": {"id": 3042655102, "name": "Dumpling The Noodle", "category": "restaurant", "tags": ["restaurant", "asian"], "sources": ["osm"], "website": "https://dumplingthenoodle.com", "address": "206 Main Street"}, "geometry": {"type": "Point", "coordinates": [-122.2047491, 47.6765564]}}, {"type": "Feature", "properties": {"id": 2973921660, "name": "Falafel Fresh", "category": "restaurant", "tags": ["restaurant", "greek", "halal"], "sources": ["osm", "overture"], "website": "https://www.falafelfresh.org", "phone": "14256368250", "address": "117 Lake St S"}, "geometry": {"type": "Point", "coordinates": [-122.2064528, 47.6749386]}}, {"type": "Feature", "properties": {"id": "0c2ed03c-040d-475f-8479-51a0edcff086", "name": "Mod Pizza", "category": "restaurant", "tags": ["restaurant", "pizza"], "sources": ["overture"], "website": "modsuperfast.com", "address": "230 Main St"}, "geometry": {"type": "Point", "coordinates": [-122.2047195, 47.6768494]}}, {"type": "Feature", "properties": {"id": 7297876590, "name": "Happy Lemon", "category": "cafe", "tags": ["cafe", "bubble-tea", "takeaway"], "sources": ["osm"], "website": "https://www.mr-wish.com/", "address": "320 4th Street", "hours": "Mo-Su 11:30-21:00"}, "geometry": {"type": "Point", "coordinates": [-122.2011257, 47.6786088]}}, {"type": "Feature", "properties": {"id": "0a04531a-461c-43ff-80ff-e55084aa16df", "name": "Cafe Happy", "category": "restaurant", "tags": ["restaurant", "chinese"], "sources": ["overture"], "website": "http://cafe-happy.com", "phone": "(425) 822-9696", "address": "102 Kirkland Ave"}, "geometry": {"type": "Point", "coordinates": [-122.2062149, 47.6757126]}}, {"type": "Feature", "properties": {"id": 2973927235, "name": "Yi Fang Tea", "category": "cafe", "tags": ["cafe", "bubble-tea", "outdoor-seating", "takeaway", "vegetarian", "vegan"], "sources": ["osm"], "phone": "+1-425-822-9696", "address": "102 Kirkland Avenue"}, "geometry": {"type": "Point", "coordinates": [-122.2063636, 47.6756635]}}, {"type": "Feature", "properties": {"id": "45d5f917-7397-4c88-a7bd-43dab62451f5", "name": "Isarn Thai Soul Kitchen", "category": "restaurant", "tags": ["restaurant", "thai", "asian"], "sources": ["overture"], "website": "http://www.isarnkitchen.com", "phone": "+14252984429", "address": "170 Lake St S"}, "geometry": {"type": "Point", "coordinates": [-122.2059021, 47.6742744]}}, {"type": "Feature", "properties": {"id": 2973919267, "name": "Side Hustle Taproom", "category": "pub", "tags": ["pub"], "sources": ["osm"], "website": "https://sidehustletaps.com/kirkland", "address": "15 Lake Street"}, "geometry": {"type": "Point", "coordinates": [-122.2070189, 47.6760144]}}, {"type": "Feature", "properties": {"id": 2973919268, "name": "Fogrose Atelier", "category": "cafe", "tags": ["cafe", "tea", "room"], "sources": ["osm", "overture"], "website": "http://www.fogrose.com/", "phone": "+14256330183", "address": "15 Lake St"}, "geometry": {"type": "Point", "coordinates": [-122.206981, 47.6759604]}}, {"type": "Feature", "properties": {"id": 2973921856, "name": "LizzyKate", "category": "cafe", "tags": ["cafe", "tea", "outdoor-seating", "air-conditioned", "wifi", "room"], "sources": ["osm", "overture"], "website": "http://www.lizzykate.com", "phone": "+14252506878", "address": "115 Kirkland Ave", "hours": "Mo-Th 10:00-18:00; Fr-Sa 10:00-19:00; Su 10:00-17:00"}, "geometry": {"type": "Point", "coordinates": [-122.2057352, 47.6754466]}}, {"type": "Feature", "properties": {"id": 2973922227, "name": "Bobae", "category": "cafe", "tags": ["cafe"], "sources": ["osm"], "website": "https://bobaeusa.com", "address": "168 Lake Street South"}, "geometry": {"type": "Point", "coordinates": [-122.2058888, 47.6743976]}}, {"type": "Feature", "properties": {"id": 2973927233, "name": "Melody Lynne Vineyard", "category": "bar", "tags": ["bar"], "sources": ["osm"], "address": "106 Kirkland Avenue", "hours": "We-Sa 15:30-23:59; Su 15:30-22:00"}, "geometry": {"type": "Point", "coordinates": [-122.2061855, 47.6756598]}}, {"type": "Feature", "properties": {"id": 2973927234, "name": "Kiwami", "category": "restaurant", "tags": ["restaurant", "sushi"], "sources": ["osm"], "address": "104 Kirkland Avenue"}, "geometry": {"type": "Point", "coordinates": [-122.2062878, 47.6756603]}}, {"type": "Feature", "properties": {"id": 3042655103, "name": "Artha", "category": "restaurant", "tags": ["restaurant", "indian", "takeaway"], "sources": ["osm"], "website": "https://arthaindianbistro.com", "phone": "+1-425-803-0330", "address": "238 Park Lane", "hours": "We-Mo 11:30-15:00, 17:00-22:00"}, "geometry": {"type": "Point", "coordinates": [-122.204066, 47.6766637]}}, {"type": "Feature", "properties": {"id": 3324382883, "name": "Philly Ya Belly", "category": "fast_food", "tags": ["fast-food", "sandwich", "restaurant"], "sources": ["osm", "overture"], "website": "http://phillyyabellyeverett.com", "address": "214 Central Way", "hours": "Mo-Sa 11:00-21:00"}, "geometry": {"type": "Point", "coordinates": [-122.2052669, 47.6771473]}}, {"type": "Feature", "properties": {"id": 3324457073, "name": "Sirena Gelato", "category": "ice_cream", "tags": ["ice-cream", "gelato"], "sources": ["osm", "overture"], "website": "http://www.sirenagelato.com/", "phone": "+14257399339", "address": "109 Park Ln"}, "geometry": {"type": "Point", "coordinates": [-122.20625, 47.6759477]}}, {"type": "Feature", "properties": {"id": 3324457402, "name": "Pop Culture", "category": "bar", "tags": ["bar"], "sources": ["osm"], "address": "42 Lakeshore Plaza", "hours": "Mo-Tu 14:00-19:00,We-Th 14:00-20:00,Fr-Sa 12:00-21:00,Su 12:00-17:00"}, "geometry": {"type": "Point", "coordinates": [-122.2077491, 47.6760804]}}, {"type": "Feature", "properties": {"id": 3324457541, "name": "Cloud Food Court", "category": "restaurant", "tags": ["restaurant"], "sources": ["osm"], "address": "52 Lakeshore Plaza"}, "geometry": {"type": "Point", "coordinates": [-122.208426, 47.6759891]}}, {"type": "Feature", "properties": {"id": 3326343157, "name": "Sano", "category": "cafe", "tags": ["cafe"], "sources": ["osm"], "address": "104 Lake Street South", "hours": "Mo-Su 08:00-17:00"}, "geometry": {"type": "Point", "coordinates": [-122.2062816, 47.6753313]}}, {"type": "Feature", "properties": {"id": "d187b256-0b05-4640-83fa-0ecfa9ca97a4", "name": "Wendy's", "category": "restaurant", "tags": ["restaurant", "burger", "fast-food"], "sources": ["overture"], "phone": "4258221416", "address": "312 Central Way"}, "geometry": {"type": "Point", "coordinates": [-122.2028427, 47.6777573]}}, {"type": "Feature", "properties": {"id": 10844431994, "name": "Taqueria Los Chilangos", "category": "fast_food", "tags": ["fast-food", "mexican"], "sources": ["osm"], "hours": "Mo-Fr 07:30-21:00; Sa 09:00-21:00; Su 10:00-20:00"}, "geometry": {"type": "Point", "coordinates": [-122.2010815, 47.6785307]}}, {"type": "Feature", "properties": {"id": 4840570388, "name": "Santa Fe", "category": "restaurant", "tags": ["restaurant", "mexican"], "sources": ["osm"], "website": "https://www.santafemex.com", "phone": "+1-425-285-9160"}, "geometry": {"type": "Point", "coordinates": [-122.2071231, 47.676216]}}, {"type": "Feature", "properties": {"id": 6287617785, "name": "Flatstick Pub - Kirkland", "category": "pub", "tags": ["pub"], "sources": ["osm"], "website": "https://flatstickpub.com/kirkland/", "phone": "+1-425-242-1618", "address": "55 Lake Street", "hours": "Su-Th 12:00-00:00; Fr-Sa 12:00-02:00"}, "geometry": {"type": "Point", "coordinates": [-122.2073041, 47.6759357]}}, {"type": "Feature", "properties": {"id": 13179429080, "name": "Cafe Hagen", "category": "cafe", "tags": ["cafe", "outdoor-seating", "coffee"], "sources": ["osm", "overture"], "website": "https://www.cafehagen.com", "address": "146 Lake St S", "hours": "Mo-Su 07:00-18:00"}, "geometry": {"type": "Point", "coordinates": [-122.2059672, 47.6746163]}}, {"type": "Feature", "properties": {"id": 9293896832, "name": "YangGuoFu", "category": "restaurant", "tags": ["restaurant", "chinese"], "sources": ["osm"], "address": "116 Central Way"}, "geometry": {"type": "Point", "coordinates": [-122.2075411, 47.676658]}}, {"type": "Feature", "properties": {"id": "dd6ed373-c4b3-4212-bb2e-d0d541751a7a", "name": "Kizuki Ramen & Izakaya", "category": "restaurant", "tags": ["restaurant", "noodles"], "sources": ["overture"], "website": "https://www.kizuki.com", "phone": "+14258666547", "address": "120 Park Ln Ste B"}, "geometry": {"type": "Point", "coordinates": [-122.206131, 47.6762848]}}, {"type": "Feature", "properties": {"id": 10720215139, "name": "Five Stones Coffee Company", "category": "cafe", "tags": ["cafe", "outdoor-seating"], "sources": ["osm"], "website": "https://5stonescoffeeco.com"}, "geometry": {"type": "Point", "coordinates": [-122.2029991, 47.6777205]}}, {"type": "Feature", "properties": {"id": 10720215144, "name": "Tanaka Ramen & Izakaya", "category": "pub", "tags": ["pub", "japanese", "izakaya", "ramen"], "sources": ["osm"], "address": "312 Central Way"}, "geometry": {"type": "Point", "coordinates": [-122.2027022, 47.6777865]}}, {"type": "Feature", "properties": {"id": 10738269040, "name": "Coffee & Cone", "category": "ice_cream", "tags": ["ice-cream", "cafe", "coffee"], "sources": ["osm", "overture"], "website": "https://coffeeandconekirkland.square.site/", "phone": "+14255223374", "address": "1 Lakeshore Plaza"}, "geometry": {"type": "Point", "coordinates": [-122.2070811, 47.6754755]}}, {"type": "Feature", "properties": {"id": 10767407559, "name": "Reunion", "category": "restaurant", "tags": ["restaurant", "malaysian"], "sources": ["osm"]}, "geometry": {"type": "Point", "coordinates": [-122.2020529, 47.6752694]}}, {"type": "Feature", "properties": {"id": 10825608543, "name": "Snoqualmie Ice cream", "category": "ice_cream", "tags": ["ice-cream"], "sources": ["osm"], "address": "211 Park Lane"}, "geometry": {"type": "Point", "coordinates": [-122.2039525, 47.6763344]}}, {"type": "Feature", "properties": {"id": 11983731639, "name": "Chianti", "category": "restaurant", "tags": ["restaurant", "italian"], "sources": ["osm"]}, "geometry": {"type": "Point", "coordinates": [-122.2071361, 47.6756401]}}, {"type": "Feature", "properties": {"id": "c2b1dc34-6c36-4751-a244-cd4d3f74ce7f", "name": "Zeeks Pizza", "category": "restaurant", "tags": ["restaurant", "pizza", "italian"], "sources": ["overture"], "website": "https://zeekspizza.com/locations/", "phone": "+14252141401", "address": "124 Park Ln"}, "geometry": {"type": "Point", "coordinates": [-122.205864, 47.6762466]}}, {"type": "Feature", "properties": {"id": 12917947301, "name": "Molly Moon\u2019s", "category": "ice_cream", "tags": ["ice-cream"], "sources": ["osm"]}, "geometry": {"type": "Point", "coordinates": [-122.2079057, 47.6762828]}}, {"type": "Feature", "properties": {"id": 294377660, "name": "The Slip", "category": "restaurant", "tags": ["restaurant", "burger"], "sources": ["osm", "overture"], "website": "https://www.theslip.biz/", "phone": "14258229457", "address": "80 Kirkland Ave"}, "geometry": {"type": "Point", "coordinates": [-122.2071876, 47.6754188]}}, {"type": "Feature", "properties": {"id": "dec0b94e-e823-40f7-a494-d2f0e6b0d356", "name": "Sam Choy's Poke to the Max", "category": "restaurant", "tags": ["restaurant", "poke"], "sources": ["overture"], "website": "https://www.samchoyspoke.com", "address": "52 Lake Shore Plz"}, "geometry": {"type": "Point", "coordinates": [-122.2085571, 47.6760712]}}, {"type": "Feature", "properties": {"id": "a59d2ba4-743a-433b-878d-d4807b70631c", "name": "Papa John's Pizza", "category": "restaurant", "tags": ["restaurant", "pizza", "fast-food"], "sources": ["overture"], "website": "https://locations.papajohns.com/united-states/wa/98033/kirkland/211-3rd-st?utm_source=facebook-store-pages&utm_medium=referral", "phone": "+14258038000", "address": "211 3rd St"}, "geometry": {"type": "Point", "coordinates": [-122.2036438, 47.6767654]}}, {"type": "Feature", "properties": {"id": "d6d28c9a-4e95-4a00-b93b-b661d944031c", "name": "\u5c0f\u8fa3\u6912\u53a8\u623f", "category": "restaurant", "tags": ["restaurant", "chinese"], "sources": ["overture"], "phone": "+14255333189", "address": "110 Central Way"}, "geometry": {"type": "Point", "coordinates": [-122.2078323, 47.6765938]}}, {"type": "Feature", "properties": {"id": "46f19af7-0c9f-48fe-b2c4-7462c239e04e", "name": "The Lodge Sports Grille", "category": "bar", "tags": ["bar", "sports"], "sources": ["overture"], "website": "https://thelodgesportsgrille.com", "phone": "14252027663", "address": "107 Lake St"}, "geometry": {"type": "Point", "coordinates": [-122.2071991, 47.6760406]}}, {"type": "Feature", "properties": {"id": "6e9b16ee-1990-4acf-aebe-f0c45de0d0e2", "name": "Rococo Coffee Roasting", "category": "cafe", "tags": ["cafe", "coffee"], "sources": ["overture"], "website": "http://www.rocococoffee.com/", "phone": "+14258039081", "address": "136 Park Ln"}, "geometry": {"type": "Point", "coordinates": [-122.205368, 47.6763458]}}, {"type": "Feature", "properties": {"id": "147c783c-3506-4788-ad8f-36db00619a70", "name": "World Wrapps", "category": "restaurant", "tags": ["restaurant", "sandwich"], "sources": ["overture"], "website": "http://www.worldwrapps.com/", "phone": "(425) 827-9727", "address": "124 Lake St S"}, "geometry": {"type": "Point", "coordinates": [-122.2060089, 47.6750908]}}, {"type": "Feature", "properties": {"id": "3f7b3cb2-f536-449c-918a-e40e5a6fbf08", "name": "Nothing Bundt Cakes", "category": "bakery", "tags": ["bakery"], "sources": ["overture"], "website": "https://www.nothingbundtcakes.com/cakes?utm_source=facebook&utm_medium=local&utm_campaign=website_link&bakery=402", "phone": "+14259797600", "address": "213 3rd St"}, "geometry": {"type": "Point", "coordinates": [-122.2038345, 47.6767502]}}, {"type": "Feature", "properties": {"id": "cb1e1cab-0142-47f0-b874-bd7d522b6303", "name": "The Guilt Trip Express", "category": "restaurant", "tags": ["restaurant"], "sources": ["overture"], "website": "http://www.theguilttriprestaurant.com/", "phone": "2066785688", "address": "The Guilt Trip Express, 1525 13th Ave"}, "geometry": {"type": "Point", "coordinates": [-122.204628, 47.6772003]}}, {"type": "Feature", "properties": {"id": "bab79bcd-96ef-489a-ae63-6490a17cc2d9", "name": "\u00c1monos Taco Truck", "category": "fast_food", "tags": ["fast-food", "food", "truck", "mexican", "taco"], "sources": ["overture"], "website": "http://www.amonosmex.com/", "phone": "+14252330972", "address": "406 Central Way"}, "geometry": {"type": "Point", "coordinates": [-122.2008362, 47.6784325]}}, {"type": "Feature", "properties": {"id": "52748285-0a8d-4c5e-bcb5-52c1dec30475", "name": "Market Street Cafe", "category": "restaurant", "tags": ["restaurant"], "sources": ["overture"], "website": "http://www.marketstreetcafe.net/", "phone": "(425) 285-9430", "address": "609 Market St"}, "geometry": {"type": "Point", "coordinates": [-122.2097855, 47.6798782]}}, {"type": "Feature", "properties": {"id": "ce2b356c-a879-4354-88c1-9674cb8fe64b", "name": "Aura Bakery & Coffee Bar", "category": "bakery", "tags": ["bakery"], "sources": ["overture"], "website": "http://www.aurabakery.com", "phone": "(425) 576-9555", "address": "116 Central Way"}, "geometry": {"type": "Point", "coordinates": [-122.2074814, 47.6766853]}}, {"type": "Feature", "properties": {"id": "ff410217-ffab-4d2f-931e-64a43a0ac4c4", "name": "Sampan Noodles", "category": "restaurant", "tags": ["restaurant", "noodles"], "sources": ["overture"], "website": "http://www.wyraqocha.com", "phone": "(425) 602-7397", "address": "110 Central Way"}, "geometry": {"type": "Point", "coordinates": [-122.2078705, 47.6766853]}}, {"type": "Feature", "properties": {"id": "bdc44ed9-b9ab-4868-a46f-82bc4f429c54", "name": "A Bite Of Sichuan", "category": "restaurant", "tags": ["restaurant"], "sources": ["overture"], "website": "https://www.abiteofsichuanwa.com/?utm_source=bing&utm_medium=websiteurl&utm_campaign=search", "phone": "4258288668", "address": "110 Central Way"}, "geometry": {"type": "Point", "coordinates": [-122.2078552, 47.6766701]}}, {"type": "Feature", "properties": {"id": "202c4e5b-8d38-4289-8078-b3913761239e", "name": "Hanuman Thai Cafe Kirkland", "category": "restaurant", "tags": ["restaurant", "thai", "asian"], "sources": ["overture"], "website": "http://www.hanumanthai.com/", "phone": "+14258222629", "address": "115 Central Way"}, "geometry": {"type": "Point", "coordinates": [-122.2075348, 47.6763992]}}, {"type": "Feature", "properties": {"id": "bdc096c2-76fc-47c5-a257-d7576a9674a7", "name": "Pho House Kirkland", "category": "restaurant", "tags": ["restaurant"], "sources": ["overture"], "website": "http://phohousekirkland.com/", "phone": "4256050015", "address": "110 Central Way"}, "geometry": {"type": "Point", "coordinates": [-122.2077789, 47.6765213]}}, {"type": "Feature", "properties": {"id": "ba5ee665-7cf2-4e3f-ad39-77eec1459243", "name": "CASA RICARDOS", "category": "bar", "tags": ["bar", "mexican"], "sources": ["overture"], "website": "https://www.ordercasaricardos.com/?utm_source=bing&utm_medium=websiteurl&utm_campaign=search", "phone": "4252859160", "address": "107 Lake St # 200"}, "geometry": {"type": "Point", "coordinates": [-122.2073212, 47.6761093]}}, {"type": "Feature", "properties": {"id": "11081ce7-c34e-4f76-a0a4-010ca6330820", "name": "noii sushi", "category": "restaurant", "tags": ["restaurant", "sushi", "japanese", "asian"], "sources": ["overture"], "phone": "+14255008000", "address": "107 Lake St"}, "geometry": {"type": "Point", "coordinates": [-122.2072906, 47.6761589]}}, {"type": "Feature", "properties": {"id": "c5ee6d5f-32d9-451d-99b8-35a189e01241", "name": "Zoka Coffee Roasters and Tea Company", "category": "cafe", "tags": ["cafe", "coffee"], "sources": ["overture"], "website": "http://www.zokacoffee.com", "phone": "+14252841830", "address": "129 Central Way"}, "geometry": {"type": "Point", "coordinates": [-122.2071609, 47.6763687]}}, {"type": "Feature", "properties": {"id": "41295ed5-2e10-4110-9671-9cbcb21391f1", "name": "Santa Fe Mexican Grill and Cantina", "category": "restaurant", "tags": ["restaurant", "mexican", "bar-and-grill"], "sources": ["overture"], "website": "https://www.santafemex.com/kirkland-lake", "phone": "+14252859160", "address": "107 Lake St"}, "geometry": {"type": "Point", "coordinates": [-122.2071228, 47.6761894]}}, {"type": "Feature", "properties": {"id": "01a07b14-3ea4-4e7e-be88-9f58cba5e541", "name": "Side Hustle", "category": "bar", "tags": ["bar", "brewery"], "sources": ["overture"], "website": "http://www.sidehustletaps.com/", "phone": "+14258984136", "address": "15 Lake St #201"}, "geometry": {"type": "Point", "coordinates": [-122.2069931, 47.6761055]}}, {"type": "Feature", "properties": {"id": "2cafed99-ebbc-41be-ad11-2dbee00706b8", "name": "The Grape Choice", "category": "bar", "tags": ["bar", "wine"], "sources": ["overture"], "website": "http://www.thegrapechoice.com/", "phone": "+14258277551", "address": "9 Lake Shore Plz"}, "geometry": {"type": "Point", "coordinates": [-122.2071609, 47.6757164]}}, {"type": "Feature", "properties": {"id": "f12025db-4571-458b-aebc-0db8e37f09d7", "name": "Prosecco Restaurant & Pizzeria", "category": "restaurant", "tags": ["restaurant", "italian", "pizza"], "sources": ["overture"], "website": "https://www.proseccorestaurantpizzeria.com/", "phone": "+14258968327", "address": "7 Lakeshore Plaza"}, "geometry": {"type": "Point", "coordinates": [-122.2070847, 47.6755142]}}, {"type": "Feature", "properties": {"id": "8f1718cd-8ced-4b7a-bd77-aa0cebf738ac", "name": "The Port of Peri Peri Kirkland", "category": "restaurant", "tags": ["restaurant", "chicken", "african"], "sources": ["overture"], "website": "https://myperiperi.com/", "phone": "+14254489111", "address": "52 Lakeshore Plaza Ste D"}, "geometry": {"type": "Point", "coordinates": [-122.2084503, 47.6759796]}}, {"type": "Feature", "properties": {"id": "b35e11f6-ed1b-455f-bc93-f152fc4e68f2", "name": "Cloud Food Court Restaurant and Burgers", "category": "restaurant", "tags": ["restaurant"], "sources": ["overture"], "website": "https://www.cloudfoodcourt.com/", "phone": "+14252421129", "address": "52 Lakeshore Plaza Ste E"}, "geometry": {"type": "Point", "coordinates": [-122.2086487, 47.6759987]}}, {"type": "Feature", "properties": {"id": "04a81222-0e05-4a8c-8963-b2564a7cae2a", "name": "Zeitoon Grill House (100% Zabiha Halal) & No Alcohol", "category": "restaurant", "tags": ["restaurant", "persian-iranian", "persian", "iranian", "middle-eastern", "halal"], "sources": ["overture"], "website": "http://www.zeitoongrill.com/", "phone": "+14258038193", "address": "21 Central Way"}, "geometry": {"type": "Point", "coordinates": [-122.2084808, 47.6762199]}}, {"type": "Feature", "properties": {"id": "3d23c039-af41-468e-b08e-e1a80e4af4ac", "name": "Caffe Ladro - Kirkland", "category": "cafe", "tags": ["cafe", "coffee"], "sources": ["overture"], "website": "caffeladro.com", "phone": "14258275838", "address": "104 Central Way"}, "geometry": {"type": "Point", "coordinates": [-122.2080917, 47.6766052]}}, {"type": "Feature", "properties": {"id": "51f50831-49a9-4a0f-938e-90d013e757e0", "name": "Vista Lago Italiano", "category": "restaurant", "tags": ["restaurant"], "sources": ["overture"], "website": "vistalagoitaliano.co", "address": "7 Lake Shore Plz"}, "geometry": {"type": "Point", "coordinates": [-122.2098923, 47.6761093]}}, {"type": "Feature", "properties": {"id": "ca109b1f-7d9b-4eaf-83cf-f6ee015e3d56", "name": "Lai-thai Restaurant Llc", "category": "restaurant", "tags": ["restaurant"], "sources": ["overture"], "website": "laithaibethany.com", "address": "120 Park Ln"}, "geometry": {"type": "Point", "coordinates": [-122.206131, 47.6762848]}}, {"type": "Feature", "properties": {"id": "b73097d2-126f-4c34-b570-67ac619e7e19", "name": "5 Stones Coffee Co", "category": "cafe", "tags": ["cafe", "coffee"], "sources": ["overture"], "website": "http://www.5stonescoffeeco.com", "phone": "+14255224307", "address": "312 Central Way"}, "geometry": {"type": "Point", "coordinates": [-122.2028046, 47.6777306]}}, {"type": "Feature", "properties": {"id": "5dea18e9-0dcd-4212-80e6-388630ccc4de", "name": "St. James Espresso", "category": "cafe", "tags": ["cafe", "coffee"], "sources": ["overture"], "website": "http://stjamesespresso.com", "phone": "(425) 896-8272", "address": "355 Kirkland Ave"}, "geometry": {"type": "Point", "coordinates": [-122.2010345, 47.6754684]}}, {"type": "Feature", "properties": {"id": "be4ed270-911f-409b-9344-0ae4fdd98d03", "name": "Reunion Malaysian Cafe+ Kitchen", "category": "restaurant", "tags": ["restaurant", "malaysian", "asian"], "sources": ["overture"], "website": "http://reunionmalaysian.com", "phone": "+14259477998", "address": "339 Kirkland Ave"}, "geometry": {"type": "Point", "coordinates": [-122.2020569, 47.6752243]}}, {"type": "Feature", "properties": {"id": "c7e6243a-35ef-496d-9b59-c7a4dcbbad18", "name": "Tanaka Ramen & Izakaya Washington", "category": "restaurant", "tags": ["restaurant"], "sources": ["overture"], "website": "http://linktr.ee/tanakaramenwashington", "address": "312 Central Way"}, "geometry": {"type": "Point", "coordinates": [-122.2027054, 47.6777802]}}, {"type": "Feature", "properties": {"id": "82009a26-3d3a-4cb7-88a3-dbc38e3b0ed1", "name": "Pie On The Fly", "category": "restaurant", "tags": ["restaurant", "pizza"], "sources": ["overture"], "website": "http://hearthkirkland.com", "phone": "+14252845900", "address": "220 Kirkland Ave"}, "geometry": {"type": "Point", "coordinates": [-122.2034607, 47.6756172]}}, {"type": "Feature", "properties": {"id": "56eb46c0-a9cf-4871-bf83-72bfce2ca8f0", "name": "Kirkland Bakery", "category": "bakery", "tags": ["bakery"], "sources": ["overture"], "website": "http://www.thefrenchbakery.com", "phone": "+14258984510", "address": "219 Kirkland Ave #102"}, "geometry": {"type": "Point", "coordinates": [-122.2037659, 47.6753044]}}, {"type": "Feature", "properties": {"id": "93fb6794-91b5-4ffb-a974-181835ae9228", "name": "Dakshin South Indian Bistro", "category": "restaurant", "tags": ["restaurant", "indian"], "sources": ["overture"], "website": "http://www.dakshinbistro.com", "phone": "(425) 803-0330", "address": "238 Park Ln"}, "geometry": {"type": "Point", "coordinates": [-122.2041092, 47.6766319]}}, {"type": "Feature", "properties": {"id": "3d70007c-07d3-43d0-b8ea-adcf6ada5202", "name": "Arth The Indian Bistro", "category": "restaurant", "tags": ["restaurant", "indian"], "sources": ["overture"], "website": "http://www.dakshinbistro.com/", "phone": "+14258228922", "address": "238 Central Way"}, "geometry": {"type": "Point", "coordinates": [-122.2040787, 47.676693]}}, {"type": "Feature", "properties": {"id": "0d436a71-8d45-4088-8095-5e3f2eedba33", "name": "Coyote Creek Pizza - Kirkland", "category": "restaurant", "tags": ["restaurant", "pizza"], "sources": ["overture"], "website": "http://coyotecreek.com", "phone": "(425) 822-2226", "address": "228 Central Way"}, "geometry": {"type": "Point", "coordinates": [-122.2046509, 47.6773415]}}, {"type": "Feature", "properties": {"id": "833271fe-b8a4-4bfb-bfc6-9b1c5e1e41ea", "name": "Dynamic Bra", "category": "cafe", "tags": ["cafe"], "sources": ["overture"], "website": "http://dynamicbra.net/", "phone": "+16069094055", "address": "218 Main St"}, "geometry": {"type": "Point", "coordinates": [-122.2047348, 47.6766891]}}, {"type": "Feature", "properties": {"id": "38775caa-5c90-49a5-ad3b-d30565ea6749", "name": "Manufactured Homes Llc", "category": "restaurant", "tags": ["restaurant"], "sources": ["overture"], "address": "218 Main St PMB 985"}, "geometry": {"type": "Point", "coordinates": [-122.2047272, 47.6766968]}}, {"type": "Feature", "properties": {"id": "a96d7e0e-365c-4058-8aba-9d7e80163cae", "name": "Dumpling The Noodle Kirkland", "category": "restaurant", "tags": ["restaurant", "chinese", "noodles", "asian"], "sources": ["overture"], "website": "http://www.dumplingthenoodle.com/", "phone": "+14258228551", "address": "206 Main St"}, "geometry": {"type": "Point", "coordinates": [-122.204689, 47.6765594]}}, {"type": "Feature", "properties": {"id": "d862f495-f815-435b-bb4e-fe4ddbad6833", "name": "Dozo Japanese Sushi", "category": "restaurant", "tags": ["restaurant"], "sources": ["overture"], "address": "206 Main St"}, "geometry": {"type": "Point", "coordinates": [-122.2047424, 47.6765289]}}, {"type": "Feature", "properties": {"id": "edd5ebfb-fd02-4e0b-b8ff-a01f7181c4f8", "name": "Beijing O'Chef", "category": "restaurant", "tags": ["restaurant"], "sources": ["overture"], "website": "http://beijingochef.com/", "phone": "4252500900", "address": "206 Main St"}, "geometry": {"type": "Point", "coordinates": [-122.2047501, 47.6765404]}}, {"type": "Feature", "properties": {"id": "0520e1c7-fde6-4928-98bb-2622685cc699", "name": "Kokio Chicken Bistro", "category": "restaurant", "tags": ["restaurant", "chicken", "korean", "asian"], "sources": ["overture"], "website": "http://kokiochickenbistro.com/", "phone": "+14258228049", "address": "147 Park Ln"}, "geometry": {"type": "Point", "coordinates": [-122.2050934, 47.6762085]}}, {"type": "Feature", "properties": {"id": "153e2060-b45e-44f3-b984-1e02d378c685", "name": "Lilac Cafe", "category": "restaurant", "tags": ["restaurant", "american"], "sources": ["overture"], "website": "http://www.cafelilackirkland.com", "phone": "(425) 828-4252", "address": "212 Central Way"}, "geometry": {"type": "Point", "coordinates": [-122.2053528, 47.6772499]}}, {"type": "Feature", "properties": {"id": "dc460669-f9ae-4a7f-bbe0-718e958fae5c", "name": "Blush Lounge", "category": "bar", "tags": ["bar", "hookah"], "sources": ["overture"], "website": "https://www.blushkirkland.com", "phone": "(206) 688-9488", "address": "218 Central Way"}, "geometry": {"type": "Point", "coordinates": [-122.2052765, 47.6772919]}}, {"type": "Feature", "properties": {"id": "be985e5d-9517-4e55-8ec2-0ff30fcd5d8b", "name": "Two Twelve On Central", "category": "bar", "tags": ["bar", "wine"], "sources": ["overture"], "website": "http://twotwelveoncentral.com", "phone": "(317) 860-5777", "address": "212 Central Way"}, "geometry": {"type": "Point", "coordinates": [-122.2052689, 47.6771698]}}, {"type": "Feature", "properties": {"id": "459e60fd-a118-4b21-ac41-91c0dc26b779", "name": "Lynn's Bistro", "category": "restaurant", "tags": ["restaurant", "french"], "sources": ["overture"], "website": "https://www.lynnsbistro.com", "phone": "14258892808", "address": "212 Central Way"}, "geometry": {"type": "Point", "coordinates": [-122.2054596, 47.6772232]}}, {"type": "Feature", "properties": {"id": "cb6f0dd1-46c5-4aee-bc96-02ba3cedc417", "name": "Ristorante Paradiso", "category": "restaurant", "tags": ["restaurant", "italian", "european"], "sources": ["overture"], "website": "https://order.toasttab.com/online/ristorante-paradiso-120-park-ln-ste-a?diningOption=takeout&rwg_token=AFd1xnG9dW-FC-xIEUCQ0lUERS_RUThW23Ytbh2dto0DOs03YcFX2QsHsuXSj5I1ua2XBGS0OskUJ-uDGXPP7oxfBYC0YFZc0Q%3D%3D", "phone": "+14258898601", "address": "120 Park Ln Suite A"}, "geometry": {"type": "Point", "coordinates": [-122.2059708, 47.6761551]}}, {"type": "Feature", "properties": {"id": "347c53e0-66c0-4dc5-ba56-9da3defc791f", "name": "Sweet Cakes Nwi Inc", "category": "restaurant", "tags": ["restaurant"], "sources": ["overture"], "website": "http://www.sweetcakeskirkland.com", "address": "128 Park Ln"}, "geometry": {"type": "Point", "coordinates": [-122.2059326, 47.676239]}}, {"type": "Feature", "properties": {"id": "62fa20a8-f01b-4a36-ba53-18dbb603ab78", "name": "Park Lane Public House", "category": "restaurant", "tags": ["restaurant", "pub"], "sources": ["overture"], "website": "http://www.plph.org", "phone": "(425) 822-0788", "address": "115 Park Ln"}, "geometry": {"type": "Point", "coordinates": [-122.2060623, 47.6758423]}}, {"type": "Feature", "properties": {"id": "c75f39b8-11fc-4345-acfd-5edb10bddb8b", "name": "Hector's Restaurant", "category": "restaurant", "tags": ["restaurant", "comfort-food", "comfort", "food"], "sources": ["overture"], "website": "http://www.hectorskirkland.com/", "phone": "4258274811", "address": "112 Lake St S"}, "geometry": {"type": "Point", "coordinates": [-122.2061386, 47.6750755]}}, {"type": "Feature", "properties": {"id": "a8d73ee2-8b70-4388-81ef-038486be3d4a", "name": "Savrika Tea", "category": "cafe", "tags": ["cafe", "tea", "room"], "sources": ["overture"], "phone": "4252980847", "address": "115 Kirkland Ave"}, "geometry": {"type": "Point", "coordinates": [-122.2058029, 47.675396]}}, {"type": "Feature", "properties": {"id": "9e538f41-107e-4994-96c2-c6d40a5d2b88", "name": "Central Club and Tavern", "category": "bar", "tags": ["bar"], "sources": ["overture"], "website": "http://centralkirkland.com", "phone": "+14258270808", "address": "124 Kirkland Ave"}, "geometry": {"type": "Point", "coordinates": [-122.2055893, 47.6756592]}}, {"type": "Feature", "properties": {"id": "6ddbdb6b-e627-4b3d-99cd-09b0dd89e6c6", "name": "Nouna Sweets", "category": "bakery", "tags": ["bakery"], "sources": ["overture"], "website": "http://www.nounassweets.com/", "phone": "+14257616519", "address": "128 Park Ln"}, "geometry": {"type": "Point", "coordinates": [-122.2057571, 47.6763]}}, {"type": "Feature", "properties": {"id": "5b92f35e-7784-4165-a2f3-9a5f3f397c90", "name": "Sasi's Cafe", "category": "cafe", "tags": ["cafe"], "sources": ["overture"], "website": "http://www.sasiscafe.net/default.aspx", "phone": "(425) 889-2411", "address": "130 Lake St S"}, "geometry": {"type": "Point", "coordinates": [-122.2058868, 47.6744804]}}, {"type": "Feature", "properties": {"id": "2ad25b2b-866e-4b79-80f4-dcf158540aef", "name": "Milagro Cantina", "category": "restaurant", "tags": ["restaurant", "mexican"], "sources": ["overture"], "website": "http://milagrocantina.com", "phone": "(425) 952-6270", "address": "148 Lake St S"}, "geometry": {"type": "Point", "coordinates": [-122.2059937, 47.6746445]}}, {"type": "Feature", "properties": {"id": "935e175a-7b77-4f26-8c5d-c5c5938fa811", "name": "Olive You", "category": "restaurant", "tags": ["restaurant", "mediterranean"], "sources": ["overture"], "website": "http://www.olive-you.com/", "phone": "(425) 250-1555", "address": "89 Kirkland Ave"}, "geometry": {"type": "Point", "coordinates": [-122.2068787, 47.6752472]}}, {"type": "Feature", "properties": {"id": "0215f5bd-2d4b-4489-b462-e0e0f427d9f9", "name": "Raw Bar 89", "category": "restaurant", "tags": ["restaurant", "sushi"], "sources": ["overture"], "website": "http://www.rawbar89.com/", "phone": "4256583810", "address": "89 Kirkland Ave"}, "geometry": {"type": "Point", "coordinates": [-122.2068176, 47.6751518]}}, {"type": "Feature", "properties": {"id": "e56a410d-2681-4465-9b53-5369995bf076", "name": "Sano Kirkland", "category": "cafe", "tags": ["cafe", "health-food", "vegetarian"], "sources": ["overture"], "website": "https://meetsano.com/", "phone": "+14255531887", "address": "104 Lake St"}, "geometry": {"type": "Point", "coordinates": [-122.206192, 47.6753273]}}, {"type": "Feature", "properties": {"id": "241310b5-7a58-4622-8d7e-e571b24a1d2a", "name": "Kiwami Sushi Bar & Sake House", "category": "restaurant", "tags": ["restaurant", "sushi", "japanese", "asian"], "sources": ["overture"], "website": "http://kiwamisushi.com/", "phone": "+14257398899", "address": "104 Kirkland Ave"}, "geometry": {"type": "Point", "coordinates": [-122.2062607, 47.6756096]}}, {"type": "Feature", "properties": {"id": "066183cb-bbb3-401e-aa90-2517f0ed896a", "name": "Cshep Company Llc", "category": "restaurant", "tags": ["restaurant"], "sources": ["overture"], "address": "116 Central Way"}, "geometry": {"type": "Point", "coordinates": [-122.206955, 47.6768608]}}, {"type": "Feature", "properties": {"id": "38c208da-2b8a-4d45-b4aa-737e6ec6e19c", "name": "Kirkland Spring Beerfest", "category": "bar", "tags": ["bar", "beer"], "sources": ["overture"], "website": "http://kirklandspringbeerfest.com", "phone": "(425) 456-1111", "address": "450 Central Way"}, "geometry": {"type": "Point", "coordinates": [-122.2001114, 47.6786728]}}, {"type": "Feature", "properties": {"id": 1970988240, "name": "La Petite Galerie", "category": "gallery", "tags": ["gallery"], "sources": ["osm"], "website": "https://www.holodeck3dstudios.com/", "address": "92 Kirkland Avenue"}, "geometry": {"type": "Point", "coordinates": [-122.206933, 47.675528]}}, {"type": "Feature", "properties": {"id": 2973918753, "name": "Gunnar Nordstrom", "category": "gallery", "tags": ["gallery"], "sources": ["osm"], "address": "90 Kirkland Avenue"}, "geometry": {"type": "Point", "coordinates": [-122.2069879, 47.6754917]}}, {"type": "Feature", "properties": {"id": 3947190820, "name": "The Homecoming", "category": "artwork", "tags": ["artwork"], "sources": ["osm"]}, "geometry": {"type": "Point", "coordinates": [-122.2080839, 47.6748024]}}, {"type": "Feature", "properties": {"id": 4039539495, "name": "Puddle Jumpers", "category": "artwork", "tags": ["artwork"], "sources": ["osm"]}, "geometry": {"type": "Point", "coordinates": [-122.2088571, 47.6757337]}}, {"type": "Feature", "properties": {"id": 4113028902, "name": "The Water Bearers", "category": "artwork", "tags": ["artwork"], "sources": ["osm"]}, "geometry": {"type": "Point", "coordinates": [-122.2058861, 47.6711027]}}, {"type": "Feature", "properties": {"id": 4113067551, "name": "Last Gift", "category": "artwork", "tags": ["artwork"], "sources": ["osm"]}, "geometry": {"type": "Point", "coordinates": [-122.2070511, 47.6753795]}}, {"type": "Feature", "properties": {"id": 4113067580, "name": "Close Quarters", "category": "artwork", "tags": ["artwork"], "sources": ["osm"]}, "geometry": {"type": "Point", "coordinates": [-122.2073316, 47.6764336]}}, {"type": "Feature", "properties": {"id": 4113067581, "name": "Cow and Coyote", "category": "artwork", "tags": ["artwork"], "sources": ["osm"]}, "geometry": {"type": "Point", "coordinates": [-122.2072646, 47.6766689]}}, {"type": "Feature", "properties": {"id": 4113069127, "name": "Mountain Comrades", "category": "artwork", "tags": ["artwork"], "sources": ["osm"]}, "geometry": {"type": "Point", "coordinates": [-122.2036632, 47.6753991]}}, {"type": "Feature", "properties": {"id": 4113069128, "name": "Carousel", "category": "artwork", "tags": ["artwork"], "sources": ["osm"]}, "geometry": {"type": "Point", "coordinates": [-122.2029744, 47.6756657]}}, {"type": "Feature", "properties": {"id": 4113069144, "name": "Youth", "category": "artwork", "tags": ["artwork"], "sources": ["osm"]}, "geometry": {"type": "Point", "coordinates": [-122.2017965, 47.676252]}}, {"type": "Feature", "properties": {"id": 4113069149, "name": "The Gossips", "category": "artwork", "tags": ["artwork"], "sources": ["osm"]}, "geometry": {"type": "Point", "coordinates": [-122.2008805, 47.677043]}}, {"type": "Feature", "properties": {"id": 4787311985, "name": "The Natural", "category": "artwork", "tags": ["artwork"], "sources": ["osm"]}, "geometry": {"type": "Point", "coordinates": [-122.2031462, 47.6771073]}}, {"type": "Feature", "properties": {"id": 4787311986, "name": "Social Intricacy/The Beach", "category": "artwork", "tags": ["artwork"], "sources": ["osm"]}, "geometry": {"type": "Point", "coordinates": [-122.2032262, 47.6763572]}}, {"type": "Feature", "properties": {"id": 4787311987, "name": "Oceanic", "category": "artwork", "tags": ["artwork"], "sources": ["osm"]}, "geometry": {"type": "Point", "coordinates": [-122.2030638, 47.6757068]}}, {"type": "Feature", "properties": {"id": 4787311988, "name": "Sun Signs;July", "category": "artwork", "tags": ["artwork"], "sources": ["osm"]}, "geometry": {"type": "Point", "coordinates": [-122.2026065, 47.6756244]}}, {"type": "Feature", "properties": {"id": 4787311989, "name": "Pump-to-gram", "category": "artwork", "tags": ["artwork"], "sources": ["osm"]}, "geometry": {"type": "Point", "coordinates": [-122.2036352, 47.6765405]}}, {"type": "Feature", "properties": {"id": 4787311990, "name": "Betty Lou", "category": "artwork", "tags": ["artwork"], "sources": ["osm"]}, "geometry": {"type": "Point", "coordinates": [-122.2047928, 47.6757438]}}, {"type": "Feature", "properties": {"id": 4787311991, "name": "Birdhouses", "category": "artwork", "tags": ["artwork"], "sources": ["osm"]}, "geometry": {"type": "Point", "coordinates": [-122.2051346, 47.6754262]}}, {"type": "Feature", "properties": {"id": 4787311992, "name": "Giving Back", "category": "artwork", "tags": ["artwork"], "sources": ["osm"]}, "geometry": {"type": "Point", "coordinates": [-122.2065068, 47.6759672]}}, {"type": "Feature", "properties": {"id": 4787311993, "name": "Gateway", "category": "artwork", "tags": ["artwork"], "sources": ["osm"]}, "geometry": {"type": "Point", "coordinates": [-122.2080928, 47.677417]}}, {"type": "Feature", "properties": {"id": 4787312002, "name": "Reverb", "category": "artwork", "tags": ["artwork"], "sources": ["osm"]}, "geometry": {"type": "Point", "coordinates": [-122.206116, 47.6741369]}}, {"type": "Feature", "properties": {"id": 10155295481, "name": "Michael's Clock", "category": "artwork", "tags": ["artwork"], "sources": ["osm"]}, "geometry": {"type": "Point", "coordinates": [-122.2019181, 47.6763847]}}, {"type": "Feature", "properties": {"id": 10738269038, "name": "Kirkland Heritage Society", "category": "museum", "tags": ["museum"], "sources": ["osm"], "website": "https://kirklandheritage.org/", "hours": "Mo 10:00-12:00,We 14:00-17:00"}, "geometry": {"type": "Point", "coordinates": [-122.2097897, 47.6768187]}}, {"type": "Feature", "properties": {"id": 11983686800, "name": "Blue Spire", "category": "artwork", "tags": ["artwork"], "sources": ["osm"]}, "geometry": {"type": "Point", "coordinates": [-122.2062782, 47.6761011]}}, {"type": "Feature", "properties": {"id": 11983724790, "name": "Last Love", "category": "artwork", "tags": ["artwork"], "sources": ["osm"]}, "geometry": {"type": "Point", "coordinates": [-122.2050403, 47.6763845]}}, {"type": "Feature", "properties": {"id": 11983732426, "name": "Big Smile", "category": "artwork", "tags": ["artwork"], "sources": ["osm"]}, "geometry": {"type": "Point", "coordinates": [-122.2057901, 47.6761888]}}, {"type": "Feature", "properties": {"id": 11984713980, "name": "Sidewalk Stepping Stones", "category": "artwork", "tags": ["artwork"], "sources": ["osm"]}, "geometry": {"type": "Point", "coordinates": [-122.2072173, 47.6764367]}}, {"type": "Feature", "properties": {"id": 401534521, "name": "Centennial Fountain", "category": "artwork", "tags": ["artwork"], "sources": ["osm"]}, "geometry": {"type": "Point", "coordinates": [-122.2084558, 47.6754686]}}, {"type": "Feature", "properties": {"id": 409383114, "name": "Vessel Grouping", "category": "artwork", "tags": ["artwork"], "sources": ["osm"]}, "geometry": {"type": "Point", "coordinates": [-122.2063265, 47.6754497]}}, {"type": "Feature", "properties": {"id": "9f0a9ba2-e79f-431a-876f-b76b300e6e8c", "name": "Grounded Above The Clouds", "category": "gallery", "tags": ["gallery", "art"], "sources": ["overture"], "website": "http://groundedabovetheclouds.com/", "phone": "+15302284586", "address": "30 Lakeshore Plaza"}, "geometry": {"type": "Point", "coordinates": [-122.2074585, 47.6760559]}}, {"type": "Feature", "properties": {"id": "5d06a99d-ef9c-4740-ae8c-3c8d715cad91", "name": "Plaza of Kirkland Champions", "category": "attraction", "tags": ["attraction", "landmark", "historical", "building"], "sources": ["overture"], "address": "30 Lakeshore Plaza"}, "geometry": {"type": "Point", "coordinates": [-122.2071838, 47.6754379]}}, {"type": "Feature", "properties": {"id": "7c52eaea-1a15-40f5-83b8-70faf8619e18", "name": "Westwater Apartments", "category": "attraction", "tags": ["attraction", "landmark", "historical", "building"], "sources": ["overture"], "website": "https://westwaterapartments.com/?utm_source=businessprofile&utm_medium=search&utm_campaign=general", "phone": "+18557065751", "address": "221 1st St"}, "geometry": {"type": "Point", "coordinates": [-122.2085419, 47.6767731]}}, {"type": "Feature", "properties": {"id": "f8e3730d-ecc6-42b0-84a0-f7920ebaa047", "name": "128 on State", "category": "attraction", "tags": ["attraction", "landmark", "historical", "building"], "sources": ["overture"], "website": "http://www.128onstate.com/", "phone": "+14258189580", "address": "128 State St"}, "geometry": {"type": "Point", "coordinates": [-122.2020721, 47.6743011]}}, {"type": "Feature", "properties": {"id": "cf607ba7-fd8f-44ce-af22-a498c5a44f8a", "name": "The Plaza on State", "category": "attraction", "tags": ["attraction", "landmark", "historical", "building"], "sources": ["overture"], "phone": "+12066419631", "address": "102 State St"}, "geometry": {"type": "Point", "coordinates": [-122.2023239, 47.6752892]}}, {"type": "Feature", "properties": {"id": "6df971a4-719c-4244-99a4-9b56c962e5d3", "name": "Parque Kirkland", "category": "attraction", "tags": ["attraction", "landmark", "historical", "building"], "sources": ["overture"], "website": "http://parquekirkland.com/", "phone": "+14253054475", "address": "312 Central Way"}, "geometry": {"type": "Point", "coordinates": [-122.2025757, 47.6777802]}}, {"type": "Feature", "properties": {"id": "adff4b1d-c3a7-455d-9e27-c1a71d281493", "name": "Voda Apartments", "category": "attraction", "tags": ["attraction", "landmark", "historical", "building"], "sources": ["overture"], "website": "http://www.rentvoda.com/", "phone": "+14255289226", "address": "207 Park Ln"}, "geometry": {"type": "Point", "coordinates": [-122.204361, 47.6763]}}, {"type": "Feature", "properties": {"id": "d1adef1d-f46b-4a8d-82ee-935fdbf42878", "name": "Kirkland Central Condominiums", "category": "attraction", "tags": ["attraction", "landmark", "historical", "building"], "sources": ["overture"], "website": "http://www.kirklandcentral.com", "phone": "+14258276024", "address": "211 Kirkland Ave"}, "geometry": {"type": "Point", "coordinates": [-122.2042236, 47.6753731]}}, {"type": "Feature", "properties": {"id": "cce65747-0f11-4505-8d4c-a0b9317f32d1", "name": "The 101", "category": "attraction", "tags": ["attraction", "landmark", "historical", "building"], "sources": ["overture"], "website": "https://www.the101kirkland.com/?utm_source=facebook&utm_medium=social", "phone": "+16098045131", "address": "11 Main St S"}, "geometry": {"type": "Point", "coordinates": [-122.2055435, 47.6752815]}}, {"type": "Feature", "properties": {"id": "573cc12e-2232-49ba-981e-ecfb6cd719e4", "name": "Vela", "category": "attraction", "tags": ["attraction", "landmark", "historical", "building"], "sources": ["overture"], "website": "https://www.VelaKirkland.com/", "phone": "+14256557070", "address": "140 Lake St S"}, "geometry": {"type": "Point", "coordinates": [-122.2056503, 47.6749039]}}, {"type": "Feature", "properties": {"id": "b734c10c-6669-4a79-bbe9-4fc0de09262a", "name": "Gunnar Nordstrom Gallery", "category": "gallery", "tags": ["gallery", "art"], "sources": ["overture"], "website": "http://www.gunnarnordstrom.com/", "phone": "+14252830461", "address": "92 Kirkland Ave"}, "geometry": {"type": "Point", "coordinates": [-122.2069016, 47.6754723]}}, {"type": "Feature", "properties": {"id": "e48e8973-c990-40ba-ac58-50a24c866771", "name": "Capri", "category": "attraction", "tags": ["attraction", "landmark", "historical", "building"], "sources": ["overture"], "website": "https://www.caprikirkland.com/?utm_knock=g", "phone": "+14255418724", "address": "324 Central Way"}, "geometry": {"type": "Point", "coordinates": [-122.2016678, 47.678051]}}, {"type": "Feature", "properties": {"id": "6ce6dc3e-a4ce-463a-ba03-b30b06562d8a", "name": "Galleria Condominiums", "category": "attraction", "tags": ["attraction", "landmark", "historical", "building"], "sources": ["overture"], "phone": "+12069791856", "address": "520 4th St"}, "geometry": {"type": "Point", "coordinates": [-122.2008743, 47.6796112]}}, {"type": "Feature", "properties": {"id": "10b20156-095c-483e-9897-1e7418d2a107", "name": "Aret\u00e9", "category": "attraction", "tags": ["attraction", "landmark", "historical", "building"], "sources": ["overture"], "website": "http://www.aretekirkland.com/", "phone": "+14259477946", "address": "450 Central Way"}, "geometry": {"type": "Point", "coordinates": [-122.2000504, 47.6786041]}}, {"type": "Feature", "properties": {"id": 55783352, "name": "Peter Kirk Memorial Park", "category": "park", "tags": ["park"], "sources": ["osm"]}, "geometry": {"type": "Point", "coordinates": [-122.2017873, 47.6771619]}}, {"type": "Feature", "properties": {"id": 115930213, "name": "Marina Park", "category": "park", "tags": ["park"], "sources": ["osm"], "website": "https://www.kirklandwa.gov/Government/Departments/Parks-and-Community-Services/Find-a-Park/Marina-Park"}, "geometry": {"type": "Point", "coordinates": [-122.2085001, 47.675245]}}, {"type": "Feature", "properties": {"id": 182628275, "name": "Street End Park", "category": "park", "tags": ["park"], "sources": ["osm"]}, "geometry": {"type": "Point", "coordinates": [-122.2058988, 47.6720921]}}, {"type": "Feature", "properties": {"id": 182628950, "name": "David E. Brink Park", "category": "park", "tags": ["park"], "sources": ["osm", "overture"], "website": "http://www.kirklandwa.gov/depart/parks/Online_Parks_Guide/Parks_Pop-up_Main/Parks_and_Community_Services__David_E_Brink_Park.htm", "phone": "+14255873300", "address": "555 Lake St S"}, "geometry": {"type": "Point", "coordinates": [-122.206257, 47.6707361]}}, {"type": "Feature", "properties": {"id": "385aa051-de56-4d17-a347-9a3cb61d0fc3", "name": "Kirkland / Marina Park 1", "category": "park", "tags": ["park"], "sources": ["overture"], "address": "9 Lake Shore Plz"}, "geometry": {"type": "Point", "coordinates": [-122.2075119, 47.6753578]}}, {"type": "Feature", "properties": {"id": "29b177cd-992b-426a-8304-3c4ffe20e39c", "name": "Marina Park Picnic Area", "category": "park", "tags": ["park"], "sources": ["overture"], "website": "http://www.kirklandwa.gov/depart/parks/Kirkland_Marina.htm", "phone": "+14255873300", "address": "25 Lakeshore Plaza"}, "geometry": {"type": "Point", "coordinates": [-122.2079468, 47.6749725]}}, {"type": "Feature", "properties": {"id": "0d5d80e0-9710-46cc-98ba-2ae4b48f130f", "name": "Lake Washington Cruise Tour", "category": "park", "tags": ["park"], "sources": ["overture"], "website": "http://lakewashingtoncruising.blogspot.com/", "address": "1 Kirkland Ave"}, "geometry": {"type": "Point", "coordinates": [-122.2073441, 47.6747627]}}, {"type": "Feature", "properties": {"id": "ea741790-3714-41be-be1a-69044099a0ef", "name": "Peter Kirk Park", "category": "park", "tags": ["park"], "sources": ["overture"], "website": "http://www.ci.kirkland.wa.us", "phone": "+14255873360", "address": "202 3rd St"}, "geometry": {"type": "Point", "coordinates": [-122.2023773, 47.6769867]}}, {"type": "Feature", "properties": {"id": "db758aa0-e1a9-4143-90a6-e3b2071e1175", "name": "Settler's Landing Park", "category": "park", "tags": ["park"], "sources": ["overture"], "address": "Settler's Landing Park"}, "geometry": {"type": "Point", "coordinates": [-122.2051468, 47.6743393]}}, {"type": "Feature", "properties": {"id": 325831671, "name": "The Heathman Hotel Kirkland", "category": "hotel", "tags": ["hotel", "wifi"], "sources": ["osm", "overture"], "website": "http://www.heathmankirkland.com", "phone": "+14252845800", "address": "220 Kirkland Ave"}, "geometry": {"type": "Point", "coordinates": [-122.2038601, 47.6757455]}}, {"type": "Feature", "properties": {"id": 107384020, "name": "Food Mart", "category": "convenience", "tags": ["convenience"], "sources": ["osm"], "hours": "Mo-Sa 06:00-23:00,Su 07:00-22:00"}, "geometry": {"type": "Point", "coordinates": [-122.20071, 47.6785488]}}, {"type": "Feature", "properties": {"id": 3324457104, "name": "Sweet Serenity", "category": "florist", "tags": ["florist"], "sources": ["osm", "overture"], "website": "https://www.sweetserenity.store", "phone": "14255888575", "address": "140 Park Ln"}, "geometry": {"type": "Point", "coordinates": [-122.2051754, 47.6764139]}}, {"type": "Feature", "properties": {"id": 1234306683, "name": "Tobacco Patch", "category": "tobacco", "tags": ["tobacco"], "sources": ["osm", "overture"], "website": "http://tobaccopatch.com", "phone": "+14257394782", "address": "125 Central Way", "hours": "Mo-Th 10:00-22:00, Sa 10:00-00:00, Su 12:00-20:00"}, "geometry": {"type": "Point", "coordinates": [-122.20736, 47.676339]}}, {"type": "Feature", "properties": {"id": 1234307690, "name": "The Market on Central", "category": "convenience", "tags": ["convenience"], "sources": ["osm"], "address": "255 Central Way"}, "geometry": {"type": "Point", "coordinates": [-122.2037709, 47.6770601]}}, {"type": "Feature", "properties": {"id": 1234307916, "name": "AT&T", "category": "mobile_phone", "tags": ["mobile-phone"], "sources": ["osm"], "address": "228 Central Way"}, "geometry": {"type": "Point", "coordinates": [-122.2042628, 47.6766565]}}, {"type": "Feature", "properties": {"id": 1234308082, "name": "Scruff to Fluff", "category": "pet", "tags": ["pet"], "sources": ["osm"], "address": "222 Central Way", "hours": "Tu-Sa 07:00-14:00"}, "geometry": {"type": "Point", "coordinates": [-122.2050715, 47.6772072]}}, {"type": "Feature", "properties": {"id": 1234308316, "name": "Shirzad Fine Jewelry", "category": "jewelry", "tags": ["jewelry"], "sources": ["osm", "overture"], "website": "http://shirzadjewelers.com/", "phone": "+14255761243", "address": "128 Central Way", "hours": "Tu-Sa 10:00-18:00"}, "geometry": {"type": "Point", "coordinates": [-122.2058223, 47.6770397]}}, {"type": "Feature", "properties": {"id": 10767407560, "name": "PCC Community Market", "category": "supermarket", "tags": ["supermarket"], "sources": ["osm"], "website": "https://pccmarkets.com/stores/kirkland", "phone": "+1-425-828-4622", "address": "430 Kirkland Way", "hours": "06:00-23:00"}, "geometry": {"type": "Point", "coordinates": [-122.2000589, 47.6757093]}}, {"type": "Feature", "properties": {"id": 1971015515, "name": "Nyanza Bridal", "category": "clothes", "tags": ["clothes"], "sources": ["osm"], "address": "123 Lake Street South"}, "geometry": {"type": "Point", "coordinates": [-122.206357, 47.6747246]}}, {"type": "Feature", "properties": {"id": 1971061410, "name": "Kirkland Bicycle Shop", "category": "bicycle", "tags": ["bicycle"], "sources": ["osm"], "website": "https://www.kirklandbikes.com/", "phone": "+1-425-828-3800", "address": "208 Kirkland Avenue", "hours": "Mo-Fr 11:00-18:00; Sa-Su 10:00-16:00"}, "geometry": {"type": "Point", "coordinates": [-122.2045091, 47.6756486]}}, {"type": "Feature", "properties": {"id": 1973306078, "name": "Parklane Gallery", "category": "art", "tags": ["art", "gallery"], "sources": ["osm", "overture"], "website": "http://www.parklanegallery.com/", "phone": "+14258271462", "address": "130 Park Ln"}, "geometry": {"type": "Point", "coordinates": [-122.205558, 47.6763299]}}, {"type": "Feature", "properties": {"id": 1973306390, "name": "Absolutely Fabulous Consignment Boutique", "category": "clothes", "tags": ["clothes"], "sources": ["osm"], "website": "http://www.absolutelyfabulousconsignment.com/", "address": "138 Park Lane"}, "geometry": {"type": "Point", "coordinates": [-122.2052712, 47.6763929]}}, {"type": "Feature", "properties": {"id": 2973919269, "name": "Seattle Thread Company", "category": "clothes", "tags": ["clothes", "mens"], "sources": ["osm", "overture"], "website": "https://www.seattlethread.com", "phone": "+14252027732", "address": "9 Lake St", "hours": "10:00-19:00"}, "geometry": {"type": "Point", "coordinates": [-122.2069211, 47.6758646]}}, {"type": "Feature", "properties": {"id": 2973919270, "name": "Smokin' Hot Smoke Shop", "category": "tobacco", "tags": ["tobacco"], "sources": ["osm"], "address": "15 Lake Street"}, "geometry": {"type": "Point", "coordinates": [-122.2070431, 47.6760689]}}, {"type": "Feature", "properties": {"id": 2973921664, "name": "Rain City Cigar", "category": "tobacco", "tags": ["tobacco"], "sources": ["osm"], "address": "115 Lake Street South", "hours": "Mo closed,Tu-Sa 11:00-19:00, Su 11:00-17:00"}, "geometry": {"type": "Point", "coordinates": [-122.2064803, 47.6750007]}}, {"type": "Feature", "properties": {"id": 2973922226, "name": "Via Lago", "category": "clothes", "tags": ["clothes"], "sources": ["osm"], "address": "129 Lake Street South"}, "geometry": {"type": "Point", "coordinates": [-122.2062479, 47.6744866]}}, {"type": "Feature", "properties": {"id": 2973927236, "name": "Lake Street Diamond Company", "category": "jewelry", "tags": ["jewelry"], "sources": ["osm", "overture"], "website": "http://www.lakestreetdiamond.com/", "phone": "+14258229440", "address": "106 Lake St", "hours": "Tu-Fr 10:00-17:00; Sa 12:00-18:00"}, "geometry": {"type": "Point", "coordinates": [-122.2064644, 47.6756858]}}, {"type": "Feature", "properties": {"id": 3042655101, "name": "Champagne Taste", "category": "clothes", "tags": ["clothes"], "sources": ["osm"]}, "geometry": {"type": "Point", "coordinates": [-122.2050777, 47.6761279]}}, {"type": "Feature", "properties": {"id": 3324380738, "name": "Alesia", "category": "gift", "tags": ["gift"], "sources": ["osm"], "address": "128 Central Way", "hours": "Tu-Sa 11:00-17:00"}, "geometry": {"type": "Point", "coordinates": [-122.2068915, 47.6767977]}}, {"type": "Feature", "properties": {"id": 3324457072, "name": "Divalani", "category": "clothes", "tags": ["clothes"], "sources": ["osm"], "address": "107 Park Lane"}, "geometry": {"type": "Point", "coordinates": [-122.2064187, 47.6759037]}}, {"type": "Feature", "properties": {"id": 3324457090, "name": "J. McLaughlin", "category": "clothes", "tags": ["clothes"], "sources": ["osm", "overture"], "website": "https://www.jmclaughlin.com/pages/store-locator-wa-kirkland", "phone": "+14256363080", "address": "129 Park Ln"}, "geometry": {"type": "Point", "coordinates": [-122.2055352, 47.6760949]}}, {"type": "Feature", "properties": {"id": 3324457095, "name": "Ragamoffyn's", "category": "clothes", "tags": ["clothes", "womens"], "sources": ["osm", "overture"], "website": "http://ragamoffyns.com/", "phone": "+14258280396", "address": "132 Park Ln"}, "geometry": {"type": "Point", "coordinates": [-122.2054628, 47.6763509]}}, {"type": "Feature", "properties": {"id": 3324457426, "name": "The Remontant", "category": "gift", "tags": ["gift"], "sources": ["osm"], "website": "https://theremontant.com", "phone": "+1-425-448-9449", "address": "44 Lakeshore Plaza", "hours": "We-Th 11:00-19:00; Fr 12:30-19:00; Sa 12:00-20:00; Su 12:00-17:00"}, "geometry": {"type": "Point", "coordinates": [-122.2078409, 47.6760703]}}, {"type": "Feature", "properties": {"id": 4428564790, "name": "BookTree", "category": "books", "tags": ["books"], "sources": ["osm"]}, "geometry": {"type": "Point", "coordinates": [-122.2097646, 47.67982]}}, {"type": "Feature", "properties": {"id": 4428565389, "name": "Puget Sound Wood Windows", "category": "furniture", "tags": ["furniture"], "sources": ["osm", "overture"], "website": "https://www.pswwinc.com", "phone": "14258289736", "address": "603 Market St"}, "geometry": {"type": "Point", "coordinates": [-122.2097621, 47.6796267]}}, {"type": "Feature", "properties": {"id": 11983731638, "name": "Grape Choice", "category": "wine", "tags": ["wine"], "sources": ["osm"]}, "geometry": {"type": "Point", "coordinates": [-122.2070597, 47.675724]}}, {"type": "Feature", "properties": {"id": 12375010264, "name": "JingJingGo", "category": "convenience", "tags": ["convenience", "chinese"], "sources": ["osm"], "address": "226 Main Street"}, "geometry": {"type": "Point", "coordinates": [-122.2046346, 47.6768281]}}, {"type": "Feature", "properties": {"id": 107384013, "name": "Eastside Trains", "category": "toys", "tags": ["toys"], "sources": ["osm"], "website": "https://www.eastsidetrains.com/", "address": "217 Central Way", "hours": "Mo-Sa 10:00-17:00"}, "geometry": {"type": "Point", "coordinates": [-122.2052501, 47.6768168]}}, {"type": "Feature", "properties": {"id": "e50e1b66-6450-44dc-82ab-04252ed04a26", "name": "Purpose Boutique", "category": "clothes", "tags": ["clothes"], "sources": ["overture"], "website": "https://purposeboutique.com/", "phone": "+14258032444", "address": "122 Central Way"}, "geometry": {"type": "Point", "coordinates": [-122.207222, 47.6766968]}}, {"type": "Feature", "properties": {"id": "d5f0f12b-cf58-4c01-b208-bf53e4459390", "name": "At&t Store", "category": "mobile_phone", "tags": ["mobile-phone", "mobile"], "sources": ["overture"], "website": "https://www.att.com", "phone": "14258209225", "address": "228 Park Ln"}, "geometry": {"type": "Point", "coordinates": [-122.2041779, 47.6766205]}}, {"type": "Feature", "properties": {"id": "546c7b50-48c6-4b09-8d19-aa785aeba6fc", "name": "Verizon Authorized Retailer - Victra", "category": "mobile_phone", "tags": ["mobile-phone", "mobile"], "sources": ["overture"], "website": "https://www.verizon.com", "phone": "+14252960661", "address": "228 Park Ln"}, "geometry": {"type": "Point", "coordinates": [-122.2041779, 47.6766205]}}, {"type": "Feature", "properties": {"id": "e941c972-d82e-4f61-81f4-552a2938e68b", "name": "BookTree Kirkland", "category": "books", "tags": ["books"], "sources": ["overture"], "website": "http://www.booktreekirkland.com", "phone": "+14252027791", "address": "609 Market St"}, "geometry": {"type": "Point", "coordinates": [-122.209816, 47.679863]}}, {"type": "Feature", "properties": {"id": "d99ce926-2e1a-436f-93c4-8db697d4a31f", "name": "Working Spaces Pacific", "category": "furniture", "tags": ["furniture"], "sources": ["overture"], "website": "https://www.workingspaces.com", "phone": "14254621966", "address": "244 Market St"}, "geometry": {"type": "Point", "coordinates": [-122.2091293, 47.6776695]}}, {"type": "Feature", "properties": {"id": "90f1cabb-b972-4f91-92b8-1fb24a85752b", "name": "Asher Goods Co.", "category": "clothes", "tags": ["clothes", "mens"], "sources": ["overture"], "website": "http://www.ashergoods.com", "phone": "4258984937", "address": "15 Lake St  Ste 201"}, "geometry": {"type": "Point", "coordinates": [-122.2070618, 47.6760826]}}, {"type": "Feature", "properties": {"id": "f730c78c-79f6-4a7d-992a-f4df9ede9159", "name": "DeLILLE Cellars Tasting Room", "category": "wine", "tags": ["wine", "winery"], "sources": ["overture"], "website": "https://www.delillecellars.com", "phone": "+14252052147", "address": "15 Lake St"}, "geometry": {"type": "Point", "coordinates": [-122.2070999, 47.6759567]}}, {"type": "Feature", "properties": {"id": "2b37172b-bc5f-48b2-8a47-44a711c60098", "name": "Earthlight Gems and Minerals", "category": "jewelry", "tags": ["jewelry"], "sources": ["overture"], "website": "http://earthlightgems.com/", "phone": "+14258283872", "address": "46 Lakeshore Plaza"}, "geometry": {"type": "Point", "coordinates": [-122.208168, 47.6761436]}}, {"type": "Feature", "properties": {"id": "ca1b8769-1e29-46ba-a774-7545731b1042", "name": "Baby Shoppe", "category": "clothes", "tags": ["clothes", "childrens"], "sources": ["overture"], "website": "http://www.babyshoppe.us/", "phone": "+14255006396", "address": "25 Central Way Ste 240"}, "geometry": {"type": "Point", "coordinates": [-122.208168, 47.6762276]}}, {"type": "Feature", "properties": {"id": "112b28d6-d1e9-4e41-8c02-9a722a1bc5a5", "name": "Market On Central", "category": "supermarket", "tags": ["supermarket"], "sources": ["overture"], "phone": "+14257869503", "address": "255 Central Way"}, "geometry": {"type": "Point", "coordinates": [-122.2038727, 47.6770554]}}, {"type": "Feature", "properties": {"id": "42a105a8-dde0-467d-b0cd-10cefa044560", "name": "Northwest Cellars", "category": "alcohol", "tags": ["alcohol"], "sources": ["overture"], "phone": "+14258259463", "address": "218 Main St"}, "geometry": {"type": "Point", "coordinates": [-122.204895, 47.6766891]}}, {"type": "Feature", "properties": {"id": "5a2a66ee-6bab-43bc-b83a-620465979603", "name": "Harry Store", "category": "clothes", "tags": ["clothes", "mens"], "sources": ["overture"], "website": "https://daily.harrystore.us/", "phone": "+18777788353", "address": "218 Main St"}, "geometry": {"type": "Point", "coordinates": [-122.2047348, 47.6766891]}}, {"type": "Feature", "properties": {"id": "4235f156-e6f7-4147-981e-592867c91095", "name": "Carlo Pacific", "category": "supermarket", "tags": ["supermarket"], "sources": ["overture"], "website": "https://www.carlopacific.com", "address": "218 Main St PMB 136"}, "geometry": {"type": "Point", "coordinates": [-122.2047272, 47.6766968]}}, {"type": "Feature", "properties": {"id": "980e0802-b592-4648-9507-693a162a76ce", "name": "Advanced Coating Solutions", "category": "supermarket", "tags": ["supermarket"], "sources": ["overture"], "phone": "14257850902", "address": "218 Main St PMB 429"}, "geometry": {"type": "Point", "coordinates": [-122.2047272, 47.6766968]}}, {"type": "Feature", "properties": {"id": "7271c0ad-0992-4406-b6c3-26f0b89ceb31", "name": "Mu.shoe", "category": "shoes", "tags": ["shoes", "shoe"], "sources": ["overture"], "website": "https://mushoe.com", "phone": "+14255765100", "address": "140 Park Ln"}, "geometry": {"type": "Point", "coordinates": [-122.2047882, 47.6763763]}}, {"type": "Feature", "properties": {"id": "89356e99-4a77-4183-84fc-0b59ed80fc3d", "name": "Hepburn", "category": "clothes", "tags": ["clothes", "womens"], "sources": ["overture"], "phone": "4255762730", "address": "140 Park Ln"}, "geometry": {"type": "Point", "coordinates": [-122.2047882, 47.6763763]}}, {"type": "Feature", "properties": {"id": "4f27d7b3-4cd1-48ee-b48b-110634583238", "name": "The Melody Lynne Vineyard", "category": "wine", "tags": ["wine", "winery"], "sources": ["overture"], "website": "http://www.themelodylynnevineyard.com/", "phone": "+14259414830", "address": "106 Kirkland Ave"}, "geometry": {"type": "Point", "coordinates": [-122.2061691, 47.6756134]}}, {"type": "Feature", "properties": {"id": "e6945067-68d7-48ce-9c8a-0cff58d8f851", "name": "Eco Clean", "category": "convenience", "tags": ["convenience"], "sources": ["overture"], "website": "http://www.ecocleankirkland.com", "phone": "(425) 409-6204", "address": "123 Park Ln"}, "geometry": {"type": "Point", "coordinates": [-122.2055893, 47.6760635]}}, {"type": "Feature", "properties": {"id": "c66e040d-6eed-4299-9d24-bb664958f772", "name": "Chaffey Homes", "category": "doityourself", "tags": ["doityourself", "building", "supply"], "sources": ["overture"], "website": "http://chaffeyhomes.com", "phone": "(425) 822-5981", "address": "205 Lake St S Ste 101"}, "geometry": {"type": "Point", "coordinates": [-122.2061539, 47.6737556]}}, {"type": "Feature", "properties": {"id": "835e866e-c577-4611-b14d-172d27b670ca", "name": "Via Lago Kirkland", "category": "clothes", "tags": ["clothes", "womens"], "sources": ["overture"], "website": "http://www.vialago.com/", "phone": "+14258939191", "address": "129 Lake St S"}, "geometry": {"type": "Point", "coordinates": [-122.2062683, 47.6745071]}}, {"type": "Feature", "properties": {"id": "30f29b9e-8b87-4bc6-b9fe-ab1bd151eb01", "name": "Rain City Cigar Kirkland", "category": "tobacco", "tags": ["tobacco"], "sources": ["overture"], "website": "http://www.raincitycigar.com/", "phone": "+14255330139", "address": "115 Lake St S"}, "geometry": {"type": "Point", "coordinates": [-122.2066345, 47.6749649]}}, {"type": "Feature", "properties": {"id": "7aec9102-7c4e-4e8a-92fe-5835959e6b6e", "name": "Bikini Beach", "category": "clothes", "tags": ["clothes", "mens"], "sources": ["overture"], "website": "http://www.bikini-beach.com/", "phone": "4258939542", "address": "92B Kirkland Ave"}, "geometry": {"type": "Point", "coordinates": [-122.20681, 47.6754189]}}, {"type": "Feature", "properties": {"id": "ce42fb32-3f54-402a-87e1-9bfc2edccaee", "name": "Crush Footwear", "category": "shoes", "tags": ["shoes", "shoe"], "sources": ["overture"], "website": "http://www.crushfootwear.com/", "phone": "4252984024", "address": "3 Lake St"}, "geometry": {"type": "Point", "coordinates": [-122.2067184, 47.6756439]}}, {"type": "Feature", "properties": {"id": "9481063f-428b-4454-970c-7ac1a2f60bfb", "name": "Romax", "category": "shoes", "tags": ["shoes", "shoe"], "sources": ["overture"], "phone": "4258283888", "address": "123 Lake St S"}, "geometry": {"type": "Point", "coordinates": [-122.2064133, 47.67519]}}, {"type": "Feature", "properties": {"id": "280082dd-45c1-4396-9832-bc3cb4fb8df8", "name": "Chalet Cadeau", "category": "gift", "tags": ["gift"], "sources": ["overture"], "website": "http://www.chaletgifts.com", "phone": "(425) 822-5894", "address": "4567"}, "geometry": {"type": "Point", "coordinates": [-122.2066879, 47.6769295]}}, {"type": "Feature", "properties": {"id": "0f205957-8f62-42df-89a3-e83f27351d20", "name": "Alesia Artisan Jewelry Boutique", "category": "jewelry", "tags": ["jewelry"], "sources": ["overture"], "website": "https://www.alesiaboutique.com", "phone": "14259007245", "address": "128 Central Way"}, "geometry": {"type": "Point", "coordinates": [-122.206871, 47.676857]}}, {"type": "Feature", "properties": {"id": "e43df64b-bc1f-4d1c-af34-68e67d8d160c", "name": "Alesia\u2026Artisan Jewelry", "category": "jewelry", "tags": ["jewelry"], "sources": ["overture"], "website": "http://alesiaboutique.com", "phone": "(425) 900-7245", "address": "129 Central Way"}, "geometry": {"type": "Point", "coordinates": [-122.2069168, 47.6767807]}}, {"type": "Feature", "properties": {"id": "ffbf3c56-78bd-490d-80e2-24be2cc83302", "name": "Pcc Community Markets - Kirkland Co-op", "category": "supermarket", "tags": ["supermarket"], "sources": ["overture"], "website": "https://www.pccmarkets.com", "phone": "14258284622", "address": "430 Kirkland Way"}, "geometry": {"type": "Point", "coordinates": [-122.2003403, 47.6786728]}}, {"type": "Feature", "properties": {"id": "ba87db83-5f38-49e6-9e22-5bc4f0ae620d", "name": "Elite Treasures Company", "category": "jewelry", "tags": ["jewelry"], "sources": ["overture"], "phone": "4255760021", "address": "108 Central Way"}, "geometry": {"type": "Point", "coordinates": [-122.2001724, 47.6784325]}}, {"type": "Feature", "properties": {"id": 2973921662, "name": "Herban Wellness", "category": "pharmacy", "tags": ["pharmacy"], "sources": ["osm"], "address": "103 Lake Street South", "hours": "Mo-Tu,Th-Sa 10:00-18:00, We closed, Su 11:00-17:00"}, "geometry": {"type": "Point", "coordinates": [-122.2066015, 47.6752335]}}, {"type": "Feature", "properties": {"id": 2973921859, "name": "Lake Washington Physical Therapy", "category": "clinic", "tags": ["clinic"], "sources": ["osm"], "address": "209 Kirkland Avenue", "hours": "Mo-Fr 06:00-19:00"}, "geometry": {"type": "Point", "coordinates": [-122.2046469, 47.6753938]}}, {"type": "Feature", "properties": {"id": 3042655105, "name": "Overlake Medical Clinic", "category": "clinic", "tags": ["clinic"], "sources": ["osm"]}, "geometry": {"type": "Point", "coordinates": [-122.2038002, 47.6776142]}}, {"type": "Feature", "properties": {"id": 4428565989, "name": "Market Street Natural Health", "category": "pharmacy", "tags": ["pharmacy"], "sources": ["osm"]}, "geometry": {"type": "Point", "coordinates": [-122.2097633, 47.6797827]}}, {"type": "Feature", "properties": {"id": "1186cf58-3f5e-45b0-960d-1a4c76482435", "name": "Bartell Drugs", "category": "pharmacy", "tags": ["pharmacy"], "sources": ["overture"], "phone": "14253076786", "address": "312 Central Way  Unit 101"}, "geometry": {"type": "Point", "coordinates": [-122.2028351, 47.6777611]}}, {"type": "Feature", "properties": {"id": "d2627ac1-cbcb-4ba2-8e27-17fb1e7ea4e7", "name": "Olympian Reflexology Wellness Center", "category": "clinic", "tags": ["clinic", "medical"], "sources": ["overture"], "website": "http://www.all5stars.com/olympian/default.htm", "phone": "(425) 576-1818", "address": "228 Market St"}, "geometry": {"type": "Point", "coordinates": [-122.2090302, 47.6772881]}}, {"type": "Feature", "properties": {"id": "b34cd3db-fe8b-404b-987f-6bb7eefd032e", "name": "Acasa Pharmacy", "category": "pharmacy", "tags": ["pharmacy"], "sources": ["overture"], "website": "https://acasapharmacy.com", "phone": "14253649227", "address": "339 Kirkland Ave  Ste G"}, "geometry": {"type": "Point", "coordinates": [-122.201828, 47.6751633]}}, {"type": "Feature", "properties": {"id": "941819ef-1cd7-4293-b854-fb323a52c64a", "name": "Berries Health & Genetics Laboratory", "category": "clinic", "tags": ["clinic", "medical"], "sources": ["overture"], "website": "https://berrieshealthinc.com/", "phone": "4258216649", "address": "202 Central Way"}, "geometry": {"type": "Point", "coordinates": [-122.2055283, 47.6769676]}}, {"type": "Feature", "properties": {"id": "ab725d5a-3fc9-44f7-a2f5-a1a9af0a7224", "name": "Evergreen Hospital", "category": "hospital", "tags": ["hospital"], "sources": ["overture"], "website": "https://www.evergreenhealth.com"}, "geometry": {"type": "Point", "coordinates": [-122.2059631, 47.6762047]}}, {"type": "Feature", "properties": {"id": "f4ed77a6-852a-42dd-9853-7d70890fb9d8", "name": "Remedies Pharmacy & Drug Store", "category": "pharmacy", "tags": ["pharmacy"], "sources": ["overture"], "phone": "4257718090", "address": "140 Central Way"}, "geometry": {"type": "Point", "coordinates": [-122.2061844, 47.6768532]}}, {"type": "Feature", "properties": {"id": 1971040662, "name": "Bank of America", "category": "bank", "tags": ["bank", "credit", "union"], "sources": ["osm", "overture"], "website": "https://locators.bankofamerica.com/wa/kirkland/financial-centers-kirkland-16689.html", "phone": "+14256362734", "address": "101 Kirkland Ave", "hours": "Mo-Fr 10:00-16:00"}, "geometry": {"type": "Point", "coordinates": [-122.2062225, 47.6754608]}}, {"type": "Feature", "properties": {"id": 3042655104, "name": "Umpqua Bank", "category": "bank", "tags": ["bank"], "sources": ["osm"], "website": "https://www.opusbank.com/location/kirkland", "address": "278 Central Way", "hours": "Mo-Fr 09:00-16:00"}, "geometry": {"type": "Point", "coordinates": [-122.2037423, 47.6775252]}}, {"type": "Feature", "properties": {"id": 9834786072, "name": "KeyBank", "category": "bank", "tags": ["bank", "credit", "union"], "sources": ["osm", "overture"], "website": "https://www.key.com/locations/WA/Kirkland/BRCH47310189/332-Central-Way?ppc=cmpyxt", "phone": "+14252425066", "address": "332 Central Way"}, "geometry": {"type": "Point", "coordinates": [-122.2013296, 47.6782081]}}, {"type": "Feature", "properties": {"id": 182469070, "name": "U.S. Bank", "category": "bank", "tags": ["bank", "drive-through"], "sources": ["osm"], "address": "132 Kirkland Avenue"}, "geometry": {"type": "Point", "coordinates": [-122.2052101, 47.6757461]}}, {"type": "Feature", "properties": {"id": 1234307042, "name": "The UPS Store", "category": "post_office", "tags": ["post-office", "office"], "sources": ["osm", "overture"], "website": "https://locations.theupsstore.com/wa/kirkland/218-main-st?utm_source=Yext&utm_medium=organic&utm_campaign=Listings", "phone": "+14258898900", "address": "218 MAIN ST", "hours": "Mo-Fr 08:00-18:30; Sa 10:00-16:00"}, "geometry": {"type": "Point", "coordinates": [-122.2046665, 47.6767062]}}, {"type": "Feature", "properties": {"id": 2973921860, "name": "Chase", "category": "bank", "tags": ["bank"], "sources": ["osm"], "website": "https://locator.chase.com/wa/kirkland/215-kirkland-ave", "phone": "+1-425-827-1768", "address": "215 Kirkland Avenue", "hours": "Mo-Fr 09:00-17:00; Sa 09:00-13:00"}, "geometry": {"type": "Point", "coordinates": [-122.2039952, 47.6753173]}}, {"type": "Feature", "properties": {"id": 11980132391, "name": "BECU", "category": "bank", "tags": ["bank"], "sources": ["osm"], "address": "230 Main Street"}, "geometry": {"type": "Point", "coordinates": [-122.2046373, 47.6769095]}}, {"type": "Feature", "properties": {"id": 1971045148, "name": "WaFd Bank", "category": "bank", "tags": ["bank"], "sources": ["osm"], "address": "116 Kirkland Avenue"}, "geometry": {"type": "Point", "coordinates": [-122.205787, 47.6756533]}}, {"type": "Feature", "properties": {"id": 10825608541, "name": "Banner Bank", "category": "bank", "tags": ["bank"], "sources": ["osm"], "address": "201 Park Lane"}, "geometry": {"type": "Point", "coordinates": [-122.204701, 47.6762387]}}, {"type": "Feature", "properties": {"id": 3324457420, "name": "First Financial Northwest Bank", "category": "bank", "tags": ["bank"], "sources": ["osm"], "address": "432 Central Way"}, "geometry": {"type": "Point", "coordinates": [-122.2001501, 47.6785913]}}, {"type": "Feature", "properties": {"id": "a46c41be-b38d-4db1-b954-39ca9af29a68", "name": "Columbia Bank", "category": "bank", "tags": ["bank", "credit", "union"], "sources": ["overture"], "website": "https://locations.umpquabank.com/wa/kirkland/278-central-way", "phone": "4256021274", "address": "278 Central Way"}, "geometry": {"type": "Point", "coordinates": [-122.20401, 47.6774788]}}, {"type": "Feature", "properties": {"id": 58674636, "name": "Kirkland Library", "category": "library", "tags": ["library", "wheelchair-accessible"], "sources": ["osm", "overture"], "website": "http://www.kcls.org/kirkland", "phone": "+14258222459", "address": "308 Kirkland Ave", "hours": "Mo,Th,Fr 10:00-18:00; Tu,We 12:00-20:00; Sa 11:00-18:00"}, "geometry": {"type": "Point", "coordinates": [-122.202959, 47.675979]}}, {"type": "Feature", "properties": {"id": "3e423aa3-f523-4ff2-b5be-98f259965a57", "name": "Sterling Bank", "category": "bank", "tags": ["bank", "credit", "union"], "sources": ["overture"], "website": "http://www.bankwithsterling.com/", "phone": "4258278021", "address": "230 Main St"}, "geometry": {"type": "Point", "coordinates": [-122.2049332, 47.6768341]}}, {"type": "Feature", "properties": {"id": "23f5a26a-3eea-41b0-88a3-9db9fccfe167", "name": "U.S. Bank ATM", "category": "bank", "tags": ["bank", "credit", "union"], "sources": ["overture"], "website": "http://www.usbank.com/locations", "phone": "8008722657", "address": "177 Central Way"}, "geometry": {"type": "Point", "coordinates": [-122.2062225, 47.6767654]}}, {"type": "Feature", "properties": {"id": "b25dbcc1-1141-44a8-948d-fba6c976698c", "name": "First Financial Northwest Bank- Kirkland Branch", "category": "bank", "tags": ["bank", "credit", "union"], "sources": ["overture"], "website": "https://www.ffnwb.com/", "phone": "4252542112", "address": "432 Central Way"}, "geometry": {"type": "Point", "coordinates": [-122.2003098, 47.6785469]}}, {"type": "Feature", "properties": {"id": 10825608545, "name": "Club Pilates", "category": "fitness_centre", "tags": ["fitness-centre", "pilates", "studio"], "sources": ["osm", "overture"], "website": "https://www.clubpilates.com/kirkland/", "phone": "+14255888726", "address": "213 Park Ln"}, "geometry": {"type": "Point", "coordinates": [-122.2038559, 47.6763457]}}, {"type": "Feature", "properties": {"id": 1234307023, "name": "F45 Training", "category": "fitness_centre", "tags": ["fitness-centre"], "sources": ["osm"], "address": "130 Park Lane"}, "geometry": {"type": "Point", "coordinates": [-122.2062294, 47.676183]}}, {"type": "Feature", "properties": {"id": 1234309132, "name": "Go Yoga", "category": "fitness_centre", "tags": ["fitness-centre", "yoga"], "sources": ["osm"], "address": "108 Central Way"}, "geometry": {"type": "Point", "coordinates": [-122.2079066, 47.6765667]}}, {"type": "Feature", "properties": {"id": 10825608546, "name": "Orangetheory Fitness", "category": "fitness_centre", "tags": ["fitness-centre", "gym"], "sources": ["osm", "overture"], "website": "https://www.orangetheory.com/en-us/locations/kirkland-washington-0579?utm_medium=seo&utm_source=fb&utm_term=corporate&utm_campaign=soci", "phone": "+14255028094", "address": "217 Park Ln"}, "geometry": {"type": "Point", "coordinates": [-122.2036917, 47.6763274]}}, {"type": "Feature", "properties": {"id": 8931652176, "name": "Barre3", "category": "fitness_centre", "tags": ["fitness-centre", "barre", "gym"], "sources": ["osm", "overture"], "website": "https://online.barre3.com/studio-locations/kirkland", "phone": "+14253071844", "address": "223 Kirkland Ave"}, "geometry": {"type": "Point", "coordinates": [-122.2036014, 47.6750566]}}, {"type": "Feature", "properties": {"id": 2973925154, "name": "Z-Ultimate Self-Defense Studios", "category": "sports_centre", "tags": ["sports-centre"], "sources": ["osm"], "address": "395 Kirkland Avenue", "hours": "Mo-Th 12:00-21:00,Fr 13:00-19:30,Sa 09:00-15:00"}, "geometry": {"type": "Point", "coordinates": [-122.2004304, 47.6752921]}}, {"type": "Feature", "properties": {"id": 3042655106, "name": "Solar You Yoga", "category": "fitness_centre", "tags": ["fitness-centre", "yoga", "studio"], "sources": ["osm", "overture"], "website": "http://solaryouyoga.com/", "phone": "+12096765278", "address": "268 Central Way"}, "geometry": {"type": "Point", "coordinates": [-122.2039155, 47.6774875]}}, {"type": "Feature", "properties": {"id": 4428557290, "name": "Imaj Pilates", "category": "fitness_centre", "tags": ["fitness-centre", "pilates", "studio"], "sources": ["osm", "overture"], "website": "http://www.imajpilates.com/", "phone": "+14259225000", "address": "250 Market St"}, "geometry": {"type": "Point", "coordinates": [-122.2093248, 47.6777663]}}, {"type": "Feature", "properties": {"id": 9834786057, "name": "9Round", "category": "fitness_centre", "tags": ["fitness-centre", "kickboxing"], "sources": ["osm"], "phone": "+1-425-310-2108"}, "geometry": {"type": "Point", "coordinates": [-122.2021712, 47.6779485]}}, {"type": "Feature", "properties": {"id": 9834786059, "name": "Virtus", "category": "fitness_centre", "tags": ["fitness-centre"], "sources": ["osm"]}, "geometry": {"type": "Point", "coordinates": [-122.2071568, 47.6767467]}}, {"type": "Feature", "properties": {"id": 9834786066, "name": "Hola House", "category": "fitness_centre", "tags": ["fitness-centre", "yoga", "gym"], "sources": ["osm", "overture"], "website": "https://holahouse.co", "address": "316 Central Way"}, "geometry": {"type": "Point", "coordinates": [-122.2019, 47.6780021]}}, {"type": "Feature", "properties": {"id": 10738269035, "name": "Bodies By Kristina Pilates", "category": "fitness_centre", "tags": ["fitness-centre"], "sources": ["osm"]}, "geometry": {"type": "Point", "coordinates": [-122.2086205, 47.6759871]}}, {"type": "Feature", "properties": {"id": 58674586, "name": "Peter Kirk Pool", "category": "swimming_pool", "tags": ["swimming-pool", "swimming", "pool"], "sources": ["osm", "overture"], "website": "http://www.kirklandwa.gov/depart/parks/Aquatics/Peter_Kirk_Pool.htm", "phone": "+14255873335", "address": "340 Kirkland Ave"}, "geometry": {"type": "Point", "coordinates": [-122.2019583, 47.6758794]}}, {"type": "Feature", "properties": {"id": "06f0b163-55c1-43e2-9cbe-b6bbf0b108ac", "name": "Gary Olson Yoga", "category": "fitness_centre", "tags": ["fitness-centre", "gym"], "sources": ["overture"], "website": "http://www.garyolsonyoga.com/", "address": "108 Central Way"}, "geometry": {"type": "Point", "coordinates": [-122.2077713, 47.6765785]}}, {"type": "Feature", "properties": {"id": "9abf6d2e-766d-4a74-9e87-5be8a7874beb", "name": "Bodies By Kristina", "category": "fitness_centre", "tags": ["fitness-centre", "pilates", "studio"], "sources": ["overture"], "website": "http://www.bodiesbykristina.com/", "phone": "+14259197048", "address": "52 Lakeshore Plaza Ste b"}, "geometry": {"type": "Point", "coordinates": [-122.2086487, 47.6759834]}}, {"type": "Feature", "properties": {"id": "ff886307-0f55-47af-9a94-b610ecae08b8", "name": "9round 30 Minute Kickboxing Fitness", "category": "fitness_centre", "tags": ["fitness-centre", "gym"], "sources": ["overture"], "phone": "14253102108", "address": "314 Central Way"}, "geometry": {"type": "Point", "coordinates": [-122.2021255, 47.678009]}}, {"type": "Feature", "properties": {"id": "f82bdd73-72b9-47c5-9c5d-cbd6bd82b2e8", "name": "Aria Pilates", "category": "fitness_centre", "tags": ["fitness-centre", "pilates", "studio"], "sources": ["overture"], "website": "https://ariapilates.co/", "phone": "+14252433372", "address": "314 Central Way"}, "geometry": {"type": "Point", "coordinates": [-122.2021332, 47.6780167]}}, {"type": "Feature", "properties": {"id": "d6569439-de5b-47f5-b8b8-dbbb2947c036", "name": "Yoga at Studio Be", "category": "fitness_centre", "tags": ["fitness-centre", "yoga", "studio"], "sources": ["overture"], "website": "http://www.yogastudiobe.com", "phone": "(425) 739-4595", "address": "223 Kirkland Ave"}, "geometry": {"type": "Point", "coordinates": [-122.2037735, 47.6751099]}}, {"type": "Feature", "properties": {"id": "a027956e-e614-4acb-9fbf-e63d9a4f249c", "name": "Rolfing Eastside", "category": "fitness_centre", "tags": ["fitness-centre", "fitness", "trainer"], "sources": ["overture"], "website": "https://rolfingeastside.com", "phone": "14257613967", "address": "284 Central Way"}, "geometry": {"type": "Point", "coordinates": [-122.2040329, 47.6775627]}}]}