{"type": "FeatureCollection", "features": [{"type": "Feature", "properties": {"id": "1ae0286c-7459-4d57-9891-e116012df5fc", "name": "Jason Matias Fine Art", "category": "gallery", "tags": ["gallery", "art"], "sources": ["overture"], "website": "https://www.jasonmatias.com/", "phone": "8083218642", "address": "4319 171st Pl SE"}, "geometry": {"type": "Point", "coordinates": [-122.1122818, 47.5672836]}}, {"type": "Feature", "properties": {"id": 1511676177, "name": "Cougar Ridge Elementary School", "category": "playground", "tags": ["playground"], "sources": ["osm"]}, "geometry": {"type": "Point", "coordinates": [-122.1167892, 47.5615434]}}]}