{"type": "FeatureCollection", "features": [{"type": "Feature", "properties": {"id": "aa71f84a-a5ed-44d6-a604-3ce1200d0778", "name": "Hazelwood Park", "category": "park", "tags": ["park"], "sources": ["overture"], "website": "http://www.newcastlewa.gov/cms/One.aspx?portalId=4026119&pageId=4484229", "address": "7100 116th Ave SE"}, "geometry": {"type": "Point", "coordinates": [-122.1814651, 47.5371246]}}, {"type": "Feature", "properties": {"id": 760645973, "name": "Little Rhody Park", "category": "park", "tags": ["park"], "sources": ["osm", "overture"], "website": "http://www.ci.newcastle.wa.us/parks/parks_list.htm", "address": "11200-11406 SE 80th St", "hours": "07:00-dusk"}, "geometry": {"type": "Point", "coordinates": [-122.1891533, 47.5313418]}}]}