{"type": "FeatureCollection", "features": [{"type": "Feature", "properties": {"id": "b72753e2-da4d-4cca-81f7-9b7ad01cc57d", "name": "Starbucks", "category": "cafe", "tags": ["cafe", "coffee"], "sources": ["overture"], "phone": "4257938275", "address": "4710 NE 4th St Highland Marketplace"}, "geometry": {"type": "Point", "coordinates": [-122.1554337, 47.4884987]}}, {"type": "Feature", "properties": {"id": 4894770988, "name": "Papa John's", "category": "fast_food", "tags": ["fast-food", "pizza", "takeaway"], "sources": ["osm"], "website": "https://locations.papajohns.com/united-states/wa/98059/renton/4710-ne-4th-st-c101", "phone": "+1-425-793-7777", "address": "4710 Northeast", "hours": "Mo-Th 09:45-23:00; Fr-Sa 09:45-02:00; Su 09:45-23:00"}, "geometry": {"type": "Point", "coordinates": [-122.1554167, 47.4889321]}}, {"type": "Feature", "properties": {"id": 12179280043, "name": "Wingstop", "category": "fast_food", "tags": ["fast-food", "wings", "takeaway", "delivery", "restaurant", "chicken"], "sources": ["osm", "overture"], "website": "https://www.wingstop.com/location/wingstop-2583-renton-wa-98059/menu?y_source=1_MTA1MDI0NTc1OS00ODMtbG9jYXRpb24ud2Vic2l0ZQ%3D%3D", "phone": "4253843313", "address": "4710 NE 4th St Ste 103", "hours": "10:30-24:00"}, "geometry": {"type": "Point", "coordinates": [-122.1554246, 47.4888236]}}, {"type": "Feature", "properties": {"id": 4929953854, "name": "Jersey Mike's Subs", "category": "fast_food", "tags": ["fast-food", "sandwich", "takeaway"], "sources": ["osm"], "website": "https://www.jerseymikes.com/18020/renton-wa", "phone": "+1-425-264-5098", "address": "4710 Northeast 4th Street", "hours": "Mo-Su 10:00-21:00"}, "geometry": {"type": "Point", "coordinates": [-122.1554313, 47.4887698]}}, {"type": "Feature", "properties": {"id": 4908996171, "name": "Ezell's Chicken", "category": "fast_food", "tags": ["fast-food", "chicken", "takeaway"], "sources": ["osm"], "phone": "+1-425-228-9008", "address": "4575 Northeast 4th Street", "hours": "Mo-Sa 10:00-21:00; Su 11:00-21:00"}, "geometry": {"type": "Point", "coordinates": [-122.157654, 47.4877833]}}, {"type": "Feature", "properties": {"id": 4908996127, "name": "Over the Rainbow", "category": "cafe", "tags": ["cafe", "bubble-tea", "takeaway", "delivery", "wifi"], "sources": ["osm"], "website": "https://www.overtherainbowteabar.com/renton-tea-room/", "phone": "+1-425-572-5764", "address": "4820 Northeast 4th Street", "hours": "Mo-Th 12:00-20:00; Fr 12:00-21:00; Sa 11:00-21:00; Su 11:00-20:00"}, "geometry": {"type": "Point", "coordinates": [-122.1541688, 47.489676]}}, {"type": "Feature", "properties": {"id": 4908996199, "name": "Sushi Cafe", "category": "restaurant", "tags": ["restaurant", "sushi"], "sources": ["osm", "overture"], "website": "https://www.sushicaferenton.com", "phone": "14259883650", "address": "4605 NE 4th St", "hours": "Mo-Su 11:30-21:00"}, "geometry": {"type": "Point", "coordinates": [-122.1572999, 47.4880419]}}, {"type": "Feature", "properties": {"id": 4908996200, "name": "Sing Tong Thai Cuisine", "category": "restaurant", "tags": ["restaurant", "thai"], "sources": ["osm"], "address": "4605 Northeast 4th Street", "hours": "Mo-Th 11:00-21:00; Fr,Sa 11:00-22:00; Su 12:00-21:00"}, "geometry": {"type": "Point", "coordinates": [-122.1573003, 47.4882869]}}, {"type": "Feature", "properties": {"id": 4929953853, "name": "Nori Sushi Teriyaki", "category": "restaurant", "tags": ["restaurant", "japanese"], "sources": ["osm"], "phone": "+1-425-228-1129", "address": "4710 Northeast 4th Street", "hours": "11:00-21:00"}, "geometry": {"type": "Point", "coordinates": [-122.1554286, 47.488882]}}, {"type": "Feature", "properties": {"id": "7edf6053-53d6-4798-af05-aff2c590774d", "name": "Over The Rainbow Tea Bar", "category": "cafe", "tags": ["cafe", "tea", "room"], "sources": ["overture"], "website": "https://www.overtherainbowteabar.com", "phone": "+14255725764", "address": "4820 NE 4th St"}, "geometry": {"type": "Point", "coordinates": [-122.1542587, 47.4896812]}}, {"type": "Feature", "properties": {"id": "6f2649f9-0e48-4a9f-9cc4-46f568862cb7", "name": "Ezell's Famous Chicken", "category": "restaurant", "tags": ["restaurant", "chicken", "american"], "sources": ["overture"], "website": "http://www.ezellschicken.com/", "phone": "+14252289008", "address": "4575 NE 4th St #8"}, "geometry": {"type": "Point", "coordinates": [-122.157608, 47.4878502]}}, {"type": "Feature", "properties": {"id": 12709192216, "name": "Happy Autumn", "category": "restaurant", "tags": ["restaurant", "vietnamese"], "sources": ["osm"], "website": "https://www.happyautumnrenton.com/", "phone": "+1-425-282-4465", "address": "4820 Northeast 4th Street"}, "geometry": {"type": "Point", "coordinates": [-122.154163, 47.4892434]}}, {"type": "Feature", "properties": {"id": 396479614, "name": "Jack in the Box", "category": "fast_food", "tags": ["fast-food", "burger", "takeaway", "drive-through"], "sources": ["osm"], "website": "https://locations.jackinthebox.com/us/wa/renton/4810-ne-4th-st", "phone": "+1-425-793-5874", "address": "4810 Northeast 4th Street", "hours": "24/7"}, "geometry": {"type": "Point", "coordinates": [-122.1546973, 47.4889028]}}, {"type": "Feature", "properties": {"id": "f11b8ec2-8b65-4263-b160-bb05d822c972", "name": "Jack in the Box", "category": "fast_food", "tags": ["fast-food", "fast", "food"], "sources": ["overture"], "website": "https://www.jackinthebox.com", "phone": "+14257935874", "address": "4810 NE 4th St"}, "geometry": {"type": "Point", "coordinates": [-122.1556625, 47.4885559]}}, {"type": "Feature", "properties": {"id": 447097086, "name": "DQ Grill & Chill", "category": "fast_food", "tags": ["fast-food", "ice-cream", "burger", "chicken", "takeaway", "wheelchair-accessible", "vegetarian"], "sources": ["osm"], "website": "https://www.dairyqueen.com/locations/wa/renton/4701-ne-4th-st/2303", "phone": "+1-425-227-7118", "address": "4701 Northeast 4th Street", "hours": "Mo-Th 10:30-21:00; Fr,Sa 10:30-22:00; Su 11:00-21:00"}, "geometry": {"type": "Point", "coordinates": [-122.1558475, 47.4882396]}}, {"type": "Feature", "properties": {"id": "850b6279-fff9-43bf-ae95-8cbc6ae61091", "name": "Starbucks Coffee Company", "category": "cafe", "tags": ["cafe", "coffee"], "sources": ["overture"], "website": "https://www.starbucks.com/store-locator/store/1009487", "phone": "+14252267086", "address": "4800 NE 4th St"}, "geometry": {"type": "Point", "coordinates": [-122.1549149, 47.4898224]}}, {"type": "Feature", "properties": {"id": "437a5d8e-02d5-4ecb-a217-e3e884bf1c98", "name": "Dairy Queen Grill & Chill", "category": "fast_food", "tags": ["fast-food", "fast", "food"], "sources": ["overture"], "website": "https://www.dairyqueen.com/en-us/locations/wa/renton/4701-ne-4th-st/2303/?utm_source=organic&utm_campaign=yext%2F&y_source=1_ODk5NzA5OS01NTktbG9jYXRpb24ud2Vic2l0ZQ%3D%3D", "phone": "+14252277118", "address": "4701 NE 4th St"}, "geometry": {"type": "Point", "coordinates": [-122.1559448, 47.4882469]}}, {"type": "Feature", "properties": {"id": "6108e057-43bf-4f74-a613-01dc556b31e8", "name": "Jersey Mike's", "category": "restaurant", "tags": ["restaurant", "sandwich", "fast-food"], "sources": ["overture"], "website": "https://www.jerseymikes.com/18020/renton-wa", "phone": "+14252645098", "address": "4710 NE 4th Street"}, "geometry": {"type": "Point", "coordinates": [-122.1555786, 47.4887848]}}, {"type": "Feature", "properties": {"id": "487f01f5-8a34-4a8e-b148-deebd8b1c948", "name": "Papa Johns Pizza", "category": "restaurant", "tags": ["restaurant", "pizza", "fast-food"], "sources": ["overture"], "website": "https://locations.papajohns.com/united-states/wa/98059/renton/4710-ne-4th-st?utm_source=facebook-store-pages&utm_medium=referral&y_source=1_MTA2OTE3NzItNTU5LWxvY2F0aW9uLndlYnNpdGU%3D", "phone": "+14257937777", "address": "4710 NE 4th St C101"}, "geometry": {"type": "Point", "coordinates": [-122.1554337, 47.4889107]}}, {"type": "Feature", "properties": {"id": "0f992631-b4cb-4147-8aa4-e667a800130e", "name": "Carl's Jr.", "category": "restaurant", "tags": ["restaurant", "burger", "fast-food", "american"], "sources": ["overture"], "website": "https://locations.carlsjr.com/wa/renton/4525-ne-4th-st", "phone": "+14252555555", "address": "4525 NE 4TH ST"}, "geometry": {"type": "Point", "coordinates": [-122.1576767, 47.4882393]}}, {"type": "Feature", "properties": {"id": "796f706c-daf3-4aa8-a8d2-09f9f0c6bf62", "name": "Sing Tong Thai Cuisine and Bar", "category": "restaurant", "tags": ["restaurant", "thai", "asian"], "sources": ["overture"], "website": "https://www.publicreputation.com/sing-tong-renton-washington", "phone": "+14255244910", "address": "4605 NE 4th St #1-2"}, "geometry": {"type": "Point", "coordinates": [-122.1573563, 47.4882927]}}, {"type": "Feature", "properties": {"id": "38de2397-6bba-4861-a5a2-568fc5d8205d", "name": "Souru Teriyaki", "category": "restaurant", "tags": ["restaurant", "asian"], "sources": ["overture"], "website": "http://souruteriyaki.food.officelive.com/default.aspx", "phone": "(425) 228-5769", "address": "4710 NE 4th St"}, "geometry": {"type": "Point", "coordinates": [-122.1571884, 47.4882545]}}, {"type": "Feature", "properties": {"id": "7ce35132-98da-4a5b-9ba6-9f375df20ab0", "name": "Nori Presto Teriyaki", "category": "restaurant", "tags": ["restaurant", "japanese", "asian"], "sources": ["overture"], "website": "https://www.groupon.com/biz/renton-wa/nori-presto", "phone": "+14252281129", "address": "4710 NE 4th St"}, "geometry": {"type": "Point", "coordinates": [-122.1555328, 47.4889297]}}, {"type": "Feature", "properties": {"id": "fe53dd41-9df0-4005-87ad-f1349b89f88d", "name": "Bickersons Brewhouse", "category": "bar", "tags": ["bar", "brewery", "bar-and-grill"], "sources": ["overture"], "website": "https://www.bickersonsbrewhouse.com", "phone": "+14252824183", "address": "4710 NE 4th St"}, "geometry": {"type": "Point", "coordinates": [-122.1555634, 47.4887161]}}, {"type": "Feature", "properties": {"id": "de8927f9-c5ad-4f4e-8a6f-816fb93cdb8a", "name": "Happy Autumn Vietnamese Restaurant", "category": "restaurant", "tags": ["restaurant", "vietnamese", "asian", "noodles"], "sources": ["overture"], "website": "http://happyautumnrenton.com/", "phone": "+14252824465", "address": "4820 NE 4th St Ste A109"}, "geometry": {"type": "Point", "coordinates": [-122.1541214, 47.4892197]}}, {"type": "Feature", "properties": {"id": "150249c2-28f8-4013-bb37-692f6aff54cb", "name": "Kc's Seafood Restaurant", "category": "restaurant", "tags": ["restaurant", "seafood"], "sources": ["overture"], "website": "https://kcsseafoodrestaurant.com", "phone": "14252770228", "address": "4820 NE 4th St"}, "geometry": {"type": "Point", "coordinates": [-122.1540604, 47.4894257]}}, {"type": "Feature", "properties": {"id": "ff10b6e1-bd7b-4498-bb43-25b382ad8b15", "name": "The Windsor", "category": "attraction", "tags": ["attraction", "landmark", "historical", "building"], "sources": ["overture"], "website": "http://www.thewindsorapts.com/", "phone": "+14252771930", "address": "4415 NE 5th St"}, "geometry": {"type": "Point", "coordinates": [-122.1596375, 47.4897385]}}, {"type": "Feature", "properties": {"id": 499396992, "name": "Alder Crossing Neighborhood Park", "category": "park", "tags": ["park"], "sources": ["osm"]}, "geometry": {"type": "Point", "coordinates": [-122.153072, 47.4872806]}}, {"type": "Feature", "properties": {"id": 499396996, "name": "Alder Crossing Neighborhood Park", "category": "park", "tags": ["park", "basketball"], "sources": ["osm"]}, "geometry": {"type": "Point", "coordinates": [-122.1525531, 47.4863769]}}, {"type": "Feature", "properties": {"id": 499506210, "name": "One Union Place Neighborhood Park", "category": "park", "tags": ["park"], "sources": ["osm"]}, "geometry": {"type": "Point", "coordinates": [-122.154463, 47.4840743]}}, {"type": "Feature", "properties": {"id": 499506211, "name": "One Union Place Neighborhood Park", "category": "park", "tags": ["park"], "sources": ["osm"]}, "geometry": {"type": "Point", "coordinates": [-122.1558566, 47.4832002]}}, {"type": "Feature", "properties": {"id": 499506212, "name": "South Union Neighborhood Park", "category": "park", "tags": ["park"], "sources": ["osm"]}, "geometry": {"type": "Point", "coordinates": [-122.1583403, 47.4850298]}}, {"type": "Feature", "properties": {"id": 499506216, "name": "South Union Neighborhood Park", "category": "park", "tags": ["park"], "sources": ["osm"]}, "geometry": {"type": "Point", "coordinates": [-122.157199, 47.4857366]}}, {"type": "Feature", "properties": {"id": 893449149, "name": "South Union Neighborhood Park", "category": "park", "tags": ["park"], "sources": ["osm"]}, "geometry": {"type": "Point", "coordinates": [-122.158201, 47.4840766]}}, {"type": "Feature", "properties": {"id": 499506224, "name": "Windsong Neighborhood Park", "category": "park", "tags": ["park"], "sources": ["osm"]}, "geometry": {"type": "Point", "coordinates": [-122.151967, 47.4891603]}}, {"type": "Feature", "properties": {"id": 1774098593, "name": "QFC", "category": "supermarket", "tags": ["supermarket", "wheelchair-accessible"], "sources": ["osm", "overture"], "website": "https://www.qfc.com", "phone": "14252267086", "address": "4800 NE 4th St", "hours": "Mo-Su 05:00-01:00"}, "geometry": {"type": "Point", "coordinates": [-122.1548173, 47.4898049]}}, {"type": "Feature", "properties": {"id": "9fd3e56b-44bc-4e71-a5f9-4634669e0f09", "name": "T-mobile", "category": "mobile_phone", "tags": ["mobile-phone", "mobile"], "sources": ["overture"], "website": "https://www.t-mobile.com", "phone": "+14259170197", "address": "4710 Ne 4th St Ste 103"}, "geometry": {"type": "Point", "coordinates": [-122.1554642, 47.4888496]}}, {"type": "Feature", "properties": {"id": "468b9bde-da0a-4ef6-aeaf-a46448bd5146", "name": "Pet Pros", "category": "pet", "tags": ["pet"], "sources": ["overture"], "phone": "14252715334", "address": "4700 Ne 4th St  Ste B"}, "geometry": {"type": "Point", "coordinates": [-122.1555939, 47.4898224]}}, {"type": "Feature", "properties": {"id": 4908996201, "name": "All Things Wine", "category": "wine", "tags": ["wine", "alcohol"], "sources": ["osm", "overture"], "website": "http://www.allthingswineandbeer.com/", "phone": "+14252548400", "address": "4605 NE 4th St", "hours": "Mo-Th,Sa 11:30-19:30; Fr 11:30-20:30"}, "geometry": {"type": "Point", "coordinates": [-122.1572894, 47.4881165]}}, {"type": "Feature", "properties": {"id": "fa0d6eea-2965-45d2-94d7-8b67b6db6ea9", "name": "Max $aver Dollar+ Store", "category": "variety_store", "tags": ["variety-store", "discount"], "sources": ["overture"], "phone": "+14257936422", "address": "4575 NE 4th St"}, "geometry": {"type": "Point", "coordinates": [-122.1572037, 47.4877396]}}, {"type": "Feature", "properties": {"id": "fc513eb2-1bce-4c77-859a-9a27c6fb109f", "name": "Wireless To Go", "category": "mobile_phone", "tags": ["mobile-phone", "mobile"], "sources": ["overture"], "website": "https://www.t-mobile.com", "phone": "+14259170197", "address": "4710 Ne 4th St Ste 103"}, "geometry": {"type": "Point", "coordinates": [-122.1554642, 47.4888496]}}, {"type": "Feature", "properties": {"id": "1a4a5ad6-9881-466f-8705-4c744243ab66", "name": "Bartell Drugs", "category": "pharmacy", "tags": ["pharmacy"], "sources": ["overture"], "website": "https://www.bartelldrugs.com/store/renton-highlands/", "phone": "+14257931605", "address": "4700 NE 4th St"}, "geometry": {"type": "Point", "coordinates": [-122.1556549, 47.4896355]}}, {"type": "Feature", "properties": {"id": "cf3b1a1c-f4da-4903-9756-2f6229130464", "name": "Highlands (Renton) Primary Care", "category": "hospital", "tags": ["hospital"], "sources": ["overture"], "website": "http://www.valleymed.org/Locations.htm?intClinicID=37", "phone": "+14256565500", "address": "451 Duvall Ave NE"}, "geometry": {"type": "Point", "coordinates": [-122.1571274, 47.4897346]}}, {"type": "Feature", "properties": {"id": 5289561799, "name": "Bank of America", "category": "bank", "tags": ["bank"], "sources": ["osm"], "hours": "Mo-Fr 10:00-16:00; Sa 10:00-13:00"}, "geometry": {"type": "Point", "coordinates": [-122.1551011, 47.4897486]}}, {"type": "Feature", "properties": {"id": 396479606, "name": "KeyBank", "category": "bank", "tags": ["bank", "drive-through"], "sources": ["osm"], "address": "4431 Northeast 4th Street", "hours": "Mo-Th 09:00-17:00; Fr 09:00-18:00; Sa 10:00-13:30"}, "geometry": {"type": "Point", "coordinates": [-122.159348, 47.488289]}}, {"type": "Feature", "properties": {"id": 396479608, "name": "U.S. Bank", "category": "bank", "tags": ["bank", "drive-through", "credit", "union"], "sources": ["osm", "overture"], "website": "https://www.usbank.com/locations/washington/renton/4513-ne-4th-st-bank-atm/?utm_source=facebook&utm_medium=organic&utm_campaign=facebook_listing", "phone": "+14252274730", "address": "4513 NE 4th St", "hours": "Mo-Fr 09:00-17:00; Sa 09:00-13:00"}, "geometry": {"type": "Point", "coordinates": [-122.158254, 47.4880217]}}, {"type": "Feature", "properties": {"id": "3cd880b9-1b7d-4659-b8be-c634922321fe", "name": "Bank of America ATM", "category": "bank", "tags": ["bank", "credit", "union"], "sources": ["overture"], "website": "https://locators.bankofamerica.com/wa/renton/financial-centers-renton-8735.html", "phone": "8444018500", "address": "4800 NE 4th St"}, "geometry": {"type": "Point", "coordinates": [-122.1548233, 47.4898491]}}, {"type": "Feature", "properties": {"id": "5552b849-0e2f-463d-bb2c-b7022b84e7d3", "name": "Bank of America Financial Center", "category": "bank", "tags": ["bank", "credit", "union"], "sources": ["overture"], "website": "https://locators.bankofamerica.com/wa/renton/financial-centers-renton-8735.html", "phone": "4252280386", "address": "4800 NE 4th St"}, "geometry": {"type": "Point", "coordinates": [-122.1548233, 47.4898491]}}, {"type": "Feature", "properties": {"id": 4929953851, "name": "Success Martial Arts", "category": "sports_centre", "tags": ["sports-centre", "taekwondo", "martial-arts"], "sources": ["osm"], "phone": "+1-425-254-3526", "address": "4616 Northeast 4th Street"}, "geometry": {"type": "Point", "coordinates": [-122.1568, 47.488712]}}]}