{"type": "FeatureCollection", "features": [{"type": "Feature", "properties": {"id": "f1c0d0e5-3396-4f86-8889-42b8048dbc08", "name": "Starbucks Technical Center", "category": "cafe", "tags": ["cafe", "coffee"], "sources": ["overture"], "website": "http://www.starbucks.com/", "phone": "(206) 903-6929", "address": "1021 SW Klickitat Way"}, "geometry": {"type": "Point", "coordinates": [-122.3490448, 47.5705643]}}, {"type": "Feature", "properties": {"id": 887310372, "name": "Bridge Gear Park", "category": "park", "tags": ["park"], "sources": ["osm", "overture"], "website": "https://www.portseattle.org", "phone": "+12067873000", "address": "Southeast of 3431, 11th Ave SW"}, "geometry": {"type": "Point", "coordinates": [-122.3495143, 47.5718863]}}, {"type": "Feature", "properties": {"id": 4012419398, "name": "Harbor Marina Deli", "category": "deli", "tags": ["deli", "delicatessen"], "sources": ["osm", "overture"], "website": "http://www.portseattle.org", "phone": "+12063437667", "address": "1021 SW Klickitat Way #100"}, "geometry": {"type": "Point", "coordinates": [-122.3480018, 47.5704635]}}, {"type": "Feature", "properties": {"id": "7ec07d8f-3df4-4005-96c6-63cefda1a868", "name": "WA \u2013 South Seattle", "category": "toys", "tags": ["toys"], "sources": ["overture"], "website": "https://bricksandminifigs.com/southseattle-wa/", "address": "Coming Soon!"}, "geometry": {"type": "Point", "coordinates": [-122.3443909, 47.5788689]}}]}