{"type": "FeatureCollection", "features": [{"type": "Feature", "properties": {"id": 5140241523, "name": "Starbucks", "category": "cafe", "tags": ["cafe", "coffee-shop", "indoor-seating", "takeaway", "coffee"], "sources": ["osm", "overture"], "website": "https://www.starbucks.com/store-locator/store/6451/target-renton-2290-1215-landing-way-renton-wa-980575521-us", "phone": "4252070067", "address": "1215 N Landing Way (Target Renton T-22, 90)"}, "geometry": {"type": "Point", "coordinates": [-122.2002887, 47.4966799]}}, {"type": "Feature", "properties": {"id": 366835754, "name": "Just Poke", "category": "restaurant", "tags": ["restaurant", "poke", "seafood"], "sources": ["osm"], "address": "727 North 10th Street"}, "geometry": {"type": "Point", "coordinates": [-122.2052631, 47.4974873]}}, {"type": "Feature", "properties": {"id": 2969241499, "name": "Jimmy John's", "category": "fast_food", "tags": ["fast-food", "sandwich", "outdoor-seating", "indoor-seating", "takeaway", "wheelchair-accessible", "vegetarian", "restaurant"], "sources": ["osm", "overture"], "website": "https://locations.jimmyjohns.com/wa/renton/sandwiches-692.html", "phone": "+14252779500", "address": "804 N Landing Way", "hours": "Mo-Su 10:00-22:00"}, "geometry": {"type": "Point", "coordinates": [-122.205069, 47.4965985]}}, {"type": "Feature", "properties": {"id": 366835750, "name": "Top Pot Doughnuts", "category": "cafe", "tags": ["cafe", "donut", "coffee", "indoor-seating", "wheelchair-accessible", "vegetarian"], "sources": ["osm"], "website": "https://www.toppotdoughnuts.com/", "phone": "+1-425-291-7483", "address": "815 North 10th Street", "hours": "Mo-Fr 05:00-15:00; Sa,Su 07:00-15:00"}, "geometry": {"type": "Point", "coordinates": [-122.204447, 47.4975189]}}, {"type": "Feature", "properties": {"id": 366880272, "name": "Panera Bread", "category": "fast_food", "tags": ["fast-food", "sandwich", "bakery", "indoor-seating", "takeaway", "wheelchair-accessible", "vegetarian", "air-conditioned", "wifi"], "sources": ["osm", "overture"], "website": "https://www.panerabread.com/en-us/cafe/locations/wa/renton/921-north-10th-street?utm_medium=local&utm_source=facebook&utm_campaign=dpm-dist&utm_term=202265&utm_content=main", "phone": "+14259175383", "address": "921 North 10TH Street", "hours": "Mo-Sa 06:00-21:00; Su 07:00-21:00"}, "geometry": {"type": "Point", "coordinates": [-122.2025996, 47.4977161]}}, {"type": "Feature", "properties": {"id": 222980659, "name": "Red Robin", "category": "restaurant", "tags": ["restaurant", "burger", "outdoor-seating", "indoor-seating", "takeaway", "wheelchair-accessible", "vegetarian", "air-conditioned"], "sources": ["osm"], "website": "https://www.redrobin.com/", "phone": "+1-425-271-0433", "address": "719 North 10th Street", "hours": "Su-Th 10:00-22:00; Fr-Sa 10:00-23:00"}, "geometry": {"type": "Point", "coordinates": [-122.206024, 47.497777]}}, {"type": "Feature", "properties": {"id": 10237921418, "name": "Emerald City Smoothie", "category": "fast_food", "tags": ["fast-food", "juice", "takeaway", "wheelchair-accessible", "vegetarian"], "sources": ["osm"], "website": "https://www.emeraldcitysmoothie.com/locations/renton-landing-inside-la-fitness", "phone": "+1-253-592-2579", "address": "715 North Landing Way", "hours": "Mo-Fr 08:00-21:00; Sa,Su 09:00-17:30"}, "geometry": {"type": "Point", "coordinates": [-122.2061771, 47.4961954]}}, {"type": "Feature", "properties": {"id": 366837969, "name": "Five Guys", "category": "fast_food", "tags": ["fast-food", "burger", "outdoor-seating", "indoor-seating", "takeaway", "wheelchair-accessible", "restaurant", "american"], "sources": ["osm", "overture"], "website": "https://restaurants.fiveguys.com/910-n-10th-place", "phone": "+14252282286", "address": "910 N 10th Pl", "hours": "11:00-22:00"}, "geometry": {"type": "Point", "coordinates": [-122.2030552, 47.4987558]}}, {"type": "Feature", "properties": {"id": 366886820, "name": "Panda Express", "category": "fast_food", "tags": ["fast-food", "chinese", "indoor-seating", "takeaway", "wheelchair-accessible", "vegetarian", "air-conditioned", "restaurant", "asian"], "sources": ["osm", "overture"], "website": "http://www.pandaexpress.com/", "phone": "+14259172193", "address": "960 Park Ave N Suite #104-A Suite #104-A", "hours": "Mo-Sa 11:00-22:00; Su 11:00-21:30"}, "geometry": {"type": "Point", "coordinates": [-122.2018571, 47.4975495]}}, {"type": "Feature", "properties": {"id": 366835753, "name": "Potbelly", "category": "fast_food", "tags": ["fast-food", "sandwich", "outdoor-seating", "takeaway", "wheelchair-accessible", "wifi", "restaurant"], "sources": ["osm", "overture"], "website": "https://www.potbelly.com/", "phone": "+14252071688", "address": "727 N 10th St", "hours": "Mo-Sa 10:00-21:00; Su 10:00-19:00"}, "geometry": {"type": "Point", "coordinates": [-122.2053113, 47.4974116]}}, {"type": "Feature", "properties": {"id": 4238770714, "name": "Wingstop", "category": "fast_food", "tags": ["fast-food", "wings", "indoor-seating", "takeaway", "restaurant", "chicken", "american"], "sources": ["osm", "overture"], "website": "https://www.wingstop.com/location/wingstop-748-renton-wa-98057/menu?y_source=1_NTUyMDc3MDItNTU5LWxvY2F0aW9uLndlYnNpdGU%3D", "phone": "+14252078659", "address": "804 N Landing Way Ste A", "hours": "Mo-Su 10:00-01:00"}, "geometry": {"type": "Point", "coordinates": [-122.205226, 47.4966147]}}, {"type": "Feature", "properties": {"id": 366883619, "name": "Sharetea", "category": "cafe", "tags": ["cafe", "bubble-tea", "takeaway"], "sources": ["osm"], "address": "911 North 10th Place", "hours": "Su-Th 11:00-21:00; Fr-Sa 11:00-22:00"}, "geometry": {"type": "Point", "coordinates": [-122.2030879, 47.4982945]}}, {"type": "Feature", "properties": {"id": 366840288, "name": "Menchie's", "category": "ice_cream", "tags": ["ice-cream", "frozen-yogurt", "outdoor-seating", "indoor-seating", "takeaway", "wheelchair-accessible", "vegan", "air-conditioned", "wifi"], "sources": ["osm"], "phone": "+1-425-282-5527", "address": "830 North 10th Street", "hours": "Su-Th 12:00-21:00; Fr,Sa 12:00-22:00"}, "geometry": {"type": "Point", "coordinates": [-122.203423, 47.4981231]}}, {"type": "Feature", "properties": {"id": 366835762, "name": "Dough Zone", "category": "restaurant", "tags": ["restaurant", "chinese", "outdoor-seating", "indoor-seating"], "sources": ["osm"], "address": "800 North 10th Place", "hours": "Mo-Th,Su 11:00-21:00; Fr-Sa 11:00-22:00"}, "geometry": {"type": "Point", "coordinates": [-122.204917, 47.4980392]}}, {"type": "Feature", "properties": {"id": "a3c45443-6a21-4a54-9a5f-4695fa6b741e", "name": "Gyros House Mediterranean", "category": "restaurant", "tags": ["restaurant", "mediterranean"], "sources": ["overture"], "website": "http://gyroshouse.com", "phone": "(425) 227-5182", "address": "815 N 10th St #A"}, "geometry": {"type": "Point", "coordinates": [-122.2048187, 47.4979362]}}, {"type": "Feature", "properties": {"id": 660419248, "name": "Mighty Mugs Coffee", "category": "cafe", "tags": ["cafe", "coffee-shop", "drive-through", "coffee"], "sources": ["osm", "overture"], "website": "http://www.mightymugscoffee.com", "phone": "12064756238", "address": "600 Park Ave N"}, "geometry": {"type": "Point", "coordinates": [-122.2018776, 47.4922416]}}, {"type": "Feature", "properties": {"id": 366880271, "name": "Big Chicken", "category": "restaurant", "tags": ["restaurant", "chicken", "indoor-seating", "wheelchair-accessible", "fast-food"], "sources": ["osm", "overture"], "website": "https://www.bigchicken.com/", "phone": "+14252078710", "address": "921 N 10th St", "hours": "Mo-Sa 10:00-22:00; Su 10:00-21:00"}, "geometry": {"type": "Point", "coordinates": [-122.2030264, 47.4977122]}}, {"type": "Feature", "properties": {"id": 366835764, "name": "Vino at the Landing", "category": "bar", "tags": ["bar", "outdoor-seating", "indoor-seating", "wifi", "wine"], "sources": ["osm", "overture"], "website": "https://lp.constantcontactpages.com/sl/kIz3xzi/vinonews", "phone": "+14252820382", "address": "800 N 10th Pl", "hours": "Su-Th 11:00-22:00; Fr-Sa 11:00-24:00"}, "geometry": {"type": "Point", "coordinates": [-122.204696, 47.4981423]}}, {"type": "Feature", "properties": {"id": 366835765, "name": "Kickin Kajun", "category": "restaurant", "tags": ["restaurant", "cajun", "wheelchair-accessible", "cajun-and-creole", "creole", "southern", "american"], "sources": ["osm", "overture"], "website": "http://www.kickin-kajun.com/", "phone": "+14252765586", "address": "800 N 10th Pl", "hours": "Mo,We-Su 11:00-21:30; Tu off"}, "geometry": {"type": "Point", "coordinates": [-122.2045673, 47.498209]}}, {"type": "Feature", "properties": {"id": 366835769, "name": "Trencher's Kitchen & Tap", "category": "pub", "tags": ["pub", "mexican", "outdoor-seating", "indoor-seating", "wheelchair-accessible", "air-conditioned", "wifi", "restaurant", "bar-and-grill"], "sources": ["osm", "overture"], "website": "http://www.trencherskitchenandtap.com/", "phone": "+14252550714", "address": "822 N 10th Pl", "hours": "Mo 11:00-20:00; Tu-We 11:00-21:00; Th 11:00-22:00; Fr 11:00-23:00; Sa 10:00-23:00; Su 10:00-20:00"}, "geometry": {"type": "Point", "coordinates": [-122.2041729, 47.4984336]}}, {"type": "Feature", "properties": {"id": 366837965, "name": "Mori Sushi & Grill", "category": "restaurant", "tags": ["restaurant", "sushi"], "sources": ["osm"], "address": "840 North 10th Place", "hours": "Mo-Th 11:00-15:00,16:30-21:00; Fr 11:00-15:00,16:30-22:00; Sa 12:00-15:00,16:00-22:00; Su 12:00-15:00,16:00-21:00"}, "geometry": {"type": "Point", "coordinates": [-122.2036633, 47.4985889]}}, {"type": "Feature", "properties": {"id": 366840279, "name": "Snowy Village Dessert Cafe", "category": "ice_cream", "tags": ["ice-cream", "wheelchair-accessible"], "sources": ["osm"], "website": "https://snowyvillagelanding.com", "address": "827 North 10th Place", "hours": "13:00-21:00"}, "geometry": {"type": "Point", "coordinates": [-122.2039279, 47.4981581]}}, {"type": "Feature", "properties": {"id": 366840283, "name": "Papaya Vietnamese Cafe", "category": "restaurant", "tags": ["restaurant", "vietnamese", "outdoor-seating", "indoor-seating", "wheelchair-accessible", "vegetarian"], "sources": ["osm"], "website": "http://www.papayamagic.com", "phone": "+1-425-917-1417", "address": "827 North 10th Place", "hours": "Su-Th 11:00-21:00; Fr-Sa 11:00-22:00"}, "geometry": {"type": "Point", "coordinates": [-122.203509, 47.498227]}}, {"type": "Feature", "properties": {"id": 366877913, "name": "Clove Indian Cuisine", "category": "restaurant", "tags": ["restaurant", "indian", "outdoor-seating", "indoor-seating", "takeaway", "wheelchair-accessible", "vegetarian"], "sources": ["osm"], "address": "829 North 10th Place", "hours": "Mo-Su 10:30-24:00"}, "geometry": {"type": "Point", "coordinates": [-122.2035514, 47.4976793]}}, {"type": "Feature", "properties": {"id": 366883616, "name": "Exit 5 Korean BBQ", "category": "restaurant", "tags": ["restaurant", "korean", "indoor-seating", "barbecue", "asian"], "sources": ["osm", "overture"], "website": "http://exit5kbbq.com/", "phone": "+14252917431", "address": "911 N 10th Pl Ste D", "hours": "Su-Th 11:00-23:00; Fr-Sa 11:00-01:00"}, "geometry": {"type": "Point", "coordinates": [-122.2029063, 47.4984297]}}, {"type": "Feature", "properties": {"id": 366883617, "name": "Nibbana", "category": "restaurant", "tags": ["restaurant", "thai", "takeaway", "asian"], "sources": ["osm", "overture"], "website": "http://nibbanarestaurant.com/", "phone": "+14252078042", "address": "920 N 10th St", "hours": "Mo-Su 12:00-21:00"}, "geometry": {"type": "Point", "coordinates": [-122.2030333, 47.4981739]}}, {"type": "Feature", "properties": {"id": 366883620, "name": "Torero's Mexican Restaurant", "category": "restaurant", "tags": ["restaurant", "mexican", "indoor-seating", "wheelchair-accessible", "vegetarian", "air-conditioned", "latin-american"], "sources": ["osm", "overture"], "website": "http://www.toreros-mexicanrestaurants.com/", "phone": "+14252286180", "address": "920 N 10th St", "hours": "Su-Th 10:30-21:00; Fr,Sa 10:30-22:00"}, "geometry": {"type": "Point", "coordinates": [-122.2026844, 47.4981418]}}, {"type": "Feature", "properties": {"id": 654871225, "name": "Hi Pho Bahn Mi Restaurant", "category": "restaurant", "tags": ["restaurant", "vietnamese"], "sources": ["osm"], "website": "https://www.hiphorenton.com/Home", "phone": "+1-425-271-1888", "address": "529 Park Avenue North", "hours": "Mo-Sa 10:00-20:00"}, "geometry": {"type": "Point", "coordinates": [-122.2025038, 47.4912957]}}, {"type": "Feature", "properties": {"id": 1064122490, "name": "Topgolf", "category": "pub", "tags": ["pub", "golf", "wifi", "sports-centre"], "sources": ["osm"]}, "geometry": {"type": "Point", "coordinates": [-122.2062157, 47.4948722]}}, {"type": "Feature", "properties": {"id": "7fc2e47a-1455-4be2-bc4a-4b49068aa07c", "name": "Dough Zone Dumpling House", "category": "restaurant", "tags": ["restaurant", "chinese", "asian"], "sources": ["overture"], "website": "http://doughzonedumplinghouse.com/", "phone": "+14252276000", "address": "800 N 10th Pl Ste A"}, "geometry": {"type": "Point", "coordinates": [-122.2047882, 47.4979706]}}, {"type": "Feature", "properties": {"id": "ba9657e2-d802-4a65-832d-99fd282a294d", "name": "Red Robin Gourmet Burgers", "category": "restaurant", "tags": ["restaurant", "burger", "american"], "sources": ["overture"], "website": "https://www.redrobin.com/locations/wa/renton/renton-539", "phone": "+14252710433", "address": "719 N 10th St"}, "geometry": {"type": "Point", "coordinates": [-122.2059402, 47.4978828]}}, {"type": "Feature", "properties": {"id": "b08b8838-3398-409f-b15a-d4bf0865ac97", "name": "Donatos Pizza", "category": "restaurant", "tags": ["restaurant", "pizza"], "sources": ["overture"], "website": "https://www.donatos.com", "phone": "4252710433", "address": "719 N 10th St"}, "geometry": {"type": "Point", "coordinates": [-122.2060089, 47.4977722]}}, {"type": "Feature", "properties": {"id": "4359d60c-f426-4def-998c-f2f17d853c6b", "name": "World of Beer", "category": "bar", "tags": ["bar", "beer"], "sources": ["overture"], "website": "http://worldofbeer.com/Locations/Renton", "phone": "4252550714", "address": "822 N 10th Pl"}, "geometry": {"type": "Point", "coordinates": [-122.2043762, 47.4980888]}}, {"type": "Feature", "properties": {"id": "c7e7f555-2fd3-442f-bcfb-fe5d11b8dec8", "name": "The Rock Wood Fired Pizza", "category": "bar", "tags": ["bar", "pizza"], "sources": ["overture"], "website": "https://www.therockwfp.com/", "phone": "4252550334", "address": "830 N 10th St"}, "geometry": {"type": "Point", "coordinates": [-122.2041245, 47.498024]}}, {"type": "Feature", "properties": {"id": "93bd8812-55a5-4b39-9622-f709ae8c96ce", "name": "Little Tokyo", "category": "restaurant", "tags": ["restaurant", "japanese"], "sources": ["overture"], "website": "http://www.littletokyosushi.net", "phone": "(425) 277-0303", "address": "529 Park Ave N # N"}, "geometry": {"type": "Point", "coordinates": [-122.2024918, 47.491188]}}, {"type": "Feature", "properties": {"id": "58b23558-8103-40da-aa7b-8949b6118d72", "name": "Nice Thai Restaurant", "category": "restaurant", "tags": ["restaurant", "thai"], "sources": ["overture"], "website": "https://www.nicethairestaurantrenton.com/?utm_source=bing&utm_medium=websiteurl&utm_campaign=search", "phone": "4252711888", "address": "529 Park Ave N"}, "geometry": {"type": "Point", "coordinates": [-122.2024994, 47.4912834]}}, {"type": "Feature", "properties": {"id": "76f7c343-a903-452c-afce-57c63a499d3a", "name": "M & P Restaurant Group", "category": "restaurant", "tags": ["restaurant"], "sources": ["overture"], "phone": "4259171417", "address": "830 N 10th St  Ste C"}, "geometry": {"type": "Point", "coordinates": [-122.2039108, 47.4981041]}}, {"type": "Feature", "properties": {"id": "fd32b920-f1d3-43f1-b4f9-829f1bfbbed2", "name": "Clove", "category": "restaurant", "tags": ["restaurant"], "sources": ["overture"], "website": "http://cloverenton.com/", "phone": "+14257387100", "address": "828 N 10th Pl"}, "geometry": {"type": "Point", "coordinates": [-122.2040253, 47.4976959]}}, {"type": "Feature", "properties": {"id": "6bb383a3-e1b0-4bb1-8358-66d9e79b083d", "name": "Izakaya Kaiten Sushi and Yakitori Bar", "category": "restaurant", "tags": ["restaurant", "asian", "pan", "sushi"], "sources": ["overture"], "phone": "4252282800", "address": "829 N 10th St"}, "geometry": {"type": "Point", "coordinates": [-122.2038803, 47.4976273]}}, {"type": "Feature", "properties": {"id": "fb2c07c4-4ae1-436d-a23b-c471b4f3673d", "name": "Wildfin American Grill", "category": "restaurant", "tags": ["restaurant", "american"], "sources": ["overture"], "website": "https://www.wildfinamericangrill.com", "phone": "14259703757", "address": "727 N 10th St"}, "geometry": {"type": "Point", "coordinates": [-122.2052155, 47.4976234]}}, {"type": "Feature", "properties": {"id": "0eba49f3-7843-424e-ae5a-f8b1129372db", "name": "Renton Landing", "category": "restaurant", "tags": ["restaurant", "sandwich", "fast-food", "wrap"], "sources": ["overture"], "address": "727 N 10th Street"}, "geometry": {"type": "Point", "coordinates": [-122.2052231, 47.4976158]}}, {"type": "Feature", "properties": {"id": "11899b22-35f6-4062-a1c1-e9c67dd4aeab", "name": "Just Poke Renton Landing", "category": "restaurant", "tags": ["restaurant", "poke", "sushi", "seafood"], "sources": ["overture"], "website": "https://justpoke.com/", "phone": "+14255282397", "address": "727 N 10th St"}, "geometry": {"type": "Point", "coordinates": [-122.2050552, 47.4974976]}}, {"type": "Feature", "properties": {"id": "e474395e-a97c-4481-8b68-823915454003", "name": "Papaya Renton Landing", "category": "restaurant", "tags": ["restaurant", "asian"], "sources": ["overture"], "website": "http://www.papayalanding.com/", "phone": "+14259171417", "address": "827 N 10th Pl"}, "geometry": {"type": "Point", "coordinates": [-122.203598, 47.4983215]}}, {"type": "Feature", "properties": {"id": "556163fd-f486-4624-8bdf-adbd53ac8b45", "name": "Thai 65", "category": "restaurant", "tags": ["restaurant", "thai"], "sources": ["overture"], "website": "http://thai65.com", "phone": "(206) 207-8158", "address": "920 N 10th St #A"}, "geometry": {"type": "Point", "coordinates": [-122.2031021, 47.4981003]}}, {"type": "Feature", "properties": {"id": "03234eb7-344e-424a-82b0-5e1f068bc78d", "name": "Mucho Burrito Fresh Mexican Grill", "category": "restaurant", "tags": ["restaurant", "mexican"], "sources": ["overture"], "website": "muchoburrito.com", "phone": "4252543458", "address": "921 N 10th St  Ste A"}, "geometry": {"type": "Point", "coordinates": [-122.2030029, 47.4977188]}}, {"type": "Feature", "properties": {"id": "d7077e0c-514f-4ce9-9c72-1fe0d34c4123", "name": "K Lee Group Llc", "category": "restaurant", "tags": ["restaurant"], "sources": ["overture"], "website": "https://exit5kbbq.com", "address": "911 N 10th Pl Ste C"}, "geometry": {"type": "Point", "coordinates": [-122.2029037, 47.4984245]}}, {"type": "Feature", "properties": {"id": "61e713f1-1d44-4712-9136-0ef9a0db78cd", "name": "Fresh Way Pizza", "category": "restaurant", "tags": ["restaurant", "pizza"], "sources": ["overture"], "phone": "4252777700", "address": "804 N Landing Way"}, "geometry": {"type": "Point", "coordinates": [-122.2015991, 47.4966125]}}, {"type": "Feature", "properties": {"id": "f25561be-0296-4758-a5bd-28b4eeb382b3", "name": "Cypromus", "category": "gallery", "tags": ["gallery", "art"], "sources": ["overture"], "phone": "4256330123", "address": "828 N 10th Pl"}, "geometry": {"type": "Point", "coordinates": [-122.2041168, 47.4986496]}}, {"type": "Feature", "properties": {"id": "e4f27178-8086-4319-ad9e-fa63c2bb2a7c", "name": "Griffis Lake Washington", "category": "attraction", "tags": ["attraction", "landmark", "historical", "building"], "sources": ["overture"], "website": "https://griffisresidential.com/property/lake-washington/?utm_knock=fb", "phone": "+14253828978", "address": "1202 N 10th Pl"}, "geometry": {"type": "Point", "coordinates": [-122.2012634, 47.4994049]}}, {"type": "Feature", "properties": {"id": "a7dd95ea-6b05-4498-8650-265c82d669cb", "name": "Gene Coulon Park on Lake Washington", "category": "park", "tags": ["park"], "sources": ["overture"], "address": "N 8th St"}, "geometry": {"type": "Point", "coordinates": [-122.2046814, 47.4956131]}}, {"type": "Feature", "properties": {"id": 1368776623, "name": "LivAway Suites", "category": "hotel", "tags": ["hotel"], "sources": ["osm"]}, "geometry": {"type": "Point", "coordinates": [-122.2026459, 47.4945517]}}, {"type": "Feature", "properties": {"id": 366880274, "name": "Tribute", "category": "shoes", "tags": ["shoes", "wheelchair-accessible", "clothes"], "sources": ["osm", "overture"], "website": "https://www.tributeapp.co", "phone": "14252645679", "address": "921 N 10th St  Ste C", "hours": "Tu-Su 12:00-19:00; Mo off"}, "geometry": {"type": "Point", "coordinates": [-122.2027859, 47.4977148]}}, {"type": "Feature", "properties": {"id": 366835761, "name": "AT&T", "category": "mobile_phone", "tags": ["mobile-phone", "wheelchair-accessible", "mobile"], "sources": ["osm", "overture"], "website": "https://www.att.com/stores/washington/renton/243402?source=E-Fls10000000000X&wtExtndSource=website", "phone": "+14259005330", "address": "720 N 10th St", "hours": "Mo-Sa 10:00-19:00; Su 11:00-18:00"}, "geometry": {"type": "Point", "coordinates": [-122.2052937, 47.4980271]}}, {"type": "Feature", "properties": {"id": 172349618, "name": "Marshalls", "category": "department_store", "tags": ["department-store", "department"], "sources": ["osm", "overture"], "website": "https://www.marshalls.com/", "phone": "+14252039177", "address": "825 North Landing Way", "hours": "Mo-Su 09:30-21:30"}, "geometry": {"type": "Point", "coordinates": [-122.2043919, 47.4961014]}}, {"type": "Feature", "properties": {"id": 366886822, "name": "Verizon", "category": "mobile_phone", "tags": ["mobile-phone", "wheelchair-accessible", "mobile"], "sources": ["osm", "overture"], "website": "https://www.verizon.com", "phone": "18008801077", "address": "960 Park Ave N  Ste C", "hours": "Mo-Sa 10:00-21:00; Su 10:00-18:00"}, "geometry": {"type": "Point", "coordinates": [-122.2018351, 47.4973152]}}, {"type": "Feature", "properties": {"id": 430210563, "name": "Carhartt", "category": "clothes", "tags": ["clothes", "wheelchair-accessible", "mens"], "sources": ["osm", "overture"], "website": "https://stores.carhartt.com/wa/renton/721-north-landing-way.html", "phone": "+12064702503", "address": "721 N Landing Way", "hours": "Mo-Th 10:00-20:00; Fr,Sa 10:00-21:00; Su 10:00-18:00"}, "geometry": {"type": "Point", "coordinates": [-122.2053712, 47.4961134]}}, {"type": "Feature", "properties": {"id": 366835752, "name": "Ulta Beauty", "category": "cosmetics", "tags": ["cosmetics"], "sources": ["osm"], "website": "https://www.ulta.com/stores/renton-wa-1180", "phone": "+1-425-255-0317", "address": "815 North 10th Street", "hours": "Mo-Th 10:00-21:00; Su 11:00-18:00"}, "geometry": {"type": "Point", "coordinates": [-122.2045984, 47.4972744]}}, {"type": "Feature", "properties": {"id": 172349595, "name": "Ross", "category": "department_store", "tags": ["department-store", "wheelchair-accessible"], "sources": ["osm"], "phone": "+1-425-687-4693", "address": "825 North Landing Way", "hours": "Su-Th 09:30-22:00; Fr,Sa 09:00-22:30"}, "geometry": {"type": "Point", "coordinates": [-122.2038139, 47.4961511]}}, {"type": "Feature", "properties": {"id": "ddf4e6df-5222-450a-8897-7f3b200e4bdd", "name": "The Boeing Store", "category": "department_store", "tags": ["department-store", "department"], "sources": ["overture"], "website": "http://www.boeingstore.com", "phone": "+14252371177", "address": "635 Park Ave N"}, "geometry": {"type": "Point", "coordinates": [-122.2012939, 47.4943428]}}, {"type": "Feature", "properties": {"id": 430210578, "name": "PetSmart", "category": "pet", "tags": ["pet", "wheelchair-accessible"], "sources": ["osm", "overture"], "website": "https://www.petsmart.com/stores/us/wa/renton-store1276.html", "phone": "+14252041759", "address": "1203 N Landing Way", "hours": "Mo-Sa 09:00-21:00; Su 10:00-19:00"}, "geometry": {"type": "Point", "coordinates": [-122.2014463, 47.4962274]}}, {"type": "Feature", "properties": {"id": "f4b8e957-c0f4-4b51-9571-1086b9bcbe8e", "name": "Danner", "category": "shoes", "tags": ["shoes", "shoe"], "sources": ["overture"], "website": "http://www.danner.com", "phone": "+14252266338", "address": "829 N 10th St Ste 200-A"}, "geometry": {"type": "Point", "coordinates": [-122.2043076, 47.4976616]}}, {"type": "Feature", "properties": {"id": 366837963, "name": "Learning Express Toys", "category": "toys", "tags": ["toys", "wheelchair-accessible"], "sources": ["osm"], "phone": "+1-206-388-3940", "address": "840 North 10th Place", "hours": "Mo-Su 11:00-18:00"}, "geometry": {"type": "Point", "coordinates": [-122.2039436, 47.4985394]}}, {"type": "Feature", "properties": {"id": 366837964, "name": "The Pro Shop", "category": "sports", "tags": ["sports", "wheelchair-accessible"], "sources": ["osm"], "phone": "+1-425-496-8810", "address": "840 North 10th Place", "hours": "Mo-Sa 11:00-19:00; Su 11:00-18:00"}, "geometry": {"type": "Point", "coordinates": [-122.2038166, 47.4985487]}}, {"type": "Feature", "properties": {"id": 366840280, "name": "Ruby Room", "category": "clothes", "tags": ["clothes"], "sources": ["osm"], "phone": "+1-425-553-7116", "address": "827 North 10th Place", "hours": "Sa 10:00-16:00 || \"by appointment\"; Su 12:00-16:00 || \"by appointment\""}, "geometry": {"type": "Point", "coordinates": [-122.2038065, 47.4981815]}}, {"type": "Feature", "properties": {"id": 366877912, "name": "Danner Boots", "category": "shoes", "tags": ["shoes", "wheelchair-accessible"], "sources": ["osm"], "website": "https://www.danner.com/", "phone": "+1-425-226-6338", "address": "829 North 10th Street", "hours": "Mo-Sa 10:00-19:00; Su 10:00-18:00"}, "geometry": {"type": "Point", "coordinates": [-122.2041641, 47.4975882]}}, {"type": "Feature", "properties": {"id": "f82a69fc-79e7-480b-868c-208c432e1c16", "name": "Ross Dress for Less", "category": "department_store", "tags": ["department-store", "department"], "sources": ["overture"], "website": "https://www.rossstores.com/", "phone": "+14256874693", "address": "909 N Landing Way"}, "geometry": {"type": "Point", "coordinates": [-122.2036591, 47.4963303]}}, {"type": "Feature", "properties": {"id": "c21a6da9-cd05-4f03-abac-4227b575da62", "name": "Learning Express Toys of Renton", "category": "toys", "tags": ["toys"], "sources": ["overture"], "website": "https://learningexpress.com/renton", "phone": "+14252643606", "address": "840 N 10th Pl"}, "geometry": {"type": "Point", "coordinates": [-122.203949, 47.4983864]}}, {"type": "Feature", "properties": {"id": "f1406c10-9cb4-48a7-bffa-105d8c234e33", "name": "Seattle Fine Jewelry", "category": "jewelry", "tags": ["jewelry"], "sources": ["overture"], "website": "https://www.seattlefinejewelry.com/", "phone": "2067908218", "address": "822 N 10th Pl Ste A"}, "geometry": {"type": "Point", "coordinates": [-122.2042389, 47.4983826]}}, {"type": "Feature", "properties": {"id": "f15e6717-2981-48e9-bcfc-c981e35f1e11", "name": "The Balanced Athlete", "category": "shoes", "tags": ["shoes", "shoe"], "sources": ["overture"], "website": "http://www.thebalancedathlete.com", "phone": "(425) 282-4556", "address": "800 N 10th Pl Ste F"}, "geometry": {"type": "Point", "coordinates": [-122.2046738, 47.4981995]}}, {"type": "Feature", "properties": {"id": "2e9b17df-3563-48a6-9bcf-f7a5a6d1987a", "name": "ACC Jewelers", "category": "jewelry", "tags": ["jewelry"], "sources": ["overture"], "website": "https://accjewelers.com/", "phone": "+14255313162", "address": "1207 N Landing Way"}, "geometry": {"type": "Point", "coordinates": [-122.2013779, 47.4966354]}}, {"type": "Feature", "properties": {"id": 366835759, "name": "Kinwell", "category": "clinic", "tags": ["clinic", "wheelchair-accessible"], "sources": ["osm"], "website": "https://kinwellhealth.com", "phone": "+1-833-411-5469", "address": "710 North 10th Street", "hours": "Mo-Fr 08:00-17:00"}, "geometry": {"type": "Point", "coordinates": [-122.2055617, 47.4982242]}}, {"type": "Feature", "properties": {"id": 289563378, "name": "Boeing 4-04", "category": "clinic", "tags": ["clinic", "emergency"], "sources": ["osm"]}, "geometry": {"type": "Point", "coordinates": [-122.2086341, 47.4978653]}}, {"type": "Feature", "properties": {"id": 366837967, "name": "Swedish Renton Specialty Clinic/OBGYN", "category": "clinic", "tags": ["clinic", "wheelchair-accessible"], "sources": ["osm"], "website": "https://www.swedish.org/", "phone": "+1-425-391-5800", "address": "916 North 10th Place", "hours": "Mo-Fr 07:00-17:00"}, "geometry": {"type": "Point", "coordinates": [-122.2027686, 47.4990319]}}, {"type": "Feature", "properties": {"id": 366837968, "name": "Swedish Renton Specialty Clinic", "category": "clinic", "tags": ["clinic", "wheelchair-accessible"], "sources": ["osm"], "phone": "+1-425-391-5750", "address": "910 North 10th Place", "hours": "Mo-Fr 08:00-17:00"}, "geometry": {"type": "Point", "coordinates": [-122.2028839, 47.4987981]}}, {"type": "Feature", "properties": {"id": 366883615, "name": "Swedish Renton Primary Care Clinic", "category": "clinic", "tags": ["clinic", "wheelchair-accessible"], "sources": ["osm"], "website": "https://www.swedish.org/", "phone": "+1-425-391-5700", "address": "911 North 10th Place", "hours": "Mo-Fr 07:00-18:00; Sa,Su off"}, "geometry": {"type": "Point", "coordinates": [-122.202691, 47.4984652]}}, {"type": "Feature", "properties": {"id": 366886103, "name": "A+ Hearing Aid Center", "category": "clinic", "tags": ["clinic"], "sources": ["osm"], "phone": "+1-425-227-3307", "address": "1002 Park Avenue North", "hours": "Mo-Fr 09:30-16:00"}, "geometry": {"type": "Point", "coordinates": [-122.2019332, 47.4985964]}}, {"type": "Feature", "properties": {"id": 366887372, "name": "Valley Medical Center Urgent Care", "category": "clinic", "tags": ["clinic", "wheelchair-accessible"], "sources": ["osm"], "website": "https://www.valleymed.org/", "phone": "+1-425-656-4211", "address": "1205 North 10th Place", "hours": "Mo-Fr 08:00-20:00; Sa-Su 08:00-16:00"}, "geometry": {"type": "Point", "coordinates": [-122.2017553, 47.4977024]}}, {"type": "Feature", "properties": {"id": 520359565, "name": "Boeing Medical Clinic & Safety", "category": "clinic", "tags": ["clinic"], "sources": ["osm"]}, "geometry": {"type": "Point", "coordinates": [-122.2091124, 47.4959784]}}, {"type": "Feature", "properties": {"id": "1ef44fe9-985a-49b3-96f5-894f0cedc37a", "name": "Swedish Musculoskeletal Services Renton", "category": "clinic", "tags": ["clinic", "medical"], "sources": ["overture"], "website": "https://washington.providence.org/contact-us", "phone": "+14253915800", "address": "916 N 10th Pl"}, "geometry": {"type": "Point", "coordinates": [-122.2027206, 47.4989548]}}, {"type": "Feature", "properties": {"id": "21323831-1cfa-4e6a-94d2-1455074d1e8f", "name": "Swedish Renton Specialty Care", "category": "hospital", "tags": ["hospital"], "sources": ["overture"], "website": "https://www.swedish.org/locations/specialty-care-renton?Is=location&y_source=1_OTU3Njc0NS03MTUtbG9jYXRpb24ud2Vic2l0ZQ==", "phone": "4253915750", "address": "910 N 10th Pl"}, "geometry": {"type": "Point", "coordinates": [-122.2027664, 47.499054]}}, {"type": "Feature", "properties": {"id": "6c9071cf-fa03-46c0-b1f8-dd88cbd692e2", "name": "Union Bank", "category": "bank", "tags": ["bank", "credit", "union"], "sources": ["overture"], "website": "https://blw.unionbank.com/blw/branches/Washington/Renton/727-N-10th-St.,-Ste-A-Renton-Washington.html", "phone": "4252776866", "address": "727 N 10th St Ste A"}, "geometry": {"type": "Point", "coordinates": [-122.2051392, 47.4978256]}}, {"type": "Feature", "properties": {"id": 366835760, "name": "The UPS Store", "category": "post_office", "tags": ["post-office", "wheelchair-accessible"], "sources": ["osm"], "phone": "+1-425-235-7447", "address": "720 North 10th Street", "hours": "Mo-Fr 08:30-18:30; Sa 09:30-17:30"}, "geometry": {"type": "Point", "coordinates": [-122.2054142, 47.4980998]}}, {"type": "Feature", "properties": {"id": 366886094, "name": "BECU", "category": "bank", "tags": ["bank", "wheelchair-accessible"], "sources": ["osm"], "website": "https://www.becu.org/", "phone": "+1-206-439-5700", "address": "1002 Park Avenue North", "hours": "Mo-Fr 09:00-18:00; Sa 09:00-13:00"}, "geometry": {"type": "Point", "coordinates": [-122.2018844, 47.4981173]}}, {"type": "Feature", "properties": {"id": 366886101, "name": "First Financial Northwest Bank", "category": "bank", "tags": ["bank"], "sources": ["osm"], "address": "1002 Park Avenue North", "hours": "Mo-Fr 09:00-17:00"}, "geometry": {"type": "Point", "coordinates": [-122.2018883, 47.4985095]}}, {"type": "Feature", "properties": {"id": "81d8c215-425d-44c3-8868-85f746ccd4fc", "name": "TD Ameritrade", "category": "bank", "tags": ["bank", "credit", "union"], "sources": ["overture"], "website": "https://www.tdameritrade.com/locations/wa/renton.html?cid=LCLSSCTASEA76698", "phone": "4252515445", "address": "1002 Park Ave N Ste C"}, "geometry": {"type": "Point", "coordinates": [-122.2022705, 47.4941483]}}, {"type": "Feature", "properties": {"id": "2eea18c6-4625-461e-bf5b-70bb0049421c", "name": "TD Ameritrade", "category": "bank", "tags": ["bank", "credit", "union"], "sources": ["overture"], "website": "https://www.tdameritrade.com/locations/wa/renton.html?cid=LCLSSCTASEA76698", "phone": "4252515445", "address": "1002 Park Ave N Ste C"}, "geometry": {"type": "Point", "coordinates": [-122.201973, 47.4987335]}}, {"type": "Feature", "properties": {"id": "92e4b6e7-43d2-4323-ab09-68d534b19cbb", "name": "First Financial Northwest Bank - Landing Branch", "category": "bank", "tags": ["bank", "credit", "union"], "sources": ["overture"], "website": "https://www.ffnwb.com/", "phone": "4252554400", "address": "1002 Park Ave N"}, "geometry": {"type": "Point", "coordinates": [-122.2018051, 47.4984398]}}, {"type": "Feature", "properties": {"id": 172349639, "name": "LA Fitness", "category": "fitness_centre", "tags": ["fitness-centre", "gym"], "sources": ["osm", "overture"], "website": "http://www.lafitness.com/Pages/clubhome.aspx?clubid=411&RENTON-Washington+GYUM&utm_source=facebook&utm_medium=facebooklocations&utm_campaign=maps", "phone": "+12069220350", "address": "715 N Landing Way", "hours": "Mo-Th 05:00-24:00; Fr 05:00-20:00; Sa,Su 08:00-20:00"}, "geometry": {"type": "Point", "coordinates": [-122.2063842, 47.4960473]}}]}