{"type": "FeatureCollection", "features": [{"type": "Feature", "properties": {"id": 11980112382, "name": "Domino's", "category": "fast_food", "tags": ["fast-food", "pizza", "takeaway", "restaurant"], "sources": ["osm", "overture"], "website": "https://www.dominos.com/en/?utm_source=google&utm_medium=loclist&utm_campaign=localmaps", "phone": "+14257763030", "address": "22941 Hwy 99 Unit A", "hours": "Mo-Th 10:30-24:00; Fr-Sa 10:30-01:00; Su 10:30-24:00"}, "geometry": {"type": "Point", "coordinates": [-122.3373932, 47.7907639]}}, {"type": "Feature", "properties": {"id": "859c9730-72ec-438c-a157-f5f1f1d16521", "name": "Starbucks", "category": "cafe", "tags": ["cafe", "coffee"], "sources": ["overture"], "website": "https://www.starbucks.com/store-locator/store/15648/", "phone": "+14257754286", "address": "21920 Highway 99"}, "geometry": {"type": "Point", "coordinates": [-122.3319931, 47.7998734]}}, {"type": "Feature", "properties": {"id": 5283362578, "name": "Panda Express", "category": "fast_food", "tags": ["fast-food", "chinese", "takeaway", "restaurant", "asian"], "sources": ["osm", "overture"], "website": "http://www.pandaexpress.com/", "phone": "+14259677389", "address": "21940 Pacific Hwy 99 Suite D Suite D", "hours": "10:30-22:30"}, "geometry": {"type": "Point", "coordinates": [-122.3331525, 47.7999388]}}, {"type": "Feature", "properties": {"id": 8007213710, "name": "Katsu Burger", "category": "fast_food", "tags": ["fast-food", "burger"], "sources": ["osm"], "address": "22618 Highway 99"}, "geometry": {"type": "Point", "coordinates": [-122.337278, 47.793504]}}, {"type": "Feature", "properties": {"id": 12018458806, "name": "Happy Lemon", "category": "cafe", "tags": ["cafe", "bubble-tea", "takeaway"], "sources": ["osm"], "address": "22001 Highway 99", "hours": "Mo-We,Su 11:30-22:00; Th-Sa 11:30-23:30"}, "geometry": {"type": "Point", "coordinates": [-122.3312503, 47.7993997]}}, {"type": "Feature", "properties": {"id": 9039276534, "name": "Patty's Eggnest", "category": "restaurant", "tags": ["restaurant", "breakfast", "breakfast-and-brunch", "brunch", "american"], "sources": ["osm", "overture"], "website": "http://pattyseggnestrestaurant.net/", "phone": "+14256975700", "address": "21940 Hwy 99 suite b", "hours": "Mo-Su 07:00-15:00"}, "geometry": {"type": "Point", "coordinates": [-122.3329166, 47.7999347]}}, {"type": "Feature", "properties": {"id": 12018458805, "name": "Mochinut", "category": "fast_food", "tags": ["fast-food", "donut", "bubble-tea", "takeaway"], "sources": ["osm"], "hours": "Mo-We,Su 11:30-22:00; Th-Sa 11:30-23:30"}, "geometry": {"type": "Point", "coordinates": [-122.3312601, 47.7994508]}}, {"type": "Feature", "properties": {"id": 2677348127, "name": "BCD Tofu House", "category": "restaurant", "tags": ["restaurant", "asian"], "sources": ["osm"]}, "geometry": {"type": "Point", "coordinates": [-122.333681, 47.795351]}}, {"type": "Feature", "properties": {"id": 2677348128, "name": "Arashi Ramen - Edmonds", "category": "restaurant", "tags": ["restaurant", "japanese"], "sources": ["osm"], "website": "https://www.arashiramen.com/", "phone": "+1-425-835-0068", "address": "22511 Highway 99", "hours": "Tu-Su 11:30-21:30"}, "geometry": {"type": "Point", "coordinates": [-122.3338688, 47.7952264]}}, {"type": "Feature", "properties": {"id": 2677348131, "name": "BigFoot Java", "category": "cafe", "tags": ["cafe", "coffee-shop", "takeaway", "coffee"], "sources": ["osm", "overture"], "website": "https://bigfootjava.com/locations/edmonds-bigfoot-java/", "phone": "+14257752542", "address": "22519 Hwy 99", "hours": "24/7"}, "geometry": {"type": "Point", "coordinates": [-122.3350928, 47.7944673]}}, {"type": "Feature", "properties": {"id": 5189420245, "name": "Boiling Point", "category": "restaurant", "tags": ["restaurant", "hotpot", "soup", "chinese", "asian"], "sources": ["osm", "overture"], "website": "http://bpgroupusa.com", "phone": "+14256737101", "address": "22001 Hwy 99 #100", "hours": "11:00-23:00"}, "geometry": {"type": "Point", "coordinates": [-122.3315034, 47.7994536]}}, {"type": "Feature", "properties": {"id": "f328edc1-34d9-485d-9246-546065343fee", "name": "85C Bakery Cafe", "category": "bakery", "tags": ["bakery"], "sources": ["overture"], "website": "http://www.85cbakerycafe.com/", "phone": "+14256703085", "address": "22611 76th Ave W #100"}, "geometry": {"type": "Point", "coordinates": [-122.335083, 47.7939682]}}, {"type": "Feature", "properties": {"id": 8581178834, "name": "Woods Coffee", "category": "cafe", "tags": ["cafe", "coffee-shop", "outdoor-seating", "takeaway", "drive-through", "wheelchair-accessible", "vegetarian", "vegan", "air-conditioned", "wifi", "coffee"], "sources": ["osm", "overture"], "website": "https://woodscoffee.com/", "phone": "+14259770258", "address": "22019 Highway 99", "hours": "Mo-Fr 05:00-18:00; Sa-Su 06:00-18:00"}, "geometry": {"type": "Point", "coordinates": [-122.3315551, 47.7989634]}}, {"type": "Feature", "properties": {"id": "ac83d945-60ad-484e-9089-5c3bee9a5b90", "name": "Kong Tofu House", "category": "restaurant", "tags": ["restaurant", "barbecue"], "sources": ["overture"], "website": "http://www.kongtofuhouse.com", "phone": "(425) 670-6757", "address": "22511 WA-99"}, "geometry": {"type": "Point", "coordinates": [-122.3339081, 47.7945976]}}, {"type": "Feature", "properties": {"id": "8e450cf6-51c0-442d-92b2-fa8fc1ee8016", "name": "Tapioca Express", "category": "restaurant", "tags": ["restaurant", "taiwanese"], "sources": ["overture"], "website": "https://tapiocaexpress.com/", "phone": "4257746764", "address": "22315 Highway 99, Ste A"}, "geometry": {"type": "Point", "coordinates": [-122.3330612, 47.796669]}}, {"type": "Feature", "properties": {"id": 7140427710, "name": "85\u00b0C", "category": "cafe", "tags": ["cafe", "coffee-shop", "chinese", "takeaway"], "sources": ["osm"], "hours": "We,Th 08:00-20:00; Fr,Sa 08:00-21:00; Su 08:00-20:00; Mo,Tu off"}, "geometry": {"type": "Point", "coordinates": [-122.335007, 47.7938849]}}, {"type": "Feature", "properties": {"id": 5469855076, "name": "Dong Ting Chun", "category": "restaurant", "tags": ["restaurant"], "sources": ["osm"], "address": "22001 Highway 99", "hours": "Mo,We-Su 11:00-14:30,16:30-20:30"}, "geometry": {"type": "Point", "coordinates": [-122.3311329, 47.7994417]}}, {"type": "Feature", "properties": {"id": 8581168891, "name": "Ezells Famous Chicken", "category": "fast_food", "tags": ["fast-food", "restaurant", "chicken", "comfort-food", "southern"], "sources": ["osm", "overture"], "website": "https://www.ezellschicken.com/", "phone": "+14256701450", "address": "22019 Hwy 99 #130", "hours": "Mo-Th,Su 10:30-21:00; Fr-Sa 10:30-22:00"}, "geometry": {"type": "Point", "coordinates": [-122.3316721, 47.7987901]}}, {"type": "Feature", "properties": {"id": 6848672600, "name": "Looking for Cha", "category": "restaurant", "tags": ["restaurant", "taiwanese"], "sources": ["osm"]}, "geometry": {"type": "Point", "coordinates": [-122.3333999, 47.7953589]}}, {"type": "Feature", "properties": {"id": 6859339707, "name": "Wonton Noodle House", "category": "restaurant", "tags": ["restaurant"], "sources": ["osm"]}, "geometry": {"type": "Point", "coordinates": [-122.3331281, 47.7969383]}}, {"type": "Feature", "properties": {"id": "fd36ae7f-7921-4c80-9bbf-bcd641a1988c", "name": "Wonton Noodle House", "category": "restaurant", "tags": ["restaurant", "chinese"], "sources": ["overture"], "phone": "14257758628", "address": "22511 Highway 99  Ste 101"}, "geometry": {"type": "Point", "coordinates": [-122.3338165, 47.7947197]}}, {"type": "Feature", "properties": {"id": 6859339709, "name": "T & T Seafood", "category": "restaurant", "tags": ["restaurant"], "sources": ["osm"]}, "geometry": {"type": "Point", "coordinates": [-122.3338876, 47.7950389]}}, {"type": "Feature", "properties": {"id": 8348253996, "name": "Than Brother", "category": "restaurant", "tags": ["restaurant", "vietnamese"], "sources": ["osm"], "address": "22618 Highway 99", "hours": "Mo-Su 09:00-21:00"}, "geometry": {"type": "Point", "coordinates": [-122.3365201, 47.7935306]}}, {"type": "Feature", "properties": {"id": 8348253997, "name": "gilson", "category": "restaurant", "tags": ["restaurant", "barbecue", "korean", "asian"], "sources": ["osm", "overture"], "website": "http://www.gilson.com/", "phone": "+14256735334", "address": "22716 Hwy 99"}, "geometry": {"type": "Point", "coordinates": [-122.3371093, 47.7929281]}}, {"type": "Feature", "properties": {"id": 8630215387, "name": "Sushi Moto", "category": "restaurant", "tags": ["restaurant", "sushi"], "sources": ["osm"]}, "geometry": {"type": "Point", "coordinates": [-122.3366789, 47.793523]}}, {"type": "Feature", "properties": {"id": 8713542344, "name": "Bambu", "category": "cafe", "tags": ["cafe", "vietnamese", "bubble-tea", "takeaway"], "sources": ["osm"]}, "geometry": {"type": "Point", "coordinates": [-122.3338846, 47.7949807]}}, {"type": "Feature", "properties": {"id": "c2e4367a-03bd-4dc9-8164-2903b3c17322", "name": "Looking for Chai", "category": "restaurant", "tags": ["restaurant", "taiwanese", "asian"], "sources": ["overture"], "website": "https://www.lookingforchaitogo.com/", "phone": "+14256720880", "address": "22511 Hwy 99"}, "geometry": {"type": "Point", "coordinates": [-122.3333282, 47.7954102]}}, {"type": "Feature", "properties": {"id": 13129048401, "name": "Harvest Wonton Noodle", "category": "restaurant", "tags": ["restaurant", "chinese"], "sources": ["osm"], "website": "https://sites.google.com/view/harvestwontonnoodle/home", "address": "22931 Highway 99", "hours": "Su, Tu-Fr 11:30-20:30; Sa 11:30-21:00"}, "geometry": {"type": "Point", "coordinates": [-122.3372812, 47.7910102]}}, {"type": "Feature", "properties": {"id": 13189601111, "name": "Savvy Thai Cuisine", "category": "restaurant", "tags": ["restaurant", "thai", "asian"], "sources": ["osm", "overture"], "website": "http://www.tastythaiedmonds.com/", "phone": "+14257752141", "address": "22611 76th Ave W"}, "geometry": {"type": "Point", "coordinates": [-122.3346244, 47.7939608]}}, {"type": "Feature", "properties": {"id": 13952557661, "name": "Kocochi Cafe", "category": "cafe", "tags": ["cafe", "bubble-tea"], "sources": ["osm", "overture"], "website": "https://www.clover.com/online-ordering/kocochi-cafe-edmonds", "phone": "+14257129686", "address": "22315 Hwy 99 Ste a"}, "geometry": {"type": "Point", "coordinates": [-122.3330092, 47.7971135]}}, {"type": "Feature", "properties": {"id": "eec0bcac-ce7c-4f2e-a35e-d57e3f2a401c", "name": "MVP's", "category": "bar", "tags": ["bar"], "sources": ["overture"], "website": "http://mvpswa.com/", "phone": "+14252458053", "address": "22921 Hwy 99"}, "geometry": {"type": "Point", "coordinates": [-122.3373108, 47.7911758]}}, {"type": "Feature", "properties": {"id": "f36c043a-b89a-4e81-8cfa-385853b8e3d5", "name": "Traditional Korean Beef Soup", "category": "restaurant", "tags": ["restaurant", "korean", "soup"], "sources": ["overture"], "website": "http://www.koreanbeefsoup.com", "phone": "+14259772929", "address": "22929 Highway 99"}, "geometry": {"type": "Point", "coordinates": [-122.337204, 47.7910194]}}, {"type": "Feature", "properties": {"id": "1974cac2-ff95-4f66-96d8-b240f4c0f161", "name": "Fashion Dim Sum", "category": "restaurant", "tags": ["restaurant", "dim-sum", "dim", "sum"], "sources": ["overture"], "phone": "14256972886", "address": "22923 Highway 99"}, "geometry": {"type": "Point", "coordinates": [-122.3371124, 47.7911797]}}, {"type": "Feature", "properties": {"id": "20832d09-756e-4ffc-a241-ca6a39a296b1", "name": "Bangkok Boulevard", "category": "restaurant", "tags": ["restaurant", "thai", "asian"], "sources": ["overture"], "website": "http://www.bangkokblvdwa.com/", "phone": "+14259676926", "address": "22923 Hwy 99"}, "geometry": {"type": "Point", "coordinates": [-122.3371811, 47.791172]}}, {"type": "Feature", "properties": {"id": "00b06b30-319d-46ac-8411-ac5c9b2551b0", "name": "Boohan Deli", "category": "restaurant", "tags": ["restaurant", "diner"], "sources": ["overture"], "website": "http://boohan.com/", "phone": "+12062616216", "address": "22618 Hwy 99"}, "geometry": {"type": "Point", "coordinates": [-122.3377914, 47.7934074]}}, {"type": "Feature", "properties": {"id": "7e08aa12-aec6-46dd-84df-a8d14cf8442a", "name": "Royal Bakery", "category": "bakery", "tags": ["bakery"], "sources": ["overture"], "website": "http://www.craftsy.com/Cake-supplies", "phone": "(425) 778-9101", "address": "22618 Highway 99"}, "geometry": {"type": "Point", "coordinates": [-122.3374405, 47.793499]}}, {"type": "Feature", "properties": {"id": "4ae94ba7-e65c-4290-93af-20c31e11a0bb", "name": "Babsang Restaurant Company", "category": "restaurant", "tags": ["restaurant"], "sources": ["overture"], "website": "https://babsang.business.site", "address": "22618 Highway 99 Ste 115"}, "geometry": {"type": "Point", "coordinates": [-122.3373413, 47.7934799]}}, {"type": "Feature", "properties": {"id": "1c5bdc77-53fd-4453-8f38-dd02d479b85c", "name": "Spring Restaurant", "category": "restaurant", "tags": ["restaurant"], "sources": ["overture"], "phone": "+14257449097", "address": "22618 Highway 99 Ste 115"}, "geometry": {"type": "Point", "coordinates": [-122.3373413, 47.7934799]}}, {"type": "Feature", "properties": {"id": "d0293086-6c8d-4d5c-a773-a72f761f4e84", "name": "Dinh & Dinh Corporation", "category": "restaurant", "tags": ["restaurant"], "sources": ["overture"], "address": "22618 Highway 99 Ste 114"}, "geometry": {"type": "Point", "coordinates": [-122.3373413, 47.7934799]}}, {"type": "Feature", "properties": {"id": "4e84df37-0ef9-4dff-95f3-98ec99c9b7ad", "name": "Thanvo Restaurant Inc", "category": "restaurant", "tags": ["restaurant"], "sources": ["overture"], "address": "22618 Highway 99"}, "geometry": {"type": "Point", "coordinates": [-122.3373413, 47.7934799]}}, {"type": "Feature", "properties": {"id": "dc5537e7-2e41-4a0d-8f38-1257e9515da7", "name": "Sushi Moto Inc", "category": "restaurant", "tags": ["restaurant"], "sources": ["overture"], "website": "sushimotoseattle.com", "address": "22618 Highway 99 Ste 102-103"}, "geometry": {"type": "Point", "coordinates": [-122.3373413, 47.7934799]}}, {"type": "Feature", "properties": {"id": "04972966-94e9-4ca9-b29b-15a353ce49fa", "name": "Kazoku", "category": "restaurant", "tags": ["restaurant", "sushi", "japanese", "asian"], "sources": ["overture"], "website": "http://kazokusushi.co/", "phone": "+14256735477", "address": "22618 Highway 99"}, "geometry": {"type": "Point", "coordinates": [-122.3367081, 47.7934875]}}, {"type": "Feature", "properties": {"id": "85746a41-2549-4971-b52e-c9c8d64148cc", "name": "Than Brothers Restaurants", "category": "restaurant", "tags": ["restaurant", "vietnamese", "asian"], "sources": ["overture"], "website": "http://www.thanbrothers.com", "phone": "+14257440212", "address": "22618 Hwy 99"}, "geometry": {"type": "Point", "coordinates": [-122.3366241, 47.7935677]}}, {"type": "Feature", "properties": {"id": "840b7908-ab4d-4c0a-add6-0572cd9ea52a", "name": "Bangkok Nine Thai Cuisine", "category": "restaurant", "tags": ["restaurant"], "sources": ["overture"], "website": "http://www.bangkok9togo.com/", "phone": "(425) 775-1220", "address": "22611 76th Ave W"}, "geometry": {"type": "Point", "coordinates": [-122.334816, 47.7938805]}}, {"type": "Feature", "properties": {"id": "a63b2bd6-18f1-4f25-8d3f-161fafb7bf55", "name": "Bigfoot Properties X, Llc", "category": "restaurant", "tags": ["restaurant"], "sources": ["overture"], "address": "22511 Highway 99"}, "geometry": {"type": "Point", "coordinates": [-122.3338165, 47.7947197]}}, {"type": "Feature", "properties": {"id": "b6079a53-fcb8-4e1d-9d0a-b81b08fbf3e9", "name": "Yua Ramen", "category": "restaurant", "tags": ["restaurant", "japanese", "asian", "noodles"], "sources": ["overture"], "website": "https://yua-ramen.square.site", "phone": "+14258350068", "address": "22511 Hwy 99 #105"}, "geometry": {"type": "Point", "coordinates": [-122.3339462, 47.7950897]}}, {"type": "Feature", "properties": {"id": "5cc6b7af-238c-439d-8d20-b342e8b21eaf", "name": "Robatasumi", "category": "restaurant", "tags": ["restaurant", "japanese", "sushi", "asian"], "sources": ["overture"], "website": "http://www.robatasumi.com/", "phone": "+12069410643", "address": "22511 Hwy 99 #111"}, "geometry": {"type": "Point", "coordinates": [-122.3339691, 47.7947655]}}, {"type": "Feature", "properties": {"id": "762ee095-11bc-4d7c-bf8c-3f746095577b", "name": "T&T Seafood Restaurant", "category": "restaurant", "tags": ["restaurant", "seafood", "asian", "chinese"], "sources": ["overture"], "website": "http://www.tandtseafoodrestaurant.com/", "phone": "+14257763832", "address": "22511 Hwy 99 #103"}, "geometry": {"type": "Point", "coordinates": [-122.3339996, 47.7951889]}}, {"type": "Feature", "properties": {"id": "e32e3a80-bd16-4d46-bd0c-82aca57c0f54", "name": "Sherman Capital Inc", "category": "restaurant", "tags": ["restaurant"], "sources": ["overture"], "address": "21940 Highway 99 # B"}, "geometry": {"type": "Point", "coordinates": [-122.3330154, 47.7999115]}}, {"type": "Feature", "properties": {"id": "aee2e8a6-d7a4-449b-9b5a-5f0dd34788ef", "name": "Taste Rice Noodle", "category": "restaurant", "tags": ["restaurant", "noodles", "asian", "chinese"], "sources": ["overture"], "phone": "+14256972250", "address": "22315 Hwy 99"}, "geometry": {"type": "Point", "coordinates": [-122.3333206, 47.7966042]}}, {"type": "Feature", "properties": {"id": "0c04938f-4ede-4669-95ed-4a85d464daeb", "name": "Boiling Fish", "category": "restaurant", "tags": ["restaurant", "asian", "fusion"], "sources": ["overture"], "website": "https://www.boilingfishedmonds.com/?utm_source=bing&utm_medium=websiteurl&utm_campaign=search", "phone": "4256701071", "address": "22511 Highway 99 #101"}, "geometry": {"type": "Point", "coordinates": [-122.333519, 47.7948532]}}, {"type": "Feature", "properties": {"id": "84d259e3-8b8a-434f-8ed9-f82d75a24c07", "name": "Bite of China", "category": "restaurant", "tags": ["restaurant", "noodles"], "sources": ["overture"], "website": "https://boilingfishtogo.com/", "address": "22511 WA-99 Ste 101"}, "geometry": {"type": "Point", "coordinates": [-122.3334351, 47.7953873]}}, {"type": "Feature", "properties": {"id": "76304f94-699a-42f4-9405-72c76e64097d", "name": "Qin Xian Food", "category": "restaurant", "tags": ["restaurant", "chinese"], "sources": ["overture"], "website": "http://www.miahskitchen.weebly.com", "phone": "(425) 776-7847", "address": "22315 WA-99"}, "geometry": {"type": "Point", "coordinates": [-122.3330994, 47.7966614]}}, {"type": "Feature", "properties": {"id": "76d940be-6d74-4439-aa3f-194407a6a408", "name": "Miah Food Llc", "category": "restaurant", "tags": ["restaurant"], "sources": ["overture"], "address": "22315 Highway 99 Ste K"}, "geometry": {"type": "Point", "coordinates": [-122.3330917, 47.7969933]}}, {"type": "Feature", "properties": {"id": "857c9480-757e-4f13-8815-e6d70c0239b5", "name": "Harvest Soil Llc", "category": "restaurant", "tags": ["restaurant"], "sources": ["overture"], "address": "22315 Highway 99 Ste H"}, "geometry": {"type": "Point", "coordinates": [-122.3330917, 47.7969933]}}, {"type": "Feature", "properties": {"id": "3e5809bf-09bc-4138-8522-a2708528883c", "name": "Waroeng Jajanan", "category": "restaurant", "tags": ["restaurant", "indonesian", "asian"], "sources": ["overture"], "website": "http://www.waroengjajanan.com/", "phone": "+14254127025", "address": "22315 Hwy 99 i"}, "geometry": {"type": "Point", "coordinates": [-122.3330765, 47.7966347]}}, {"type": "Feature", "properties": {"id": "8369b782-179b-4eb2-ab7d-8b711e658e93", "name": "Park Ballinger Apartments and Townhomes", "category": "attraction", "tags": ["attraction", "landmark", "historical", "building"], "sources": ["overture"], "website": "http://www.parkballingerapartments.com", "phone": "+14257742964", "address": "22906 76th Ave W"}, "geometry": {"type": "Point", "coordinates": [-122.3356934, 47.7912674]}}, {"type": "Feature", "properties": {"id": 615996855, "name": "Esperance Park", "category": "park", "tags": ["park"], "sources": ["osm", "overture"], "website": "https://www.esperance.wa.gov.au/esperance-skate-park", "phone": "+14253886600", "address": "7830 222nd Street SW"}, "geometry": {"type": "Point", "coordinates": [-122.3394425, 47.7969433]}}, {"type": "Feature", "properties": {"id": "b74bff4b-af2a-4484-99e4-e7e1f759c611", "name": "Andys Motel", "category": "motel", "tags": ["motel"], "sources": ["overture"], "website": "http://www.andysmotel.com", "phone": "+14257766080", "address": "22201 Hwy 99"}, "geometry": {"type": "Point", "coordinates": [-122.3325119, 47.7976418]}}, {"type": "Feature", "properties": {"id": "9343fbf0-e787-437a-8943-b7b9a4b7c786", "name": "Americas Best Value Inn Edmonds Seattle N", "category": "hotel", "tags": ["hotel"], "sources": ["overture"], "website": "https://www.redlion.com/americas-best-value-inn/wa/edmonds/americas-best-value-inn-edmonds-seattle-n", "phone": "4257760200", "address": "22127 Highway 99"}, "geometry": {"type": "Point", "coordinates": [-122.3320923, 47.7979431]}}, {"type": "Feature", "properties": {"id": 1145765856, "name": "99 Ranch Market", "category": "supermarket", "tags": ["supermarket", "asian", "chinese"], "sources": ["osm", "overture"], "website": "http://www.99ranch.com/", "phone": "+14256701899", "address": "22511 Hwy 99", "hours": "08:00-22:00"}, "geometry": {"type": "Point", "coordinates": [-122.3338375, 47.7948161]}}, {"type": "Feature", "properties": {"id": 7487664263, "name": "AT&T", "category": "mobile_phone", "tags": ["mobile-phone"], "sources": ["osm"], "address": "22001 Highway 99", "hours": "Mo-Sa 10:00-20:00; Su 11:00-18:00"}, "geometry": {"type": "Point", "coordinates": [-122.3313398, 47.799454]}}, {"type": "Feature", "properties": {"id": "80696783-a225-421c-8a16-c2044be82292", "name": "Metro by T-Mobile", "category": "mobile_phone", "tags": ["mobile-phone", "mobile"], "sources": ["overture"], "website": "https://www.metrobyt-mobile.com/stores/bd/metro-by-t-mobile-22935-hwy-99-edmonds-wa-10333908/?utm_source=facebook&utm_medium=lastmile&utm_campaign=62096", "phone": "+14259676114", "address": "22935 Highway 99"}, "geometry": {"type": "Point", "coordinates": [-122.3372955, 47.7908783]}}, {"type": "Feature", "properties": {"id": 8630215394, "name": "Verizon", "category": "mobile_phone", "tags": ["mobile-phone", "mobile"], "sources": ["osm", "overture"], "website": "victra.com", "phone": "14257743130", "address": "22618 Highway 99  Ste 104"}, "geometry": {"type": "Point", "coordinates": [-122.336808, 47.7935216]}}, {"type": "Feature", "properties": {"id": 568571486, "name": "Harbor Freight Tools", "category": "hardware", "tags": ["hardware"], "sources": ["osm", "overture"], "website": "https://www.harborfreight.com/storelocator/22111-highway-99-edmonds-wa-98026?number=530", "phone": "+1-425-640-3728", "address": "22111 Highway 99", "hours": "Mo-Sa 08:00-20:00; Su 09:00-18:00"}, "geometry": {"type": "Point", "coordinates": [-122.3318412, 47.7982839]}}, {"type": "Feature", "properties": {"id": "07c7ba1e-c7a6-484f-add7-af8d9aaca526", "name": "Rocket", "category": "convenience", "tags": ["convenience"], "sources": ["overture"], "website": "https://rocketstores.com/", "phone": "+14257753714", "address": "22625 Hwy 99"}, "geometry": {"type": "Point", "coordinates": [-122.3360214, 47.7933884]}}, {"type": "Feature", "properties": {"id": 7140427711, "name": "A World of Collections Games, Comics and Cards", "category": "books", "tags": ["books"], "sources": ["osm"], "hours": "Mo-Su 10:00-18:00"}, "geometry": {"type": "Point", "coordinates": [-122.3348657, 47.7939558]}}, {"type": "Feature", "properties": {"id": 8007213708, "name": "GiftLand", "category": "gift", "tags": ["gift"], "sources": ["osm"]}, "geometry": {"type": "Point", "coordinates": [-122.3371517, 47.793508]}}, {"type": "Feature", "properties": {"id": 8007213711, "name": "Boo Han Oriental Market", "category": "supermarket", "tags": ["supermarket"], "sources": ["osm"], "website": "https://www.boohan.com", "address": "22618 Highway 99"}, "geometry": {"type": "Point", "coordinates": [-122.3375169, 47.7934296]}}, {"type": "Feature", "properties": {"id": 8007213712, "name": "Seattle Deli", "category": "deli", "tags": ["deli", "restaurant", "vietnamese", "asian"], "sources": ["osm", "overture"], "website": "http://www.serrabrothersitaliandeli.com", "phone": "+14257761788", "address": "22618 Hwy 99 #114"}, "geometry": {"type": "Point", "coordinates": [-122.3375263, 47.7932278]}}, {"type": "Feature", "properties": {"id": 309291937, "name": "Jacksons", "category": "convenience", "tags": ["convenience", "wheelchair-accessible"], "sources": ["osm"], "hours": "PH,Mo-Su 05:00-24:00"}, "geometry": {"type": "Point", "coordinates": [-122.3325702, 47.7992067]}}, {"type": "Feature", "properties": {"id": 608694087, "name": "Millers Rent All", "category": "hardware", "tags": ["hardware"], "sources": ["osm"], "website": "https://www.millersrentall.com/", "address": "22901 Highway 99", "hours": "Mo-Fr 07:00-17:00; Sa 08:00-17:00; Su 09:00-17:00"}, "geometry": {"type": "Point", "coordinates": [-122.3370961, 47.7914487]}}, {"type": "Feature", "properties": {"id": "e0e4c457-e109-4318-b92d-7c8c4ce1a6cc", "name": "Rite Aid", "category": "convenience", "tags": ["convenience"], "sources": ["overture"], "phone": "4256702667", "address": "22515 Highway 99"}, "geometry": {"type": "Point", "coordinates": [-122.33358, 47.7940178]}}, {"type": "Feature", "properties": {"id": "40403f3f-32a6-4097-8139-9e226c47b31f", "name": "AT&T Store", "category": "mobile_phone", "tags": ["mobile-phone", "mobile"], "sources": ["overture"], "website": "https://www.att.com/stores/washington/edmonds/122213?source=E-Fls10000000000X&wtExtndSource=website", "phone": "+14257766601", "address": "22001 Highway 99"}, "geometry": {"type": "Point", "coordinates": [-122.331398, 47.7994347]}}, {"type": "Feature", "properties": {"id": "61f3e558-8b38-4f95-8eaf-f958bb12b61c", "name": "Cricket Wireless Authorized Retailer", "category": "mobile_phone", "tags": ["mobile-phone", "mobile"], "sources": ["overture"], "website": "https://www.cricketwireless.com/stores/wa/edmonds/22511-highway-99-ste-108b?utm_source=Facebook&utm_medium=Organic_Search&utm_campaign=Yext_Listings", "phone": "+14255997787", "address": "22511 Highway 99"}, "geometry": {"type": "Point", "coordinates": [-122.3337555, 47.794796]}}, {"type": "Feature", "properties": {"id": "4324eb1a-5fbf-4187-9ed9-cadc9bd73af4", "name": "Jacksons Food Stores", "category": "convenience", "tags": ["convenience"], "sources": ["overture"], "website": "http://www.jacksons.com/", "phone": "4257714315", "address": "22000 Highway 99"}, "geometry": {"type": "Point", "coordinates": [-122.3321915, 47.7991982]}}, {"type": "Feature", "properties": {"id": "d6efdd05-457f-49fd-a0ae-a07249f0895d", "name": "Mercado Latino", "category": "supermarket", "tags": ["supermarket", "latin-american"], "sources": ["overture"], "website": "https://mercado-latino-mexican-grocery-store.business.site", "phone": "+14258350458", "address": "22927 Highway 99"}, "geometry": {"type": "Point", "coordinates": [-122.3372803, 47.7911148]}}, {"type": "Feature", "properties": {"id": "920d0fc7-6f73-464c-b143-1276005a8408", "name": "Abeba Grocery & Deli", "category": "supermarket", "tags": ["supermarket"], "sources": ["overture"], "phone": "14257747913", "address": "22910 Highway 99"}, "geometry": {"type": "Point", "coordinates": [-122.3375778, 47.7907181]}}, {"type": "Feature", "properties": {"id": "2ff02021-8675-4434-b65a-d0bf979b7afb", "name": "Concrete Craft of Bothell", "category": "doityourself", "tags": ["doityourself", "building", "supply"], "sources": ["overture"], "website": "https://www.concretecraft.com/bothell-wa/", "phone": "(425) 243-9777", "address": "7108 228th St SW"}, "geometry": {"type": "Point", "coordinates": [-122.3302231, 47.7921219]}}, {"type": "Feature", "properties": {"id": "e732715e-0720-461b-9a2f-487639630bbd", "name": "Harbor Freight", "category": "hardware", "tags": ["hardware"], "sources": ["overture"], "website": "https://go.harborfreight.com/store00530", "phone": "+14256403728", "address": "22111 Hwy 99"}, "geometry": {"type": "Point", "coordinates": [-122.3318558, 47.7982903]}}, {"type": "Feature", "properties": {"id": 8581176118, "name": "Zoom+ care", "category": "clinic", "tags": ["clinic"], "sources": ["osm"], "hours": "08:00-20:00"}, "geometry": {"type": "Point", "coordinates": [-122.3316563, 47.7989078]}}, {"type": "Feature", "properties": {"id": 8007213709, "name": "Highland Pharmacy", "category": "pharmacy", "tags": ["pharmacy"], "sources": ["osm", "overture"], "website": "http://www.uniteddrugs.com/", "phone": "+14256738533", "address": "22618 Highway 99"}, "geometry": {"type": "Point", "coordinates": [-122.337225, 47.7935114]}}, {"type": "Feature", "properties": {"id": 8630215393, "name": "Joo Clinic", "category": "clinic", "tags": ["clinic"], "sources": ["osm"]}, "geometry": {"type": "Point", "coordinates": [-122.3369812, 47.7935081]}}, {"type": "Feature", "properties": {"id": "c74a9670-1489-4ff9-aef1-e480925d5249", "name": "CoinFlip Bitcoin ATM - Rocket #5927 (Edmonds)", "category": "bank", "tags": ["bank", "credit", "union"], "sources": ["overture"], "website": "https://locations.coinflip.tech/us/wa/edmonds/22625-hwy-99", "phone": "7738000106", "address": "22625 Hwy 99"}, "geometry": {"type": "Point", "coordinates": [-122.3358459, 47.793335]}}, {"type": "Feature", "properties": {"id": 7487760852, "name": "Planet Fitness", "category": "fitness_centre", "tags": ["fitness-centre", "gym"], "sources": ["osm", "overture"], "website": "https://www.planetfitness.com/gyms/edmonds-wa?utm_medium=yext&utm_source=extnet", "phone": "+14256482424", "address": "22515 Highway 99"}, "geometry": {"type": "Point", "coordinates": [-122.3338603, 47.7942746]}}, {"type": "Feature", "properties": {"id": "95344038-58c1-4155-ab0e-c218caca55be", "name": "Studio 26 Pilates", "category": "fitness_centre", "tags": ["fitness-centre", "pilates", "studio"], "sources": ["overture"], "website": "https://www.studio26pilates.com/", "phone": "+14256162000", "address": "21920 76th Ave W Suite 104"}, "geometry": {"type": "Point", "coordinates": [-122.3360977, 47.7998734]}}]}