{"type": "FeatureCollection", "features": [{"type": "Feature", "properties": {"id": 4830008632, "name": "Bruchelle's Bagel Bistro", "category": "cafe", "tags": ["cafe", "bagel", "bakery"], "sources": ["osm", "overture"], "website": "http://www.bruchelles.com/", "phone": "+12532364373", "address": "16340 SE 256 St"}, "geometry": {"type": "Point", "coordinates": [-122.123432, 47.3728324]}}, {"type": "Feature", "properties": {"id": 444686473, "name": "Cafe Elite", "category": "cafe", "tags": ["cafe", "coffee-shop", "takeaway", "coffee"], "sources": ["osm", "overture"], "website": "http://www.cafeelite.com/", "phone": "+12539814781", "address": "25625 164th Ave SE"}, "geometry": {"type": "Point", "coordinates": [-122.1232821, 47.3716542]}}, {"type": "Feature", "properties": {"id": "81835bb1-b271-4956-876d-25a55c89ad51", "name": "Beauty And The Beans", "category": "cafe", "tags": ["cafe", "coffee"], "sources": ["overture"], "website": "https://beauty-and-the-beans.hub.biz", "phone": "(253) 293-2353", "address": "25625 164TH Ave SE"}, "geometry": {"type": "Point", "coordinates": [-122.1232986, 47.3716698]}}, {"type": "Feature", "properties": {"id": 428773644, "name": "Crofton Heights Neighborhood Park", "category": "park", "tags": ["park"], "sources": ["osm"]}, "geometry": {"type": "Point", "coordinates": [-122.1254279, 47.3733344]}}, {"type": "Feature", "properties": {"id": 428773650, "name": "Prestige Park Neighborhood Park", "category": "park", "tags": ["park"], "sources": ["osm"]}, "geometry": {"type": "Point", "coordinates": [-122.1274406, 47.3740722]}}, {"type": "Feature", "properties": {"id": 478681283, "name": "Fairfield Neighborhood Park", "category": "park", "tags": ["park"], "sources": ["osm"]}, "geometry": {"type": "Point", "coordinates": [-122.1286181, 47.3715447]}}, {"type": "Feature", "properties": {"id": 646722005, "name": "Foss' Grocery & Deli", "category": "convenience", "tags": ["convenience"], "sources": ["osm"], "phone": "+1-253-631-2440", "address": "16255 Southeast 256th Street", "hours": "Mo-Fr 07:00-21:00, Sa 08:00-21:00, Su 09:00-17:00"}, "geometry": {"type": "Point", "coordinates": [-122.1234425, 47.3722266]}}, {"type": "Feature", "properties": {"id": "ae43e206-3187-4578-8d01-a844ab4a80e8", "name": "Foss' Grocery and Espresso", "category": "supermarket", "tags": ["supermarket"], "sources": ["overture"], "website": "http://fossgrocery.com/", "phone": "+12536312440", "address": "16255 SE 256 St"}, "geometry": {"type": "Point", "coordinates": [-122.1232224, 47.3722496]}}]}