{"type": "FeatureCollection", "features": [{"type": "Feature", "properties": {"id": 744493801, "name": "Starbucks", "category": "cafe", "tags": ["cafe", "coffee-shop", "takeaway", "coffee"], "sources": ["osm", "overture"], "website": "https://www.starbucks.com/store-locator/store/1022957", "phone": "+12067620342", "address": "601 S Michigan St"}, "geometry": {"type": "Point", "coordinates": [-122.3255923, 47.5460437]}}, {"type": "Feature", "properties": {"id": "f595c584-1842-435e-82e0-9378c113c8db", "name": "Starbucks", "category": "cafe", "tags": ["cafe", "coffee"], "sources": ["overture"], "phone": "2067624671", "address": "5963 Corson Ave S (Corson & Michigan -, Seattle)"}, "geometry": {"type": "Point", "coordinates": [-122.3212585, 47.5482368]}}, {"type": "Feature", "properties": {"id": 2139809197, "name": "Sai Gon Pho & Banh Mi", "category": "fast_food", "tags": ["fast-food", "vietnamese"], "sources": ["osm"], "website": "https://www.saigonphonbanhmi.com/", "phone": "+1-206-763-9828", "address": "6519 4th Avenue South", "hours": "Mo-Su 09:30-20:00"}, "geometry": {"type": "Point", "coordinates": [-122.3299273, 47.5445097]}}, {"type": "Feature", "properties": {"id": 2139809205, "name": "Mikou Teriyaki", "category": "fast_food", "tags": ["fast-food", "teriyaki", "restaurant", "japanese", "asian"], "sources": ["osm", "overture"], "website": "https://ordermikouteriyaki.com", "phone": "+12067636000", "address": "6519 4th Ave S"}, "geometry": {"type": "Point", "coordinates": [-122.3299273, 47.5446433]}}, {"type": "Feature", "properties": {"id": 2170849964, "name": "Katsu Burger", "category": "restaurant", "tags": ["restaurant", "burger", "japanese"], "sources": ["osm", "overture"], "website": "http://katsuburger.com/", "phone": "+12067620752", "address": "6538 4th Ave S", "hours": "10:30-20:30"}, "geometry": {"type": "Point", "coordinates": [-122.3291739, 47.5441534]}}, {"type": "Feature", "properties": {"id": 2396896737, "name": "Harried & Hungry Cafe", "category": "cafe", "tags": ["cafe"], "sources": ["osm"], "website": "https://orderhh.com", "phone": "+1-206-264-7900", "address": "515 South Michigan Street", "hours": "Mo-Fr 07:00-15:00"}, "geometry": {"type": "Point", "coordinates": [-122.3276373, 47.54568]}}, {"type": "Feature", "properties": {"id": 2396896794, "name": "Kauai Family Restaurant", "category": "restaurant", "tags": ["restaurant", "hawaiian", "polynesian", "theme"], "sources": ["osm", "overture"], "website": "http://www.kauaifamilyrestaurant.co/", "phone": "+12067623469", "address": "6324 6th Ave S"}, "geometry": {"type": "Point", "coordinates": [-122.325853, 47.5455077]}}, {"type": "Feature", "properties": {"id": 2396896839, "name": "The Tamale Guy", "category": "fast_food", "tags": ["fast-food", "mexican"], "sources": ["osm"], "address": "6564 5th Avenue South", "hours": "Tu-Th 17:00-20:00; Sa 11:00-15:00"}, "geometry": {"type": "Point", "coordinates": [-122.328127, 47.543952]}}, {"type": "Feature", "properties": {"id": 2396901360, "name": "Calozzi's Cheesesteaks", "category": "restaurant", "tags": ["restaurant", "sandwich", "american"], "sources": ["osm", "overture"], "website": "http://www.calozzis.net/", "phone": "+12067621777", "address": "7016 E Marginal Wy S", "hours": "Mo-Fr 10:00-16:00; Sa, Su 11:00-17:00"}, "geometry": {"type": "Point", "coordinates": [-122.3225897, 47.540312]}}, {"type": "Feature", "properties": {"id": 231287615, "name": "Jellyfish Brewing", "category": "pub", "tags": ["pub", "outdoor-seating", "microbrew"], "sources": ["osm"], "address": "917 South Nebraska Street"}, "geometry": {"type": "Point", "coordinates": [-122.3201482, 47.5488206]}}, {"type": "Feature", "properties": {"id": "4c752591-9998-4f14-9a94-1a573650bf30", "name": "Herfy's Burgers", "category": "restaurant", "tags": ["restaurant", "burger", "american"], "sources": ["overture"], "website": "http://herfysburgersgeorgetown.com/", "phone": "+12067640980", "address": "5963 Corson Ave S"}, "geometry": {"type": "Point", "coordinates": [-122.322052, 47.5478706]}}, {"type": "Feature", "properties": {"id": 4458653190, "name": "Pho Hiho", "category": "restaurant", "tags": ["restaurant", "vietnamese", "asian", "noodles"], "sources": ["osm", "overture"], "website": "http://www.menuism.com", "phone": "+12067674394", "address": "5963 Corson Ave S"}, "geometry": {"type": "Point", "coordinates": [-122.3223179, 47.54782]}}, {"type": "Feature", "properties": {"id": 4458653389, "name": "Khaosan Road Thai Cuisine", "category": "restaurant", "tags": ["restaurant", "thai", "asian"], "sources": ["osm", "overture"], "website": "https://www.clover.com/online-ordering/khao-san-road-thai-cuisi-seattle", "phone": "+12067646002", "address": "5963 Corson Ave S"}, "geometry": {"type": "Point", "coordinates": [-122.3222788, 47.547843]}}, {"type": "Feature", "properties": {"id": 4458653390, "name": "Herfy's Hamburger", "category": "restaurant", "tags": ["restaurant", "burger"], "sources": ["osm"], "address": "5963 Corson Avenue South"}, "geometry": {"type": "Point", "coordinates": [-122.3220334, 47.5479109]}}, {"type": "Feature", "properties": {"id": 5231900021, "name": "Daimonji", "category": "restaurant", "tags": ["restaurant", "sushi"], "sources": ["osm"], "address": "5963 Corson Avenue South"}, "geometry": {"type": "Point", "coordinates": [-122.3225881, 47.5476353]}}, {"type": "Feature", "properties": {"id": 1487706043, "name": "I Luv Teriyaki", "category": "restaurant", "tags": ["restaurant", "teriyaki", "japanese", "asian"], "sources": ["osm", "overture"], "website": "https://www.iluvteriyakiseattle.com/", "phone": "+12067643878", "address": "6500 4th Ave S"}, "geometry": {"type": "Point", "coordinates": [-122.3292395, 47.5451115]}}, {"type": "Feature", "properties": {"id": 5680731722, "name": "Bloom Bistro & Grocery", "category": "cafe", "tags": ["cafe", "bagel"], "sources": ["osm"], "address": "6601 Carleton Avenue South"}, "geometry": {"type": "Point", "coordinates": [-122.3213527, 47.5441941]}}, {"type": "Feature", "properties": {"id": 5731514621, "name": "Taqueria La Rienda", "category": "restaurant", "tags": ["restaurant"], "sources": ["osm"], "phone": "+1-206-883-2893", "hours": "Mo-Sa 09:00-20:00; Su off"}, "geometry": {"type": "Point", "coordinates": [-122.3291846, 47.5440712]}}, {"type": "Feature", "properties": {"id": "210044ed-0902-4d75-bc57-64c0705ef84b", "name": "Belle Epicurean", "category": "restaurant", "tags": ["restaurant"], "sources": ["overture"], "website": "https://www.belleepicurean.com", "address": "6400 Corson Ave S"}, "geometry": {"type": "Point", "coordinates": [-122.3217087, 47.5455399]}}, {"type": "Feature", "properties": {"id": "3b28467c-c2f7-4183-9758-b34291d4ea37", "name": "Pho Ha", "category": "restaurant", "tags": ["restaurant", "vietnamese"], "sources": ["overture"], "website": "http://phohaseattle2.bistropages.xyz", "phone": "(206) 763-9828", "address": "6519 4th Ave S"}, "geometry": {"type": "Point", "coordinates": [-122.3299637, 47.5446663]}}, {"type": "Feature", "properties": {"id": "fb54b29f-15da-4120-9639-94616b84aea3", "name": "Red House", "category": "restaurant", "tags": ["restaurant", "asian"], "sources": ["overture"], "website": "http://www.redhousebeerandwine.com", "phone": "(206) 767-4583", "address": "6538 4th Ave S"}, "geometry": {"type": "Point", "coordinates": [-122.3291168, 47.5441475]}}, {"type": "Feature", "properties": {"id": 604018883, "name": "Divine Decedence", "category": "cafe", "tags": ["cafe", "coffee-shop"], "sources": ["osm"], "address": "551 South Michigan Street"}, "geometry": {"type": "Point", "coordinates": [-122.3269649, 47.5457065]}}, {"type": "Feature", "properties": {"id": "9350af00-f371-4abc-b7e5-5aec0a45a7b3", "name": "Skillet Seattle Center, Llc.", "category": "restaurant", "tags": ["restaurant"], "sources": ["overture"], "phone": "+12065122000", "address": "6100 4th Ave S Ste 155"}, "geometry": {"type": "Point", "coordinates": [-122.328949, 47.5469818]}}, {"type": "Feature", "properties": {"id": "345f73ab-4049-4f00-813c-60decd70bb52", "name": "Dao's Kitchen Llc", "category": "restaurant", "tags": ["restaurant"], "sources": ["overture"], "address": "6519 4th Ave S Ste B"}, "geometry": {"type": "Point", "coordinates": [-122.3299942, 47.5446472]}}, {"type": "Feature", "properties": {"id": "430156e9-80ea-432b-bb18-cd0be03e9334", "name": "Chilolos", "category": "restaurant", "tags": ["restaurant"], "sources": ["overture"], "website": "https://www.order.online", "phone": "12062574056", "address": "6538 4th Ave S"}, "geometry": {"type": "Point", "coordinates": [-122.3291931, 47.5440445]}}, {"type": "Feature", "properties": {"id": "2b0bac6b-d624-452c-b8d7-d20ef95bc8e1", "name": "Kbr Llc", "category": "restaurant", "tags": ["restaurant"], "sources": ["overture"], "website": "https://www.katsuburger.com", "address": "6538 4th Ave S"}, "geometry": {"type": "Point", "coordinates": [-122.3291931, 47.5440445]}}, {"type": "Feature", "properties": {"id": "50e19f0d-a8c9-40ee-a63f-e1e9a814512b", "name": "SODO Chicken", "category": "restaurant", "tags": ["restaurant", "chicken", "american"], "sources": ["overture"], "phone": "+12068985862", "address": "6538 4th Ave S"}, "geometry": {"type": "Point", "coordinates": [-122.3291168, 47.5439529]}}, {"type": "Feature", "properties": {"id": "f4018ac4-66a0-4e14-8519-cba8d3b3b36d", "name": "Waffly Good", "category": "restaurant", "tags": ["restaurant"], "sources": ["overture"], "website": "https://www.wafflygood.com/", "phone": "4257776242", "address": "525 S Brighton St"}, "geometry": {"type": "Point", "coordinates": [-122.3274994, 47.5413017]}}, {"type": "Feature", "properties": {"id": "025e5732-1eab-4867-9307-8096ef6e6bcf", "name": "L\u00e1 Liath Bakery", "category": "bakery", "tags": ["bakery"], "sources": ["overture"], "website": "https://www.laliathbakery.com", "address": "6564 5th Ave S"}, "geometry": {"type": "Point", "coordinates": [-122.3281403, 47.5439453]}}, {"type": "Feature", "properties": {"id": "9b56e95c-9889-46b8-98d3-b5ebcc9277bf", "name": "Tamale Guy Seattle", "category": "fast_food", "tags": ["fast-food", "food", "truck"], "sources": ["overture"], "website": "https://tamaleguy206.com", "phone": "(509) 289-9004", "address": "6564 5th Ave S"}, "geometry": {"type": "Point", "coordinates": [-122.327919, 47.5441055]}}, {"type": "Feature", "properties": {"id": "225f6f83-2cd8-43b1-9089-705480d92e93", "name": "Arby's - CLOSED", "category": "fast_food", "tags": ["fast-food", "fast", "food"], "sources": ["overture"], "website": "http://locations.arbys.com/us/wa/seattle/601-s-michigan-ave.html", "phone": "(206) 764-7095", "address": "601 S Michigan Ave"}, "geometry": {"type": "Point", "coordinates": [-122.325676, 47.5460052]}}, {"type": "Feature", "properties": {"id": "a6bc6395-4b77-467b-875a-f5d4a1268451", "name": "Woks Teriyaki", "category": "restaurant", "tags": ["restaurant", "asian", "chinese", "japanese"], "sources": ["overture"], "website": "http://www.teriyakiandwok.com", "phone": "+12067625030", "address": "6316 6th Ave S"}, "geometry": {"type": "Point", "coordinates": [-122.3259048, 47.5457802]}}, {"type": "Feature", "properties": {"id": "bc56b45d-7694-4444-91ed-ff25612ca01e", "name": "Cakes of Paradise Bakery", "category": "bakery", "tags": ["bakery"], "sources": ["overture"], "website": "http://www.cakesofparadise206.com/", "phone": "+12067631151", "address": "6322 6th Ave S"}, "geometry": {"type": "Point", "coordinates": [-122.3259506, 47.5456009]}}, {"type": "Feature", "properties": {"id": "ef1ea47e-ef3f-49c5-b5cb-08fd89eab1b4", "name": "Foxy Lady Latte", "category": "cafe", "tags": ["cafe", "coffee"], "sources": ["overture"], "website": "http://www.foxyladycoffee.com", "phone": "(206) 767-3699", "address": "551 S Michigan St"}, "geometry": {"type": "Point", "coordinates": [-122.3267593, 47.5457382]}}, {"type": "Feature", "properties": {"id": "de35b2b5-927e-4452-baee-7b4d14648090", "name": "Cocina MX32", "category": "restaurant", "tags": ["restaurant", "mexican"], "sources": ["overture"], "website": "http://www.cocinamx32.com", "phone": "(206) 887-1647", "address": "551 S Michigan St"}, "geometry": {"type": "Point", "coordinates": [-122.3267593, 47.5457382]}}, {"type": "Feature", "properties": {"id": "29fef2ab-0091-49b7-987c-5f84daf1e1db", "name": "Taqueria El Sol", "category": "restaurant", "tags": ["restaurant"], "sources": ["overture"], "website": "https://www.taqueriaelsolseattle.com/?utm_source=bing&utm_medium=websiteurl&utm_campaign=search", "phone": "2064879128", "address": "551 S Michigan"}, "geometry": {"type": "Point", "coordinates": [-122.326889, 47.5458832]}}, {"type": "Feature", "properties": {"id": "42fd8c9e-fed3-4fb3-a446-f49369ae8b92", "name": "Counterbalance Brewing Company", "category": "bar", "tags": ["bar", "brewery"], "sources": ["overture"], "website": "https://counterbalancebeer.com", "phone": "+12064533615", "address": "503 S Michigan St Ste B"}, "geometry": {"type": "Point", "coordinates": [-122.3278427, 47.5455208]}}, {"type": "Feature", "properties": {"id": "3b6d5b46-dbb0-47fb-ad86-94217dfa3307", "name": "Seattle Shrimp & Seafood Co.", "category": "restaurant", "tags": ["restaurant", "seafood"], "sources": ["overture"], "website": "http://seattleshrimp.com", "phone": "(206) 812-2822", "address": "801 S Fidalgo St Ste 100"}, "geometry": {"type": "Point", "coordinates": [-122.3234787, 47.5487213]}}, {"type": "Feature", "properties": {"id": "114fa50f-89be-42e3-be88-db39c8b7aaff", "name": "Daimonji Japanese Restaurant", "category": "restaurant", "tags": ["restaurant", "japanese", "sushi", "asian"], "sources": ["overture"], "website": "http://daimonjisushi.com/", "phone": "+12067627820", "address": "5963 Corson Ave S"}, "geometry": {"type": "Point", "coordinates": [-122.3226318, 47.547596]}}, {"type": "Feature", "properties": {"id": "acd55572-e7d9-4eb5-bdc9-731eca97ae60", "name": "Green Lime Inc", "category": "restaurant", "tags": ["restaurant"], "sources": ["overture"], "address": "5963 Corson Ave S Ste 172"}, "geometry": {"type": "Point", "coordinates": [-122.3221664, 47.5480347]}}, {"type": "Feature", "properties": {"id": "96e8c740-62d7-4964-acd3-b211fab1b7b9", "name": "Jellyfish Brewing Company", "category": "bar", "tags": ["bar", "brewery"], "sources": ["overture"], "website": "http://www.jellyfishbrewing.com/", "phone": "+12063974999", "address": "917 S Nebraska St"}, "geometry": {"type": "Point", "coordinates": [-122.3201599, 47.5489426]}}, {"type": "Feature", "properties": {"id": 6926139437, "name": "Connections Musuem", "category": "museum", "tags": ["museum", "wheelchair-accessible"], "sources": ["osm"], "website": "https://www.connectionsmuseum.org", "phone": "+1-206-767-3012", "hours": "Su 10:00-15:00"}, "geometry": {"type": "Point", "coordinates": [-122.32325, 47.5407112]}}, {"type": "Feature", "properties": {"id": "a0862ffe-e451-414f-a352-32d791511b70", "name": "Equinox Studios", "category": "gallery", "tags": ["gallery", "art"], "sources": ["overture"], "address": "6555 5th Ave S"}, "geometry": {"type": "Point", "coordinates": [-122.3287277, 47.5440483]}}, {"type": "Feature", "properties": {"id": "68899443-88c4-4bbf-9e32-30e12fffad43", "name": "Museum of Indecision and Hysteria", "category": "museum", "tags": ["museum"], "sources": ["overture"], "address": "6237 Carleton Ave S"}, "geometry": {"type": "Point", "coordinates": [-122.3208389, 47.5464249]}}, {"type": "Feature", "properties": {"id": "e6afd632-21b8-46d3-87a1-4595ecd2e4e9", "name": "Museum of Communications", "category": "museum", "tags": ["museum", "history"], "sources": ["overture"], "website": "https://www.telcomhistory.org/connections-museum-seattle", "phone": "(206) 767-3012", "address": "7000 E Marginal Way S"}, "geometry": {"type": "Point", "coordinates": [-122.3231354, 47.5408058]}}, {"type": "Feature", "properties": {"id": "2abb1511-8b94-4503-8c49-46c17ddae309", "name": "Connections Museum", "category": "museum", "tags": ["museum", "history"], "sources": ["overture"], "website": "http://www.connectionsmuseum.org/", "phone": "+12067673012", "address": "7000 E Marginal Wy S"}, "geometry": {"type": "Point", "coordinates": [-122.3232117, 47.5408401]}}, {"type": "Feature", "properties": {"id": "c316cf85-753c-46ed-8b21-c8da5108ee97", "name": "Paper Boat Launch", "category": "gallery", "tags": ["gallery", "art"], "sources": ["overture"], "website": "http://paperboatlaunch.com/", "address": "6560 5th Ave S"}, "geometry": {"type": "Point", "coordinates": [-122.32827, 47.544136]}}, {"type": "Feature", "properties": {"id": "718e62e1-73df-45e0-9f30-5a90e5e21c63", "name": "Fotoeffect Studio & Gallery", "category": "museum", "tags": ["museum"], "sources": ["overture"], "website": "http://www.fotoeffect.com/", "address": "6520 5th Ave S Ste 129"}, "geometry": {"type": "Point", "coordinates": [-122.3280716, 47.5448265]}}, {"type": "Feature", "properties": {"id": "3c569dae-d43e-4887-8ac6-7efdfa9f2176", "name": "MOHAI Resource Center", "category": "museum", "tags": ["museum"], "sources": ["overture"], "phone": "+12063241126", "address": "5933 6th Ave S"}, "geometry": {"type": "Point", "coordinates": [-122.3277359, 47.5496826]}}, {"type": "Feature", "properties": {"id": 37623649, "name": "Oxbow Park", "category": "park", "tags": ["park"], "sources": ["osm", "overture"], "website": "http://www.seattle.gov/parks/park_detail.asp?id=4416", "phone": "+12066844075", "address": "6430 Corson Ave S"}, "geometry": {"type": "Point", "coordinates": [-122.3215699, 47.5449836]}}, {"type": "Feature", "properties": {"id": 1216391547, "name": "Georgetown Parklet", "category": "park", "tags": ["park"], "sources": ["osm"]}, "geometry": {"type": "Point", "coordinates": [-122.3211659, 47.54428]}}, {"type": "Feature", "properties": {"id": "51b03565-7af3-4f47-b8cc-5af05ed01719", "name": "The AMP: AIDS Memorial Pathway", "category": "park", "tags": ["park"], "sources": ["overture"], "website": "http://theamp.org/donate/", "address": "920 S Bailey St"}, "geometry": {"type": "Point", "coordinates": [-122.3211517, 47.5476494]}}, {"type": "Feature", "properties": {"id": 223319584, "name": "Georgetown Inn", "category": "hotel", "tags": ["hotel", "guest-house", "inn"], "sources": ["osm", "overture"], "website": "http://www.georgetowninnseattle.com/", "phone": "+12067622233", "address": "6100 Corson Ave S"}, "geometry": {"type": "Point", "coordinates": [-122.3207553, 47.5477559]}}, {"type": "Feature", "properties": {"id": 604018882, "name": "Food Mart", "category": "convenience", "tags": ["convenience"], "sources": ["osm"], "address": "551 South Michigan Street"}, "geometry": {"type": "Point", "coordinates": [-122.3267776, 47.5457698]}}, {"type": "Feature", "properties": {"id": 5231900121, "name": "Hansen's Florist", "category": "florist", "tags": ["florist"], "sources": ["osm"], "website": "https://www.hansensflorist.com/", "phone": "+1-206-767-3280", "address": "5963 Corson Avenue South"}, "geometry": {"type": "Point", "coordinates": [-122.3224811, 47.5476358]}}, {"type": "Feature", "properties": {"id": 2396896749, "name": "Floral Supply Syndicate", "category": "florist", "tags": ["florist"], "sources": ["osm"], "website": "https://www.fss.com/", "address": "560 South Michigan Street"}, "geometry": {"type": "Point", "coordinates": [-122.3266759, 47.5462908]}}, {"type": "Feature", "properties": {"id": "dd6e8196-34d5-459a-b17c-61dbefa3748a", "name": "Rain City Cigar", "category": "tobacco", "tags": ["tobacco"], "sources": ["overture"], "website": "http://www.raincitycigar.com/", "phone": "+12067673619", "address": "5963 Corson Ave S"}, "geometry": {"type": "Point", "coordinates": [-122.3218842, 47.5480003]}}, {"type": "Feature", "properties": {"id": 231288237, "name": "Harbor Freight Tools", "category": "hardware", "tags": ["hardware"], "sources": ["osm", "overture"], "website": "https://go.harborfreight.com/store00377", "phone": "+12067623682", "address": "6205 Corson Ave S", "hours": "Mo-Sa 08:00-20:00; Su 09:00-18:00"}, "geometry": {"type": "Point", "coordinates": [-122.3222305, 47.5469561]}}, {"type": "Feature", "properties": {"id": 4621620910, "name": "Rain City Cigars", "category": "tobacco", "tags": ["tobacco"], "sources": ["osm"], "address": "5961 Corson Avenue South"}, "geometry": {"type": "Point", "coordinates": [-122.3218484, 47.5480618]}}, {"type": "Feature", "properties": {"id": 11881996041, "name": "Smoke & Snack", "category": "tobacco", "tags": ["tobacco"], "sources": ["osm"]}, "geometry": {"type": "Point", "coordinates": [-122.3221306, 47.5479084]}}, {"type": "Feature", "properties": {"id": 223317003, "name": "Shell", "category": "convenience", "tags": ["convenience"], "sources": ["osm"]}, "geometry": {"type": "Point", "coordinates": [-122.3211032, 47.5471046]}}, {"type": "Feature", "properties": {"id": 231288118, "name": "Shell", "category": "convenience", "tags": ["convenience"], "sources": ["osm"], "address": "600 South Michigan Street"}, "geometry": {"type": "Point", "coordinates": [-122.325728, 47.5467006]}}, {"type": "Feature", "properties": {"id": "72d036bf-17c0-439c-b3ab-835eeef08dbd", "name": "Bite Society", "category": "gift", "tags": ["gift"], "sources": ["overture"], "website": "https://hellobitesociety.com/", "phone": "2064876249", "address": "6540 5th Pl S"}, "geometry": {"type": "Point", "coordinates": [-122.3272858, 47.5447578]}}, {"type": "Feature", "properties": {"id": "5319d0fe-335d-4b2d-bf86-f9fc74987ff9", "name": "Hansen's Georgetown Florist", "category": "florist", "tags": ["florist"], "sources": ["overture"], "website": "http://www.hansensflorist.com/", "phone": "2067673280", "address": "5963 4th Ave S"}, "geometry": {"type": "Point", "coordinates": [-122.3296051, 47.5497055]}}, {"type": "Feature", "properties": {"id": "3bb749f8-aa2e-476e-881e-01a6025dac48", "name": "Murdock And White", "category": "supermarket", "tags": ["supermarket"], "sources": ["overture"], "address": "6100 4th Ave S Ste 437"}, "geometry": {"type": "Point", "coordinates": [-122.328949, 47.5469818]}}, {"type": "Feature", "properties": {"id": "eb964676-3d47-4e71-9125-28e2ee294737", "name": "Ritz Sisters", "category": "gift", "tags": ["gift"], "sources": ["overture"], "website": "ritzsisters.com", "phone": "+12067628331", "address": "6100 4th Ave S Ste 383"}, "geometry": {"type": "Point", "coordinates": [-122.328949, 47.5469818]}}, {"type": "Feature", "properties": {"id": "19b5ae0c-3fc4-4d95-97ae-24f118aa2161", "name": "Carleton Avenue Grocery", "category": "supermarket", "tags": ["supermarket"], "sources": ["overture"], "website": "http://www.carletongrocery.com", "phone": "(206) 763-3708", "address": "6601 Carleton Ave S"}, "geometry": {"type": "Point", "coordinates": [-122.3213959, 47.5441513]}}, {"type": "Feature", "properties": {"id": "b514af7b-ede2-4fd2-a593-314c9af796e9", "name": "Beyond Clothing", "category": "clothes", "tags": ["clothes"], "sources": ["overture"], "website": "https://www.beyondclothing.com", "phone": "12067670307", "address": "6363 6th Ave S"}, "geometry": {"type": "Point", "coordinates": [-122.3264923, 47.544384]}}, {"type": "Feature", "properties": {"id": "28a99e75-930f-4a5e-8dc1-303833bcbd68", "name": "CR Associates", "category": "furniture", "tags": ["furniture"], "sources": ["overture"], "website": "http://www.cr-associates.net/", "phone": "+12067626232", "address": "6363 7th Ave S #110"}, "geometry": {"type": "Point", "coordinates": [-122.3253708, 47.5449333]}}, {"type": "Feature", "properties": {"id": "900e7792-315c-4906-b4e4-4b049c296e52", "name": "Tails of the City Dog & Puppy Day Care", "category": "pet", "tags": ["pet"], "sources": ["overture"], "website": "http://www.tailsofthecityseattle.com", "phone": "(206) 763-8245", "address": "6349 6th Ave S"}, "geometry": {"type": "Point", "coordinates": [-122.3266144, 47.5447845]}}, {"type": "Feature", "properties": {"id": "445707fa-60fb-432c-88ed-02b92eacf24c", "name": "Statements Tile", "category": "doityourself", "tags": ["doityourself", "building", "supply"], "sources": ["overture"], "website": "http://www.statementstile.com/", "phone": "2067628181", "address": "6140 6th Ave S"}, "geometry": {"type": "Point", "coordinates": [-122.3261337, 47.5475883]}}, {"type": "Feature", "properties": {"id": "f6d51a4f-703e-44dc-b88c-88989d10a931", "name": "Corona Decor Co", "category": "gift", "tags": ["gift"], "sources": ["overture"], "website": "https://coronadecor.com", "phone": "2067631600", "address": "6133 6th Ave S"}, "geometry": {"type": "Point", "coordinates": [-122.3264771, 47.5469894]}}, {"type": "Feature", "properties": {"id": "f1d3c7b9-7eae-42b6-a5aa-5dd50898a0e3", "name": "Seattle Cabinets LLC", "category": "furniture", "tags": ["furniture"], "sources": ["overture"], "phone": "(206) 360-9090", "address": "6134 6th Ave S"}, "geometry": {"type": "Point", "coordinates": [-122.3258362, 47.5471191]}}, {"type": "Feature", "properties": {"id": "7b6232dc-7024-4156-a61d-b3b670cb9489", "name": "Architectural Surfaces", "category": "doityourself", "tags": ["doityourself", "building", "supply"], "sources": ["overture"], "website": "http://pentalonline.com", "phone": "+12067683200", "address": "713 S Fidalgo St"}, "geometry": {"type": "Point", "coordinates": [-122.3243637, 47.5494995]}}, {"type": "Feature", "properties": {"id": "b5bc9aca-6409-45c6-b388-4eaba240c548", "name": "Pental Granite & Marble", "category": "hardware", "tags": ["hardware"], "sources": ["overture"], "website": "http://arcsurfaces.com", "phone": "(206) 768-3200", "address": "713 S Fidalgo St"}, "geometry": {"type": "Point", "coordinates": [-122.3243179, 47.5492935]}}, {"type": "Feature", "properties": {"id": "fe9da5e1-0068-40d8-af22-a1d25aa26716", "name": "Chasing Fireflies", "category": "clothes", "tags": ["clothes", "childrens"], "sources": ["overture"], "website": "chasing-fireflies.com", "phone": "+12065744500", "address": "835 S Fidalgo St"}, "geometry": {"type": "Point", "coordinates": [-122.3230515, 47.5490761]}}, {"type": "Feature", "properties": {"id": "921586b1-ebf3-40ba-94f9-184017f8a544", "name": "The Sliding Door Company", "category": "doityourself", "tags": ["doityourself", "building", "supply"], "sources": ["overture"], "website": "https://www.slidingdoorco.com/seattle/", "phone": "2064671869", "address": "5963 Corson Ave S #102"}, "geometry": {"type": "Point", "coordinates": [-122.3212585, 47.5482368]}}, {"type": "Feature", "properties": {"id": "d9087eb1-3b89-4fe7-917c-1104479be8b0", "name": "Jane Piper Reid & Co.", "category": "furniture", "tags": ["furniture"], "sources": ["overture"], "website": "http://www.jprco.com", "phone": "(206) 621-9290", "address": "835 S Fidalgo St"}, "geometry": {"type": "Point", "coordinates": [-122.3225708, 47.5484314]}}, {"type": "Feature", "properties": {"id": "8ab861e2-9256-442c-a7f7-d2ab9cf605a0", "name": "Patient Care Network", "category": "cannabis", "tags": ["cannabis", "clinic"], "sources": ["overture"], "phone": "+12063974197", "address": "921 S Harney St"}, "geometry": {"type": "Point", "coordinates": [-122.3203583, 47.5479546]}}, {"type": "Feature", "properties": {"id": "21134321-1263-45f2-8261-ca8c67b0d805", "name": "Cardinal Health", "category": "pharmacy", "tags": ["pharmacy"], "sources": ["overture"], "website": "https://www.cardinalhealth.com/", "phone": "2067638500", "address": "421 S Michigan St"}, "geometry": {"type": "Point", "coordinates": [-122.3286667, 47.5453339]}}, {"type": "Feature", "properties": {"id": 4458653489, "name": "Wells Fargo", "category": "bank", "tags": ["bank"], "sources": ["osm"], "address": "5963 Corson Avenue South"}, "geometry": {"type": "Point", "coordinates": [-122.3218342, 47.547918]}}, {"type": "Feature", "properties": {"id": 4458653289, "name": "FedEx Office", "category": "post_office", "tags": ["post-office"], "sources": ["osm"], "address": "5963 Corson Avenue South"}, "geometry": {"type": "Point", "coordinates": [-122.3223514, 47.5477514]}}, {"type": "Feature", "properties": {"id": 12357513392, "name": "4th Avenue Beach", "category": "sports_centre", "tags": ["sports-centre", "beachvolleyball"], "sources": ["osm"], "website": "https://www.4thavebeach.com/", "address": "5930 4th Avenue South"}, "geometry": {"type": "Point", "coordinates": [-122.3290665, 47.5495963]}}, {"type": "Feature", "properties": {"id": 13440337871, "name": "Muok Boxing", "category": "fitness_centre", "tags": ["fitness-centre"], "sources": ["osm"], "website": "https://www.muokboxing.com/", "phone": "+1-253-400-2917", "address": "6332 6th Ave S"}, "geometry": {"type": "Point", "coordinates": [-122.3258743, 47.5453796]}}]}