{"type": "FeatureCollection", "features": [{"type": "Feature", "properties": {"id": 56073092, "name": "Clise Park", "category": "park", "tags": ["park"], "sources": ["osm", "overture"], "website": "https://www.mercergov.org/Page.asp?NavID=2688", "phone": "+12062757609", "address": "3950 Island Crest Way"}, "geometry": {"type": "Point", "coordinates": [-122.2264573, 47.5752329]}}, {"type": "Feature", "properties": {"id": "51208adb-13e3-475a-ac83-7408752d9496", "name": "Baklinski Home Improvement and Handyman Services", "category": "doityourself", "tags": ["doityourself", "home", "improvement"], "sources": ["overture"], "website": "https://www.baklinski.com/", "phone": "+12066816634", "address": "8203 SE 38th Pl"}, "geometry": {"type": "Point", "coordinates": [-122.2292557, 47.5766792]}}, {"type": "Feature", "properties": {"id": 111720567, "name": "Mary Wayte Pool", "category": "sports_centre", "tags": ["sports-centre", "swimming", "swimming-pool", "pool"], "sources": ["osm", "overture"], "website": "http://www.mercerislandpool.com", "phone": "+12065881117", "address": "8815 SE 40th St"}, "geometry": {"type": "Point", "coordinates": [-122.2209558, 47.5741642]}}]}