{"type": "FeatureCollection", "features": [{"type": "Feature", "properties": {"id": 237173325, "name": "Nature Trails Park", "category": "park", "tags": ["park"], "sources": ["osm"]}, "geometry": {"type": "Point", "coordinates": [-122.3448193, 47.4311488]}}, {"type": "Feature", "properties": {"id": "4cfa957e-340c-45d2-83c9-754e4afa173f", "name": "Nature Trails Park", "category": "park", "tags": ["park"], "sources": ["overture"], "website": "http://www.recreationparks.net/WA/king/nature-trails-park-normandy-park", "phone": "+12062487603", "address": "19250 Marine View Dr SW"}, "geometry": {"type": "Point", "coordinates": [-122.3460159, 47.4307861]}}]}