{"type": "FeatureCollection", "features": [{"type": "Feature", "properties": {"id": "47bdfd51-2d1c-4ea5-9bd4-a4a717e6ae24", "name": "Crystal Bay Apartments", "category": "attraction", "tags": ["attraction", "landmark", "historical", "building"], "sources": ["overture"], "website": "http://www.pacificliving.com/", "address": "23502 16th Pl S"}, "geometry": {"type": "Point", "coordinates": [-122.3109818, 47.3897934]}}, {"type": "Feature", "properties": {"id": "26078a81-3b88-4736-947d-65d2528a5f0e", "name": "Hudson Ridge Condominiums", "category": "attraction", "tags": ["attraction", "landmark", "historical", "building"], "sources": ["overture"], "phone": "+12068241963", "address": "23912 12th Pl S"}, "geometry": {"type": "Point", "coordinates": [-122.3177719, 47.3873978]}}, {"type": "Feature", "properties": {"id": 25421162, "name": "Sonju Park", "category": "park", "tags": ["park"], "sources": ["osm"]}, "geometry": {"type": "Point", "coordinates": [-122.3118367, 47.380056]}}]}