{"type": "FeatureCollection", "features": [{"type": "Feature", "properties": {"id": 8037692187, "name": "Dew Beads", "category": "artwork", "tags": ["artwork"], "sources": ["osm"]}, "geometry": {"type": "Point", "coordinates": [-122.3076371, 47.7453488]}}, {"type": "Feature", "properties": {"id": 133678627, "name": "Hamlin Park", "category": "park", "tags": ["park"], "sources": ["osm", "overture"], "website": "http://www.cityofshoreline.com/parks/index.cfm", "phone": "+12068012600", "address": "16006 15th Ave NE"}, "geometry": {"type": "Point", "coordinates": [-122.3076167, 47.7466932]}}, {"type": "Feature", "properties": {"id": 929724901, "name": "Bill DeBolt Field", "category": "sports_centre", "tags": ["sports-centre"], "sources": ["osm"]}, "geometry": {"type": "Point", "coordinates": [-122.3065598, 47.7453489]}}]}