{"type": "FeatureCollection", "features": [{"type": "Feature", "properties": {"id": "19b63650-df3b-447d-a8da-b5c6b53944af", "name": "Los Chilangos", "category": "fast_food", "tags": ["fast-food", "food", "truck"], "sources": ["overture"], "website": "https://www.chilangoswintersprings.com", "address": "10713 Main St", "stations": [{"stopCode": 57, "lines": "2", "name": "East Main Station", "walkingMeters": 647, "walkingSeconds": 483, "band": 10}, {"stopCode": 58, "lines": "2", "name": "Bellevue Downtown Station", "walkingMeters": 925, "walkingSeconds": 690, "band": 15}]}, "geometry": {"type": "Point", "coordinates": [-122.1972961, 47.6098785]}}, {"type": "Feature", "properties": {"id": 34367147, "name": "Voodoo Doughnut", "category": "fast_food", "tags": ["fast-food", "donut", "takeaway"], "sources": ["osm"], "website": "https://voodoodoughnut.com", "address": "10713 Main Street", "hours": "Mo-Su 06:00-23:00", "stations": [{"stopCode": 57, "lines": "2", "name": "East Main Station", "walkingMeters": 692, "walkingSeconds": 497, "band": 10}, {"stopCode": 58, "lines": "2", "name": "Bellevue Downtown Station", "walkingMeters": 1154, "walkingSeconds": 830, "band": 15}]}, "geometry": {"type": "Point", "coordinates": [-122.1972951, 47.6098886]}}, {"type": "Feature", "properties": {"id": 6313136390, "name": "Bellden Cafe", "category": "cafe", "tags": ["cafe", "wheelchair-accessible", "wifi"], "sources": ["osm", "overture"], "website": "http://belldencafe.com/", "phone": "+14256981597", "address": "10527 Main St", "hours": "Mo-Su 07:00-18:00", "stations": [{"stopCode": 57, "lines": "2", "name": "East Main Station", "walkingMeters": 844, "walkingSeconds": 607, "band": 15}, {"stopCode": 58, "lines": "2", "name": "Bellevue Downtown Station", "walkingMeters": 1298, "walkingSeconds": 933, "band": 15}]}, "geometry": {"type": "Point", "coordinates": [-122.1996705, 47.6099504]}}, {"type": "Feature", "properties": {"id": "48e4ba7a-5623-451e-8a6f-1c62787d087a", "name": "King And I", "category": "restaurant", "tags": ["restaurant", "thai"], "sources": ["overture"], "website": "http://www.king-and-i.us", "phone": "(425) 462-9337", "address": "10509 Main St", "stations": [{"stopCode": 57, "lines": "2", "name": "East Main Station", "walkingMeters": 848, "walkingSeconds": 609, "band": 15}, {"stopCode": 58, "lines": "2", "name": "Bellevue Downtown Station", "walkingMeters": 1301, "walkingSeconds": 936, "band": 15}]}, "geometry": {"type": "Point", "coordinates": [-122.1997147, 47.6098366]}}, {"type": "Feature", "properties": {"id": "12fd6f30-5476-40da-a096-b866cbb61f02", "name": "Bellsky Llc", "category": "restaurant", "tags": ["restaurant"], "sources": ["overture"], "website": "https://belldencafe.com", "address": "10527 Main St", "stations": [{"stopCode": 57, "lines": "2", "name": "East Main Station", "walkingMeters": 868, "walkingSeconds": 648, "band": 15}, {"stopCode": 58, "lines": "2", "name": "Bellevue Downtown Station", "walkingMeters": 1062, "walkingSeconds": 793, "band": 15}]}, "geometry": {"type": "Point", "coordinates": [-122.1996689, 47.6099434]}}, {"type": "Feature", "properties": {"id": 13936767237, "name": "Stamps", "category": "artwork", "tags": ["artwork"], "sources": ["osm"], "stations": [{"stopCode": 57, "lines": "2", "name": "East Main Station", "walkingMeters": 619, "walkingSeconds": 445, "band": 10}, {"stopCode": 58, "lines": "2", "name": "Bellevue Downtown Station", "walkingMeters": 1086, "walkingSeconds": 784, "band": 15}]}, "geometry": {"type": "Point", "coordinates": [-122.1967391, 47.6099345]}}, {"type": "Feature", "properties": {"id": "512e1640-f7b7-4f74-b8d9-17341d011ba2", "name": "Surrey on Main", "category": "attraction", "tags": ["attraction", "landmark", "historical", "building"], "sources": ["overture"], "website": "https://www.surreyonmain.com/?utm_knock=sm", "phone": "+14255100197", "address": "10777 Main St", "stations": [{"stopCode": 57, "lines": "2", "name": "East Main Station", "walkingMeters": 573, "walkingSeconds": 428, "band": 10}, {"stopCode": 58, "lines": "2", "name": "Bellevue Downtown Station", "walkingMeters": 913, "walkingSeconds": 681, "band": 15}]}, "geometry": {"type": "Point", "coordinates": [-122.1965866, 47.6096878]}}, {"type": "Feature", "properties": {"id": "4d2e3a35-d9c2-47bd-99fe-797d4f22018a", "name": "Soma Apartments", "category": "attraction", "tags": ["attraction", "landmark", "historical", "building"], "sources": ["overture"], "website": "http://www.liveatsoma.com/", "phone": "+14254627662", "address": "10701 Main St", "stations": [{"stopCode": 57, "lines": "2", "name": "East Main Station", "walkingMeters": 737, "walkingSeconds": 530, "band": 10}, {"stopCode": 58, "lines": "2", "name": "Bellevue Downtown Station", "walkingMeters": 1192, "walkingSeconds": 861, "band": 15}]}, "geometry": {"type": "Point", "coordinates": [-122.1977844, 47.6098442]}}, {"type": "Feature", "properties": {"id": "fcc29be3-0096-44b0-ab8d-8843b65fea81", "name": "Sylva on Main", "category": "attraction", "tags": ["attraction", "landmark", "historical", "building"], "sources": ["overture"], "website": "https://www.liveatsylva.com/", "phone": "+14254285298", "address": "10701 Main St", "stations": [{"stopCode": 57, "lines": "2", "name": "East Main Station", "walkingMeters": 738, "walkingSeconds": 530, "band": 10}, {"stopCode": 58, "lines": "2", "name": "Bellevue Downtown Station", "walkingMeters": 1193, "walkingSeconds": 862, "band": 15}]}, "geometry": {"type": "Point", "coordinates": [-122.1979904, 47.6098328]}}, {"type": "Feature", "properties": {"id": "16c404f8-2748-46c1-8b64-b3e18d21b056", "name": "Aria At Main", "category": "attraction", "tags": ["attraction", "landmark", "historical", "building"], "sources": ["overture"], "phone": "+14254668133", "address": "130 105th Ave SE Apt 201", "stations": [{"stopCode": 57, "lines": "2", "name": "East Main Station", "walkingMeters": 844, "walkingSeconds": 630, "band": 15}, {"stopCode": 58, "lines": "2", "name": "Bellevue Downtown Station", "walkingMeters": 1140, "walkingSeconds": 851, "band": 15}]}, "geometry": {"type": "Point", "coordinates": [-122.1996689, 47.6092148]}}, {"type": "Feature", "properties": {"id": "d496a279-be72-43bf-9243-f238c2aee90a", "name": "Main Street Flats", "category": "attraction", "tags": ["attraction", "landmark", "historical", "building"], "sources": ["overture"], "website": "https://www.mainstreetbellevue.com/contactus.aspx", "phone": "+14256411050", "address": "10575 Main St", "stations": [{"stopCode": 57, "lines": "2", "name": "East Main Station", "walkingMeters": 822, "walkingSeconds": 591, "band": 15}, {"stopCode": 58, "lines": "2", "name": "Bellevue Downtown Station", "walkingMeters": 1276, "walkingSeconds": 918, "band": 15}]}, "geometry": {"type": "Point", "coordinates": [-122.199379, 47.6098785]}}, {"type": "Feature", "properties": {"id": 70485741, "name": "Surrey Downs Park", "category": "park", "tags": ["park"], "sources": ["osm", "overture"], "website": "http://www.ci.bellevue.wa.us", "phone": "+14254526885", "address": "11177 SE 4th St", "hours": "Mo-Fr 06:00-21:00", "stations": [{"stopCode": 57, "lines": "2", "name": "East Main Station", "walkingMeters": 910, "walkingSeconds": 655, "band": 15}]}, "geometry": {"type": "Point", "coordinates": [-122.1923778, 47.6040535]}}, {"type": "Feature", "properties": {"id": 1062483631, "name": "Isan Park", "category": "park", "tags": ["park"], "sources": ["osm"], "website": "https://bellevuewa.gov/city-government/departments/parks/parks-and-trails/parks/isan-park", "stations": [{"stopCode": 57, "lines": "2", "name": "East Main Station", "walkingMeters": 282, "walkingSeconds": 203, "band": 5}, {"stopCode": 58, "lines": "2", "name": "Bellevue Downtown Station", "walkingMeters": 868, "walkingSeconds": 624, "band": 10}]}, "geometry": {"type": "Point", "coordinates": [-122.1919726, 47.6096663]}}, {"type": "Feature", "properties": {"id": "50701700-18eb-46f1-84e6-85e671d38b0e", "name": "T-mobile", "category": "mobile_phone", "tags": ["mobile-phone", "mobile"], "sources": ["overture"], "website": "https://www.t-mobile.com", "phone": "14254629828", "address": "1012 Bellevue Sq"}, "geometry": {"type": "Point", "coordinates": [-122.1998901, 47.6011009]}}, {"type": "Feature", "properties": {"id": 12063754895, "name": "Story in a Bottle Wines", "category": "wine", "tags": ["wine", "alcohol"], "sources": ["osm", "overture"], "website": "http://www.storyinabottlewines.com/", "phone": "+14255909326", "address": "10677 Main St", "stations": [{"stopCode": 57, "lines": "2", "name": "East Main Station", "walkingMeters": 750, "walkingSeconds": 539, "band": 10}, {"stopCode": 58, "lines": "2", "name": "Bellevue Downtown Station", "walkingMeters": 1212, "walkingSeconds": 872, "band": 15}]}, "geometry": {"type": "Point", "coordinates": [-122.1984398, 47.6099418]}}, {"type": "Feature", "properties": {"id": "5168d9f5-8dd3-4467-a2b3-8583197def8d", "name": "Boss Store", "category": "clothes", "tags": ["clothes", "mens"], "sources": ["overture"], "website": "https://www.hugoboss.com", "phone": "4254534845", "address": "109 Bellevue Sq  Ste 109", "stations": [{"stopCode": 57, "lines": "2", "name": "East Main Station", "walkingMeters": 435, "walkingSeconds": 325, "band": 10}, {"stopCode": 58, "lines": "2", "name": "Bellevue Downtown Station", "walkingMeters": 949, "walkingSeconds": 708, "band": 15}]}, "geometry": {"type": "Point", "coordinates": [-122.1954193, 47.6090584]}}, {"type": "Feature", "properties": {"id": "67a4de27-702b-435b-8039-cae908a46267", "name": "The Pet Stops Here", "category": "supermarket", "tags": ["supermarket"], "sources": ["overture"], "website": "https://petstopshere.com", "address": "10697 Main St", "stations": [{"stopCode": 57, "lines": "2", "name": "East Main Station", "walkingMeters": 755, "walkingSeconds": 563, "band": 15}, {"stopCode": 58, "lines": "2", "name": "Bellevue Downtown Station", "walkingMeters": 1002, "walkingSeconds": 748, "band": 15}]}, "geometry": {"type": "Point", "coordinates": [-122.1985092, 47.6098137]}}, {"type": "Feature", "properties": {"id": "20c69b9f-9a78-4182-967e-630ae8cce0b4", "name": "Millennium International", "category": "supermarket", "tags": ["supermarket"], "sources": ["overture"], "website": "http://www.millennium-international.com", "phone": "(425) 454-0455", "address": "1027 108th Ave SE"}, "geometry": {"type": "Point", "coordinates": [-122.1967545, 47.6007538]}}, {"type": "Feature", "properties": {"id": "0aedc8ea-ee82-4264-aa1f-46e36eb00be3", "name": "W H Smith", "category": "gift", "tags": ["gift"], "sources": ["overture"], "website": "https://www.whsmith.co.uk", "phone": "4257097027", "address": "300 112th Ave Se  Fl 1", "stations": [{"stopCode": 57, "lines": "2", "name": "East Main Station", "walkingMeters": 236, "walkingSeconds": 176, "band": 5}, {"stopCode": 58, "lines": "2", "name": "Bellevue Downtown Station", "walkingMeters": 786, "walkingSeconds": 587, "band": 10}]}, "geometry": {"type": "Point", "coordinates": [-122.1911697, 47.6098213]}}, {"type": "Feature", "properties": {"id": 8051201996, "name": "BAF Stadium", "category": "sports_centre", "tags": ["sports-centre", "football", "track", "multi"], "sources": ["osm"]}, "geometry": {"type": "Point", "coordinates": [-122.1984921, 47.6024438]}}]}