{"type": "FeatureCollection", "features": [{"type": "Feature", "properties": {"id": "4eb7f90a-d3d3-4195-a8b8-f39ffb0f1830", "name": "Starbucks", "category": "cafe", "tags": ["cafe", "coffee"], "sources": ["overture"], "website": "https://www.starbucks.com/store-locator/store/11036/", "phone": "+12063811553", "address": "4115 4th Ave S"}, "geometry": {"type": "Point", "coordinates": [-122.329834, 47.5666847]}}, {"type": "Feature", "properties": {"id": 2139809216, "name": "Gangnam Burger", "category": "fast_food", "tags": ["fast-food", "burger", "outdoor-seating", "indoor-seating", "wheelchair-accessible"], "sources": ["osm"], "address": "4117 4th Avenue South"}, "geometry": {"type": "Point", "coordinates": [-122.3298999, 47.5666776]}}, {"type": "Feature", "properties": {"id": 2350311294, "name": "Teriyaki Plus", "category": "restaurant", "tags": ["restaurant", "japanese"], "sources": ["osm", "overture"], "website": "https://teriyaki-plus-107848.square.site", "phone": "12066244890", "address": "4001 Airport Way S"}, "geometry": {"type": "Point", "coordinates": [-122.3228984, 47.5679203]}}, {"type": "Feature", "properties": {"id": 226177402, "name": "Jack's BBQ", "category": "restaurant", "tags": ["restaurant", "barbecue", "american"], "sources": ["osm", "overture"], "website": "http://jacksbbq.com/", "phone": "+12064674038", "address": "3924 Airport Wy S", "hours": "Mo-Th 11:00-20:00; Fr,Sa 11:00-21:00; Su 11:00-20:00"}, "geometry": {"type": "Point", "coordinates": [-122.3223272, 47.5682712]}}, {"type": "Feature", "properties": {"id": 226177399, "name": "A&J's Bar and Grill", "category": "bar", "tags": ["bar"], "sources": ["osm"], "address": "3923 Airport Way South", "hours": "Mo-Th 11:00-20:00; Fr 11:00-21:00"}, "geometry": {"type": "Point", "coordinates": [-122.322976, 47.5682159]}}, {"type": "Feature", "properties": {"id": "7879320c-a391-44dd-b624-9e57f50a073c", "name": "Uwajimaya", "category": "restaurant", "tags": ["restaurant"], "sources": ["overture"], "website": "http://www.uwajimaya.com", "phone": "(206) 624-3215", "address": "4601 6th Ave S # S"}, "geometry": {"type": "Point", "coordinates": [-122.3275146, 47.5615425]}}, {"type": "Feature", "properties": {"id": "5e8d2db9-ef55-4545-a2b9-2e5e604bd395", "name": "Taqueria El Mirador", "category": "fast_food", "tags": ["fast-food", "food", "truck"], "sources": ["overture"], "phone": "+12064757729", "address": "3838 4th Ave South"}, "geometry": {"type": "Point", "coordinates": [-122.3285904, 47.5686493]}}, {"type": "Feature", "properties": {"id": "c9d267cf-0b1f-4cb5-8ed1-a94c6f7af23e", "name": "Burger Madness Seattle", "category": "restaurant", "tags": ["restaurant", "burger"], "sources": ["overture"], "website": "http://www.burgermadness.com", "phone": "(206) 623-3178", "address": "4117 4th Ave S"}, "geometry": {"type": "Point", "coordinates": [-122.3299255, 47.5667801]}}, {"type": "Feature", "properties": {"id": "44db5d7b-66ba-447e-bdbb-a52dbac7fef8", "name": "Trefethen &amp Co., Inc Dba Bader &amp Olson", "category": "restaurant", "tags": ["restaurant"], "sources": ["overture"], "address": "601 S Andover St"}, "geometry": {"type": "Point", "coordinates": [-122.3257446, 47.5677757]}}, {"type": "Feature", "properties": {"id": "f6aa4503-72ab-46c1-9a4d-d50f649ca7ec", "name": "Schwartz Brothers Bakery - Seattle", "category": "bakery", "tags": ["bakery"], "sources": ["overture"], "website": "https://www.schwartzbrosbakery.com", "phone": "12066233134", "address": "617 S Nevada St"}, "geometry": {"type": "Point", "coordinates": [-122.3256836, 47.5648727]}}, {"type": "Feature", "properties": {"id": 2350311295, "name": "Ontario Hotel", "category": "hotel", "tags": ["hotel"], "sources": ["osm", "overture"], "phone": "+12063437958", "address": "4003 Airport Wy S"}, "geometry": {"type": "Point", "coordinates": [-122.3228952, 47.5678553]}}, {"type": "Feature", "properties": {"id": 2350311296, "name": "My Favorite Deli!", "category": "deli", "tags": ["deli"], "sources": ["osm"], "phone": "+1-206-467-1120", "address": "4005 Airport Way South"}, "geometry": {"type": "Point", "coordinates": [-122.3228918, 47.5677825]}}, {"type": "Feature", "properties": {"id": 9847318318, "name": "DH Lighting", "category": "hardware", "tags": ["hardware"], "sources": ["osm"], "phone": "+1-206-708-1528"}, "geometry": {"type": "Point", "coordinates": [-122.3285868, 47.5691848]}}, {"type": "Feature", "properties": {"id": "7e85665c-14a9-4407-b6df-c1452a6fe7b3", "name": "Atlas Supply", "category": "hardware", "tags": ["hardware"], "sources": ["overture"], "website": "https://www.becn.com/?utm_source=fb&utm_medium=yext&y_source=1_MjY2ODQ1ODMtNTU5LWxvY2F0aW9uLndlYnNpdGU%3D", "phone": "+12066234697", "address": "611 S Charlestown St"}, "geometry": {"type": "Point", "coordinates": [-122.3257599, 47.5694618]}}, {"type": "Feature", "properties": {"id": "6c08e4c9-251a-476b-beb2-5804eeb4cd8c", "name": "Akrofi adjumani", "category": "clothes", "tags": ["clothes", "womens"], "sources": ["overture"], "website": "https://www.akrofiadjumani.com/", "phone": "2064872633", "address": "Suite #9, 3828 4th Ave S"}, "geometry": {"type": "Point", "coordinates": [-122.3287354, 47.5692215]}}, {"type": "Feature", "properties": {"id": "a78637e3-861a-4f03-bb66-f31a78ab9d8b", "name": "Laurelhurst Cellars", "category": "wine", "tags": ["wine", "winery"], "sources": ["overture"], "website": "http://www.laurelhurstcellars.com", "phone": "12069922875", "address": "3935 9th Ave S"}, "geometry": {"type": "Point", "coordinates": [-122.3217621, 47.5680885]}}, {"type": "Feature", "properties": {"id": "4e866c54-57c7-47e9-824f-32d16328fc8d", "name": "Applied Industrial Technologies", "category": "hardware", "tags": ["hardware"], "sources": ["overture"], "website": "https://www.applied.com", "phone": "+12062235255", "address": "4021 6th Ave S"}, "geometry": {"type": "Point", "coordinates": [-122.3275146, 47.5674362]}}, {"type": "Feature", "properties": {"id": "37994792-af64-4f1d-8afb-821fe10f02e4", "name": "Food Lifeline", "category": "supermarket", "tags": ["supermarket"], "sources": ["overture"], "website": "http://www.foodlifeline.org", "phone": "+12068596725", "address": "4011 6th Ave S"}, "geometry": {"type": "Point", "coordinates": [-122.3274689, 47.5676994]}}, {"type": "Feature", "properties": {"id": "1b5fcbcf-4ab8-4809-bfa6-b2fcb71a8666", "name": "Hollywood Lights", "category": "furniture", "tags": ["furniture"], "sources": ["overture"], "website": "http://hollywoodlights.biz/index.php/en/", "phone": "(206) 292-2353", "address": "660 S Dakota St"}, "geometry": {"type": "Point", "coordinates": [-122.3250732, 47.5675011]}}, {"type": "Feature", "properties": {"id": "5de1a80e-ff1d-4b11-9859-aacd8444f322", "name": "Seattle Barrel Co", "category": "doityourself", "tags": ["doityourself", "building", "supply"], "sources": ["overture"], "website": "http://www.seattlebarrel.com/", "phone": "2063370206", "address": "4716 Airport Way S"}, "geometry": {"type": "Point", "coordinates": [-122.3230057, 47.5606079]}}, {"type": "Feature", "properties": {"id": "82aaa562-bbb2-4745-803f-cef9065a63d1", "name": "Solumbra By Sun Precautions Store", "category": "clothes", "tags": ["clothes"], "sources": ["overture"], "website": "https://www.sunprecautions.com", "phone": "12068126300", "address": "3809 9th Ave S"}, "geometry": {"type": "Point", "coordinates": [-122.3216934, 47.5695]}}, {"type": "Feature", "properties": {"id": "018d0dce-23e4-4892-a7c6-14fe82b4afa6", "name": "Beacon Waterproofing Products", "category": "doityourself", "tags": ["doityourself", "building", "supply"], "sources": ["overture"], "website": "https://www.atlassupply.com", "phone": "12066248881", "address": "611 S Charlestown St"}, "geometry": {"type": "Point", "coordinates": [-122.3256989, 47.5695267]}}]}