{"type": "FeatureCollection", "features": [{"type": "Feature", "properties": {"id": 1010830245, "name": "Wakey Wakey", "category": "cafe", "tags": ["cafe", "coffee-shop"], "sources": ["osm"]}, "geometry": {"type": "Point", "coordinates": [-122.323199, 47.4620106]}}, {"type": "Feature", "properties": {"id": "58027e9f-ef84-4940-9833-ea6c8c96358c", "name": "Wakey Wakey Coffee", "category": "cafe", "tags": ["cafe", "coffee", "breakfast-and-brunch"], "sources": ["overture"], "website": "http://wakey-wakey-coffee.edan.io", "address": "15636 Des Moines Memorial Dr"}, "geometry": {"type": "Point", "coordinates": [-122.3232269, 47.4620094]}}, {"type": "Feature", "properties": {"id": "5c4867c1-2fd0-4c48-8eea-03b8ea77ff53", "name": "Alder Manor", "category": "attraction", "tags": ["attraction", "landmark", "historical", "building"], "sources": ["overture"], "phone": "+12062413916", "address": "15904 4th Ave S"}, "geometry": {"type": "Point", "coordinates": [-122.3284912, 47.4601212]}}, {"type": "Feature", "properties": {"id": "e350dbc6-1642-4af1-95e5-013771a01035", "name": "Maple Pointe Apartments", "category": "attraction", "tags": ["attraction", "landmark", "historical", "building"], "sources": ["overture"], "website": "http://www.burien-apartments.com/", "phone": "+18448755192", "address": "15421 Des Moines Memorial Dr S"}, "geometry": {"type": "Point", "coordinates": [-122.323616, 47.4644775]}}, {"type": "Feature", "properties": {"id": 94784091, "name": "Moshier Memorial Park", "category": "park", "tags": ["park"], "sources": ["osm", "overture"], "website": "https://burienwa.gov/Facilities/Facility/Details/Moshier-Park-15", "phone": "+12069883700", "address": "430 S 156th St"}, "geometry": {"type": "Point", "coordinates": [-122.3259395, 47.4647227]}}, {"type": "Feature", "properties": {"id": 9325821612, "name": "Food Mart", "category": "convenience", "tags": ["convenience"], "sources": ["osm"]}, "geometry": {"type": "Point", "coordinates": [-122.3230373, 47.4616174]}}]}