{"type": "FeatureCollection", "features": [{"type": "Feature", "properties": {"id": 265702225, "name": "Papa John's", "category": "fast_food", "tags": ["fast-food", "pizza", "takeaway", "restaurant"], "sources": ["osm", "overture"], "website": "https://locations.papajohns.com/united-states/wa/98023/auburn/112-sw-312th-st?utm_source=facebook-store-pages&utm_medium=referral&y_source=1_MTA2OTEwMDUtNTU5LWxvY2F0aW9uLndlYnNpdGU%3D", "phone": "+12539457575", "address": "112 sw 312th st", "hours": "Mo-Th 10:00-23:00; Fr-Sa 10:00-24:00; Su 10:00-23:00"}, "geometry": {"type": "Point", "coordinates": [-122.33534, 47.3228148]}}, {"type": "Feature", "properties": {"id": "54f8d544-58a0-4c63-b0c0-b515bb0331f5", "name": "Bayview Apartment Homes", "category": "attraction", "tags": ["attraction", "landmark", "historical", "building"], "sources": ["overture"], "website": "http://www.bayviewapartmenthomes.com/?p=1&nocache=1", "phone": "+18334035814", "address": "30911 1st Ave S"}, "geometry": {"type": "Point", "coordinates": [-122.3352356, 47.3247757]}}, {"type": "Feature", "properties": {"id": "6684e461-ad07-43e4-801a-4ef3380b7b6c", "name": "Russian Family Cultural Center of Federal Way", "category": "museum", "tags": ["museum"], "sources": ["overture"], "website": "http://www.russianscool.com/", "phone": "+12532692814", "address": "31500 1st Ave S"}, "geometry": {"type": "Point", "coordinates": [-122.333252, 47.3205299]}}, {"type": "Feature", "properties": {"id": 85859794, "name": "7-Eleven", "category": "convenience", "tags": ["convenience"], "sources": ["osm", "overture"], "website": "https://www.7-eleven.com/", "phone": "+12539410244", "address": "104 SW 312th St"}, "geometry": {"type": "Point", "coordinates": [-122.3351156, 47.3228139]}}, {"type": "Feature", "properties": {"id": "fa6e8cf5-b038-4e57-a6a8-df07fded67a2", "name": "Federal Way Medicalcenter", "category": "clinic", "tags": ["clinic", "medical"], "sources": ["overture"], "phone": "+12539523389", "address": "30809 1st Ave S"}, "geometry": {"type": "Point", "coordinates": [-122.3356247, 47.3255119]}}, {"type": "Feature", "properties": {"id": "24fafe70-6f2c-4548-9c0c-76eca73e1595", "name": "Franciscan Pharmacy - First Avenue", "category": "pharmacy", "tags": ["pharmacy"], "sources": ["overture"], "website": "http://www.mygnp.com/store-locator", "phone": "2535298888", "address": "30809 1st Ave S"}, "geometry": {"type": "Point", "coordinates": [-122.3354034, 47.3253975]}}]}