{"type": "FeatureCollection", "features": [{"type": "Feature", "properties": {"id": "6222fc3e-ce3b-4b92-b4d7-f86f9b4c8010", "name": "Emerald Ridge Apartments", "category": "attraction", "tags": ["attraction", "landmark", "historical", "building"], "sources": ["overture"], "website": "http://www.essexapartmenthomes.com", "phone": "+14254345198", "address": "3010 118th Ave SE"}, "geometry": {"type": "Point", "coordinates": [-122.1793823, 47.5840912]}}, {"type": "Feature", "properties": {"id": 210706040, "name": "Norwood Village Neighborhood Park", "category": "park", "tags": ["park"], "sources": ["osm"]}, "geometry": {"type": "Point", "coordinates": [-122.1737939, 47.5896683]}}, {"type": "Feature", "properties": {"id": 217511175, "name": "Southeast 32nd Street Park", "category": "park", "tags": ["park"], "sources": ["osm"]}, "geometry": {"type": "Point", "coordinates": [-122.1717811, 47.5816822]}}, {"type": "Feature", "properties": {"id": "8d6986fe-20cd-42fc-99ae-99e736888d86", "name": "Norwood Village Park Basketball Courts", "category": "park", "tags": ["park"], "sources": ["overture"], "website": "https://bellevuewa.gov", "phone": "+14254526885", "address": "12309 SE 23rd Pl"}, "geometry": {"type": "Point", "coordinates": [-122.1732788, 47.5899315]}}, {"type": "Feature", "properties": {"id": 217511173, "name": "Norwood Swim Club", "category": "swimming_pool", "tags": ["swimming-pool", "swimming"], "sources": ["osm"]}, "geometry": {"type": "Point", "coordinates": [-122.1738423, 47.5894444]}}]}