{"type": "FeatureCollection", "features": [{"type": "Feature", "properties": {"id": 1046595900, "name": "Pine Ridge Park", "category": "park", "tags": ["park"], "sources": ["osm"]}, "geometry": {"type": "Point", "coordinates": [-122.3465985, 47.8121252]}}, {"type": "Feature", "properties": {"id": "a5221c0e-fecf-46bb-b323-c4e1547bb519", "name": "Pine Ridge Park", "category": "park", "tags": ["park"], "sources": ["overture"], "website": "http://www.ci.edmonds.wa.us", "phone": "(425) 771-0230", "address": "83rd Ave W"}, "geometry": {"type": "Point", "coordinates": [-122.3462982, 47.8142853]}}, {"type": "Feature", "properties": {"id": "6c354192-3125-4eb0-8723-b4e6f3aa244e", "name": "Pine Ridge Park", "category": "park", "tags": ["park"], "sources": ["overture"], "website": "http://www.ci.edmonds.wa.us", "address": "20330 83rd Ave W"}, "geometry": {"type": "Point", "coordinates": [-122.3461456, 47.8130035]}}]}