{"type": "FeatureCollection", "features": [{"type": "Feature", "properties": {"id": 486445575, "name": "Maplewood Park", "category": "park", "tags": ["park"], "sources": ["osm"]}, "geometry": {"type": "Point", "coordinates": [-122.1468804, 47.4786948]}}, {"type": "Feature", "properties": {"id": "32c52080-2873-4c21-8613-4b4a30999a4f", "name": "Maplewood Park", "category": "park", "tags": ["park"], "sources": ["overture"], "website": "https://www.rentonwa.gov", "phone": "+12062960100", "address": "SE 136th St &, 146th Ave SE"}, "geometry": {"type": "Point", "coordinates": [-122.1461716, 47.4780235]}}, {"type": "Feature", "properties": {"id": "2682b36c-e347-459a-a875-f65a13a09032", "name": "Maplewood Park trails", "category": "park", "tags": ["park"], "sources": ["overture"], "phone": "+12063990705"}, "geometry": {"type": "Point", "coordinates": [-122.1448288, 47.4799271]}}]}