{"type": "FeatureCollection", "features": [{"type": "Feature", "properties": {"id": "ccd8e0a8-7b0d-492e-b552-97a921791203", "name": "Subway", "category": "restaurant", "tags": ["restaurant", "sandwich"], "sources": ["overture"], "website": "https://restaurants.subway.com/united-states/wa/mercer-island/8415-se-68th-st?utm_source=yxt-bing&utm_medium=local&utm_term=acq&utm_content=59053&utm_campaign=evergreen-2020&y_source=1_MTQ5MDgxMzAtNDgzLWxvY2F0aW9uLndlYnNpdGU%3D", "phone": "2062799599", "address": "8415 SE 68th St., Suite 112"}, "geometry": {"type": "Point", "coordinates": [-122.2259064, 47.5418129]}}, {"type": "Feature", "properties": {"id": 111733402, "name": "Starbucks", "category": "cafe", "tags": ["cafe", "coffee-shop", "takeaway"], "sources": ["osm"], "website": "https://www.starbucks.com/store-locator/store/11173/south-mercer-island-8415-se-68th-street-suite-100-mercer-island-wa-980", "phone": "+1-206-275-1097", "address": "8415 Southeast 68th Street"}, "geometry": {"type": "Point", "coordinates": [-122.2258788, 47.5417218]}}, {"type": "Feature", "properties": {"id": "7f18a6c4-1fda-4cf6-9ea6-dd797fad3f5f", "name": "Toshi's Teriyaki", "category": "restaurant", "tags": ["restaurant", "japanese", "asian"], "sources": ["overture"], "website": "https://toshi-s-teriyaki-wa-9.hub.biz/", "phone": "+12062320233", "address": "8425 SE 68th St"}, "geometry": {"type": "Point", "coordinates": [-122.2251358, 47.5417366]}}, {"type": "Feature", "properties": {"id": 667196524, "name": "El Sombrero", "category": "restaurant", "tags": ["restaurant", "mexican"], "sources": ["osm", "overture"], "website": "http://www.elsombreromexican.com", "phone": "(206) 275-4900", "address": "8451 SE 68th St"}, "geometry": {"type": "Point", "coordinates": [-122.2247588, 47.5409723]}}, {"type": "Feature", "properties": {"id": 13422076135, "name": "Yuzen Japanese Cuisine", "category": "restaurant", "tags": ["restaurant", "sushi", "japanese", "asian"], "sources": ["osm", "overture"], "website": "http://yuzenjapanese.com/", "phone": "+12062753310", "address": "8451 SE 68th St"}, "geometry": {"type": "Point", "coordinates": [-122.2244868, 47.5409015]}}, {"type": "Feature", "properties": {"id": "b735cca5-7d0e-4969-a9cd-0a0677801476", "name": "Starbucks Coffee Company", "category": "cafe", "tags": ["cafe", "coffee"], "sources": ["overture"], "website": "https://www.starbucks.com/store-locator/store/11173/", "phone": "+12062751097", "address": "8415 SE 68th St"}, "geometry": {"type": "Point", "coordinates": [-122.2257996, 47.5416183]}}, {"type": "Feature", "properties": {"id": "d2a0c741-09c9-4b3f-ae48-4811ec6790dd", "name": "Georgio's Subs", "category": "restaurant", "tags": ["restaurant", "sandwich"], "sources": ["overture"], "website": "http://www.georgiossubs.com", "phone": "(206) 275-3720", "address": "8415 SE 68th St Ste 112"}, "geometry": {"type": "Point", "coordinates": [-122.225853, 47.5417099]}}, {"type": "Feature", "properties": {"id": "31dde99a-5383-481f-830f-d5c305985047", "name": "Riviera Maya Mexican Restaurant", "category": "restaurant", "tags": ["restaurant", "mexican", "latin-american", "taco"], "sources": ["overture"], "website": "http://www.elsombreromexican.com/", "phone": "+12062322326", "address": "8451 SE 68th St #101"}, "geometry": {"type": "Point", "coordinates": [-122.2247543, 47.5409737]}}, {"type": "Feature", "properties": {"id": "5875be49-4fa6-4e52-9a4b-af472faa7677", "name": "Sahara Pizza", "category": "restaurant", "tags": ["restaurant", "pizza"], "sources": ["overture"], "website": "http://www.saharapizza.com/", "phone": "+12062329800", "address": "8425 SE 68th St #104"}, "geometry": {"type": "Point", "coordinates": [-122.2251892, 47.5416145]}}, {"type": "Feature", "properties": {"id": 4912134402, "name": "Mythical Bird", "category": "artwork", "tags": ["artwork"], "sources": ["osm"]}, "geometry": {"type": "Point", "coordinates": [-122.224128, 47.5422296]}}, {"type": "Feature", "properties": {"id": 160697861, "name": "Pioneer Park", "category": "park", "tags": ["park"], "sources": ["osm"]}, "geometry": {"type": "Point", "coordinates": [-122.2215945, 47.5420613]}}, {"type": "Feature", "properties": {"id": "db9c1573-7ced-47f7-8dc6-6f7073d160a2", "name": "Pioneer Park", "category": "park", "tags": ["park"], "sources": ["overture"], "phone": "+12062757609", "address": "Island Crest Way & 68th Street"}, "geometry": {"type": "Point", "coordinates": [-122.2205734, 47.5424538]}}, {"type": "Feature", "properties": {"id": 111733404, "name": "QFC", "category": "supermarket", "tags": ["supermarket", "wheelchair-accessible"], "sources": ["osm", "overture"], "website": "https://www.qfc.com/stores/grocery/wa/mercer-island/south-mercer-island/705/00806?cid=loc_70500806_fb", "phone": "+12062320102", "address": "8421 SE 68th St", "hours": "Mo-Su 05:00-01:00"}, "geometry": {"type": "Point", "coordinates": [-122.2260527, 47.5410702]}}, {"type": "Feature", "properties": {"id": "018e44b0-b33b-4604-9e07-b2f2ae2008a8", "name": "Rite Aid", "category": "convenience", "tags": ["convenience"], "sources": ["overture"], "phone": "2062323000", "address": "8441 SE 68th St"}, "geometry": {"type": "Point", "coordinates": [-122.2250137, 47.5406799]}}, {"type": "Feature", "properties": {"id": "69683846-164d-49cf-8ae0-a0897d1bb6f2", "name": "Quality Food Center", "category": "supermarket", "tags": ["supermarket"], "sources": ["overture"], "website": "https://www.qfc.com/stores/grocery/wa/mercer-island/south-mercer-island/705/00806", "address": "8421 SE 68th St"}, "geometry": {"type": "Point", "coordinates": [-122.2259369, 47.5410881]}}, {"type": "Feature", "properties": {"id": "40b96d3c-fbbc-4d7c-b44e-03eb06235430", "name": "Bank of America ATM", "category": "bank", "tags": ["bank", "credit", "union"], "sources": ["overture"], "website": "https://locators.bankofamerica.com/wa/mercerisland/atm-mercer-island-109142.html", "phone": "8444018500", "address": "8421 SE 68th St"}, "geometry": {"type": "Point", "coordinates": [-122.2255173, 47.5410614]}}, {"type": "Feature", "properties": {"id": "f07796c5-141d-4fb0-ae52-d2b533840410", "name": "Mercer Island Fitness", "category": "fitness_centre", "tags": ["fitness-centre", "gym"], "sources": ["overture"], "phone": "+12068418274", "address": "SOUTH END STRONG"}, "geometry": {"type": "Point", "coordinates": [-122.2245102, 47.5408859]}}, {"type": "Feature", "properties": {"id": "71da9082-1078-4298-9ab8-b682bf850e77", "name": "MIFIT", "category": "fitness_centre", "tags": ["fitness-centre", "gym"], "sources": ["overture"], "website": "http://mercerislandfitness.com/", "phone": "4254449567", "address": "8451 SE 68th St Ste 105"}, "geometry": {"type": "Point", "coordinates": [-122.2248764, 47.5411034]}}, {"type": "Feature", "properties": {"id": "095b2769-eef8-4e87-b724-9be2e000e682", "name": "Kix and Spinz", "category": "fitness_centre", "tags": ["fitness-centre", "fitness", "trainer"], "sources": ["overture"], "website": "http://www.kixandspinz.com", "phone": "(206) 455-0881", "address": "8451 SE 68th St Ste 105"}, "geometry": {"type": "Point", "coordinates": [-122.224823, 47.5408592]}}, {"type": "Feature", "properties": {"id": "acaaa13c-bbd8-48a1-b813-c698ffed466e", "name": "Curves of Mercer Island", "category": "fitness_centre", "tags": ["fitness-centre", "gym"], "sources": ["overture"], "website": "http://www.curves.com/", "phone": "2062752223", "address": "8435 SE 68th St Ste 100"}, "geometry": {"type": "Point", "coordinates": [-122.2264481, 47.5420456]}}]}