{"type": "FeatureCollection", "features": [{"type": "Feature", "properties": {"id": "c31fc124-4af2-40c5-9340-afd6dbc08131", "name": "The Calcutta Grill", "category": "restaurant", "tags": ["restaurant"], "sources": ["overture"], "phone": "14257934646", "address": "15500 6 Penny Ln"}, "geometry": {"type": "Point", "coordinates": [-122.1511307, 47.5359688]}}, {"type": "Feature", "properties": {"id": "fd9bef9f-bd1e-4139-a7e5-f24377354b86", "name": "China Creek Park", "category": "park", "tags": ["park"], "sources": ["overture"], "address": "SE 79th Dr"}, "geometry": {"type": "Point", "coordinates": [-122.1504974, 47.5300179]}}, {"type": "Feature", "properties": {"id": 1083027217, "name": "Thomas Rouse Road Historical Park", "category": "park", "tags": ["park"], "sources": ["osm"], "address": "7600 136th Avenue Southeast"}, "geometry": {"type": "Point", "coordinates": [-122.1562311, 47.5349076]}}, {"type": "Feature", "properties": {"id": 1083027218, "name": "Redman Park", "category": "park", "tags": ["park"], "sources": ["osm", "overture"], "address": "Redman Park"}, "geometry": {"type": "Point", "coordinates": [-122.1571031, 47.5349809]}}, {"type": "Feature", "properties": {"id": "919b8963-6df5-4967-9882-3956595d9462", "name": "The Golf Club At Newcastle", "category": "supermarket", "tags": ["supermarket"], "sources": ["overture"], "address": "15500 6 Penny Ln"}, "geometry": {"type": "Point", "coordinates": [-122.1511307, 47.5359688]}}, {"type": "Feature", "properties": {"id": "85436117-e52b-4385-8b99-19fd645b058b", "name": "Vivecorp", "category": "fitness_centre", "tags": ["fitness-centre", "gym"], "sources": ["overture"], "website": "http://www.vivecorp.com", "phone": "(425) 430-2454", "address": "14208 SE 77th St # 98059-3262"}, "geometry": {"type": "Point", "coordinates": [-122.1512222, 47.5331497]}}]}