{"type": "FeatureCollection", "features": [{"type": "Feature", "properties": {"id": 346526865, "name": "Lee\u2019s Kitchen", "category": "restaurant", "tags": ["restaurant", "chinese", "vegetarian", "vegan"], "sources": ["osm", "overture"], "website": "https://www.leeskitchenwa.com", "phone": "(425) 629-3980", "address": "2409 152nd Ave NE", "hours": "Mo-Su 10:00-20:00", "stations": [{"stopCode": 62, "lines": "2", "name": "Overlake Village Station", "walkingMeters": 639, "walkingSeconds": 462, "band": 10}]}, "geometry": {"type": "Point", "coordinates": [-122.13811, 47.632106]}}, {"type": "Feature", "properties": {"id": 346526866, "name": "Qdoba", "category": "fast_food", "tags": ["fast-food", "mexican", "takeaway", "wheelchair-accessible", "vegetarian", "vegan"], "sources": ["osm"], "website": "https://locations.qdoba.com/us/wa/redmond/15116-ne-24th-st.html", "phone": "+1-425-653-2224", "address": "15116 Northeast 24th Street", "hours": "Mo-Su 11:00-21:00", "stations": [{"stopCode": 62, "lines": "2", "name": "Overlake Village Station", "walkingMeters": 682, "walkingSeconds": 493, "band": 10}]}, "geometry": {"type": "Point", "coordinates": [-122.1382763, 47.6319367]}}, {"type": "Feature", "properties": {"id": 347259509, "name": "Seoul Hot Pot", "category": "restaurant", "tags": ["restaurant", "korean", "asian", "chinese"], "sources": ["osm", "overture"], "website": "http://SEOULHOTPOT.COM/", "phone": "+14258853355", "address": "2560 152nd Ave NE", "stations": [{"stopCode": 62, "lines": "2", "name": "Overlake Village Station", "walkingMeters": 640, "walkingSeconds": 461, "band": 10}]}, "geometry": {"type": "Point", "coordinates": [-122.1370267, 47.6323693]}}, {"type": "Feature", "properties": {"id": 347259510, "name": "Sapporo Teriyaki", "category": "restaurant", "tags": ["restaurant", "asian", "japanese", "fast-food"], "sources": ["osm", "overture"], "website": "http://www.sapporoteriyaki.com/", "phone": "+14258811110", "address": "2560 152nd Ave NE", "hours": "Mo-Sa 11:00-21:00", "stations": [{"stopCode": 62, "lines": "2", "name": "Overlake Village Station", "walkingMeters": 607, "walkingSeconds": 437, "band": 10}]}, "geometry": {"type": "Point", "coordinates": [-122.1370321, 47.6325735]}}, {"type": "Feature", "properties": {"id": "3957d0e2-e9df-4be6-ad68-faf02e35f1f6", "name": "Pizza Hut", "category": "restaurant", "tags": ["restaurant", "pizza"], "sources": ["overture"], "phone": "4258619900", "address": "2560 152nd Ave NE", "stations": [{"stopCode": 62, "lines": "2", "name": "Overlake Village Station", "walkingMeters": 544, "walkingSeconds": 398, "band": 10}]}, "geometry": {"type": "Point", "coordinates": [-122.1376953, 47.63274]}}, {"type": "Feature", "properties": {"id": 3893778039, "name": "Potbelly", "category": "fast_food", "tags": ["fast-food", "sandwich", "takeaway", "restaurant", "american"], "sources": ["osm", "overture"], "website": "https://www.potbelly.com/locations/washington/overlake", "phone": "+14252148600", "address": "15425 NE 24th St", "hours": "Mo-Su 10:00-18:00", "stations": [{"stopCode": 62, "lines": "2", "name": "Overlake Village Station", "walkingMeters": 1031, "walkingSeconds": 742, "band": 15}]}, "geometry": {"type": "Point", "coordinates": [-122.134036, 47.6308986]}}, {"type": "Feature", "properties": {"id": "d925ea9a-42ff-476b-b536-0646edd630d5", "name": "Nasai Teriyaki", "category": "restaurant", "tags": ["restaurant", "asian"], "sources": ["overture"], "website": "http://www.nasaiteriyaki.com", "phone": "(425) 957-4668", "address": "2409 152nd Ave NE", "stations": [{"stopCode": 62, "lines": "2", "name": "Overlake Village Station", "walkingMeters": 648, "walkingSeconds": 468, "band": 10}]}, "geometry": {"type": "Point", "coordinates": [-122.1383362, 47.6320419]}}, {"type": "Feature", "properties": {"id": "917ed623-b7c4-470b-850f-ed100f803d7b", "name": "Jersey Mike's Subs", "category": "restaurant", "tags": ["restaurant"], "sources": ["overture"], "phone": "+14256413969", "address": "15230 Ne 24th St Ste 1g", "stations": [{"stopCode": 62, "lines": "2", "name": "Overlake Village Station", "walkingMeters": 675, "walkingSeconds": 504, "band": 10}]}, "geometry": {"type": "Point", "coordinates": [-122.1362152, 47.6320114]}}, {"type": "Feature", "properties": {"id": "e9b03fa1-8387-43f8-bbc4-4f9b0c0a09ba", "name": "Regent Bakery & Cafe", "category": "bakery", "tags": ["bakery"], "sources": ["overture"], "website": "https://regentbakeryandcafe.com", "phone": "14253781498", "address": "15159 NE 24th St", "stations": [{"stopCode": 62, "lines": "2", "name": "Overlake Village Station", "walkingMeters": 757, "walkingSeconds": 549, "band": 10}]}, "geometry": {"type": "Point", "coordinates": [-122.1382904, 47.6307983]}}, {"type": "Feature", "properties": {"id": "1428645b-121d-4654-94db-926ae168234c", "name": "Malay Satay Hut", "category": "restaurant", "tags": ["restaurant", "malaysian"], "sources": ["overture"], "website": "http://www.malaysatayhut.com", "phone": "(425) 564-0888", "address": "15230 NE 24th St", "stations": [{"stopCode": 62, "lines": "2", "name": "Overlake Village Station", "walkingMeters": 745, "walkingSeconds": 536, "band": 10}]}, "geometry": {"type": "Point", "coordinates": [-122.1364288, 47.631958]}}, {"type": "Feature", "properties": {"id": 5045655525, "name": "Tapioca Express", "category": "cafe", "tags": ["cafe", "bubble-tea", "outdoor-seating", "takeaway"], "sources": ["osm"], "address": "15230 Northeast 24th Street", "stations": [{"stopCode": 62, "lines": "2", "name": "Overlake Village Station", "walkingMeters": 791, "walkingSeconds": 569, "band": 10}]}, "geometry": {"type": "Point", "coordinates": [-122.135813, 47.631943]}}, {"type": "Feature", "properties": {"id": 5093478022, "name": "W XYZ Lounge", "category": "bar", "tags": ["bar"], "sources": ["osm"], "stations": [{"stopCode": 62, "lines": "2", "name": "Overlake Village Station", "walkingMeters": 278, "walkingSeconds": 200, "band": 5}]}, "geometry": {"type": "Point", "coordinates": [-122.137358, 47.6354314]}}, {"type": "Feature", "properties": {"id": 5282730742, "name": "Tian Tian Noodles", "category": "restaurant", "tags": ["restaurant", "noodles"], "sources": ["osm"], "website": "https://www.tiantiannoodles.com/", "phone": "+1-425-502-8745", "address": "15230 Northeast 24th Street", "hours": "Tu-Su 11:00-21:00", "stations": [{"stopCode": 62, "lines": "2", "name": "Overlake Village Station", "walkingMeters": 777, "walkingSeconds": 559, "band": 10}]}, "geometry": {"type": "Point", "coordinates": [-122.1360022, 47.6319412]}}, {"type": "Feature", "properties": {"id": 9683712042, "name": "Hui Lau Shan", "category": "cafe", "tags": ["cafe", "asian", "dessert", "takeaway"], "sources": ["osm"], "website": "https://www.redmondhls.com/", "phone": "+1-425-449-8885", "address": "15120 Northeast 24th Street", "hours": "Mo-Su 12:00-22:00", "stations": [{"stopCode": 62, "lines": "2", "name": "Overlake Village Station", "walkingMeters": 673, "walkingSeconds": 486, "band": 10}]}, "geometry": {"type": "Point", "coordinates": [-122.1381584, 47.6319364]}}, {"type": "Feature", "properties": {"id": 5555369743, "name": "Maxwella Cafe and Bar", "category": "cafe", "tags": ["cafe"], "sources": ["osm"], "stations": [{"stopCode": 62, "lines": "2", "name": "Overlake Village Station", "walkingMeters": 364, "walkingSeconds": 262, "band": 5}]}, "geometry": {"type": "Point", "coordinates": [-122.1374211, 47.6344528]}}, {"type": "Feature", "properties": {"id": 6654415785, "name": "Southern Spice", "category": "restaurant", "tags": ["restaurant", "indian", "wheelchair-accessible"], "sources": ["osm", "overture"], "website": "https://www.southernspicewa.com", "phone": "+14255029050", "address": "15112 NE 24th St", "stations": [{"stopCode": 62, "lines": "2", "name": "Overlake Village Station", "walkingMeters": 702, "walkingSeconds": 507, "band": 10}]}, "geometry": {"type": "Point", "coordinates": [-122.1385421, 47.6319341]}}, {"type": "Feature", "properties": {"id": "8f1281c3-3a73-4cf7-9350-d542e3a41f68", "name": "Round Table Pizza", "category": "restaurant", "tags": ["restaurant", "buffet", "pizza"], "sources": ["overture"], "phone": "4256447117", "address": "15025 NE 24th St", "stations": [{"stopCode": 62, "lines": "2", "name": "Overlake Village Station", "walkingMeters": 1187, "walkingSeconds": 858, "band": 15}]}, "geometry": {"type": "Point", "coordinates": [-122.1396179, 47.6302452]}}, {"type": "Feature", "properties": {"id": 11070415611, "name": "151 Days", "category": "restaurant", "tags": ["restaurant", "taiwanese", "chinese", "brewery", "wifi", "asian"], "sources": ["osm", "overture"], "website": "https://151dayschickensouphouse.com/", "phone": "+14254068691", "address": "2720 152nd Ave NE #150", "hours": "Mo,We,Th 11:00-14:00,17:00-21:00, Fr-Su 11:00-15:00,17:00-21:00", "stations": [{"stopCode": 62, "lines": "2", "name": "Overlake Village Station", "walkingMeters": 342, "walkingSeconds": 246, "band": 5}]}, "geometry": {"type": "Point", "coordinates": [-122.1374332, 47.6346523]}}, {"type": "Feature", "properties": {"id": 12021735406, "name": "Jack Sprat", "category": "cafe", "tags": ["cafe", "vegetarian", "american"], "sources": ["osm", "overture"], "website": "https://jackspratkitchen.com/", "phone": "+14259310094", "address": "2808 Calder Ave NE on, NE Turing St", "stations": [{"stopCode": 62, "lines": "2", "name": "Overlake Village Station", "walkingMeters": 475, "walkingSeconds": 341, "band": 10}]}, "geometry": {"type": "Point", "coordinates": [-122.1349394, 47.6354042]}}, {"type": "Feature", "properties": {"id": 12755680201, "name": "Foody Moody", "category": "restaurant", "tags": ["restaurant", "indian", "pakistani", "vegetarian", "halal", "fast-food", "food", "truck"], "sources": ["osm", "overture"], "website": "https://foodyformoody.com/", "phone": "+14258669007", "address": "2444 NE Bel Red Rd", "hours": "Tu-Sa 11:30-21:00; Su 11:30-20:30", "stations": [{"stopCode": 62, "lines": "2", "name": "Overlake Village Station", "walkingMeters": 1049, "walkingSeconds": 754, "band": 15}]}, "geometry": {"type": "Point", "coordinates": [-122.132761, 47.6317883]}}, {"type": "Feature", "properties": {"id": 13414438100, "name": "La Tia Angelina", "category": "fast_food", "tags": ["fast-food"], "sources": ["osm"], "website": "https://latiaangelina.com/", "phone": "+1-425-524-8222", "address": "2444 Bel-Red Road", "hours": "Su,Tu,We,Th,Fr 11:00-22:00", "stations": [{"stopCode": 62, "lines": "2", "name": "Overlake Village Station", "walkingMeters": 1005, "walkingSeconds": 723, "band": 15}]}, "geometry": {"type": "Point", "coordinates": [-122.1333182, 47.6320046]}}, {"type": "Feature", "properties": {"id": 161888047, "name": "Arby's", "category": "fast_food", "tags": ["fast-food", "sandwich", "outdoor-seating", "takeaway", "drive-through", "fast", "food"], "sources": ["osm", "overture"], "website": "https://locations.arbys.com/wa/redmond/15115-ne-24th-st.html", "phone": "4259571765", "address": "15115 NE 24th St", "hours": "10:00-23:00", "stations": [{"stopCode": 62, "lines": "2", "name": "Overlake Village Station", "walkingMeters": 789, "walkingSeconds": 572, "band": 10}]}, "geometry": {"type": "Point", "coordinates": [-122.1390422, 47.6313069]}}, {"type": "Feature", "properties": {"id": 1237977639, "name": "Pizza Poggio", "category": "restaurant", "tags": ["restaurant", "pizza", "ice-cream", "vegetarian"], "sources": ["osm"], "website": "https://pizzapoggio.com/", "phone": "+1-425-791-0895", "address": "15330 Northeast Turing Street", "hours": "Mo-Su 11:00-21:00", "stations": [{"stopCode": 62, "lines": "2", "name": "Overlake Village Station", "walkingMeters": 476, "walkingSeconds": 343, "band": 10}]}, "geometry": {"type": "Point", "coordinates": [-122.1353405, 47.6351334]}}, {"type": "Feature", "properties": {"id": "fd735316-20e2-43a2-ac21-620743e98eae", "name": "Uwajimaya", "category": "restaurant", "tags": ["restaurant"], "sources": ["overture"], "website": "http://www.uwajimaya.com", "phone": "(425) 747-9012", "address": "15555 NE 24th St", "stations": [{"stopCode": 62, "lines": "2", "name": "Overlake Village Station", "walkingMeters": 1086, "walkingSeconds": 781, "band": 15}]}, "geometry": {"type": "Point", "coordinates": [-122.1333847, 47.6307983]}}, {"type": "Feature", "properties": {"id": "67df7986-73f8-4bde-ac08-1ba5585bf523", "name": "Qdoba Mexican Grill", "category": "restaurant", "tags": ["restaurant", "mexican", "texmex", "taco"], "sources": ["overture"], "website": "https://locations.qdoba.com/us/wa/redmond/15116-ne-24th-st", "phone": "+14256532224", "address": "15116 Ne 24th St Redmond", "stations": [{"stopCode": 62, "lines": "2", "name": "Overlake Village Station", "walkingMeters": 684, "walkingSeconds": 494, "band": 10}]}, "geometry": {"type": "Point", "coordinates": [-122.1383362, 47.6318855]}}, {"type": "Feature", "properties": {"id": "38086d7b-b468-427b-b9af-a750544b89c4", "name": "W XYZ Bar", "category": "pub", "tags": ["pub"], "sources": ["overture"], "website": "http://www.aloftseattleredmond.com/bars-in-redmond-wa", "phone": "+14256369922", "address": "15220 NE Shen St", "stations": [{"stopCode": 62, "lines": "2", "name": "Overlake Village Station", "walkingMeters": 245, "walkingSeconds": 177, "band": 5}]}, "geometry": {"type": "Point", "coordinates": [-122.1373596, 47.6355133]}}, {"type": "Feature", "properties": {"id": "272e78be-7f8d-4d52-8d7a-4ef5a00d48d4", "name": "Teapot Vegetarian House", "category": "restaurant", "tags": ["restaurant", "vegetarian", "asian"], "sources": ["overture"], "website": "http://www.teapotvegetarian.com/", "phone": "+14253731888", "address": "15230 NE 24th St", "stations": [{"stopCode": 62, "lines": "2", "name": "Overlake Village Station", "walkingMeters": 679, "walkingSeconds": 507, "band": 10}]}, "geometry": {"type": "Point", "coordinates": [-122.136673, 47.6318665]}}, {"type": "Feature", "properties": {"id": "05021b01-a5f1-4d4f-bf13-23f7dd1459a1", "name": "Coco's Bakery", "category": "restaurant", "tags": ["restaurant"], "sources": ["overture"], "website": "http://www.cocosbakery.com/", "phone": "(425) 746-7510", "address": "14804 NE 24th St", "stations": [{"stopCode": 62, "lines": "2", "name": "Overlake Village Station", "walkingMeters": 798, "walkingSeconds": 576, "band": 10}]}, "geometry": {"type": "Point", "coordinates": [-122.1393967, 47.6315956]}}, {"type": "Feature", "properties": {"id": "46466bfe-2c3b-425c-a32e-72c2dfa58378", "name": "Curry Point", "category": "restaurant", "tags": ["restaurant", "indian"], "sources": ["overture"], "website": "http://currypointonline.com", "phone": "(425) 636-8124", "address": "2719 152nd Ave NE", "stations": [{"stopCode": 62, "lines": "2", "name": "Overlake Village Station", "walkingMeters": 478, "walkingSeconds": 344, "band": 5}]}, "geometry": {"type": "Point", "coordinates": [-122.1392136, 47.6348724]}}, {"type": "Feature", "properties": {"id": "99e78f3a-0cc3-412b-8090-5a06ec85e1cd", "name": "Indian Pizza Junction", "category": "restaurant", "tags": ["restaurant", "pizza", "indian"], "sources": ["overture"], "website": "http://biryanihouseredmond.com/", "phone": "+14258185274", "address": "15025 NE 24th St suite 101", "stations": [{"stopCode": 62, "lines": "2", "name": "Overlake Village Station", "walkingMeters": 1183, "walkingSeconds": 856, "band": 15}]}, "geometry": {"type": "Point", "coordinates": [-122.1396103, 47.6303673]}}, {"type": "Feature", "properties": {"id": "226bf87d-2019-4fa2-afd5-90dc345f68e1", "name": "Chaat Corner", "category": "restaurant", "tags": ["restaurant", "indian", "indo-chinese"], "sources": ["overture"], "website": "http://chaatcornerbelred.com", "phone": "+14258180942", "address": "15117 NE 24th St", "stations": [{"stopCode": 62, "lines": "2", "name": "Overlake Village Station", "walkingMeters": 1151, "walkingSeconds": 832, "band": 10}]}, "geometry": {"type": "Point", "coordinates": [-122.1391449, 47.6304283]}}, {"type": "Feature", "properties": {"id": "ae661d6a-e442-4ae1-abc6-c3cc52e94cc5", "name": "The Bento Box", "category": "restaurant", "tags": ["restaurant", "japanese"], "sources": ["overture"], "website": "https://www.thebentoboxwa.com", "phone": "14256438646", "address": "15119 NE 24th St", "stations": [{"stopCode": 62, "lines": "2", "name": "Overlake Village Station", "walkingMeters": 868, "walkingSeconds": 629, "band": 10}]}, "geometry": {"type": "Point", "coordinates": [-122.1389771, 47.630455]}}, {"type": "Feature", "properties": {"id": "c13ac777-243b-4b93-abe3-6e5f1e920752", "name": "Ph\u1edf H\u00f2a + Jazen Tea (redmond)", "category": "restaurant", "tags": ["restaurant", "vietnamese"], "sources": ["overture"], "website": "https://www.phohoa.com", "phone": "14256417898", "address": "15169 NE 24th St", "stations": [{"stopCode": 62, "lines": "2", "name": "Overlake Village Station", "walkingMeters": 799, "walkingSeconds": 579, "band": 10}]}, "geometry": {"type": "Point", "coordinates": [-122.1383286, 47.6311455]}}, {"type": "Feature", "properties": {"id": "7eb7eff4-a859-4d94-a780-6d0492979956", "name": "Fortune Overseas Restaurant Inc", "category": "restaurant", "tags": ["restaurant"], "sources": ["overture"], "address": "15163 NE 24th St", "stations": [{"stopCode": 62, "lines": "2", "name": "Overlake Village Station", "walkingMeters": 783, "walkingSeconds": 584, "band": 10}]}, "geometry": {"type": "Point", "coordinates": [-122.1382523, 47.630909]}}, {"type": "Feature", "properties": {"id": "3bdadf37-c3d0-4e0b-bf45-8dcc04fe9229", "name": "Wanta Thai Cuisine", "category": "restaurant", "tags": ["restaurant", "asian", "pan", "thai"], "sources": ["overture"], "website": "http://www.wantathai.com/", "phone": "4256446899", "address": "15163 NE 24th St", "stations": [{"stopCode": 62, "lines": "2", "name": "Overlake Village Station", "walkingMeters": 722, "walkingSeconds": 524, "band": 10}]}, "geometry": {"type": "Point", "coordinates": [-122.1383514, 47.6314964]}}, {"type": "Feature", "properties": {"id": "89bafc51-7ccf-4aaa-a16e-036aec8d7d96", "name": "The Deopbab", "category": "restaurant", "tags": ["restaurant", "korean", "asian"], "sources": ["overture"], "website": "http://www.thedeopbab.com/", "phone": "+14256587185", "address": "2720 152nd Ave NE", "stations": [{"stopCode": 62, "lines": "2", "name": "Overlake Village Station", "walkingMeters": 349, "walkingSeconds": 251, "band": 5}]}, "geometry": {"type": "Point", "coordinates": [-122.1374512, 47.6346016]}}, {"type": "Feature", "properties": {"id": "21fe880f-c0a4-493d-8534-887dffce0f81", "name": "Shaburina", "category": "restaurant", "tags": ["restaurant", "japanese", "chinese", "asian"], "sources": ["overture"], "website": "http://www.shabu-shaburina.com/", "phone": "+14256587185", "address": "2720 152nd Ave NE #130", "stations": [{"stopCode": 62, "lines": "2", "name": "Overlake Village Station", "walkingMeters": 350, "walkingSeconds": 252, "band": 5}]}, "geometry": {"type": "Point", "coordinates": [-122.1374969, 47.6345787]}}, {"type": "Feature", "properties": {"id": "5b78022f-d049-4179-916f-4267556645db", "name": "Mayuri Bakery, Chaat & Sweets", "category": "restaurant", "tags": ["restaurant"], "sources": ["overture"], "website": "https://mayuriseattle.com/bakery", "phone": "4258816284", "address": "2560 152nd Ave NE", "stations": [{"stopCode": 62, "lines": "2", "name": "Overlake Village Station", "walkingMeters": 536, "walkingSeconds": 386, "band": 10}]}, "geometry": {"type": "Point", "coordinates": [-122.1371841, 47.6331329]}}, {"type": "Feature", "properties": {"id": "240e68c8-00ec-4807-872d-bd20bd1867f1", "name": "Momo & Pizza Ghar", "category": "restaurant", "tags": ["restaurant", "pizza"], "sources": ["overture"], "phone": "4258696364", "address": "2560 152nd Ave NE", "stations": [{"stopCode": 62, "lines": "2", "name": "Overlake Village Station", "walkingMeters": 610, "walkingSeconds": 439, "band": 10}]}, "geometry": {"type": "Point", "coordinates": [-122.1370468, 47.6327972]}}, {"type": "Feature", "properties": {"id": "522fa0f3-286a-4010-a512-c04245973859", "name": "Kn Food Inc", "category": "restaurant", "tags": ["restaurant"], "sources": ["overture"], "website": "https://sapporoteriyaki.com", "address": "2560 152nd Ave Ne Ste J", "stations": [{"stopCode": 62, "lines": "2", "name": "Overlake Village Station", "walkingMeters": 575, "walkingSeconds": 429, "band": 10}]}, "geometry": {"type": "Point", "coordinates": [-122.137001, 47.6325493]}}, {"type": "Feature", "properties": {"id": "5360ad52-4338-4ba6-a505-f3145301d8b5", "name": "Ksn Inc", "category": "restaurant", "tags": ["restaurant"], "sources": ["overture"], "website": "http://www.ksn.com.au", "address": "2560 152nd Ave Ne Ste C", "stations": [{"stopCode": 62, "lines": "2", "name": "Overlake Village Station", "walkingMeters": 575, "walkingSeconds": 429, "band": 10}]}, "geometry": {"type": "Point", "coordinates": [-122.137001, 47.6325493]}}, {"type": "Feature", "properties": {"id": "1764d7c3-10f4-44a2-98e7-3b0b973ccf03", "name": "Tian Tian Noodle", "category": "restaurant", "tags": ["restaurant", "chinese"], "sources": ["overture"], "website": "https://www.tiantiannoodles.com", "phone": "(425) 502-8745", "address": "15230 NE 24th St", "stations": [{"stopCode": 62, "lines": "2", "name": "Overlake Village Station", "walkingMeters": 781, "walkingSeconds": 562, "band": 10}]}, "geometry": {"type": "Point", "coordinates": [-122.1359558, 47.6319618]}}, {"type": "Feature", "properties": {"id": "93dc6862-1dc4-4899-8cd3-08893e2bc258", "name": "Kitanda Brazilian Coffee & Bakery", "category": "cafe", "tags": ["cafe", "coffee"], "sources": ["overture"], "website": "http://www.kitanda.com", "phone": "(425) 641-4413", "address": "15230 NE 24th St #1R", "stations": [{"stopCode": 62, "lines": "2", "name": "Overlake Village Station", "walkingMeters": 788, "walkingSeconds": 567, "band": 10}]}, "geometry": {"type": "Point", "coordinates": [-122.1358566, 47.6319656]}}, {"type": "Feature", "properties": {"id": "0dbd6ce6-b163-4a15-8da5-548a41aef441", "name": "Jne International Llc", "category": "restaurant", "tags": ["restaurant"], "sources": ["overture"], "address": "15230 Ne 24th St Ste K", "stations": [{"stopCode": 62, "lines": "2", "name": "Overlake Village Station", "walkingMeters": 675, "walkingSeconds": 504, "band": 10}]}, "geometry": {"type": "Point", "coordinates": [-122.1362152, 47.6320114]}}, {"type": "Feature", "properties": {"id": "7ea4791d-fa7c-4c21-9de9-8c2f81453ced", "name": "Kabab Palace", "category": "restaurant", "tags": ["restaurant"], "sources": ["overture"], "website": "kababpalacerestaurant.com", "phone": "+14254016899", "address": "15230 Ne 24th St Ste A", "stations": [{"stopCode": 62, "lines": "2", "name": "Overlake Village Station", "walkingMeters": 645, "walkingSeconds": 464, "band": 10}]}, "geometry": {"type": "Point", "coordinates": [-122.1362152, 47.6320114]}}, {"type": "Feature", "properties": {"id": "1a8eddb6-1a35-49dc-8c6d-ef633e579780", "name": "Morning Bites", "category": "restaurant", "tags": ["restaurant"], "sources": ["overture"], "website": "https://www.ordertogo.com/yummiteriyaki", "phone": "14256796008", "address": "15230 Ne 24th St  Ste O", "stations": [{"stopCode": 62, "lines": "2", "name": "Overlake Village Station", "walkingMeters": 675, "walkingSeconds": 504, "band": 10}]}, "geometry": {"type": "Point", "coordinates": [-122.1362152, 47.6320114]}}, {"type": "Feature", "properties": {"id": "9abed06b-f7cb-450e-a88c-197f318c8047", "name": "Friday", "category": "restaurant", "tags": ["restaurant", "pop-up", "pop", "up"], "sources": ["overture"], "address": "15563 NE 31st St", "stations": [{"stopCode": 62, "lines": "2", "name": "Overlake Village Station", "walkingMeters": 530, "walkingSeconds": 396, "band": 10}, {"stopCode": 63, "lines": "2", "name": "Redmond Technology Center Station", "walkingMeters": 1136, "walkingSeconds": 848, "band": 15}]}, "geometry": {"type": "Point", "coordinates": [-122.1335678, 47.6369858]}}, {"type": "Feature", "properties": {"id": "802fdaaa-8de7-4adf-9b18-4a17476fa63d", "name": "L'Italiano", "category": "restaurant", "tags": ["restaurant", "italian"], "sources": ["overture"], "website": "http://Www.wearelitaliano.com/", "phone": "+12069282747", "address": "2444 NE Bel Red Rd", "stations": [{"stopCode": 62, "lines": "2", "name": "Overlake Village Station", "walkingMeters": 864, "walkingSeconds": 645, "band": 15}]}, "geometry": {"type": "Point", "coordinates": [-122.1327744, 47.632]}}, {"type": "Feature", "properties": {"id": 12134850734, "name": "playFORM", "category": "artwork", "tags": ["artwork"], "sources": ["osm"], "stations": [{"stopCode": 62, "lines": "2", "name": "Overlake Village Station", "walkingMeters": 122, "walkingSeconds": 88, "band": 5}]}, "geometry": {"type": "Point", "coordinates": [-122.138005, 47.6364728]}}, {"type": "Feature", "properties": {"id": 12134850732, "name": "Verdant", "category": "artwork", "tags": ["artwork"], "sources": ["osm"], "stations": [{"stopCode": 62, "lines": "2", "name": "Overlake Village Station", "walkingMeters": 165, "walkingSeconds": 118, "band": 5}, {"stopCode": 63, "lines": "2", "name": "Redmond Technology Center Station", "walkingMeters": 1381, "walkingSeconds": 994, "band": 15}]}, "geometry": {"type": "Point", "coordinates": [-122.138226, 47.6372537]}}, {"type": "Feature", "properties": {"id": "f71d2388-ef0c-442b-83fc-2deba1c71433", "name": "The Village at Overlake Station", "category": "attraction", "tags": ["attraction", "landmark", "historical", "building"], "sources": ["overture"], "website": "https://www.overlakestation.com/", "phone": "+14255105319", "address": "2580 152nd Ave NE", "stations": [{"stopCode": 62, "lines": "2", "name": "Overlake Village Station", "walkingMeters": 656, "walkingSeconds": 472, "band": 10}]}, "geometry": {"type": "Point", "coordinates": [-122.1357574, 47.6328545]}}, {"type": "Feature", "properties": {"id": "2fa784f7-507c-4837-94cf-4310a801fc84", "name": "AVA Esterra Park", "category": "attraction", "tags": ["attraction", "landmark", "historical", "building"], "sources": ["overture"], "website": "https://www.avaloncommunities.com/washington/redmond-apartments/ava-esterra-park", "phone": "+12062796713", "address": "15301 NE Turing St", "stations": [{"stopCode": 62, "lines": "2", "name": "Overlake Village Station", "walkingMeters": 516, "walkingSeconds": 372, "band": 10}]}, "geometry": {"type": "Point", "coordinates": [-122.1357803, 47.6341057]}}, {"type": "Feature", "properties": {"id": "0876552d-0ec5-4e0c-ab28-1891458a8861", "name": "Verde Esterra Park", "category": "attraction", "tags": ["attraction", "landmark", "historical", "building"], "sources": ["overture"], "website": "https://verdeesterrapark.com/", "phone": "+14255843816", "address": "2808 Calder Ave NE", "stations": [{"stopCode": 62, "lines": "2", "name": "Overlake Village Station", "walkingMeters": 462, "walkingSeconds": 332, "band": 5}]}, "geometry": {"type": "Point", "coordinates": [-122.1356277, 47.6352119]}}, {"type": "Feature", "properties": {"id": "44e9a875-2e8b-4996-86cc-81578e517392", "name": "Parkside Esterra Park", "category": "attraction", "tags": ["attraction", "landmark", "historical", "building"], "sources": ["overture"], "website": "https://parksideesterrapark.com/", "phone": "+14255325947", "address": "15551 NE Turing St", "stations": [{"stopCode": 62, "lines": "2", "name": "Overlake Village Station", "walkingMeters": 619, "walkingSeconds": 446, "band": 10}]}, "geometry": {"type": "Point", "coordinates": [-122.1332779, 47.6348267]}}, {"type": "Feature", "properties": {"id": "a8a920b6-af8e-4edb-bee8-5f5a2ffedb62", "name": "Nightingale", "category": "attraction", "tags": ["attraction", "landmark", "historical", "building"], "sources": ["overture"], "website": "https://www.livenightingale.com/?utm_source=facebook&utm_medium=social", "phone": "+14256299742", "address": "2651 156th Ave NE", "stations": [{"stopCode": 62, "lines": "2", "name": "Overlake Village Station", "walkingMeters": 799, "walkingSeconds": 575, "band": 15}]}, "geometry": {"type": "Point", "coordinates": [-122.1326141, 47.6338501]}}, {"type": "Feature", "properties": {"id": 682692867, "name": "Esterra Park", "category": "park", "tags": ["park"], "sources": ["osm"], "stations": [{"stopCode": 62, "lines": "2", "name": "Overlake Village Station", "walkingMeters": 489, "walkingSeconds": 352, "band": 10}]}, "geometry": {"type": "Point", "coordinates": [-122.1351401, 47.6348667]}}, {"type": "Feature", "properties": {"id": "4487060d-1c60-41f2-aa7f-8aedc0c2d75b", "name": "Learning Park", "category": "park", "tags": ["park"], "sources": ["overture"], "phone": "+14258818222", "address": "2503 152nd Ave NE", "stations": [{"stopCode": 62, "lines": "2", "name": "Overlake Village Station", "walkingMeters": 472, "walkingSeconds": 352, "band": 10}]}, "geometry": {"type": "Point", "coordinates": [-122.1381454, 47.6330872]}}, {"type": "Feature", "properties": {"id": "129d8d19-43f6-4974-8f79-45807b98253e", "name": "Jumping beans Indoor Playspace", "category": "park", "tags": ["park"], "sources": ["overture"], "website": "http://jumpingbeansplayspace.com/", "phone": "+14253059998", "address": "2222 152nd Ave NE", "stations": [{"stopCode": 62, "lines": "2", "name": "Overlake Village Station", "walkingMeters": 857, "walkingSeconds": 640, "band": 10}]}, "geometry": {"type": "Point", "coordinates": [-122.1371078, 47.6305046]}}, {"type": "Feature", "properties": {"id": "1d936e11-144b-46d6-bfda-42ac34d24c67", "name": "Overlake Park & Ride", "category": "park", "tags": ["park"], "sources": ["overture"], "website": "http://metro.kingcounty.gov/", "phone": "+12065533000", "address": "2650 152nd Ave NE", "stations": [{"stopCode": 62, "lines": "2", "name": "Overlake Village Station", "walkingMeters": 580, "walkingSeconds": 433, "band": 10}]}, "geometry": {"type": "Point", "coordinates": [-122.1360931, 47.6327782]}}, {"type": "Feature", "properties": {"id": 9713300033, "name": "Aloft", "category": "hotel", "tags": ["hotel"], "sources": ["osm", "overture"], "website": "https://www.marriott.com/en-us/hotels/seaad-aloft-seattle-redmond/overview/?scid=d2406702-e8ea-4b45-bb9b-69cddaaef03d", "phone": "+14256369922", "address": "15220 NE Shen Street, Suite 150", "stations": [{"stopCode": 62, "lines": "2", "name": "Overlake Village Station", "walkingMeters": 316, "walkingSeconds": 228, "band": 5}]}, "geometry": {"type": "Point", "coordinates": [-122.13717, 47.6354437]}}, {"type": "Feature", "properties": {"id": 9713300034, "name": "Element", "category": "hotel", "tags": ["hotel"], "sources": ["osm"], "phone": "+1-425-636-9942", "address": "15220 Northeast Shen Street", "stations": [{"stopCode": 62, "lines": "2", "name": "Overlake Village Station", "walkingMeters": 328, "walkingSeconds": 236, "band": 5}]}, "geometry": {"type": "Point", "coordinates": [-122.1367606, 47.6354517]}}, {"type": "Feature", "properties": {"id": 60429849, "name": "Extended Stay America - Seattle - Redmond", "category": "hotel", "tags": ["hotel"], "sources": ["osm", "overture"], "website": "http://dms.netmng.com/si/cm/tracking/dgtrackingredirect.aspx?siclientid=2918&sisearchengine=1524&siredirect=http:%2f%2fwww.extendedstayamerica.com%2fhotels%2fwa%2fseattle%2fredmond&siproduct=bermd_bus", "phone": "+14258856675", "address": "15805 NE 28th St", "stations": [{"stopCode": 62, "lines": "2", "name": "Overlake Village Station", "walkingMeters": 884, "walkingSeconds": 636, "band": 15}]}, "geometry": {"type": "Point", "coordinates": [-122.1306574, 47.6344172]}}, {"type": "Feature", "properties": {"id": "e3747d46-d84b-4013-932f-432e7b0aea0d", "name": "Element by Marriott Seattle Redmond", "category": "hotel", "tags": ["hotel"], "sources": ["overture"], "website": "https://www.marriott.com/en-us/hotels/seare-element-seattle-redmond/overview/?scid=d2406702-e8ea-4b45-bb9b-69cddaaef03d", "phone": "+14256369942", "address": "15220 NE Shen St", "stations": [{"stopCode": 62, "lines": "2", "name": "Overlake Village Station", "walkingMeters": 341, "walkingSeconds": 246, "band": 5}]}, "geometry": {"type": "Point", "coordinates": [-122.1370087, 47.6358337]}}, {"type": "Feature", "properties": {"id": "92602ca8-0b41-4d78-a880-365a59471ced", "name": "Extended Stay Hotels", "category": "hotel", "tags": ["hotel"], "sources": ["overture"], "website": "https://www.extendedstayamerica.com", "phone": "(425) 885-5956", "address": "15805 NE 28th St", "stations": [{"stopCode": 62, "lines": "2", "name": "Overlake Village Station", "walkingMeters": 827, "walkingSeconds": 595, "band": 15}]}, "geometry": {"type": "Point", "coordinates": [-122.1313324, 47.6345863]}}, {"type": "Feature", "properties": {"id": 31561450, "name": "7-Eleven", "category": "convenience", "tags": ["convenience", "delivery"], "sources": ["osm", "overture"], "website": "https://www.7-eleven.com/", "phone": "+14258850197", "address": "15521 Bel-Red Rd", "hours": "24/7", "stations": [{"stopCode": 62, "lines": "2", "name": "Overlake Village Station", "walkingMeters": 1007, "walkingSeconds": 724, "band": 15}]}, "geometry": {"type": "Point", "coordinates": [-122.1332984, 47.631825]}}, {"type": "Feature", "properties": {"id": 3892685535, "name": "Trader Joe's", "category": "supermarket", "tags": ["supermarket"], "sources": ["osm", "overture"], "website": "https://locations.traderjoes.com/wa/bellevue/131/", "phone": "+14256415069", "address": "15563 NE 24th St", "hours": "Mo-Su 09:00-21:00", "stations": [{"stopCode": 62, "lines": "2", "name": "Overlake Village Station", "walkingMeters": 1074, "walkingSeconds": 772, "band": 15}]}, "geometry": {"type": "Point", "coordinates": [-122.1334738, 47.6309003]}}, {"type": "Feature", "properties": {"id": 3892685532, "name": "AT&T", "category": "mobile_phone", "tags": ["mobile-phone"], "sources": ["osm"], "hours": "Mo-Sa 10:00-20:00; Su 11:00-18:00", "stations": [{"stopCode": 62, "lines": "2", "name": "Overlake Village Station", "walkingMeters": 1100, "walkingSeconds": 791, "band": 15}]}, "geometry": {"type": "Point", "coordinates": [-122.1331668, 47.6308948]}}, {"type": "Feature", "properties": {"id": 31561451, "name": "ExtraMile", "category": "convenience", "tags": ["convenience"], "sources": ["osm"], "stations": [{"stopCode": 62, "lines": "2", "name": "Overlake Village Station", "walkingMeters": 1034, "walkingSeconds": 744, "band": 15}]}, "geometry": {"type": "Point", "coordinates": [-122.132952, 47.6319455]}}, {"type": "Feature", "properties": {"id": 3893778038, "name": "PetSmart", "category": "pet", "tags": ["pet"], "sources": ["osm", "overture"], "website": "https://www.petsmart.com/stores/us/wa/bellevue-store3005.html", "phone": "+14253725758", "address": "15445 NE 24th St", "hours": "Mo-Sa 09:00-21:00; Su 10:00-19:00", "stations": [{"stopCode": 62, "lines": "2", "name": "Overlake Village Station", "walkingMeters": 1057, "walkingSeconds": 760, "band": 15}]}, "geometry": {"type": "Point", "coordinates": [-122.1337275, 47.6308878]}}, {"type": "Feature", "properties": {"id": 5093798421, "name": "Sound Microsystems", "category": "electronics", "tags": ["electronics"], "sources": ["osm"], "website": "https://www.soundms.com", "phone": "+1-425-644-4441", "address": "15114 Northeast 24th Street", "stations": [{"stopCode": 62, "lines": "2", "name": "Overlake Village Station", "walkingMeters": 695, "walkingSeconds": 502, "band": 10}]}, "geometry": {"type": "Point", "coordinates": [-122.1384506, 47.631935]}}, {"type": "Feature", "properties": {"id": "ddf92d75-5098-479b-9023-7a8f7dfd2608", "name": "Gold N Looks", "category": "jewelry", "tags": ["jewelry"], "sources": ["overture"], "website": "http://goldnlooks.com/cgi-sys/suspendedpage.cgi", "phone": "(425) 922-4712", "address": "2560 152nd Ave NE", "stations": [{"stopCode": 62, "lines": "2", "name": "Overlake Village Station", "walkingMeters": 560, "walkingSeconds": 403, "band": 10}]}, "geometry": {"type": "Point", "coordinates": [-122.1373215, 47.6328354]}}, {"type": "Feature", "properties": {"id": "d7d87040-a314-4acd-b25e-910cee5c8c41", "name": "Macy's", "category": "department_store", "tags": ["department-store", "department"], "sources": ["overture"], "website": "https://www.macys.com/stores/wa/redmond/redmond-furniture-and-mattress-gallery_377.html", "phone": "4256886850", "address": "15340 N E 24th St", "stations": [{"stopCode": 62, "lines": "2", "name": "Overlake Village Station", "walkingMeters": 880, "walkingSeconds": 633, "band": 15}]}, "geometry": {"type": "Point", "coordinates": [-122.1350021, 47.6320038]}}, {"type": "Feature", "properties": {"id": 390317221, "name": "Cash Company Pawnbroker", "category": "variety_store", "tags": ["variety-store"], "sources": ["osm"], "address": "15424 Bel Red Road", "stations": [{"stopCode": 62, "lines": "2", "name": "Overlake Village Station", "walkingMeters": 935, "walkingSeconds": 673, "band": 15}]}, "geometry": {"type": "Point", "coordinates": [-122.1341953, 47.6318632]}}, {"type": "Feature", "properties": {"id": "50c23585-6e7b-4779-921c-1ef31d24a577", "name": "At&t Store", "category": "mobile_phone", "tags": ["mobile-phone", "mobile"], "sources": ["overture"], "website": "https://www.att.com", "phone": "14255621011", "address": "15577 NE 24th St", "stations": [{"stopCode": 62, "lines": "2", "name": "Overlake Village Station", "walkingMeters": 1086, "walkingSeconds": 781, "band": 15}]}, "geometry": {"type": "Point", "coordinates": [-122.132988, 47.6308594]}}, {"type": "Feature", "properties": {"id": "e5019b5b-fe73-4109-a44e-e1a0c0c694e8", "name": "Tuesday Morning", "category": "furniture", "tags": ["furniture"], "sources": ["overture"], "website": "http://shop.tuesdaymorning.com", "phone": "(425) 562-3123", "address": "15291 NE 24th St", "stations": [{"stopCode": 62, "lines": "2", "name": "Overlake Village Station", "walkingMeters": 822, "walkingSeconds": 591, "band": 10}]}, "geometry": {"type": "Point", "coordinates": [-122.1371994, 47.6310692]}}, {"type": "Feature", "properties": {"id": "7b539ea2-90ac-4d2f-a5d5-f500c71021f1", "name": "Bassett Furniture", "category": "furniture", "tags": ["furniture"], "sources": ["overture"], "website": "https://www.bassettfurniture.com", "phone": "14259684663", "address": "2233 Bel Red Rd", "stations": [{"stopCode": 62, "lines": "2", "name": "Overlake Village Station", "walkingMeters": 923, "walkingSeconds": 689, "band": 15}]}, "geometry": {"type": "Point", "coordinates": [-122.1351929, 47.6304359]}}, {"type": "Feature", "properties": {"id": "c7c0e9e7-1def-4820-be2b-9e83989ad5f7", "name": "Firaash Furniture", "category": "furniture", "tags": ["furniture"], "sources": ["overture"], "website": "https://www.firaashfurniture.com", "phone": "+14252420352", "address": "15230 NE 24th St", "stations": [{"stopCode": 62, "lines": "2", "name": "Overlake Village Station", "walkingMeters": 662, "walkingSeconds": 494, "band": 10}]}, "geometry": {"type": "Point", "coordinates": [-122.1363373, 47.6320724]}}, {"type": "Feature", "properties": {"id": "f511bb59-335e-441c-bd55-1d62b3b829cd", "name": "Seattle Style Remodel", "category": "doityourself", "tags": ["doityourself", "home", "improvement"], "sources": ["overture"], "website": "https://www.seattlestyleremodel.com/", "phone": "4254442638", "address": "15127 NE 24th St", "stations": [{"stopCode": 62, "lines": "2", "name": "Overlake Village Station", "walkingMeters": 1118, "walkingSeconds": 809, "band": 10}]}, "geometry": {"type": "Point", "coordinates": [-122.13871, 47.6303406]}}, {"type": "Feature", "properties": {"id": "6dcf45f4-da67-4f1f-b653-291d454a5a52", "name": "PS Stores - Redmond", "category": "gift", "tags": ["gift"], "sources": ["overture"], "website": "http://www.ps-stores.com/", "phone": "4258850264", "address": "15120 NE 24th St", "stations": [{"stopCode": 62, "lines": "2", "name": "Overlake Village Station", "walkingMeters": 802, "walkingSeconds": 576, "band": 10}]}, "geometry": {"type": "Point", "coordinates": [-122.1396484, 47.6316605]}}, {"type": "Feature", "properties": {"id": "8c2fa623-7eba-4dab-a228-b383e36d93b2", "name": "AT&T Redmond", "category": "mobile_phone", "tags": ["mobile-phone", "mobile"], "sources": ["overture"], "phone": "+14255625197", "address": "15167 NE 24th St", "stations": [{"stopCode": 62, "lines": "2", "name": "Overlake Village Station", "walkingMeters": 745, "walkingSeconds": 540, "band": 10}]}, "geometry": {"type": "Point", "coordinates": [-122.1381836, 47.6310349]}}, {"type": "Feature", "properties": {"id": "74e0efb4-1437-4d53-b1ba-17b9a4f83b7e", "name": "Abel Tasman Tours", "category": "supermarket", "tags": ["supermarket"], "sources": ["overture"], "address": "2567 152nd Ave NE", "stations": [{"stopCode": 62, "lines": "2", "name": "Overlake Village Station", "walkingMeters": 410, "walkingSeconds": 306, "band": 5}]}, "geometry": {"type": "Point", "coordinates": [-122.1382217, 47.6335106]}}, {"type": "Feature", "properties": {"id": "8d0c67f5-52ff-43c7-9180-200cc7eff522", "name": "CORT Furniture", "category": "furniture", "tags": ["furniture"], "sources": ["overture"], "website": "http://www.cort.com", "phone": "(425) 746-8386", "address": "2560 152nd Ave NE Ste F", "stations": [{"stopCode": 62, "lines": "2", "name": "Overlake Village Station", "walkingMeters": 619, "walkingSeconds": 446, "band": 10}]}, "geometry": {"type": "Point", "coordinates": [-122.1370239, 47.6327171]}}, {"type": "Feature", "properties": {"id": "7934daa6-d73b-4418-8453-b527ff9ae259", "name": "Onego", "category": "florist", "tags": ["florist"], "sources": ["overture"], "phone": "+14259430796", "address": "2560 152nd Ave Ne Ste G", "stations": [{"stopCode": 62, "lines": "2", "name": "Overlake Village Station", "walkingMeters": 575, "walkingSeconds": 429, "band": 10}]}, "geometry": {"type": "Point", "coordinates": [-122.137001, 47.6325493]}}, {"type": "Feature", "properties": {"id": "607ea3d4-d8ef-4f8f-b931-a3d8a84be622", "name": "Spring - Overlake", "category": "mobile_phone", "tags": ["mobile-phone", "mobile"], "sources": ["overture"], "website": "https://www.att.com", "phone": "+14255621011", "address": "15577 NE 24th St", "stations": [{"stopCode": 62, "lines": "2", "name": "Overlake Village Station", "walkingMeters": 977, "walkingSeconds": 729, "band": 15}]}, "geometry": {"type": "Point", "coordinates": [-122.132988, 47.6308594]}}, {"type": "Feature", "properties": {"id": 6594662145, "name": "Walgreens", "category": "pharmacy", "tags": ["pharmacy"], "sources": ["osm", "overture"], "website": "https://www.walgreens.com", "phone": "+14256438281", "address": "15585 NE 24th St", "hours": "Mo-Fr 09:00-20:00; Sa,Su 10:00-18:00", "stations": [{"stopCode": 62, "lines": "2", "name": "Overlake Village Station", "walkingMeters": 1110, "walkingSeconds": 798, "band": 15}]}, "geometry": {"type": "Point", "coordinates": [-122.1329919, 47.6307503]}}, {"type": "Feature", "properties": {"id": "71c14cc6-6f88-4c52-8f4f-9c5f89243f3b", "name": "Clark's Pharmacy", "category": "pharmacy", "tags": ["pharmacy"], "sources": ["overture"], "website": "https://linktr.ee/kuslersclarks", "phone": "+14258810222", "address": "15615 Bel Red Rd", "stations": [{"stopCode": 62, "lines": "2", "name": "Overlake Village Station", "walkingMeters": 986, "walkingSeconds": 709, "band": 15}]}, "geometry": {"type": "Point", "coordinates": [-122.1310043, 47.6330795]}}, {"type": "Feature", "properties": {"id": 29412669, "name": "KeyBank", "category": "bank", "tags": ["bank", "credit", "union"], "sources": ["osm", "overture"], "website": "https://www.key.com/locations/WA/Redmond/BRCH47310176/15110-Ne-24th-St?ppc=cmpyxt", "phone": "+14256534380", "address": "15110 NE 24th St", "stations": [{"stopCode": 62, "lines": "2", "name": "Overlake Village Station", "walkingMeters": 745, "walkingSeconds": 538, "band": 10}]}, "geometry": {"type": "Point", "coordinates": [-122.1389296, 47.6318388]}}, {"type": "Feature", "properties": {"id": 3983011054, "name": "First Tech Federal Credit Union", "category": "bank", "tags": ["bank"], "sources": ["osm"], "stations": [{"stopCode": 62, "lines": "2", "name": "Overlake Village Station", "walkingMeters": 916, "walkingSeconds": 659, "band": 15}]}, "geometry": {"type": "Point", "coordinates": [-122.1317451, 47.6334651]}}, {"type": "Feature", "properties": {"id": "e29517ea-9e63-45d6-8543-51ea7c29873e", "name": "Club Pilates", "category": "fitness_centre", "tags": ["fitness-centre", "pilates", "studio"], "sources": ["overture"], "website": "https://www.clubpilates.com/", "phone": "+14258820231", "address": "2641 151st Pl NE", "stations": [{"stopCode": 62, "lines": "2", "name": "Overlake Village Station", "walkingMeters": 576, "walkingSeconds": 414, "band": 5}]}, "geometry": {"type": "Point", "coordinates": [-122.1397934, 47.6334534]}}, {"type": "Feature", "properties": {"id": 9713389542, "name": "Orangetheory Fitness", "category": "fitness_centre", "tags": ["fitness-centre", "gym"], "sources": ["osm", "overture"], "website": "https://www.orangetheory.com/en-us/locations/redmond-washington-0582?utm_medium=seo&utm_source=fb&utm_term=corporate&utm_campaign=soci", "phone": "+14256895988", "address": "2690 152nd Ave NE #150", "stations": [{"stopCode": 62, "lines": "2", "name": "Overlake Village Station", "walkingMeters": 463, "walkingSeconds": 334, "band": 10}]}, "geometry": {"type": "Point", "coordinates": [-122.1374773, 47.6335571]}}, {"type": "Feature", "properties": {"id": "50ecf88d-166a-4549-ac53-ba78d79d3220", "name": "Eastside Strength and Conditioning", "category": "fitness_centre", "tags": ["fitness-centre", "gym"], "sources": ["overture"], "website": "http://eastsidesc.com/", "phone": "4252985809", "address": "2869 152nd Ave NE", "stations": [{"stopCode": 62, "lines": "2", "name": "Overlake Village Station", "walkingMeters": 161, "walkingSeconds": 116, "band": 5}]}, "geometry": {"type": "Point", "coordinates": [-122.1376648, 47.6362228]}}, {"type": "Feature", "properties": {"id": "905c7d31-995a-4ded-b9ea-f08d982a83fd", "name": "Knotty Yoga", "category": "fitness_centre", "tags": ["fitness-centre", "yoga", "studio"], "sources": ["overture"], "website": "http://www.knottyyoga.com/", "phone": "+14252247285", "address": "2545 152nd Ave NE", "stations": [{"stopCode": 62, "lines": "2", "name": "Overlake Village Station", "walkingMeters": 501, "walkingSeconds": 362, "band": 5}]}, "geometry": {"type": "Point", "coordinates": [-122.139061, 47.6339226]}}, {"type": "Feature", "properties": {"id": "9f57ed14-0a5f-4568-8106-81d1effc23e3", "name": "Monkey Bar Gym Eastside", "category": "fitness_centre", "tags": ["fitness-centre", "gym"], "sources": ["overture"], "website": "http://www.monkeybargymeastside.com/", "phone": "+12069316500", "address": "2507 152nd Ave NE", "stations": [{"stopCode": 62, "lines": "2", "name": "Overlake Village Station", "walkingMeters": 549, "walkingSeconds": 397, "band": 10}]}, "geometry": {"type": "Point", "coordinates": [-122.1380997, 47.6329842]}}, {"type": "Feature", "properties": {"id": "a0872104-20af-4f62-8a06-ab5bfc8e3adf", "name": "Vo2multisport High Performance Coaching", "category": "fitness_centre", "tags": ["fitness-centre", "fitness", "trainer"], "sources": ["overture"], "website": "https://vo2multisport.com", "phone": "12064097200", "address": "2795 152nd Ave NE", "stations": [{"stopCode": 62, "lines": "2", "name": "Overlake Village Station", "walkingMeters": 204, "walkingSeconds": 152, "band": 5}]}, "geometry": {"type": "Point", "coordinates": [-122.1388321, 47.634903]}}, {"type": "Feature", "properties": {"id": "d12b814e-c007-4bca-b4f7-057068c28d38", "name": "Om Yoga", "category": "fitness_centre", "tags": ["fitness-centre", "yoga", "studio"], "sources": ["overture"], "phone": "+14255871547", "address": "15230 NE 24th St", "stations": [{"stopCode": 62, "lines": "2", "name": "Overlake Village Station", "walkingMeters": 711, "walkingSeconds": 512, "band": 10}]}, "geometry": {"type": "Point", "coordinates": [-122.1361923, 47.6319885]}}]}