{"type": "FeatureCollection", "features": [{"type": "Feature", "properties": {"id": "26d2ab43-7c16-4e7c-8b03-9582a3a4c5c5", "name": "Taco Time", "category": "restaurant", "tags": ["restaurant", "mexican"], "sources": ["overture"], "website": "http://www.TacoTimeNW.com", "phone": "(206) 762-5830", "address": "6442 E Marginal Way S"}, "geometry": {"type": "Point", "coordinates": [-122.3310318, 47.5452614]}}, {"type": "Feature", "properties": {"id": "7503af72-c16b-4a8f-b510-afd0ac973b09", "name": "McDonald's", "category": "fast_food", "tags": ["fast-food", "fast", "food"], "sources": ["overture"], "website": "http://www.mcdonalds.com", "phone": "(206) 762-2686", "address": "6145 4th Ave S"}, "geometry": {"type": "Point", "coordinates": [-122.3302383, 47.5462799]}}, {"type": "Feature", "properties": {"id": 231287984, "name": "Jack in the Box", "category": "fast_food", "tags": ["fast-food", "burger", "takeaway", "drive-through", "fast", "food"], "sources": ["osm", "overture"], "website": "https://www.jackinthebox.com", "phone": "+12067649564", "address": "5903 1st Ave S", "hours": "24/7"}, "geometry": {"type": "Point", "coordinates": [-122.3345976, 47.5499931]}}, {"type": "Feature", "properties": {"id": 231287941, "name": "Matt's Famous Chili Dogs", "category": "fast_food", "tags": ["fast-food", "hot-dog", "restaurant", "hot", "dog", "burger", "american"], "sources": ["osm", "overture"], "website": "http://www.mattshotdogs.com/", "phone": "+12067680418", "address": "6615 E Marginal Way S"}, "geometry": {"type": "Point", "coordinates": [-122.330112, 47.543901]}}, {"type": "Feature", "properties": {"id": "d2926db2-2f15-41dc-9f53-69e47b7d46a8", "name": "Bake Mark Usa", "category": "bakery", "tags": ["bakery"], "sources": ["overture"], "website": "https://www.bakemark.com", "phone": "12067682430", "address": "5958 1st Ave S"}, "geometry": {"type": "Point", "coordinates": [-122.3334198, 47.5486717]}}, {"type": "Feature", "properties": {"id": "d3fa04ec-fcfb-45ef-b258-620ba396c4aa", "name": "Westco-Bakemark", "category": "bakery", "tags": ["bakery"], "sources": ["overture"], "website": "http://www.bakemarkusa.com", "phone": "+12067682430", "address": "5958 1st Ave S"}, "geometry": {"type": "Point", "coordinates": [-122.3335037, 47.5486031]}}, {"type": "Feature", "properties": {"id": "dc7e8755-f2eb-4787-9ee6-daf70389720c", "name": "Ener-G Gluten Free Bakery", "category": "bakery", "tags": ["bakery"], "sources": ["overture"], "website": "http://www.ener-g.com/", "phone": "+18003315222", "address": "5960 1st Ave S"}, "geometry": {"type": "Point", "coordinates": [-122.3339844, 47.5483627]}}, {"type": "Feature", "properties": {"id": "d80a8283-0847-4ed1-b9ba-6a8f64fe66c2", "name": "Sea Print", "category": "restaurant", "tags": ["restaurant"], "sources": ["overture"], "address": "151 S Michigan St"}, "geometry": {"type": "Point", "coordinates": [-122.3322449, 47.5440063]}}, {"type": "Feature", "properties": {"id": "826a6589-76ea-4366-b507-e79e1b68fd74", "name": "Northwest Seafood Processors", "category": "restaurant", "tags": ["restaurant", "seafood"], "sources": ["overture"], "website": "http://www.odysseyenterprisesinc.com/nwsp", "phone": "(206) 762-7256", "address": "206 SW Michigan St"}, "geometry": {"type": "Point", "coordinates": [-122.3372574, 47.5409431]}}, {"type": "Feature", "properties": {"id": "aa4f0bdd-300a-45a9-96a3-fadb0d984f07", "name": "Dawn Food Products", "category": "bakery", "tags": ["bakery"], "sources": ["overture"], "website": "http://www.dawnfoods.com", "phone": "+12066237740", "address": "6901 Fox Ave S"}, "geometry": {"type": "Point", "coordinates": [-122.3301926, 47.5405617]}}, {"type": "Feature", "properties": {"id": "941ce99b-4259-4b06-b248-0ec39e67526d", "name": "Fright Gallery", "category": "gallery", "tags": ["gallery", "art"], "sources": ["overture"], "website": "http://www.glaciernw.com", "phone": "(206) 768-2262", "address": "6335 1st Ave S"}, "geometry": {"type": "Point", "coordinates": [-122.3349304, 47.5462532]}}, {"type": "Feature", "properties": {"id": "8e32cbdd-51bf-4602-8d2b-dc9dae4610ec", "name": "1st Avenue Bridge", "category": "attraction", "tags": ["attraction", "landmark", "historical", "building"], "sources": ["overture"], "website": "http://www.wsdot.wa.gov/northwest/king/1stavesbridge", "phone": "+12064404475", "address": "1st Ave S"}, "geometry": {"type": "Point", "coordinates": [-122.3339691, 47.5427246]}}, {"type": "Feature", "properties": {"id": 399781440, "name": "Terminal 115 Park", "category": "park", "tags": ["park"], "sources": ["osm"]}, "geometry": {"type": "Point", "coordinates": [-122.3352397, 47.5417282]}}, {"type": "Feature", "properties": {"id": 858773084, "name": "1st Avenue South Street End", "category": "park", "tags": ["park"], "sources": ["osm"]}, "geometry": {"type": "Point", "coordinates": [-122.3339769, 47.5430044]}}, {"type": "Feature", "properties": {"id": "feb878a9-71dc-49e0-8ab9-ca2c1cf912ea", "name": "The Reef Cannabis Dispensary", "category": "cannabis", "tags": ["cannabis"], "sources": ["overture"], "website": "thereefstores.com", "phone": "12064202137", "address": "303 S Michigan St"}, "geometry": {"type": "Point", "coordinates": [-122.3302383, 47.5448837]}}, {"type": "Feature", "properties": {"id": 231287929, "name": "ExtraMile", "category": "convenience", "tags": ["convenience", "wheelchair-accessible"], "sources": ["osm"], "address": "5940 East Marginal Way South"}, "geometry": {"type": "Point", "coordinates": [-122.3345774, 47.5497054]}}, {"type": "Feature", "properties": {"id": 231287919, "name": "The Reef", "category": "cannabis", "tags": ["cannabis"], "sources": ["osm"], "address": "303 South Michigan Street"}, "geometry": {"type": "Point", "coordinates": [-122.3302791, 47.5448842]}}, {"type": "Feature", "properties": {"id": "2655ece9-c885-4724-a29e-0467b8a6a7bc", "name": "Fittings, Inc.", "category": "hardware", "tags": ["hardware"], "sources": ["overture"], "website": "http://www.fittingsinc.com", "phone": "+12067674670", "address": "5979 4th Ave S"}, "geometry": {"type": "Point", "coordinates": [-122.3300247, 47.5481796]}}, {"type": "Feature", "properties": {"id": "f573a1e0-2351-474a-8a7b-7f96b54ba35b", "name": "Seattle Kosher", "category": "supermarket", "tags": ["supermarket"], "sources": ["overture"], "website": "http://www.seattlekosher.com/", "phone": "+12067721616", "address": "5980 1st Ave S"}, "geometry": {"type": "Point", "coordinates": [-122.3335342, 47.547924]}}, {"type": "Feature", "properties": {"id": "7ac07da9-c8d0-42b6-85b5-ab34459f2843", "name": "Acme Food Sales", "category": "supermarket", "tags": ["supermarket"], "sources": ["overture"], "website": "http://www.acmefood.com", "phone": "+12067625150", "address": "5940 1st Ave S"}, "geometry": {"type": "Point", "coordinates": [-122.3330612, 47.5491714]}}, {"type": "Feature", "properties": {"id": "524ecb0d-5432-4638-95d2-c045cc341438", "name": "CertainTeed", "category": "doityourself", "tags": ["doityourself", "building", "supply"], "sources": ["overture"], "website": "http://certainteed.com", "phone": "+12067631550", "address": "5931 E Marginal Wy S"}, "geometry": {"type": "Point", "coordinates": [-122.3354416, 47.5493431]}}, {"type": "Feature", "properties": {"id": "cb5d4369-0908-42e8-bfd8-0e4338d1e9cf", "name": "Inline Design", "category": "doityourself", "tags": ["doityourself", "building", "supply"], "sources": ["overture"], "website": "https://inlinedesign.com/", "phone": "4254055505", "address": "6335 1st Ave S Unit Main"}, "geometry": {"type": "Point", "coordinates": [-122.3348923, 47.546196]}}, {"type": "Feature", "properties": {"id": "36060846-5dea-438e-8c90-03c48eec5a72", "name": "Grainger Industrial Supply", "category": "hardware", "tags": ["hardware"], "sources": ["overture"], "website": "https://www.grainger.com", "phone": "18004724643", "address": "6141 4th Ave S"}, "geometry": {"type": "Point", "coordinates": [-122.3302994, 47.5467606]}}, {"type": "Feature", "properties": {"id": "06e7d515-e5ed-449e-8773-40c8f5470f13", "name": "Kristin Ford Jewelry With Meaning", "category": "jewelry", "tags": ["jewelry"], "sources": ["overture"], "website": "http://www.kristinfordjewelry.com/", "phone": "+12063802700", "address": "200 SW Michigan St Suite 303"}, "geometry": {"type": "Point", "coordinates": [-122.337944, 47.5411568]}}, {"type": "Feature", "properties": {"id": "4f576948-8c8a-4e4b-b4d2-206965db9d30", "name": "Kinfetti", "category": "toys", "tags": ["toys"], "sources": ["overture"], "website": "kinfetti.com", "phone": "18885435869", "address": "200 Sw Michigan St  Ste 204"}, "geometry": {"type": "Point", "coordinates": [-122.3377686, 47.5411377]}}, {"type": "Feature", "properties": {"id": "6921d3a6-dab0-4a97-868e-eb13f1c3ef39", "name": "Barron Collection", "category": "gift", "tags": ["gift"], "sources": ["overture"], "website": "https://barron-collection-ltd-the.business.site", "phone": "+12067632779", "address": "200 Sw Michigan St Ste 201"}, "geometry": {"type": "Point", "coordinates": [-122.3377686, 47.5411377]}}, {"type": "Feature", "properties": {"id": "d4c2fdb6-b7a1-4d7f-a4e1-ad6929af9c9a", "name": "US Bank", "category": "bank", "tags": ["bank", "credit", "union"], "sources": ["overture"], "website": "http://www.usbank.com/", "phone": "2067620837", "address": "303 S Michigan St"}, "geometry": {"type": "Point", "coordinates": [-122.330452, 47.5451469]}}, {"type": "Feature", "properties": {"id": "e70eb75d-0929-4397-bf17-c0de1ee0d1a0", "name": "Blueprint Athletic Performance", "category": "fitness_centre", "tags": ["fitness-centre", "gym"], "sources": ["overture"], "website": "http://blueprintathleticperformance.com/", "phone": "(206) 371-7326", "address": "6335 1st Ave S"}, "geometry": {"type": "Point", "coordinates": [-122.3347778, 47.5462036]}}, {"type": "Feature", "properties": {"id": "aa89e4c2-3772-4ee2-a0ae-638fd2df4eaf", "name": "Ironstone Performance", "category": "fitness_centre", "tags": ["fitness-centre", "gym"], "sources": ["overture"], "phone": "12063046633", "address": "6601 E Marginal Way S  Ste A"}, "geometry": {"type": "Point", "coordinates": [-122.3303528, 47.5439949]}}]}