{"type": "FeatureCollection", "features": [{"type": "Feature", "properties": {"id": 6036074311, "name": "Domino's", "category": "fast_food", "tags": ["fast-food", "pizza", "takeaway", "wifi", "restaurant"], "sources": ["osm", "overture"], "website": "https://www.dominos.com/en/?utm_source=google&utm_medium=loclist&utm_campaign=localmaps", "phone": "+14252357000", "address": "17160 116th Ave Se", "hours": "Mo-Th 10:30-24:00; Fr-Sa 10:30-01:00; Su 10:30-24:00"}, "geometry": {"type": "Point", "coordinates": [-122.185672, 47.4496195]}}, {"type": "Feature", "properties": {"id": 6036074258, "name": "Group Therapy Bar & Grill", "category": "restaurant", "tags": ["restaurant", "outdoor-seating", "indoor-seating", "wheelchair-accessible", "has-bar", "air-conditioned"], "sources": ["osm"], "address": "17178 116th Avenue Southeast"}, "geometry": {"type": "Point", "coordinates": [-122.1856873, 47.4491365]}}, {"type": "Feature", "properties": {"id": 6036074313, "name": "Mintra Thai Cuisine", "category": "restaurant", "tags": ["restaurant", "thai", "noodles", "asian"], "sources": ["osm", "overture"], "website": "http://www.mintrathaicuisine.com/", "phone": "4252267148", "address": "17168 116th Ave SE"}, "geometry": {"type": "Point", "coordinates": [-122.1856769, 47.4494237]}}, {"type": "Feature", "properties": {"id": "b4de2e55-2d5e-4060-abd7-1856073eca2d", "name": "Group Therapy Bar and Grill", "category": "restaurant", "tags": ["restaurant", "bar-and-grill", "bar", "grill", "american"], "sources": ["overture"], "phone": "+14255726503", "address": "17178 116th Ave SE"}, "geometry": {"type": "Point", "coordinates": [-122.1856766, 47.4491005]}}, {"type": "Feature", "properties": {"id": "afc9c5a0-310a-4be8-862f-c521785e4e8d", "name": "Golden Wok", "category": "restaurant", "tags": ["restaurant", "asian", "fusion"], "sources": ["overture"], "website": "https://www.goldenwokwa.com/?utm_source=bing&utm_medium=websiteurl&utm_campaign=search", "phone": "4252267148", "address": "17168 116th Ave SE"}, "geometry": {"type": "Point", "coordinates": [-122.1855316, 47.4493904]}}, {"type": "Feature", "properties": {"id": "114e3bef-e37c-450f-a1f0-606ed037add3", "name": "The Becket", "category": "attraction", "tags": ["attraction", "landmark", "historical", "building"], "sources": ["overture"], "website": "https://www.becketapartments.com/", "phone": "+14255289113", "address": "17333 121st Ln SE"}, "geometry": {"type": "Point", "coordinates": [-122.1803513, 47.4465904]}}, {"type": "Feature", "properties": {"id": "1b071174-0627-4883-a6dc-f87fde505355", "name": "Cascade Park Condominiums", "category": "attraction", "tags": ["attraction", "landmark", "historical", "building"], "sources": ["overture"], "phone": "+14252712286", "address": "17404 119th Ln SE"}, "geometry": {"type": "Point", "coordinates": [-122.1834183, 47.4474792]}}, {"type": "Feature", "properties": {"id": "cc708d5d-f718-40b3-854e-f648f8ad443e", "name": "Grammercy Apartment Homes", "category": "attraction", "tags": ["attraction", "landmark", "historical", "building"], "sources": ["overture"], "website": "https://www.liveatgrammercy.com/", "phone": "+18058232096", "address": "17226 120th Terrace SE"}, "geometry": {"type": "Point", "coordinates": [-122.1811218, 47.4478722]}}, {"type": "Feature", "properties": {"id": 6036074309, "name": "Mi Casa Market", "category": "convenience", "tags": ["convenience", "supermarket"], "sources": ["osm", "overture"], "phone": "14257934039", "address": "17174 116th Ave SE", "hours": "Mo-Su 09:00-21:00"}, "geometry": {"type": "Point", "coordinates": [-122.1856857, 47.4492548]}}, {"type": "Feature", "properties": {"id": 6036074312, "name": "Save Smoke", "category": "tobacco", "tags": ["tobacco"], "sources": ["osm", "overture"], "phone": "14257935030", "address": "17170 116th Ave SE", "hours": "09:00-21:00"}, "geometry": {"type": "Point", "coordinates": [-122.1856784, 47.4493579]}}, {"type": "Feature", "properties": {"id": "bfe9d328-4a29-441a-b830-bad021df300f", "name": "The Foodiepreneur", "category": "supermarket", "tags": ["supermarket"], "sources": ["overture"], "website": "thefoodiepreneur.com", "address": "17200 116th Ave Se # 58882"}, "geometry": {"type": "Point", "coordinates": [-122.1850815, 47.4486961]}}, {"type": "Feature", "properties": {"id": "edbda671-9002-47d5-8957-ac8e5accba6b", "name": "Seven Eleven Convenience Store", "category": "convenience", "tags": ["convenience"], "sources": ["overture"], "address": "505 116th Ave,"}, "geometry": {"type": "Point", "coordinates": [-122.1859207, 47.4477959]}}, {"type": "Feature", "properties": {"id": 521705255, "name": "United States Post Office", "category": "post_office", "tags": ["post-office"], "sources": ["osm"], "address": "17200 116th Avenue Southeast"}, "geometry": {"type": "Point", "coordinates": [-122.185066, 47.448717]}}, {"type": "Feature", "properties": {"id": "69245a68-5661-46a1-92d6-9f2bd124f345", "name": "United States Postal Service", "category": "post_office", "tags": ["post-office", "office"], "sources": ["overture"], "website": "https://tools.usps.com/find-location.htm?location=1379100", "phone": "+18002758777", "address": "17200 116th Ave SE"}, "geometry": {"type": "Point", "coordinates": [-122.1854172, 47.4486809]}}, {"type": "Feature", "properties": {"id": 6452838615, "name": "Wellness Gaines Fitness", "category": "fitness_centre", "tags": ["fitness-centre", "crossfit"], "sources": ["osm"], "address": "17110 116th Avenue Southeast", "hours": "Mo-Th 06:00-19:30; Fr 06:00-21:00; Sa 09:00-12:00; Su 09:00-10:00"}, "geometry": {"type": "Point", "coordinates": [-122.1844886, 47.4491244]}}, {"type": "Feature", "properties": {"id": 6452838616, "name": "WaterBabies Aquatic Center", "category": "sports_centre", "tags": ["sports-centre", "swimming"], "sources": ["osm"]}, "geometry": {"type": "Point", "coordinates": [-122.1844028, 47.4493947]}}, {"type": "Feature", "properties": {"id": "b6de4084-f4a0-4d2a-b842-d9528e4ece7a", "name": "Curves", "category": "fitness_centre", "tags": ["fitness-centre", "gym"], "sources": ["overture"], "website": "http://www.curves.com", "phone": "(425) 235-7788", "address": "17148 116th Ave SE"}, "geometry": {"type": "Point", "coordinates": [-122.1854477, 47.4494591]}}, {"type": "Feature", "properties": {"id": "004a7cd2-5bd0-49ee-a76e-28ea746f95b7", "name": "Wellness Gaines", "category": "fitness_centre", "tags": ["fitness-centre", "gym"], "sources": ["overture"], "website": "https://www.wellnessgainesrenton.com/", "phone": "+12069228539", "address": "17110 116th Ave SE"}, "geometry": {"type": "Point", "coordinates": [-122.1846619, 47.4493561]}}]}