{"type": "FeatureCollection", "features": [{"type": "Feature", "properties": {"id": "16fb7749-f258-4eb8-83f2-7ae516fb14a5", "name": "Taco Time", "category": "restaurant", "tags": ["restaurant", "taco"], "sources": ["overture"], "website": "http://www.tacotime.com/stores/6496", "phone": "(206) 547-7217", "address": "2212 North 45th"}, "geometry": {"type": "Point", "coordinates": [-122.3316193, 47.6615448]}}, {"type": "Feature", "properties": {"id": 3058330933, "name": "Domino's", "category": "fast_food", "tags": ["fast-food", "pizza", "indoor-seating", "takeaway", "vegetarian"], "sources": ["osm"], "website": "https://pizza.dominos.com/washington/seattle/2320-b-north-45th-street", "phone": "+1-206-632-0700", "address": "2320 North 45th Street", "hours": "Mo-Th 10:00-01:00; Fr-Sa 10:00-02:00; Su 10:00-24:00"}, "geometry": {"type": "Point", "coordinates": [-122.330491, 47.6616055]}}, {"type": "Feature", "properties": {"id": 3227669464, "name": "Starbucks", "category": "cafe", "tags": ["cafe", "coffee-shop", "takeaway"], "sources": ["osm"], "website": "https://www.starbucks.com/store-locator/store/18751/qfc-seattle-869-1801-n-45th-st-seattle-wa-981036859-us", "phone": "+1-206-632-9253", "address": "1801 North 45th Street", "hours": "Mo-Fr 06:00-19:30; Sa-Su 06:30-19:30"}, "geometry": {"type": "Point", "coordinates": [-122.335989, 47.6617288]}}, {"type": "Feature", "properties": {"id": "0115c755-9da6-4d1c-b301-69513e7994c3", "name": "Starbucks", "category": "cafe", "tags": ["cafe", "coffee"], "sources": ["overture"], "phone": "2065489507", "address": "2110 N 45th St Wallingford"}, "geometry": {"type": "Point", "coordinates": [-122.3330917, 47.661377]}}, {"type": "Feature", "properties": {"id": 569008582, "name": "Mighty-O Donuts", "category": "cafe", "tags": ["cafe", "donut", "outdoor-seating", "wheelchair-accessible", "vegan"], "sources": ["osm"], "website": "https://www.mightyo.com", "phone": "+1-206-479-2547", "address": "2110 North 55th Street", "hours": "Mo-Fr 06:00-15:00; Sa-Su 07:00-15:00"}, "geometry": {"type": "Point", "coordinates": [-122.33323, 47.6687913]}}, {"type": "Feature", "properties": {"id": 663908536, "name": "Kisaku Sushi", "category": "restaurant", "tags": ["restaurant", "japanese"], "sources": ["osm"], "website": "https://kisaku.com", "address": "2101 North 55th Street"}, "geometry": {"type": "Point", "coordinates": [-122.3331798, 47.668582]}}, {"type": "Feature", "properties": {"id": 663908551, "name": "Restaurant Christine", "category": "restaurant", "tags": ["restaurant", "regional", "comfort-food", "comfort", "food", "american"], "sources": ["osm", "overture"], "website": "https://music.youtube.com/playlist?list=PLooXW1v-PJx9VWu_yga9gWl27A_XB0hzw&feature=share", "phone": "+12064204781", "address": "2227 N 56th St"}, "geometry": {"type": "Point", "coordinates": [-122.3318278, 47.6688385]}}, {"type": "Feature", "properties": {"id": 665038103, "name": "Molly Moon's Homemade Ice Cream", "category": "ice_cream", "tags": ["ice-cream", "outdoor-seating", "takeaway", "delivery", "wheelchair-accessible", "vegetarian", "vegan"], "sources": ["osm"], "website": "https://www.mollymoon.com/", "phone": "+1-206-294-4389", "address": "1622 1/2 North 45th Street", "hours": "Su-Th 12:00-22:00, Fr-Sa 12:00-23:00"}, "geometry": {"type": "Point", "coordinates": [-122.338103, 47.6615058]}}, {"type": "Feature", "properties": {"id": 880884927, "name": "Secret Fort", "category": "restaurant", "tags": ["restaurant", "japanese", "asian"], "sources": ["osm", "overture"], "website": "http://www.secretfortseattle.com", "phone": "+12064201604", "address": "1911 N 45th St"}, "geometry": {"type": "Point", "coordinates": [-122.3344738, 47.6612793]}}, {"type": "Feature", "properties": {"id": 4049516632, "name": "Pho Than Brothers", "category": "restaurant", "tags": ["restaurant", "vietnamese", "takeaway", "asian", "noodles"], "sources": ["osm", "overture"], "website": "http://www.thanbrothers.com", "phone": "+12066327378", "address": "2309 N 45th St", "hours": "11:00-21:00"}, "geometry": {"type": "Point", "coordinates": [-122.3309344, 47.6612607]}}, {"type": "Feature", "properties": {"id": 1292324490, "name": "Almanqal Mediterranean Grill", "category": "restaurant", "tags": ["restaurant", "mediterranean", "middle-eastern"], "sources": ["osm", "overture"], "website": "https://www.almanqalgrill.com/", "phone": "+12066594664", "address": "1712 N 45th St"}, "geometry": {"type": "Point", "coordinates": [-122.3369848, 47.6614949]}}, {"type": "Feature", "properties": {"id": 1292326101, "name": "Chocolati Caf\u00e9", "category": "cafe", "tags": ["cafe"], "sources": ["osm"], "website": "https://www.chocolati.com/", "phone": "+1-206-633-7765", "address": "1716 North 45th Street", "hours": "08:00-19:30"}, "geometry": {"type": "Point", "coordinates": [-122.336844, 47.6614926]}}, {"type": "Feature", "properties": {"id": 1292326964, "name": "45th Vegetarian Thai", "category": "restaurant", "tags": ["restaurant", "thai", "vegetarian", "vegan", "asian"], "sources": ["osm", "overture"], "website": "http://www.45thvegetarianthai.com", "phone": "+12062584923", "address": "1718 N 45th St", "hours": "Mo-Su 11:00-15:00, 16:00-21:00"}, "geometry": {"type": "Point", "coordinates": [-122.3367749, 47.6615191]}}, {"type": "Feature", "properties": {"id": 1292328941, "name": "Pam's Kitchen", "category": "restaurant", "tags": ["restaurant", "caribbean", "trinidadian", "indoor-seating"], "sources": ["osm", "overture"], "website": "https://www.instagram.com/pamscaribbeankitchenseattle/", "phone": "+12066967010", "address": "1715 N 45th St", "hours": "Su-Th 17:00-22:00; Fr-Sa 17:00-23:00"}, "geometry": {"type": "Point", "coordinates": [-122.3366054, 47.6612777]}}, {"type": "Feature", "properties": {"id": 1292329229, "name": "Harvest Beat", "category": "restaurant", "tags": ["restaurant", "indoor-seating", "reservations", "vegan", "vegetarian", "health-food"], "sources": ["osm", "overture"], "website": "http://www.harvestbeat.com/", "phone": "+12065471348", "address": "1711 N 45th St", "hours": "We-Sa 19:00-22:00; Su 18:30-22:00"}, "geometry": {"type": "Point", "coordinates": [-122.3368004, 47.6612786]}}, {"type": "Feature", "properties": {"id": 1292330295, "name": "Fuel", "category": "cafe", "tags": ["cafe", "vegetarian", "vegan"], "sources": ["osm"], "website": "https://www.fuelcoffeeseattle.com", "address": "1705 North 45th Street", "hours": "Mo-Fr 06:00-20:00; Sa-Su 07:00-19:00"}, "geometry": {"type": "Point", "coordinates": [-122.336944, 47.6612827]}}, {"type": "Feature", "properties": {"id": 93319115, "name": "Chipotle", "category": "fast_food", "tags": ["fast-food", "mexican", "takeaway"], "sources": ["osm"], "website": "https://locations.chipotle.com/wa/seattle/2212-n-45th-st", "address": "2212 North 45th Street"}, "geometry": {"type": "Point", "coordinates": [-122.3316301, 47.6615378]}}, {"type": "Feature", "properties": {"id": "0d91974b-c4cf-4d38-b839-15ebfe8b4f9d", "name": "Uptown Espresso", "category": "cafe", "tags": ["cafe", "coffee"], "sources": ["overture"], "website": "http://velvetfoam.com", "phone": "(206) 812-0404", "address": "2300 N 45th St"}, "geometry": {"type": "Point", "coordinates": [-122.3308868, 47.661644]}}, {"type": "Feature", "properties": {"id": 1726065087, "name": "TangleTown Public House", "category": "pub", "tags": ["pub", "american", "outdoor-seating", "restaurant"], "sources": ["osm", "overture"], "website": "http://www.tangletownpublichouse.com/", "phone": "+12064666340", "address": "2106 N 55th St", "hours": "Mo-We 03:00-21:00; Th 03:00-22:00; Fr-Sa 10:30-23:00; Su 10:30-21:00"}, "geometry": {"type": "Point", "coordinates": [-122.333474, 47.6687837]}}, {"type": "Feature", "properties": {"id": 2061048094, "name": "Young Tea", "category": "cafe", "tags": ["cafe", "bubble-tea"], "sources": ["osm"], "website": "https://www.youngteaglobal.com/", "phone": "+1-206-899-6766", "address": "2110 North 45th Street"}, "geometry": {"type": "Point", "coordinates": [-122.333122, 47.661502]}}, {"type": "Feature", "properties": {"id": 2061048097, "name": "Sea Monster Lounge", "category": "bar", "tags": ["bar"], "sources": ["osm"], "website": "https://www.seamonsterlounge.com/", "phone": "+1-206-992-1120", "address": "2202 North 45th Street"}, "geometry": {"type": "Point", "coordinates": [-122.332319, 47.6615049]}}, {"type": "Feature", "properties": {"id": 2061048098, "name": "Changes", "category": "bar", "tags": ["bar"], "sources": ["osm"], "address": "2103 North 45th Street"}, "geometry": {"type": "Point", "coordinates": [-122.3334927, 47.6612762]}}, {"type": "Feature", "properties": {"id": 2061048099, "name": "Silver Tray", "category": "restaurant", "tags": ["restaurant", "thai", "takeaway", "delivery", "wheelchair-accessible", "vegan", "asian"], "sources": ["osm", "overture"], "website": "http://www.silvertraythai.com/", "phone": "+12066322300", "address": "2101 N 45th St", "hours": "Mo,We-Fr 11:00-21:30; Sa-Su 12:00-21:30"}, "geometry": {"type": "Point", "coordinates": [-122.333602, 47.6612769]}}, {"type": "Feature", "properties": {"id": 2061048100, "name": "The Octopus Bar", "category": "bar", "tags": ["bar", "cocktails"], "sources": ["osm"], "website": "https://theoctopusbar.com/", "address": "2121 North 45th Street"}, "geometry": {"type": "Point", "coordinates": [-122.332721, 47.6612626]}}, {"type": "Feature", "properties": {"id": 2061048101, "name": "Yoroshiku", "category": "restaurant", "tags": ["restaurant", "japanese", "asian"], "sources": ["osm", "overture"], "website": "http://yoroshikuseattle.com", "phone": "+12065474649", "address": "1913 N 45th St", "hours": "Mo-Su 16:30-21:30, Fr-Su 11:00-14:00"}, "geometry": {"type": "Point", "coordinates": [-122.3344363, 47.6612815]}}, {"type": "Feature", "properties": {"id": 2061048103, "name": "TNT Taqueria", "category": "restaurant", "tags": ["restaurant", "mexican", "takeaway", "vegan", "taco", "latin-american"], "sources": ["osm", "overture"], "website": "http://www.chowfoods.com/tnt-taqueria", "phone": "+12063220124", "address": "2114 N 45th St", "hours": "Mo-Su 08:00-22:00"}, "geometry": {"type": "Point", "coordinates": [-122.3329383, 47.6614974]}}, {"type": "Feature", "properties": {"id": 2134343241, "name": "Al's Tavern", "category": "pub", "tags": ["pub", "restaurant", "bar-and-grill", "bar", "grill"], "sources": ["osm", "overture"], "website": "http://www.alstavernseattle.com/", "phone": "+12065459959", "address": "2303 N 45th St"}, "geometry": {"type": "Point", "coordinates": [-122.3311202, 47.6612631]}}, {"type": "Feature", "properties": {"id": 2134343249, "name": "Hamsa", "category": "cafe", "tags": ["cafe", "arabic"], "sources": ["osm", "overture"], "website": "https://hamsa.toast.site/our-story", "address": "2313 North 45th Street"}, "geometry": {"type": "Point", "coordinates": [-122.3307489, 47.6612672]}}, {"type": "Feature", "properties": {"id": 2134343251, "name": "Korochka Tavern", "category": "bar", "tags": ["bar", "restaurant", "russian"], "sources": ["osm", "overture"], "website": "http://Korochkatavern.net/", "phone": "+12064680706", "address": "2317 N 45th St"}, "geometry": {"type": "Point", "coordinates": [-122.3305611, 47.6612662]}}, {"type": "Feature", "properties": {"id": 2134343254, "name": "45th Stop N Shop & Poke Bar", "category": "fast_food", "tags": ["fast-food", "hawaiian", "takeaway", "restaurant", "poke", "asian", "japanese"], "sources": ["osm", "overture"], "website": "https://www.45thstopnshop.com", "phone": "+12062575124", "address": "2323 N 45th St", "hours": "Mo-Sa 11:00-15:00,17:00-21:00"}, "geometry": {"type": "Point", "coordinates": [-122.330356, 47.6612651]}}, {"type": "Feature", "properties": {"id": 2135536811, "name": "Dumpling the Noodle", "category": "restaurant", "tags": ["restaurant", "asian", "takeaway", "wheelchair-accessible", "vegan", "gluten-free", "chinese", "noodles"], "sources": ["osm", "overture"], "website": "http://www.dumplingthenoodle.com/", "phone": "+12064031724", "address": "1723 N 45th St", "hours": "Tu-Th 16:30-21:00; Fr 16:30-23:00; Sa 11:30-23:00; Su 11:30-21:00"}, "geometry": {"type": "Point", "coordinates": [-122.3363529, 47.661278]}}, {"type": "Feature", "properties": {"id": 2135536814, "name": "Julia's of Wallingford", "category": "restaurant", "tags": ["restaurant", "american", "brunch", "outdoor-seating", "indoor-seating", "vegan", "breakfast-and-brunch", "breakfast"], "sources": ["osm", "overture"], "website": "http://juliasseattle.com", "phone": "12069007108", "address": "4401 Wallingford Ave N", "hours": "Su-We 07:00-15:00; Th-Sa 07:00-20:00"}, "geometry": {"type": "Point", "coordinates": [-122.3363818, 47.6604268]}}, {"type": "Feature", "properties": {"id": 2135536817, "name": "Juisala", "category": "cafe", "tags": ["cafe", "juice", "smoothie", "salad", "vegetarian", "vegan"], "sources": ["osm"], "website": "https://juisala.com/", "phone": "+1-206-584-0011", "address": "4405 Wallingford Avenue North", "hours": "Th-Tu 10:00-16:00"}, "geometry": {"type": "Point", "coordinates": [-122.3363845, 47.6605063]}}, {"type": "Feature", "properties": {"id": 3345259371, "name": "Teriyaki Madness", "category": "fast_food", "tags": ["fast-food", "japanese", "takeaway", "restaurant", "asian"], "sources": ["osm", "overture"], "website": "http://www.teriyaki-madness-seattle.com", "phone": "+12065457810", "address": "2320 N 45th St"}, "geometry": {"type": "Point", "coordinates": [-122.330649, 47.6616052]}}, {"type": "Feature", "properties": {"id": 2395558066, "name": "Lil Woody\u2019s", "category": "fast_food", "tags": ["fast-food", "burger", "restaurant"], "sources": ["osm", "overture"], "website": "https://www.lilwoodys.com/", "phone": "+12065821773", "address": "2253A N 56th St"}, "geometry": {"type": "Point", "coordinates": [-122.3315111, 47.6689603]}}, {"type": "Feature", "properties": {"id": 4608566784, "name": "Fainting Goat Gelato", "category": "cafe", "tags": ["cafe", "gelato", "ice-cream"], "sources": ["osm", "overture"], "website": "http://www.faintinggoatseattle.com/", "phone": "+12063279459", "address": "2210 N 45th St"}, "geometry": {"type": "Point", "coordinates": [-122.332004, 47.6615002]}}, {"type": "Feature", "properties": {"id": 2328735754, "name": "Issian", "category": "restaurant", "tags": ["restaurant", "japanese", "asian"], "sources": ["osm", "overture"], "website": "https://issianjapanesestonegrill.weebly.com/", "phone": "+12066327010", "address": "1618 N 45th St", "hours": "Mo-Th 16:30-21:45; Fr 16:30-23:15; Sa 12:00-14:15, 16:30-23:15; Su 12:00-14:15, 16:30-20:45"}, "geometry": {"type": "Point", "coordinates": [-122.3382597, 47.6615057]}}, {"type": "Feature", "properties": {"id": "a9330f81-66ae-4785-85e7-a5a846cf856e", "name": "Darkalino\u2019s", "category": "restaurant", "tags": ["restaurant", "italian"], "sources": ["overture"], "website": "https://www.darkalinos.com", "phone": "(206) 566-5915", "address": "2253 N 56th St"}, "geometry": {"type": "Point", "coordinates": [-122.3315582, 47.6689491]}}, {"type": "Feature", "properties": {"id": 2380088392, "name": "Seattle Dumpling House", "category": "restaurant", "tags": ["restaurant", "dumplings", "takeaway"], "sources": ["osm"], "website": "https://seattledumplinghouse.com/#page-1", "address": "4504 Bagley Avenue North", "hours": "17:00-03:10"}, "geometry": {"type": "Point", "coordinates": [-122.3323852, 47.6616681]}}, {"type": "Feature", "properties": {"id": "5f11cc6a-bb63-4dc9-bc9b-501bc414badb", "name": "Seattle Dumpling House", "category": "restaurant", "tags": ["restaurant", "dumplings"], "sources": ["overture"], "website": "http://seattledumplinghouse.com", "address": "1714 N 44th St"}, "geometry": {"type": "Point", "coordinates": [-122.3365631, 47.6605148]}}, {"type": "Feature", "properties": {"id": 2403884613, "name": "My Friend Derek\u2019s", "category": "restaurant", "tags": ["restaurant", "pizza", "outdoor-seating", "takeaway", "dog-friendly"], "sources": ["osm"], "website": "https://myfrienddereks.com/", "address": "2108 North 55th Street", "hours": "Tu-Fr 16:00-21:00; Sa-Su 12:00-15:00"}, "geometry": {"type": "Point", "coordinates": [-122.333408, 47.6688088]}}, {"type": "Feature", "properties": {"id": 2403884615, "name": "Zoka Coffee - Greenlake", "category": "cafe", "tags": ["cafe", "coffee-shop"], "sources": ["osm"], "website": "https://www.zokacoffee.com/pages/greenlake-zoka", "phone": "+1-206-545-4277", "address": "2200 North 56th Street", "hours": "Sa-Th 06:00-21:00; Fr 06:00-19:00"}, "geometry": {"type": "Point", "coordinates": [-122.332867, 47.6688114]}}, {"type": "Feature", "properties": {"id": 2403884623, "name": "TRES Sandwich", "category": "fast_food", "tags": ["fast-food", "sandwich"], "sources": ["osm"], "address": "2224 North 56th Street"}, "geometry": {"type": "Point", "coordinates": [-122.3321999, 47.6690054]}}, {"type": "Feature", "properties": {"id": 2403940243, "name": "Ol\u00e9 Caf\u00e9", "category": "cafe", "tags": ["cafe", "spanish", "tapas"], "sources": ["osm"], "website": "https://www.olecafeseattle.com", "address": "5421 Meridian Avenue North"}, "geometry": {"type": "Point", "coordinates": [-122.3338444, 47.6685683]}}, {"type": "Feature", "properties": {"id": 2403954665, "name": "Leny's Place", "category": "pub", "tags": ["pub", "restaurant", "bar-and-grill", "bar", "grill", "american"], "sources": ["osm", "overture"], "website": "http://www.lenysplace.com/", "phone": "+12066329175", "address": "2219 N 56th St"}, "geometry": {"type": "Point", "coordinates": [-122.3320871, 47.6687601]}}, {"type": "Feature", "properties": {"id": "773b754c-31d8-428b-89ff-6714689a25b6", "name": "Patty's Eggnest", "category": "restaurant", "tags": ["restaurant", "breakfast-and-brunch", "breakfast", "brunch"], "sources": ["overture"], "website": "http://www.pattyseggnestrestaurant.net", "phone": "(206) 547-5430", "address": "1715 N 45th St"}, "geometry": {"type": "Point", "coordinates": [-122.3367767, 47.66119]}}, {"type": "Feature", "properties": {"id": 3033233528, "name": "Chutneys Bistro", "category": "restaurant", "tags": ["restaurant", "indian", "takeaway", "wheelchair-accessible", "asian"], "sources": ["osm", "overture"], "website": "http://www.chutneysbistro.com", "phone": "+12066341000", "address": "1815 N 45th St", "hours": "Mo-Fr 11:00-14:30,16:30-21:00; Sa-Su 11:00-21:00"}, "geometry": {"type": "Point", "coordinates": [-122.3358541, 47.6606304]}}, {"type": "Feature", "properties": {"id": 229405773, "name": "Ezell's Chicken", "category": "fast_food", "tags": ["fast-food", "chicken", "takeaway", "wheelchair-accessible", "vegetarian"], "sources": ["osm"], "website": "https://ezellschicken.com/", "phone": "+1-206-453-5250", "address": "2300 North 45th Street", "hours": "Su-Th 10:30-00:00; Fr-Sa 10:30-02:00"}, "geometry": {"type": "Point", "coordinates": [-122.3308904, 47.6616643]}}, {"type": "Feature", "properties": {"id": "9740ff5b-96ae-49c4-8d94-85196f506560", "name": "Red Cow", "category": "restaurant", "tags": ["restaurant"], "sources": ["overture"], "website": "https://redcowseattle.com", "address": "2108 N 55th St"}, "geometry": {"type": "Point", "coordinates": [-122.3335037, 47.6688499]}}, {"type": "Feature", "properties": {"id": 3651149196, "name": "Murphy's", "category": "pub", "tags": ["pub"], "sources": ["osm"], "website": "https://www.murphysseattle.com/", "address": "1928 North 45th Street"}, "geometry": {"type": "Point", "coordinates": [-122.3339048, 47.6615168]}}, {"type": "Feature", "properties": {"id": 4608566785, "name": "Kokkaku", "category": "restaurant", "tags": ["restaurant", "japanese", "wheelchair-accessible", "asian"], "sources": ["osm", "overture"], "website": "http://www.kokkakuseattle.com", "phone": "+12065881568", "address": "2208 N 45th St", "hours": "Mo 17:00-22:00; We-Su 17:00-22:00"}, "geometry": {"type": "Point", "coordinates": [-122.3320757, 47.6614963]}}, {"type": "Feature", "properties": {"id": "54169d6d-ff34-44cf-b621-e44ab2037342", "name": "Ezell's Famous Chicken", "category": "restaurant", "tags": ["restaurant", "chicken", "american"], "sources": ["overture"], "website": "https://www.ezellschicken.com/", "phone": "+12064535250", "address": "2300 N 45th St #6906"}, "geometry": {"type": "Point", "coordinates": [-122.3308868, 47.6616211]}}, {"type": "Feature", "properties": {"id": 7958058224, "name": "The Salty Shack", "category": "restaurant", "tags": ["restaurant", "sandwich", "takeaway", "bar-and-grill", "bar", "grill"], "sources": ["osm", "overture"], "website": "http://www.thesaltyshack.com/", "phone": "+12063973496", "address": "2121 N 45th St", "hours": "Mo-Th 14:00-02:00, Fr,Sa 12:00-23:00, Su 12:00-22:00"}, "geometry": {"type": "Point", "coordinates": [-122.332846, 47.6612596]}}, {"type": "Feature", "properties": {"id": 9169783123, "name": "Indigo Cow", "category": "ice_cream", "tags": ["ice-cream", "japanese", "outdoor-seating", "indoor-seating"], "sources": ["osm"], "website": "https://www.indigocow.com", "hours": "Mo,We,Th 15:00-21:00; Su 12:00-21:00; Fr 15:00-22:00; Sa 12:00-22:00; Tu off"}, "geometry": {"type": "Point", "coordinates": [-122.3345164, 47.6612794]}}, {"type": "Feature", "properties": {"id": 12710844583, "name": "Coffeeholic House", "category": "cafe", "tags": ["cafe", "coffee-shop", "vietnamese", "coffee"], "sources": ["osm", "overture"], "website": "http://www.coffeeholichouse.com/", "phone": "+12065032857", "address": "4417 Wallingford Ave N", "hours": "Mo-Th 08:00-16:00; Fr-Su 08:00-17:00"}, "geometry": {"type": "Point", "coordinates": [-122.3363996, 47.6608185]}}, {"type": "Feature", "properties": {"id": 10026070896, "name": "Loxicha", "category": "fast_food", "tags": ["fast-food", "mexican", "outdoor-seating", "takeaway"], "sources": ["osm"]}, "geometry": {"type": "Point", "coordinates": [-122.3339086, 47.6618486]}}, {"type": "Feature", "properties": {"id": 13064534452, "name": "Alsan Brewing", "category": "pub", "tags": ["pub"], "sources": ["osm"], "website": "https://www.aslanbrewing.com/seattle-tangletown", "address": "2253 North 56th Street", "hours": "Mo-Su 16:00-22:00"}, "geometry": {"type": "Point", "coordinates": [-122.3315371, 47.6689603]}}, {"type": "Feature", "properties": {"id": 13484533764, "name": "Kostas Opa", "category": "restaurant", "tags": ["restaurant", "greek", "mediterranean", "european"], "sources": ["osm", "overture"], "website": "http://www.kostasopa.com/", "phone": "+12064664000", "address": "1924 N 45th St"}, "geometry": {"type": "Point", "coordinates": [-122.3341431, 47.6615088]}}, {"type": "Feature", "properties": {"id": 215906659, "name": "Occhi Belli", "category": "bar", "tags": ["bar", "wine"], "sources": ["osm"], "website": "https://www.occhibelliwinebar.com", "address": "1427 North 45th Street"}, "geometry": {"type": "Point", "coordinates": [-122.3394672, 47.6611733]}}, {"type": "Feature", "properties": {"id": 224037462, "name": "Kozue", "category": "restaurant", "tags": ["restaurant", "japanese", "sushi", "asian"], "sources": ["osm", "overture"], "website": "http://www.kozue-on-45th.com", "phone": "+12065472008", "address": "1608 N 45th St", "hours": "Tu-Fr 17:00-20:00; Sa 12:00-14:30, 17:00-20:30"}, "geometry": {"type": "Point", "coordinates": [-122.338686, 47.6616095]}}, {"type": "Feature", "properties": {"id": 224037472, "name": "Sisi Kay Thai", "category": "restaurant", "tags": ["restaurant", "thai", "vegan"], "sources": ["osm"], "website": "https://sisikayseattle.com/", "phone": "+1-206-659-4382", "address": "1612 North 45th Street", "hours": "Mo, Th 11:00-21:30; Tu 11:00-20:00; Fr 11:00-22:00; Sa 12:00-22:00; Su 00:00-21:30"}, "geometry": {"type": "Point", "coordinates": [-122.338549, 47.6616331]}}, {"type": "Feature", "properties": {"id": 224037481, "name": "Minato", "category": "restaurant", "tags": ["restaurant", "japanese", "takeaway"], "sources": ["osm"], "website": "https://minatoseattle.com", "phone": "+1-206-708-6729", "address": "1616 North 45th Street", "hours": "We-Su 12:00-19:30"}, "geometry": {"type": "Point", "coordinates": [-122.338398, 47.661579]}}, {"type": "Feature", "properties": {"id": "fc4e79df-a6f4-4662-be0e-f07b664699c3", "name": "Starbucks Coffee Company", "category": "cafe", "tags": ["cafe", "coffee"], "sources": ["overture"], "website": "https://www.starbucks.com/store-locator/store/18751", "phone": "+12066329253", "address": "1801 N 45th St"}, "geometry": {"type": "Point", "coordinates": [-122.3358612, 47.6617393]}}, {"type": "Feature", "properties": {"id": "a7a8855d-d99d-4046-b9a2-fd0dee833ee2", "name": "Grand Central Bakery", "category": "bakery", "tags": ["bakery", "breakfast-and-brunch"], "sources": ["overture"], "website": "https://www.grandcentralbakery.com/all-locations", "phone": "+12065822312", "address": "1607 N 45th St"}, "geometry": {"type": "Point", "coordinates": [-122.3382645, 47.6613159]}}, {"type": "Feature", "properties": {"id": "3953aa7f-15f4-4ed5-bc09-9e0e18a72f6a", "name": "Tully's Coffee", "category": "cafe", "tags": ["cafe", "coffee"], "sources": ["overture"], "website": "http://www.tullys.com/", "phone": "2066325259", "address": "2100 N 45th St"}, "geometry": {"type": "Point", "coordinates": [-122.3333054, 47.661377]}}, {"type": "Feature", "properties": {"id": "19bfa809-70e3-493e-b60f-d10ecf92b20c", "name": "Closed", "category": "restaurant", "tags": ["restaurant", "mexican"], "sources": ["overture"], "website": "https://www.tacotimenw.com", "phone": "12065477217", "address": "2212 N 45th St"}, "geometry": {"type": "Point", "coordinates": [-122.331665, 47.661541]}}, {"type": "Feature", "properties": {"id": "2d6388e8-18ea-418a-87d7-d7e10b833ff6", "name": "Fuel Coffee & Books", "category": "cafe", "tags": ["cafe", "coffee"], "sources": ["overture"], "website": "https://www.fuelcoffeeseattle.com/", "phone": "+12066342700", "address": "1705 N 45th St"}, "geometry": {"type": "Point", "coordinates": [-122.336937, 47.6612549]}}, {"type": "Feature", "properties": {"id": "66989807-1c07-4a85-bd51-463d37fc3b12", "name": "Chile Pepper", "category": "restaurant", "tags": ["restaurant", "mexican"], "sources": ["overture"], "website": "chilepepperyuma.com", "phone": "12065451790", "address": "1427 N 45th St"}, "geometry": {"type": "Point", "coordinates": [-122.3394699, 47.6611595]}}, {"type": "Feature", "properties": {"id": "0b3a5311-13af-46f9-b57e-e256177e5910", "name": "Ramen Man", "category": "restaurant", "tags": ["restaurant", "noodles"], "sources": ["overture"], "website": "http://ramenmanseattle.com", "phone": "(206) 258-2959", "address": "1616 N 45th St"}, "geometry": {"type": "Point", "coordinates": [-122.3384247, 47.661438]}}, {"type": "Feature", "properties": {"id": "95dba77e-d80a-4705-8b77-cc76e24b3cb7", "name": "Sisi Kay Thai Eatery and Bar", "category": "restaurant", "tags": ["restaurant", "thai", "asian"], "sources": ["overture"], "website": "http://sisikaythai.com/", "phone": "+12066594382", "address": "1612 N 45th St"}, "geometry": {"type": "Point", "coordinates": [-122.3385925, 47.6614838]}}, {"type": "Feature", "properties": {"id": "b3406bad-91a9-4278-abea-f17878ea7c8d", "name": "May Restaurant and Lounge", "category": "restaurant", "tags": ["restaurant", "thai"], "sources": ["overture"], "website": "http://www.maythaiseattle.com", "phone": "(206) 675-0037", "address": "1612 N 45th St"}, "geometry": {"type": "Point", "coordinates": [-122.3385849, 47.6614685]}}, {"type": "Feature", "properties": {"id": "b3d34792-0fde-4577-9396-a6bd5b8b8592", "name": "Sutra", "category": "restaurant", "tags": ["restaurant", "vegan"], "sources": ["overture"], "website": "http://www.sutraseattle.com/", "phone": "(206) 547-1348", "address": "1605 N 45th St"}, "geometry": {"type": "Point", "coordinates": [-122.3383026, 47.661335]}}, {"type": "Feature", "properties": {"id": "8ada3c29-f417-418b-9e33-8e9d34303176", "name": "Congeez", "category": "restaurant", "tags": ["restaurant", "asian"], "sources": ["overture"], "website": "http://www.congeez.com", "phone": "(206) 556-6498", "address": "1714 N 44th St"}, "geometry": {"type": "Point", "coordinates": [-122.3369751, 47.6604462]}}, {"type": "Feature", "properties": {"id": "43c0fd4a-18d5-42bf-b017-53fd24458528", "name": "Island Girl Seafood", "category": "restaurant", "tags": ["restaurant", "seafood"], "sources": ["overture"], "website": "https://www.islandgirlseafoodco.com", "phone": "3602551524", "address": "1714 N 44th St"}, "geometry": {"type": "Point", "coordinates": [-122.3368378, 47.6604538]}}, {"type": "Feature", "properties": {"id": "7025d476-a1d8-482e-b690-c04275823f27", "name": "Theo's Gyros Seattle", "category": "restaurant", "tags": ["restaurant", "greek"], "sources": ["overture"], "website": "https://www.theosgyrosseattle.com", "address": "4401 Wallingford Ave N"}, "geometry": {"type": "Point", "coordinates": [-122.3365555, 47.6604652]}}, {"type": "Feature", "properties": {"id": "f0d9c2c2-d527-4922-88b5-cdd2fba0dda6", "name": "Wallingford Bakery", "category": "bakery", "tags": ["bakery"], "sources": ["overture"], "website": "http://www.juliasrestaurantseattle.com", "phone": "(206) 547-3203", "address": "4405 Wallingford Ave N"}, "geometry": {"type": "Point", "coordinates": [-122.3364868, 47.6604881]}}, {"type": "Feature", "properties": {"id": "cc770b95-3ad9-4701-af22-55271ed0f47c", "name": "Secret Congee", "category": "restaurant", "tags": ["restaurant", "asian", "thai"], "sources": ["overture"], "website": "https://www.secretcongee.com", "phone": "+18775851085", "address": "4405 Wallingford Ave N"}, "geometry": {"type": "Point", "coordinates": [-122.3364258, 47.6605835]}}, {"type": "Feature", "properties": {"id": "a947cc1c-2a06-4868-8343-daec955a293a", "name": "Shima Sushi Bar", "category": "restaurant", "tags": ["restaurant", "sushi"], "sources": ["overture"], "website": "http://shimasushibar.com", "phone": "(206) 855-9400", "address": "4429 Wallingford Ave N"}, "geometry": {"type": "Point", "coordinates": [-122.3362198, 47.6611061]}}, {"type": "Feature", "properties": {"id": "81436ea3-ad66-4591-ba80-ac53ffbbe7bc", "name": "Hawaiian Breeze", "category": "restaurant", "tags": ["restaurant", "asian"], "sources": ["overture"], "website": "http://www.hbreeze.com/", "phone": "(206) 632-2583", "address": "1719 N 45th St"}, "geometry": {"type": "Point", "coordinates": [-122.3368607, 47.6612167]}}, {"type": "Feature", "properties": {"id": "742b4c06-1e3c-4533-9c5f-086d183b2af3", "name": "Satay", "category": "restaurant", "tags": ["restaurant", "malaysian"], "sources": ["overture"], "website": "http://www.satayseattle.com", "phone": "(206) 547-0597", "address": "1711 N 45th St"}, "geometry": {"type": "Point", "coordinates": [-122.3367615, 47.6612892]}}, {"type": "Feature", "properties": {"id": "0fe2f418-4be5-48ee-a077-2e6aa492d0c9", "name": "Jhanjay Vegetarian Thai Cuisine", "category": "restaurant", "tags": ["restaurant", "thai"], "sources": ["overture"], "website": "http://www.jhanjay.com/", "phone": "(206) 632-1484", "address": "1718 N 45th St"}, "geometry": {"type": "Point", "coordinates": [-122.3367538, 47.6614342]}}, {"type": "Feature", "properties": {"id": "929793dd-5a3e-4fc3-84c8-24dd24d16f54", "name": "Bodrum Bistro Anatolian Kitchen", "category": "restaurant", "tags": ["restaurant"], "sources": ["overture"], "address": "1712 N 45th St"}, "geometry": {"type": "Point", "coordinates": [-122.336998, 47.6615334]}}, {"type": "Feature", "properties": {"id": "46ea3248-6244-4f4f-8677-c1ddd3f4158c", "name": "Chocolati Cafe Wallingford", "category": "cafe", "tags": ["cafe", "coffee"], "sources": ["overture"], "website": "http://www.chocolati.com/", "phone": "+12066337765", "address": "1716 N 45th St"}, "geometry": {"type": "Point", "coordinates": [-122.3368607, 47.6615829]}}, {"type": "Feature", "properties": {"id": "c23d1d06-fda0-4945-9be6-c9679f9e8e47", "name": "Salut Bistro", "category": "restaurant", "tags": ["restaurant"], "sources": ["overture"], "website": "http://www.salutseattle.com", "phone": "(206) 633-9977", "address": "1715 N 45th St"}, "geometry": {"type": "Point", "coordinates": [-122.3367004, 47.661232]}}, {"type": "Feature", "properties": {"id": "0bf4c75a-639a-4a73-95af-e8687b2e85bc", "name": "Wallyburger", "category": "restaurant", "tags": ["restaurant", "burger"], "sources": ["overture"], "website": "https://www.wallyburgerseattle.com/", "phone": "2065880696", "address": "1719 N 45th St"}, "geometry": {"type": "Point", "coordinates": [-122.3364487, 47.6612282]}}, {"type": "Feature", "properties": {"id": "67a5aa85-83e6-4e5f-9f4c-1e27c394bfce", "name": "Kisaku Sushi Restaurant", "category": "restaurant", "tags": ["restaurant"], "sources": ["overture"], "address": "2101 N 55th St Ste 100"}, "geometry": {"type": "Point", "coordinates": [-122.3332672, 47.6684418]}}, {"type": "Feature", "properties": {"id": "91f43c11-59cb-492b-bf7c-225847a82cdc", "name": "Eva Restaurant", "category": "restaurant", "tags": ["restaurant"], "sources": ["overture"], "address": "2227 N 56th St"}, "geometry": {"type": "Point", "coordinates": [-122.3320618, 47.6687737]}}, {"type": "Feature", "properties": {"id": "dccea2e7-2da2-4dd4-a8d3-25d496d56f55", "name": "Zoka Coffee Roaster & Tea Company", "category": "cafe", "tags": ["cafe", "coffee"], "sources": ["overture"], "website": "https://www.zokacoffee.com", "phone": "+12065454277", "address": "2200 N 56th St"}, "geometry": {"type": "Point", "coordinates": [-122.3329239, 47.6687737]}}, {"type": "Feature", "properties": {"id": "534d120d-6cf5-4da9-ad5b-ed1c755dc926", "name": "Mkt.", "category": "restaurant", "tags": ["restaurant", "italian"], "sources": ["overture"], "website": "https://www.mkt-market.com", "address": "2108 N 55th St"}, "geometry": {"type": "Point", "coordinates": [-122.3335037, 47.6688499]}}, {"type": "Feature", "properties": {"id": "a7e5344c-54e7-41a7-81a3-b4ecff4eeb15", "name": "Diggity Dog", "category": "restaurant", "tags": ["restaurant", "hot-dog", "hot", "dog"], "sources": ["overture"], "website": "http://diggitydogseattle.com", "phone": "(206) 633-1966", "address": "5421 Meridian Ave N"}, "geometry": {"type": "Point", "coordinates": [-122.3338852, 47.6685028]}}, {"type": "Feature", "properties": {"id": "2e17f185-0216-4f4e-9f0e-82cd2497338b", "name": "Burgundian", "category": "restaurant", "tags": ["restaurant"], "sources": ["overture"], "website": "burgundianbar.com", "address": "2253 N 56th St"}, "geometry": {"type": "Point", "coordinates": [-122.3314285, 47.6689072]}}, {"type": "Feature", "properties": {"id": "4594317c-dbc7-4fda-b1a0-c30f22ba1aca", "name": "Jk Products Inc", "category": "restaurant", "tags": ["restaurant"], "sources": ["overture"], "address": "2320 N 45th St"}, "geometry": {"type": "Point", "coordinates": [-122.3305283, 47.6615791]}}, {"type": "Feature", "properties": {"id": "9a2040e7-6f39-4e63-93cc-1ad631d39d1d", "name": "Tres Lecheria", "category": "bakery", "tags": ["bakery"], "sources": ["overture"], "website": "http://www.treslecheria.com/", "phone": "+12062574299", "address": "2315 N 45th St"}, "geometry": {"type": "Point", "coordinates": [-122.330513, 47.661274]}}, {"type": "Feature", "properties": {"id": "55881fcd-f4aa-4ec8-8776-d13451142f1b", "name": "The Erotic Bakery", "category": "bakery", "tags": ["bakery"], "sources": ["overture"], "website": "http://www.theeroticbakery.com", "phone": "(206) 545-6969", "address": "2323 N 45th St"}, "geometry": {"type": "Point", "coordinates": [-122.3306427, 47.6611748]}}, {"type": "Feature", "properties": {"id": "84efe436-ff50-47f4-96d2-09b376bb9a62", "name": "Thanho Restaurant Llc", "category": "restaurant", "tags": ["restaurant"], "sources": ["overture"], "address": "2309 N 45th St"}, "geometry": {"type": "Point", "coordinates": [-122.3309937, 47.6609993]}}, {"type": "Feature", "properties": {"id": "627d6034-a58c-48fa-a495-8537ef43154a", "name": "Kabul Inc", "category": "restaurant", "tags": ["restaurant"], "sources": ["overture"], "address": "2301 N 45th St"}, "geometry": {"type": "Point", "coordinates": [-122.3311462, 47.6611748]}}, {"type": "Feature", "properties": {"id": "910692cd-941d-41a8-8c56-dc56fba3e7d8", "name": "Sea-Thai Restaurant", "category": "restaurant", "tags": ["restaurant", "asian", "pan", "thai"], "sources": ["overture"], "website": "https://smorefood.com/order-online/seathai-restaurant-seattle-98103-z5pf28ba", "phone": "2065471961", "address": "2313 N 45th St"}, "geometry": {"type": "Point", "coordinates": [-122.3307495, 47.6612244]}}, {"type": "Feature", "properties": {"id": "d735b9b0-8f47-4ce5-8b5b-c81d6dc51549", "name": "Cubes Baking", "category": "bakery", "tags": ["bakery"], "sources": ["overture"], "website": "https://www.treslecheria.com", "phone": "+12062574299", "address": "2315 N 45th St"}, "geometry": {"type": "Point", "coordinates": [-122.3305893, 47.6612549]}}, {"type": "Feature", "properties": {"id": "a6c23af2-f374-426c-b5c4-ce8cc8035163", "name": "The Grizzled Wizard", "category": "bar", "tags": ["bar"], "sources": ["overture"], "website": "http://grizzledwizard.com", "phone": "(206) 395-4749", "address": "2317 N 45th St"}, "geometry": {"type": "Point", "coordinates": [-122.3306427, 47.6613274]}}, {"type": "Feature", "properties": {"id": "4bebf272-3dc2-4a96-ae5d-a83757da3277", "name": "Murphy's Pub", "category": "pub", "tags": ["pub"], "sources": ["overture"], "website": "http://www.murphysseattle.com/", "phone": "+12066342110", "address": "1928 N 45th St"}, "geometry": {"type": "Point", "coordinates": [-122.333931, 47.6614952]}}, {"type": "Feature", "properties": {"id": "226687a1-c4dd-469b-bb6f-2bd2d33ff455", "name": "Rusty Pelican Cafe", "category": "restaurant", "tags": ["restaurant", "american"], "sources": ["overture"], "website": "http://www.rustypelicancafe.com/", "phone": "(206) 545-9090", "address": "1924 N 45th St"}, "geometry": {"type": "Point", "coordinates": [-122.3341522, 47.661499]}}, {"type": "Feature", "properties": {"id": "80180bcd-db13-45fc-a3a7-10bfddd47bbc", "name": "Mejari Sushi", "category": "restaurant", "tags": ["restaurant", "japanese"], "sources": ["overture"], "website": "http://www.mejarisushi.com", "phone": "(206) 633-4141", "address": "1924 N 45th St"}, "geometry": {"type": "Point", "coordinates": [-122.3341827, 47.6615715]}}, {"type": "Feature", "properties": {"id": "af497e4c-f98b-478b-b749-85dd59628c5b", "name": "Teahouse Kuan Yin", "category": "cafe", "tags": ["cafe", "coffee"], "sources": ["overture"], "website": "http://www.teahousekuanyin.com/", "phone": "2066322055", "address": "1911 N 45th St"}, "geometry": {"type": "Point", "coordinates": [-122.3348541, 47.6613731]}}, {"type": "Feature", "properties": {"id": "1169618b-07e4-4528-b77e-dc8bc20a25c9", "name": "Trophy Cupcakes & Party - Wallingford Center", "category": "cafe", "tags": ["cafe", "coffee"], "sources": ["overture"], "website": "http://www.trophycupcakes.com/", "phone": "2066327020", "address": "1815 N 45th St"}, "geometry": {"type": "Point", "coordinates": [-122.3356552, 47.6609383]}}, {"type": "Feature", "properties": {"id": "12827088-abf1-4fa3-9763-fbbe923cbc4b", "name": "Au Bouchon", "category": "restaurant", "tags": ["restaurant"], "sources": ["overture"], "website": "https://bouchonbistro.com", "address": "1815 N 45th St"}, "geometry": {"type": "Point", "coordinates": [-122.3356018, 47.6608353]}}, {"type": "Feature", "properties": {"id": "3d407f1a-e802-4271-af91-45311a336ccc", "name": "Wallingford Pizza House", "category": "restaurant", "tags": ["restaurant", "pizza"], "sources": ["overture"], "website": "https://www.wallingfordpizzahouse.com", "phone": "2065473663", "address": "2109 N 45th St"}, "geometry": {"type": "Point", "coordinates": [-122.3332367, 47.6611786]}}, {"type": "Feature", "properties": {"id": "b0b894d9-23b5-4e0c-8bda-9276176e804e", "name": "Changes Bar & Grill", "category": "restaurant", "tags": ["restaurant", "bar-and-grill", "bar", "grill"], "sources": ["overture"], "website": "http://www.changesinwallingford.com/", "phone": "+12065458363", "address": "2103 N 45th St"}, "geometry": {"type": "Point", "coordinates": [-122.333519, 47.6613159]}}, {"type": "Feature", "properties": {"id": "fe2718e2-36ad-4c7e-9ed5-8d58ec0e62cb", "name": "Lotus Thai", "category": "restaurant", "tags": ["restaurant", "thai"], "sources": ["overture"], "website": "http://www.lotusthaiseattle.com", "phone": "(206) 632-2300", "address": "2101 N 45th St"}, "geometry": {"type": "Point", "coordinates": [-122.3336411, 47.661274]}}, {"type": "Feature", "properties": {"id": "76f47c1a-7c23-4852-a39e-8b7e87f16b25", "name": "Mexicali Rose, Llc", "category": "restaurant", "tags": ["restaurant"], "sources": ["overture"], "address": "2114 N 45th St"}, "geometry": {"type": "Point", "coordinates": [-122.3329773, 47.6615181]}}, {"type": "Feature", "properties": {"id": "b822ead5-0e97-4f82-b813-71e1e2228154", "name": "Hanna-clore, Inc", "category": "restaurant", "tags": ["restaurant"], "sources": ["overture"], "address": "2212 N 45th St"}, "geometry": {"type": "Point", "coordinates": [-122.331665, 47.661541]}}, {"type": "Feature", "properties": {"id": "0f612643-f692-48c8-9b71-cdba84693152", "name": "Onibaba Ramen", "category": "restaurant", "tags": ["restaurant"], "sources": ["overture"], "address": "2208 N 45th St"}, "geometry": {"type": "Point", "coordinates": [-122.3320313, 47.6616325]}}, {"type": "Feature", "properties": {"id": "819113b5-a167-47ae-825e-673a11d86e5e", "name": "Miyabi 45th", "category": "restaurant", "tags": ["restaurant", "japanese"], "sources": ["overture"], "website": "http://miyabi45th.com", "phone": "(206) 632-4545", "address": "2208 N 45th St"}, "geometry": {"type": "Point", "coordinates": [-122.3320847, 47.6614799]}}, {"type": "Feature", "properties": {"id": 3211770265, "name": "Five Neons", "category": "artwork", "tags": ["artwork"], "sources": ["osm"], "address": "1501 North 45th Street"}, "geometry": {"type": "Point", "coordinates": [-122.338783, 47.661317]}}, {"type": "Feature", "properties": {"id": 3211770270, "name": "Meridian Archway", "category": "artwork", "tags": ["artwork", "wheelchair-accessible"], "sources": ["osm"]}, "geometry": {"type": "Point", "coordinates": [-122.3335204, 47.6648648]}}, {"type": "Feature", "properties": {"id": "5a36f955-9c50-4a50-821b-fa4fc222f880", "name": "Meridian Archway", "category": "gallery", "tags": ["gallery", "art"], "sources": ["overture"], "website": "http://www.seattle.gov/arts/", "phone": "(206) 684-7171", "address": "4649 Sunnyside Ave N"}, "geometry": {"type": "Point", "coordinates": [-122.3312302, 47.6639671]}}, {"type": "Feature", "properties": {"id": 4330223344, "name": "Wallingford Sign", "category": "artwork", "tags": ["artwork"], "sources": ["osm"]}, "geometry": {"type": "Point", "coordinates": [-122.3360373, 47.661663]}}, {"type": "Feature", "properties": {"id": 4526929123, "name": "Wallingford Animal Storm", "category": "artwork", "tags": ["artwork"], "sources": ["osm"]}, "geometry": {"type": "Point", "coordinates": [-122.3360065, 47.661247]}}, {"type": "Feature", "properties": {"id": 988355787, "name": "Wallybug", "category": "artwork", "tags": ["artwork"], "sources": ["osm"]}, "geometry": {"type": "Point", "coordinates": [-122.3351582, 47.6642897]}}, {"type": "Feature", "properties": {"id": "200df2bf-0a76-4822-98a8-015b71d3ff07", "name": "Wallingford 45 Condominiums", "category": "attraction", "tags": ["attraction", "landmark", "historical", "building"], "sources": ["overture"], "website": "http://www.wallingford45.com/", "phone": "+12067941118", "address": "1601 N 45th St"}, "geometry": {"type": "Point", "coordinates": [-122.3384476, 47.6611176]}}, {"type": "Feature", "properties": {"id": "608765e7-625e-4b4f-81a5-43e4219ae401", "name": "Wallingford Center", "category": "attraction", "tags": ["attraction", "landmark", "historical", "building"], "sources": ["overture"], "website": "http://www.wallingfordcenter.com/", "phone": "+12065477246", "address": "1815 N 45th St"}, "geometry": {"type": "Point", "coordinates": [-122.3355637, 47.6610184]}}, {"type": "Feature", "properties": {"id": "047efd58-bee0-4602-8d5f-39c6aed75f44", "name": "Crackerjack Contemporary Crafts", "category": "gallery", "tags": ["gallery", "art"], "sources": ["overture"], "website": "http://www.crackerjackcrafts.com", "phone": "(206) 547-4983", "address": "1815 N 45th St Ste 212"}, "geometry": {"type": "Point", "coordinates": [-122.3356705, 47.661171]}}, {"type": "Feature", "properties": {"id": 51805187, "name": "Meridian Playground", "category": "park", "tags": ["park"], "sources": ["osm"], "website": "https://www.seattle.gov/parks/find/parks/meridian-playground", "address": "4649 Sunnyside Avenue North"}, "geometry": {"type": "Point", "coordinates": [-122.3320727, 47.6640571]}}, {"type": "Feature", "properties": {"id": "870a84c7-25f7-431e-9ffe-45d8af73ad92", "name": "Meridian Playground", "category": "playground", "tags": ["playground"], "sources": ["overture"], "website": "http://www.seattle.gov/parks/find/parks/meridian-playground", "phone": "+12066844075", "address": "4920 Meridian Ave N"}, "geometry": {"type": "Point", "coordinates": [-122.3334503, 47.6647301]}}, {"type": "Feature", "properties": {"id": 51805194, "name": "Corliss Place", "category": "park", "tags": ["park"], "sources": ["osm"], "website": "https://www.seattle.gov/parks/allparks/corliss-place"}, "geometry": {"type": "Point", "coordinates": [-122.3308487, 47.6652394]}}, {"type": "Feature", "properties": {"id": "65fd707b-6fdb-4b56-9a23-a57e160506de", "name": "Highlands Park", "category": "park", "tags": ["park"], "sources": ["overture"], "website": "https://www.cityofmillcreek.com/city_government/communications___marketing/recreation/parks_and_trails", "phone": "(425) 745-1891", "address": "2600 highlands park Ave"}, "geometry": {"type": "Point", "coordinates": [-122.3327332, 47.6636314]}}, {"type": "Feature", "properties": {"id": 178504682, "name": "St Benedict Playground", "category": "playground", "tags": ["playground"], "sources": ["osm"]}, "geometry": {"type": "Point", "coordinates": [-122.3370094, 47.6637274]}}, {"type": "Feature", "properties": {"id": "0d57bfd0-e607-4af0-8256-0110787f6fd8", "name": "Good Shepherd Center", "category": "garden", "tags": ["garden", "botanical"], "sources": ["overture"], "website": "http://www.borealislandscape.com/", "phone": "+12065470204", "address": "4649 Sunnyside Ave N"}, "geometry": {"type": "Point", "coordinates": [-122.331192, 47.6641006]}}, {"type": "Feature", "properties": {"id": "d7aed330-6874-46a3-80f7-a6400029181d", "name": "Demonstration Garden", "category": "park", "tags": ["park"], "sources": ["overture"], "address": "4699 Corliss Ave N"}, "geometry": {"type": "Point", "coordinates": [-122.3321457, 47.6633797]}}, {"type": "Feature", "properties": {"id": 161622953, "name": "QFC", "category": "supermarket", "tags": ["supermarket", "wheelchair-accessible"], "sources": ["osm", "overture"], "website": "https://www.qfc.com/stores/grocery/wa/seattle/wallingford/705/00869?cid=loc_70500869_fb", "phone": "+12066329253", "address": "4500 Wallingford Ave N", "hours": "Mo-Su 05:00-01:00"}, "geometry": {"type": "Point", "coordinates": [-122.3359186, 47.6618385]}}, {"type": "Feature", "properties": {"id": 224037747, "name": "FoodMart", "category": "convenience", "tags": ["convenience"], "sources": ["osm"], "address": "1420 North 45th Street", "hours": "24/7"}, "geometry": {"type": "Point", "coordinates": [-122.3395407, 47.661691]}}, {"type": "Feature", "properties": {"id": 1292321779, "name": "Bottleworks", "category": "alcohol", "tags": ["alcohol"], "sources": ["osm", "overture"], "website": "http://www.bottleworks.com/", "phone": "+12066332437", "address": "1710 N 45th St #3", "hours": "Mo-We,Su 12:00-20:00; Th-Sa 12:00-21:00"}, "geometry": {"type": "Point", "coordinates": [-122.3371255, 47.661497]}}, {"type": "Feature", "properties": {"id": 1292322846, "name": "City Cellars", "category": "wine", "tags": ["wine"], "sources": ["osm"], "website": "https://www.citycellar.com/", "address": "1710 North 45th Street", "hours": "Tu-Sa 11:00-19:00; Su 12:00-17:00"}, "geometry": {"type": "Point", "coordinates": [-122.3370512, 47.6615222]}}, {"type": "Feature", "properties": {"id": 1292327366, "name": "Empire Smoke Shop", "category": "tobacco", "tags": ["tobacco"], "sources": ["osm"], "address": "1720 North 45th Street"}, "geometry": {"type": "Point", "coordinates": [-122.3366971, 47.6614954]}}, {"type": "Feature", "properties": {"id": 1292328984, "name": "Best Cigar Shop", "category": "tobacco", "tags": ["tobacco"], "sources": ["osm"], "address": "1713 North 45th Street"}, "geometry": {"type": "Point", "coordinates": [-122.3367124, 47.6612813]}}, {"type": "Feature", "properties": {"id": 1335231667, "name": "56th Street Market", "category": "convenience", "tags": ["convenience", "supermarket"], "sources": ["osm", "overture"], "website": "http://www.ethanstowellrestaurants.com", "phone": "(206) 402-3699", "address": "2201 N 56th St"}, "geometry": {"type": "Point", "coordinates": [-122.3326924, 47.6686092]}}, {"type": "Feature", "properties": {"id": 2134343243, "name": "Swanson's Shoe Repair", "category": "shoes", "tags": ["shoes"], "sources": ["osm"], "website": "https://swansonsshoerepair.com/", "address": "2305 North 45th Street", "hours": "Tu-Fr 09:00-18:00; Sa 08:00-16:00"}, "geometry": {"type": "Point", "coordinates": [-122.3310278, 47.6612594]}}, {"type": "Feature", "properties": {"id": "e82ac177-58b3-4258-8fef-fa309332aa56", "name": "The Sock Monster", "category": "clothes", "tags": ["clothes"], "sources": ["overture"], "website": "http://www.thesockmonster.com", "phone": "(206) 724-0123", "address": "1909 N 45th St"}, "geometry": {"type": "Point", "coordinates": [-122.3346024, 47.661335]}}, {"type": "Feature", "properties": {"id": 2380088170, "name": "Saltstone Ceramics", "category": "art", "tags": ["art", "pottery", "gallery"], "sources": ["osm", "overture"], "website": "http://saltstoneceramics.com/", "phone": "+12066320826", "address": "2206 N 45th St", "hours": "We-Mo 11:00-17:00"}, "geometry": {"type": "Point", "coordinates": [-122.3321851, 47.661509]}}, {"type": "Feature", "properties": {"id": 2403954668, "name": "Wise Owl Books and Music", "category": "books", "tags": ["books"], "sources": ["osm"], "website": "https://thewiseowlbooks.com/", "phone": "+1 206-580-3211", "address": "2223 North 56th Street"}, "geometry": {"type": "Point", "coordinates": [-122.3318951, 47.6687989]}}, {"type": "Feature", "properties": {"id": 2778623153, "name": "Tweedy & Popp", "category": "doityourself", "tags": ["doityourself", "wheelchair-accessible"], "sources": ["osm"], "website": "https://www.acehardware.com/store-details/17610", "phone": "+1-206-632-2290", "address": "1815 North 45th Street", "hours": "Mo-Sa 08:00-20:00; Su 09:00-18:00"}, "geometry": {"type": "Point", "coordinates": [-122.3355384, 47.6611689]}}, {"type": "Feature", "properties": {"id": 3033233522, "name": "Pacific Northwest Shop", "category": "gift", "tags": ["gift"], "sources": ["osm"], "website": "https://www.pacificnorthwestshop.com", "phone": "+1-206-535-6920", "address": "4411 Wallingford Avenue North", "hours": "Mo-Fr 10:00-19:00; Sa 10:00-18:00; Su 11:00-17:00"}, "geometry": {"type": "Point", "coordinates": [-122.3363903, 47.6605858]}}, {"type": "Feature", "properties": {"id": 3033233525, "name": "Wally Pets", "category": "pet", "tags": ["pet"], "sources": ["osm", "overture"], "website": "http://wallypetstore.com", "phone": "+12065470301", "address": "4411 Wallingford Ave N", "hours": "Mo-Su 10:00-19:00"}, "geometry": {"type": "Point", "coordinates": [-122.3363877, 47.6607563]}}, {"type": "Feature", "properties": {"id": 5062979367, "name": "Peti Boutique", "category": "clothes", "tags": ["clothes"], "sources": ["osm"], "website": "https://www.petiboutique.com/", "address": "1621 North 45th Street"}, "geometry": {"type": "Point", "coordinates": [-122.3381743, 47.6612652]}}, {"type": "Feature", "properties": {"id": 7217228124, "name": "Cedarhouse Flowers", "category": "florist", "tags": ["florist"], "sources": ["osm"], "website": "https://www.cedarhouseflowers.com", "phone": "+1-206-397-3222", "address": "1621 North 45th Street", "hours": "Mo-Fr 09:00-17:00; Sa 09:00-18:00; Su 11:00-16:00"}, "geometry": {"type": "Point", "coordinates": [-122.3381108, 47.6612639]}}, {"type": "Feature", "properties": {"id": 14103822211, "name": "Cedarhouse Flowers", "category": "florist", "tags": ["florist"], "sources": ["osm"], "website": "https://www.cedarhouseflowers.com/", "address": "1901 North 45th Street"}, "geometry": {"type": "Point", "coordinates": [-122.3348213, 47.661263]}}, {"type": "Feature", "properties": {"id": 7229366919, "name": "Yazdi", "category": "clothes", "tags": ["clothes", "wheelchair-accessible"], "sources": ["osm"], "website": "https://yazdiwallingfordcenter.com/", "address": "1815 North 45th Street"}, "geometry": {"type": "Point", "coordinates": [-122.3355868, 47.6610534]}}, {"type": "Feature", "properties": {"id": 11406437353, "name": "Snow Leopard Trust", "category": "gift", "tags": ["gift"], "sources": ["osm"], "website": "https://snowleopard.org/", "phone": "+1-206-632-2421", "address": "4649 Sunnyside Avenue North", "hours": "Mo-Fr 09:30-17:30"}, "geometry": {"type": "Point", "coordinates": [-122.3311925, 47.6642541]}}, {"type": "Feature", "properties": {"id": 215906657, "name": "Assistance League Thrift Store", "category": "variety_store", "tags": ["variety-store"], "sources": ["osm"], "website": "https://chapters.assistanceleague.org/chapter/seattle/thrift-store/", "address": "1415 North 45th Street", "hours": "Tu-Fr 10:00-16:00; Sa 12:00-16:00"}, "geometry": {"type": "Point", "coordinates": [-122.3399146, 47.6611755]}}, {"type": "Feature", "properties": {"id": "dc29ee47-4569-4b0f-943a-47fb363a2344", "name": "Quality Food Center", "category": "supermarket", "tags": ["supermarket"], "sources": ["overture"], "website": "https://www.qfc.com/stores/grocery/wa/seattle/wallingford/705/00869", "address": "4500 Wallingford Ave N"}, "geometry": {"type": "Point", "coordinates": [-122.3359222, 47.6618576]}}, {"type": "Feature", "properties": {"id": "0010b313-134a-4a7d-b612-0e69aaeb47a6", "name": "Awards International", "category": "jewelry", "tags": ["jewelry"], "sources": ["overture"], "website": "http://www.awards-international.com", "phone": "(206) 548-9985", "address": "1616 N 45th St Ste B"}, "geometry": {"type": "Point", "coordinates": [-122.3384094, 47.6615219]}}, {"type": "Feature", "properties": {"id": "8b1e4a33-c446-42ed-9046-30fc45f37e6b", "name": "Wish", "category": "clothes", "tags": ["clothes"], "sources": ["overture"], "website": "http://www.welovewish.com", "phone": "12065229474", "address": "4419 Wallingford Ave N"}, "geometry": {"type": "Point", "coordinates": [-122.3364716, 47.6608276]}}, {"type": "Feature", "properties": {"id": "5b8d8e5a-6cc2-4e68-a4bf-526bd466f32d", "name": "Wide World Travel Store", "category": "books", "tags": ["books"], "sources": ["overture"], "website": "https://wideworldtravelstore.com", "phone": "8885343453", "address": "4411 Wallingford Ave N"}, "geometry": {"type": "Point", "coordinates": [-122.3365555, 47.6606712]}}, {"type": "Feature", "properties": {"id": "b6c64bca-08c5-4917-895b-34df33bd5f38", "name": "Best Cigar and Smoke Shop", "category": "tobacco", "tags": ["tobacco"], "sources": ["overture"], "phone": "+12065471560", "address": "1713 N 45th St"}, "geometry": {"type": "Point", "coordinates": [-122.3367462, 47.6611786]}}, {"type": "Feature", "properties": {"id": "71810250-22f7-4512-a090-b32fe764855d", "name": "Kids On 45th", "category": "clothes", "tags": ["clothes"], "sources": ["overture"], "website": "https://www.kidson45th.com", "phone": "8557230433", "address": "1720 N 45th St"}, "geometry": {"type": "Point", "coordinates": [-122.3367691, 47.6615181]}}, {"type": "Feature", "properties": {"id": "694d664e-a70f-4b4e-a0cc-168042d83569", "name": "Better Window Cleaning Seattle", "category": "doityourself", "tags": ["doityourself", "building", "supply"], "sources": ["overture"], "website": "http://seattlewindowcleaning.com", "phone": "(206) 354-4491", "address": "1722 N 45th St, #4"}, "geometry": {"type": "Point", "coordinates": [-122.3366547, 47.6615753]}}, {"type": "Feature", "properties": {"id": "e7cc6b35-7d4d-46db-b7ab-fe3fc08f42d1", "name": "City Cellars Fine Wines", "category": "alcohol", "tags": ["alcohol"], "sources": ["overture"], "website": "http://www.citycellar.com/", "phone": "+12066327238", "address": "1710 N 45th St #1"}, "geometry": {"type": "Point", "coordinates": [-122.3370361, 47.6614532]}}, {"type": "Feature", "properties": {"id": "1c421e1f-821d-4431-941e-bc9399fd1e71", "name": "The Wise Owl Books and Music", "category": "books", "tags": ["books"], "sources": ["overture"], "website": "http://www.thewiseowlbooks.com/", "phone": "+12065803211", "address": "2223 N 56th St"}, "geometry": {"type": "Point", "coordinates": [-122.3319321, 47.6688614]}}, {"type": "Feature", "properties": {"id": "bd881130-85db-4fea-b5a0-9425431b0b5f", "name": "Heartwarming Treasures", "category": "gift", "tags": ["gift"], "sources": ["overture"], "website": "https://www.heartwarmingtreasures.com", "phone": "+12065472623", "address": "2311 N 45th St PMB 143"}, "geometry": {"type": "Point", "coordinates": [-122.3306656, 47.6612587]}}, {"type": "Feature", "properties": {"id": "19bd54af-918e-4247-bef2-59d6ce689940", "name": "Weaving Wallingford", "category": "florist", "tags": ["florist"], "sources": ["overture"], "phone": "2066323165", "address": "4649 Sunnyside Ave N  Ste 140"}, "geometry": {"type": "Point", "coordinates": [-122.3312836, 47.6638641]}}, {"type": "Feature", "properties": {"id": "81ee9a64-84f0-4cea-8862-b6c04dd7da47", "name": "Tweedy and Popp Hardware", "category": "hardware", "tags": ["hardware"], "sources": ["overture"], "website": "http://www.tweedypopp.com/", "phone": "+12066322290", "address": "1815 N 45th St"}, "geometry": {"type": "Point", "coordinates": [-122.3355331, 47.6612892]}}, {"type": "Feature", "properties": {"id": "98a978d9-103e-4304-8200-d43c59092ce3", "name": "Amita The Art Of Gifts", "category": "gift", "tags": ["gift"], "sources": ["overture"], "website": "keystoneindustriesllc.com", "phone": "2068594500", "address": "1815 N 45th St"}, "geometry": {"type": "Point", "coordinates": [-122.3356018, 47.6608353]}}, {"type": "Feature", "properties": {"id": 9030929077, "name": "CVS Pharmacy", "category": "pharmacy", "tags": ["pharmacy"], "sources": ["osm", "overture"], "website": "https://www.cvs.com/store-locator/landing", "phone": "+12066331536", "address": "2100 N 45th St"}, "geometry": {"type": "Point", "coordinates": [-122.3332372, 47.6616813]}}, {"type": "Feature", "properties": {"id": 1078239627, "name": "Neighborcare Health Pharmacy", "category": "pharmacy", "tags": ["pharmacy"], "sources": ["osm"], "hours": "Mo,Tu,Th,Fr 09:00-17:30; We 09:30-17:30"}, "geometry": {"type": "Point", "coordinates": [-122.33763, 47.6611858]}}, {"type": "Feature", "properties": {"id": 2403884621, "name": "Union Physical Therapy", "category": "clinic", "tags": ["clinic"], "sources": ["osm"], "website": "https://unionpt.com/", "address": "2214 North 56th Street"}, "geometry": {"type": "Point", "coordinates": [-122.332326, 47.6689687]}}, {"type": "Feature", "properties": {"id": 7229366921, "name": "Cascadia Pharmacy", "category": "pharmacy", "tags": ["pharmacy"], "sources": ["osm"], "website": "https://cascadiapharmacy.com", "phone": "+1-206-385-6552", "address": "1815 North 45th Street", "hours": "Mo-Fr 09:00-18:00; Sa 10:00-17:00"}, "geometry": {"type": "Point", "coordinates": [-122.3358452, 47.6611576]}}, {"type": "Feature", "properties": {"id": "04a22f17-a9f8-4efc-a205-7ba0f6ed2724", "name": "Neighborcare Health", "category": "clinic", "tags": ["clinic", "medical"], "sources": ["overture"], "website": "http://www.neighborcare.org", "phone": "+12066333350", "address": "1629 N 45th St"}, "geometry": {"type": "Point", "coordinates": [-122.3376236, 47.6612206]}}, {"type": "Feature", "properties": {"id": "0dfdba39-69b9-4b1b-843a-1a3e7bb0fdb4", "name": "Bartell Drugs", "category": "pharmacy", "tags": ["pharmacy"], "sources": ["overture"], "phone": "12066323314", "address": "1820 N 45th St"}, "geometry": {"type": "Point", "coordinates": [-122.3355103, 47.6616135]}}, {"type": "Feature", "properties": {"id": "4b093635-06a2-4e10-a2d4-cec137869987", "name": "Cascadia Pharmacy Wallingford", "category": "pharmacy", "tags": ["pharmacy"], "sources": ["overture"], "website": "http://cascadiapharmacy.com/", "phone": "+12063856552", "address": "1815 N 45th St Ste 110"}, "geometry": {"type": "Point", "coordinates": [-122.3357086, 47.661232]}}, {"type": "Feature", "properties": {"id": 161622954, "name": "KeyBank", "category": "bank", "tags": ["bank", "credit", "union"], "sources": ["osm", "overture"], "website": "https://www.key.com/locations/WA/Seattle/BRCH47310095/1700-N-45th-St?ppc=cmpyxt", "phone": "+12066323399", "address": "1700 N 45th St", "hours": "Mo-Th 09:00-17:00; Fr 09:00-18:00; Sa 10:00-13:30"}, "geometry": {"type": "Point", "coordinates": [-122.3374762, 47.661688]}}, {"type": "Feature", "properties": {"id": 2134343244, "name": "The UPS Store", "category": "post_office", "tags": ["post-office"], "sources": ["osm"], "website": "https://seattle-wa-4935.theupsstorelocal.com/", "phone": "+1-206-522-1970", "address": "2311 North 45th Street", "hours": "Mo-Fr 08:30-18:00; Sa 09:00-17:00"}, "geometry": {"type": "Point", "coordinates": [-122.330836, 47.6612607]}}, {"type": "Feature", "properties": {"id": 1292304599, "name": "Wells Fargo", "category": "bank", "tags": ["bank"], "sources": ["osm"], "website": "https://locations.wellsfargo.com/wa/seattle/1701-n-45th-st", "address": "1701 North 45th Street"}, "geometry": {"type": "Point", "coordinates": [-122.337149, 47.6612646]}}, {"type": "Feature", "properties": {"id": 74535536, "name": "Chase", "category": "bank", "tags": ["bank"], "sources": ["osm"], "website": "https://locator.chase.com/wa/seattle/1919-n-45th-st", "phone": "+1-206-461-3125", "address": "1919 North 45th Street", "hours": "Mo-Fr 09:00-17:00; Sa-Su closed"}, "geometry": {"type": "Point", "coordinates": [-122.3340453, 47.6611891]}}, {"type": "Feature", "properties": {"id": 11406437346, "name": "C.G. Jung Society", "category": "library", "tags": ["library"], "sources": ["osm"], "website": "https://jungseattle.org/", "phone": "+1-206-547-3956", "address": "4649 Sunnyside Avenue North", "hours": "Sa 01:00-15:30"}, "geometry": {"type": "Point", "coordinates": [-122.3311925, 47.6640431]}}, {"type": "Feature", "properties": {"id": 11406437348, "name": "Seattle Genealogical Society", "category": "library", "tags": ["library"], "sources": ["osm"], "website": "https://seagensoc.org", "phone": "+1-206-522-8658", "address": "4649 Sunnyside Avenue North", "hours": "Tu-Sa 10:00-15:00"}, "geometry": {"type": "Point", "coordinates": [-122.3311925, 47.6643245]}}, {"type": "Feature", "properties": {"id": 298696034, "name": "The Seattle Public Library - Wallingford Branch", "category": "library", "tags": ["library", "wheelchair-accessible"], "sources": ["osm"], "website": "https://www.spl.org/locations/wallingford-branch", "phone": "+1 206-684-4088", "address": "1501 North 45th Street", "hours": "Mo,We,Fr,Sa,Su 10:00-18:00; Tu,Th 12:00-20:00; PH off"}, "geometry": {"type": "Point", "coordinates": [-122.3387805, 47.6612154]}}, {"type": "Feature", "properties": {"id": "c1f953f9-c202-40fe-b351-844ffedff175", "name": "Wallingford Branch", "category": "library", "tags": ["library"], "sources": ["overture"], "website": "http://www.spl.org/locations/wallingford-branch", "phone": "+12066844088", "address": "1501 N 45th St"}, "geometry": {"type": "Point", "coordinates": [-122.3387985, 47.6613388]}}, {"type": "Feature", "properties": {"id": 2778623157, "name": "Aditi", "category": "fitness_centre", "tags": ["fitness-centre", "yoga", "wheelchair-accessible"], "sources": ["osm"], "website": "https://aditistudio.com/", "phone": "+1-206-428-6004", "address": "1815 North 45th Street"}, "geometry": {"type": "Point", "coordinates": [-122.3357625, 47.6610867]}}, {"type": "Feature", "properties": {"id": 11406437361, "name": "Gyrotonic Movement Center", "category": "fitness_centre", "tags": ["fitness-centre", "pilates", "studio"], "sources": ["osm", "overture"], "website": "http://www.gyrotonicmc.com/", "phone": "+12065475880", "address": "4649 Sunnyside Ave N"}, "geometry": {"type": "Point", "coordinates": [-122.3311925, 47.6643949]}}, {"type": "Feature", "properties": {"id": 224037755, "name": "Jae Hun Kim Taekwon-do Institute", "category": "fitness_centre", "tags": ["fitness-centre", "taekwondo"], "sources": ["osm"], "address": "1900 North 45th Street"}, "geometry": {"type": "Point", "coordinates": [-122.3349679, 47.6615955]}}, {"type": "Feature", "properties": {"id": "f7a9d8b6-33ee-4a6e-bf9c-2d92f6fbda68", "name": "Sonic Athletics Youth", "category": "fitness_centre", "tags": ["fitness-centre", "gym"], "sources": ["overture"], "website": "http://www.seeyouatsonic.com", "phone": "+12067452855", "address": "4430 Corliss Ave N"}, "geometry": {"type": "Point", "coordinates": [-122.3311234, 47.6611099]}}, {"type": "Feature", "properties": {"id": "ade5c043-3207-41d7-a7cc-2b1b6bb60f93", "name": "Aditi Yoga and Wellness Studio", "category": "fitness_centre", "tags": ["fitness-centre", "yoga", "studio"], "sources": ["overture"], "website": "http://www.aditistudio.com/", "phone": "+12064286004", "address": "1815 N 45th St #205"}, "geometry": {"type": "Point", "coordinates": [-122.3355103, 47.6608963]}}, {"type": "Feature", "properties": {"id": "510b9b02-39d1-464e-b76c-06c66e183dff", "name": "Own Health & Strength", "category": "fitness_centre", "tags": ["fitness-centre", "fitness", "trainer"], "sources": ["overture"], "website": "https://ownfitnesspnw.com", "phone": "+12068546023", "address": "2205B N 45th St"}, "geometry": {"type": "Point", "coordinates": [-122.3321228, 47.6612511]}}]}