{"type": "FeatureCollection", "features": [{"type": "Feature", "properties": {"id": "eb1485a0-af17-452e-8a9d-3521680f7b1e", "name": "MOD Pizza", "category": "fast_food", "tags": ["fast-food", "fast", "food", "pizza"], "sources": ["overture"], "website": "https://modpizza.com/locations/rainier-avenue/", "phone": "2069286959", "address": "3820 Rainier Ave S", "stations": [{"stopCode": 57, "lines": "1", "name": "Mount Baker Station", "walkingMeters": 1020, "walkingSeconds": 734, "band": 15}]}, "geometry": {"type": "Point", "coordinates": [-122.2904434, 47.569664]}}, {"type": "Feature", "properties": {"id": 2429578919, "name": "Curry's Culture", "category": "restaurant", "tags": ["restaurant", "indian"], "sources": ["osm"], "website": "https://www.chandalathaicuisine.com", "address": "4525 Martin Luther King Junior Way South", "stations": [{"stopCode": 58, "lines": "1", "name": "Columbia City Station", "walkingMeters": 287, "walkingSeconds": 206, "band": 5}]}, "geometry": {"type": "Point", "coordinates": [-122.2944394, 47.5618518]}}, {"type": "Feature", "properties": {"id": 2429578920, "name": "Bananas Grill", "category": "restaurant", "tags": ["restaurant", "mediterranean", "american"], "sources": ["osm", "overture"], "website": "http://www.bananasgrillseattle.com/", "phone": "+12064204839", "address": "4556 Martin Luther King Jr Way S #2151", "hours": "Mo-Sa 11:00-20:30", "stations": [{"stopCode": 58, "lines": "1", "name": "Columbia City Station", "walkingMeters": 294, "walkingSeconds": 212, "band": 5}]}, "geometry": {"type": "Point", "coordinates": [-122.2937759, 47.5620576]}}, {"type": "Feature", "properties": {"id": 11957219437, "name": "The Station", "category": "cafe", "tags": ["cafe", "coffee-shop", "wheelchair-accessible", "wifi", "coffee"], "sources": ["osm", "overture"], "website": "https://www.thestationbh.com", "phone": "(206) 644-9125", "address": "3000 S Alaska St Ste B", "hours": "Mo-Fr 07:00-17:00; Sa-Su 08:00-17:00", "stations": [{"stopCode": 58, "lines": "1", "name": "Columbia City Station", "walkingMeters": 167, "walkingSeconds": 120, "band": 5}]}, "geometry": {"type": "Point", "coordinates": [-122.2930236, 47.5609613]}}, {"type": "Feature", "properties": {"id": "fd79fbcc-8101-45c7-bedd-d33d71f3edf8", "name": "Castello Pizza and Pasta", "category": "restaurant", "tags": ["restaurant", "pizza", "italian"], "sources": ["overture"], "website": "http://castellopizzapasta.com/", "phone": "+12069710099", "address": "3756 Rainier Ave S Ste B", "stations": [{"stopCode": 57, "lines": "1", "name": "Mount Baker Station", "walkingMeters": 998, "walkingSeconds": 718, "band": 15}]}, "geometry": {"type": "Point", "coordinates": [-122.2906189, 47.5699387]}}, {"type": "Feature", "properties": {"id": "5688f4f3-e03b-4c4f-9e30-ec5e23ab48b0", "name": "Chandala Thai Cuisine", "category": "restaurant", "tags": ["restaurant", "thai"], "sources": ["overture"], "website": "https://chandalathaicuisine.com", "phone": "12065881225", "address": "4525 Martin Luther King Jr Way S", "stations": [{"stopCode": 58, "lines": "1", "name": "Columbia City Station", "walkingMeters": 284, "walkingSeconds": 204, "band": 5}]}, "geometry": {"type": "Point", "coordinates": [-122.294426, 47.5618553]}}, {"type": "Feature", "properties": {"id": "6b801d90-8910-41d0-be75-fb3ad6b10794", "name": "Afrik Grocery & Coffee Shop Llc", "category": "restaurant", "tags": ["restaurant"], "sources": ["overture"], "address": "4610 Martin Luther King Jr Way S", "stations": [{"stopCode": 58, "lines": "1", "name": "Columbia City Station", "walkingMeters": 315, "walkingSeconds": 235, "band": 5}]}, "geometry": {"type": "Point", "coordinates": [-122.2935562, 47.5618362]}}, {"type": "Feature", "properties": {"id": 6535316035, "name": "Global Garden Shovel", "category": "artwork", "tags": ["artwork"], "sources": ["osm"], "stations": [{"stopCode": 58, "lines": "1", "name": "Columbia City Station", "walkingMeters": 152, "walkingSeconds": 109, "band": 5}]}, "geometry": {"type": "Point", "coordinates": [-122.2935956, 47.5606281]}}, {"type": "Feature", "properties": {"id": "02731674-d45d-4ffb-83a9-2ff35017f833", "name": "Columbia City Station Apartments", "category": "attraction", "tags": ["attraction", "landmark", "historical", "building"], "sources": ["overture"], "phone": "+12064530585", "address": "4484 Martin Luther King Jr Way S #209", "stations": [{"stopCode": 58, "lines": "1", "name": "Columbia City Station", "walkingMeters": 422, "walkingSeconds": 305, "band": 5}]}, "geometry": {"type": "Point", "coordinates": [-122.2944183, 47.5630341]}}, {"type": "Feature", "properties": {"id": "09ea30b5-f2a0-489e-b0af-1e71c9eb77e3", "name": "Providence Gamelin House", "category": "attraction", "tags": ["attraction", "landmark", "historical", "building"], "sources": ["overture"], "website": "https://www.providence.org/supportive-housing/find-a-place-to-live/providence-gamelin-house", "phone": "+12067231242", "address": "4515 Martin L King Jr Ways #200", "stations": [{"stopCode": 58, "lines": "1", "name": "Columbia City Station", "walkingMeters": 329, "walkingSeconds": 237, "band": 5}]}, "geometry": {"type": "Point", "coordinates": [-122.2945251, 47.5622368]}}, {"type": "Feature", "properties": {"id": "c39e43ec-46e3-463e-b565-c3f088786fbe", "name": "Tamarack Apartments", "category": "attraction", "tags": ["attraction", "landmark", "historical", "building"], "sources": ["overture"], "address": "4616 Martin Luther King Jr Way S", "stations": [{"stopCode": 58, "lines": "1", "name": "Columbia City Station", "walkingMeters": 304, "walkingSeconds": 227, "band": 5}]}, "geometry": {"type": "Point", "coordinates": [-122.2934875, 47.5617638]}}, {"type": "Feature", "properties": {"id": "db903304-ef6e-45a7-ad58-56fdf9d4efa2", "name": "Sonata at Columbia Station", "category": "attraction", "tags": ["attraction", "landmark", "historical", "building"], "sources": ["overture"], "website": "https://sonataatseattle.com/", "phone": "+12067017488", "address": "3000 S Alaska St", "stations": [{"stopCode": 58, "lines": "1", "name": "Columbia City Station", "walkingMeters": 186, "walkingSeconds": 134, "band": 5}]}, "geometry": {"type": "Point", "coordinates": [-122.2930756, 47.5611534]}}, {"type": "Feature", "properties": {"id": "f63ca8bd-3fad-4837-8db5-b54f19492df5", "name": "CityLine Buildings", "category": "attraction", "tags": ["attraction", "landmark", "historical", "building"], "sources": ["overture"], "website": "https://www.udr.com/seattle-apartments/columbia-city/cityline/", "phone": "+12065696748", "address": "4730 32nd Ave S", "stations": [{"stopCode": 58, "lines": "1", "name": "Columbia City Station", "walkingMeters": 343, "walkingSeconds": 247, "band": 5}]}, "geometry": {"type": "Point", "coordinates": [-122.290947, 47.5603333]}}, {"type": "Feature", "properties": {"id": 56395172, "name": "Lake People (Xacua'bs) Park", "category": "park", "tags": ["park"], "sources": ["osm"], "website": "https://www.seattle.gov/parks/allparks/lake-people-park", "stations": [{"stopCode": 57, "lines": "1", "name": "Mount Baker Station", "walkingMeters": 1170, "walkingSeconds": 847, "band": 15}]}, "geometry": {"type": "Point", "coordinates": [-122.2919538, 47.5690993]}}, {"type": "Feature", "properties": {"id": 498701167, "name": "View Point Park", "category": "park", "tags": ["park", "dog-friendly"], "sources": ["osm"], "address": "4307 28th Avenue South", "stations": [{"stopCode": 58, "lines": "1", "name": "Columbia City Station", "walkingMeters": 756, "walkingSeconds": 544, "band": 10}]}, "geometry": {"type": "Point", "coordinates": [-122.2986178, 47.5640237]}}, {"type": "Feature", "properties": {"id": 363391769, "name": "Dinosaur Park", "category": "playground", "tags": ["playground"], "sources": ["osm"], "stations": [{"stopCode": 58, "lines": "1", "name": "Columbia City Station", "walkingMeters": 894, "walkingSeconds": 643, "band": 15}]}, "geometry": {"type": "Point", "coordinates": [-122.2980864, 47.5659479]}}, {"type": "Feature", "properties": {"id": 363391793, "name": "Central Park", "category": "park", "tags": ["park"], "sources": ["osm"], "address": "4321 29th Avenue South", "stations": [{"stopCode": 58, "lines": "1", "name": "Columbia City Station", "walkingMeters": 625, "walkingSeconds": 449, "band": 10}]}, "geometry": {"type": "Point", "coordinates": [-122.29681, 47.5634874]}}, {"type": "Feature", "properties": {"id": 1338421684, "name": "Maple Park", "category": "park", "tags": ["park"], "sources": ["osm"], "stations": [{"stopCode": 58, "lines": "1", "name": "Columbia City Station", "walkingMeters": 741, "walkingSeconds": 533, "band": 10}]}, "geometry": {"type": "Point", "coordinates": [-122.2970502, 47.5650633]}}, {"type": "Feature", "properties": {"id": "bea87a8b-7422-484e-a529-e28808c85e8f", "name": "Cheasty Greenspace: Mt View", "category": "park", "tags": ["park"], "sources": ["overture"], "address": "4701 Mountain View Drive S", "stations": [{"stopCode": 58, "lines": "1", "name": "Columbia City Station", "walkingMeters": 482, "walkingSeconds": 346, "band": 10}]}, "geometry": {"type": "Point", "coordinates": [-122.2979736, 47.5606155]}}, {"type": "Feature", "properties": {"id": 2429568871, "name": "Asmara Shikor Fashion", "category": "clothes", "tags": ["clothes"], "sources": ["osm"], "address": "4437 Martin Luther King Junior Way South", "stations": [{"stopCode": 58, "lines": "1", "name": "Columbia City Station", "walkingMeters": 435, "walkingSeconds": 313, "band": 5}]}, "geometry": {"type": "Point", "coordinates": [-122.2951828, 47.563076]}}, {"type": "Feature", "properties": {"id": 2429578912, "name": "Asmara Shikor", "category": "clothes", "tags": ["clothes"], "sources": ["osm"], "address": "4505 Martin Luther King Junior Way South", "stations": [{"stopCode": 58, "lines": "1", "name": "Columbia City Station", "walkingMeters": 361, "walkingSeconds": 260, "band": 5}]}, "geometry": {"type": "Point", "coordinates": [-122.2948228, 47.562467]}}, {"type": "Feature", "properties": {"id": 2429578927, "name": "Afrik Grocery and Coffee Shop", "category": "convenience", "tags": ["convenience"], "sources": ["osm"], "address": "4610 Martin Luther King Junior Way South", "stations": [{"stopCode": 58, "lines": "1", "name": "Columbia City Station", "walkingMeters": 265, "walkingSeconds": 190, "band": 5}]}, "geometry": {"type": "Point", "coordinates": [-122.293619, 47.5618124]}}, {"type": "Feature", "properties": {"id": 10096767205, "name": "Tiem Vang Huang Kim Jewelry", "category": "jewelry", "tags": ["jewelry"], "sources": ["osm"], "stations": [{"stopCode": 57, "lines": "1", "name": "Mount Baker Station", "walkingMeters": 1124, "walkingSeconds": 809, "band": 15}]}, "geometry": {"type": "Point", "coordinates": [-122.2900583, 47.5686183]}}, {"type": "Feature", "properties": {"id": 234824133, "name": "Columbia City Market", "category": "convenience", "tags": ["convenience"], "sources": ["osm", "overture"], "phone": "+12069069120", "address": "3925 Martin Luther King Jr Way S", "stations": [{"stopCode": 57, "lines": "1", "name": "Mount Baker Station", "walkingMeters": 969, "walkingSeconds": 697, "band": 15}, {"stopCode": 58, "lines": "1", "name": "Columbia City Station", "walkingMeters": 1037, "walkingSeconds": 757, "band": 15}]}, "geometry": {"type": "Point", "coordinates": [-122.2971621, 47.5683025]}}, {"type": "Feature", "properties": {"id": "dce0d710-f4bf-43d0-b623-723344f5e618", "name": "Hamdi Food Corporation", "category": "supermarket", "tags": ["supermarket"], "sources": ["overture"], "address": "3925 Martin Luther King Jr Way S", "stations": [{"stopCode": 57, "lines": "1", "name": "Mount Baker Station", "walkingMeters": 1177, "walkingSeconds": 878, "band": 15}, {"stopCode": 58, "lines": "1", "name": "Columbia City Station", "walkingMeters": 1329, "walkingSeconds": 992, "band": 15}]}, "geometry": {"type": "Point", "coordinates": [-122.2971725, 47.5684128]}}, {"type": "Feature", "properties": {"id": "772aa1a5-7ddc-4385-9e12-8c22873a8db7", "name": "Heart 2 Heart Workshop", "category": "clothes", "tags": ["clothes"], "sources": ["overture"], "website": "http://www.back2thebasics.co", "address": "4622 Martin Luther King Jr Way S  Unit 1", "stations": [{"stopCode": 58, "lines": "1", "name": "Columbia City Station", "walkingMeters": 282, "walkingSeconds": 210, "band": 5}]}, "geometry": {"type": "Point", "coordinates": [-122.2934189, 47.5616226]}}, {"type": "Feature", "properties": {"id": "fae31a75-1e22-45f5-9ba6-9672aff97b91", "name": "Solutions Wireless", "category": "mobile_phone", "tags": ["mobile-phone", "mobile"], "sources": ["overture"], "phone": "+14252432419", "address": "4612 Martin Luther King Jr Way S", "stations": [{"stopCode": 58, "lines": "1", "name": "Columbia City Station", "walkingMeters": 304, "walkingSeconds": 227, "band": 5}]}, "geometry": {"type": "Point", "coordinates": [-122.2934952, 47.5617676]}}, {"type": "Feature", "properties": {"id": "203ecf00-03b0-4ae4-b306-5b5d5a476b26", "name": "Providence ElderPlace", "category": "clinic", "tags": ["clinic", "medical"], "sources": ["overture"], "website": "https://www.providence.org/locations/wa/elderplace-seattle?ls=location&y_source=1_OTU3Njg0OC03MTUtbG9jYXRpb24ud2Vic2l0ZQ==", "phone": "2063205325", "address": "4515 Martin Luther King Jr Way S Ste 100", "stations": [{"stopCode": 58, "lines": "1", "name": "Columbia City Station", "walkingMeters": 330, "walkingSeconds": 238, "band": 5}]}, "geometry": {"type": "Point", "coordinates": [-122.294693, 47.5622025]}}, {"type": "Feature", "properties": {"id": "900bd598-4784-40be-9ddd-71cb5e5f7d4b", "name": "Southeast Seattle Tool Library", "category": "library", "tags": ["library"], "sources": ["overture"], "website": "http://SETools.org/", "phone": "+12027807296", "address": "4425 Martin Luther King Jr Way S", "stations": [{"stopCode": 58, "lines": "1", "name": "Columbia City Station", "walkingMeters": 647, "walkingSeconds": 466, "band": 10}]}, "geometry": {"type": "Point", "coordinates": [-122.2958145, 47.5635109]}}, {"type": "Feature", "properties": {"id": 13392037104, "name": "Pure Barre", "category": "fitness_centre", "tags": ["fitness-centre", "barre", "fitness", "trainer"], "sources": ["osm", "overture"], "website": "https://www.purebarre.com/location/columbia-station-wa", "phone": "+12066982318", "address": "4689 Martin Luther King Jr Way S Ste 5", "stations": [{"stopCode": 58, "lines": "1", "name": "Columbia City Station", "walkingMeters": 228, "walkingSeconds": 164, "band": 5}]}, "geometry": {"type": "Point", "coordinates": [-122.2941362, 47.5612927]}}, {"type": "Feature", "properties": {"id": 13378902145, "name": "Androfits Personal Training", "category": "fitness_centre", "tags": ["fitness-centre"], "sources": ["osm"], "website": "https://www.androfits.com/", "phone": "+1-425-243-7166", "address": "3000 South Alaska Street", "hours": "\"By appointment\"", "stations": [{"stopCode": 58, "lines": "1", "name": "Columbia City Station", "walkingMeters": 211, "walkingSeconds": 152, "band": 5}]}, "geometry": {"type": "Point", "coordinates": [-122.2933178, 47.5613269]}}, {"type": "Feature", "properties": {"id": "a328ae86-3669-488c-b1a0-993dfb82b0e2", "name": "Androfits", "category": "fitness_centre", "tags": ["fitness-centre", "gym"], "sources": ["overture"], "website": "http://www.androfits.com/", "phone": "+14252437166", "address": "3000 S Alaska St Ste 115", "stations": [{"stopCode": 58, "lines": "1", "name": "Columbia City Station", "walkingMeters": 223, "walkingSeconds": 160, "band": 5}]}, "geometry": {"type": "Point", "coordinates": [-122.2929077, 47.5612259]}}]}