{"type": "FeatureCollection", "features": [{"type": "Feature", "properties": {"id": 210639190, "name": "Killarney Glen Park", "category": "park", "tags": ["park"], "sources": ["osm", "overture"], "website": "http://www.ci.bellevue.wa.us/killarney_glen_park.htm", "phone": "+14254526914", "address": "1933 104th Ave SE"}, "geometry": {"type": "Point", "coordinates": [-122.202877, 47.5938855]}}, {"type": "Feature", "properties": {"id": 377671075, "name": "Killarney Circle", "category": "park", "tags": ["park"], "sources": ["osm"]}, "geometry": {"type": "Point", "coordinates": [-122.2034904, 47.5904886]}}]}