{"type": "FeatureCollection", "features": [{"type": "Feature", "properties": {"id": 422104783, "name": "View Point Park", "category": "park", "tags": ["park"], "sources": ["osm"]}, "geometry": {"type": "Point", "coordinates": [-122.2278724, 47.6127879]}}, {"type": "Feature", "properties": {"id": 1046592755, "name": "City Dock", "category": "park", "tags": ["park"], "sources": ["osm"]}, "geometry": {"type": "Point", "coordinates": [-122.2282128, 47.6118024]}}, {"type": "Feature", "properties": {"id": "85b95811-c449-4288-9593-9ad89fa9f2bb", "name": "View Point Park Medina Park", "category": "park", "tags": ["park"], "sources": ["overture"]}, "geometry": {"type": "Point", "coordinates": [-122.2277222, 47.6127739]}}, {"type": "Feature", "properties": {"id": "22dcd07b-89d0-49e7-9274-77d52fc5b875", "name": "Medina Dog Park", "category": "park", "tags": ["park", "dog"], "sources": ["overture"], "address": "909 82nd Ave NE"}, "geometry": {"type": "Point", "coordinates": [-122.2299805, 47.6189499]}}]}