{"type": "FeatureCollection", "features": [{"type": "Feature", "properties": {"id": "fa98af80-4112-45ec-8b0b-f6cc1333f7d7", "name": "Cake & Crumble", "category": "bakery", "tags": ["bakery"], "sources": ["overture"], "website": "http://www.cakeandcrumble.com/", "phone": "+12537092034", "address": "1903 E Main St"}, "geometry": {"type": "Point", "coordinates": [-122.2036285, 47.3083649]}}, {"type": "Feature", "properties": {"id": "bd9d46d4-5ee0-4910-9860-cf35afb3eeb5", "name": "WA State Department Of Fish & Wildlife", "category": "attraction", "tags": ["attraction", "monument"], "sources": ["overture"]}, "geometry": {"type": "Point", "coordinates": [-122.2078705, 47.3048134]}}]}