{"type": "FeatureCollection", "features": [{"type": "Feature", "properties": {"id": 7555197256, "name": "Starbucks", "category": "cafe", "tags": ["cafe", "coffee-shop", "indoor-seating", "takeaway", "wheelchair-accessible", "vegetarian", "coffee"], "sources": ["osm", "overture"], "website": "https://www.starbucks.com/store-locator/store/1005920", "phone": "+14255620830", "address": "4053 Factoria Square Mall Se", "hours": "Mo-Su 08:00-20:00"}, "geometry": {"type": "Point", "coordinates": [-122.1729242, 47.5741986]}}, {"type": "Feature", "properties": {"id": "127a591b-d7e3-4a9b-9a6a-02ffcc37c955", "name": "Starbucks", "category": "cafe", "tags": ["cafe", "coffee"], "sources": ["overture"], "website": "http://starbucks.com/store-locator/store/1005707", "phone": "(425) 641-0414", "address": "3903 Factoria Square Mall SE"}, "geometry": {"type": "Point", "coordinates": [-122.1713104, 47.5759735]}}, {"type": "Feature", "properties": {"id": 9480378419, "name": "Just Poke", "category": "fast_food", "tags": ["fast-food", "poke", "indoor-seating"], "sources": ["osm"]}, "geometry": {"type": "Point", "coordinates": [-122.172338, 47.5739614]}}, {"type": "Feature", "properties": {"id": 3308774161, "name": "Cold Stone Creamery", "category": "ice_cream", "tags": ["ice-cream", "indoor-seating", "wheelchair-accessible"], "sources": ["osm"], "hours": "Mo-Th 12:00-20:30; Fr-Su 12:00-21:00"}, "geometry": {"type": "Point", "coordinates": [-122.1709849, 47.5752136]}}, {"type": "Feature", "properties": {"id": 3308773662, "name": "Panera Bread", "category": "fast_food", "tags": ["fast-food", "sandwich", "bakery", "indoor-seating", "takeaway", "wheelchair-accessible", "vegetarian"], "sources": ["osm", "overture"], "website": "http://www.panerabread.com", "phone": "+14257472265", "address": "4004 Factoria Blvd SE", "hours": "Mo-Sa 06:00-21:00; Su 07:00-21:00"}, "geometry": {"type": "Point", "coordinates": [-122.171226, 47.5744977]}}, {"type": "Feature", "properties": {"id": 1777283090, "name": "Red Robin", "category": "restaurant", "tags": ["restaurant", "burger", "indoor-seating", "wheelchair-accessible", "american", "theme"], "sources": ["osm", "overture"], "website": "https://www.redrobin.com/locations/wa/bellevue/factoria-mall-147", "phone": "+14256413989", "address": "3909 Factoria Blvd SE"}, "geometry": {"type": "Point", "coordinates": [-122.1714826, 47.5753039]}}, {"type": "Feature", "properties": {"id": 3308773761, "name": "Panda Express", "category": "fast_food", "tags": ["fast-food", "chinese", "indoor-seating", "takeaway", "wheelchair-accessible", "restaurant", "asian"], "sources": ["osm", "overture"], "website": "http://www.pandaexpress.com/", "phone": "+14257476890", "address": "3938 Factoria Mall Se Suite B-1 Suite B-1", "hours": "Mo-Sa 10:30-21:30; Su 11:00-21:00"}, "geometry": {"type": "Point", "coordinates": [-122.1710051, 47.574699]}}, {"type": "Feature", "properties": {"id": 2468388686, "name": "Katsu Burger", "category": "restaurant", "tags": ["restaurant", "burger", "japanese", "takeaway", "wheelchair-accessible", "vegetarian", "organic", "asian"], "sources": ["osm", "overture"], "website": "http://www.katsuburger.com/", "phone": "+14259717228", "address": "12700 SE 38th St", "hours": "Mo-Su 11:00-21:00"}, "geometry": {"type": "Point", "coordinates": [-122.1703267, 47.576761]}}, {"type": "Feature", "properties": {"id": 3308773861, "name": "Jamba", "category": "fast_food", "tags": ["fast-food", "juice", "indoor-seating", "takeaway", "wheelchair-accessible", "vegetarian"], "sources": ["osm"], "website": "https://locations.jamba.com/wa/bellevue/3930-factoria-mall-se", "phone": "+1-425-531-8279", "address": "3930 Factoria Mall Southeast", "hours": "Mo-Sa 10:00-20:00; Su 11:00-19:00"}, "geometry": {"type": "Point", "coordinates": [-122.1709892, 47.5748065]}}, {"type": "Feature", "properties": {"id": 2468388627, "name": "\u5317\u65b9\u9986 North", "category": "restaurant", "tags": ["restaurant", "chinese"], "sources": ["osm"], "address": "12708 Southeast 38th Street", "hours": "We-Su 11:00-15:00,17:00-21:00"}, "geometry": {"type": "Point", "coordinates": [-122.170324, 47.5766561]}}, {"type": "Feature", "properties": {"id": "3d471a47-5666-445a-8e30-b1928d539bc2", "name": "Greek Express", "category": "restaurant", "tags": ["restaurant", "greek", "mediterranean", "middle-eastern"], "sources": ["overture"], "website": "https://www.bellevuegreekexpress.com/", "phone": "4257477434", "address": "4058 Factoria Sq Mall SE 2"}, "geometry": {"type": "Point", "coordinates": [-122.1720352, 47.5738678]}}, {"type": "Feature", "properties": {"id": 89618111, "name": "KFC", "category": "fast_food", "tags": ["fast-food", "chicken", "takeaway", "fast", "food"], "sources": ["osm", "overture"], "website": "https://locations.kfc.com/wa/bellevue/12611-se-38th-st", "phone": "+14256412949", "address": "12611 SE 38th St", "hours": "Tu-Fr 10:00-24:00, Sa-Mo 00:00-01:00,10:00-24:00"}, "geometry": {"type": "Point", "coordinates": [-122.1715928, 47.5766613]}}, {"type": "Feature", "properties": {"id": 3308773961, "name": "Ten Sushi", "category": "restaurant", "tags": ["restaurant", "sushi", "indoor-seating", "wheelchair-accessible"], "sources": ["osm", "overture"], "website": "http://www.tensushiseattle.com", "phone": "+14257474413", "address": "3928 Factoria Square Mall Se Ste B4", "hours": "Mo-Su 10:00-01:00"}, "geometry": {"type": "Point", "coordinates": [-122.1709815, 47.5749037]}}, {"type": "Feature", "properties": {"id": 3884179723, "name": "Dim Sum Factory", "category": "restaurant", "tags": ["restaurant", "asian", "indoor-seating", "dim-sum", "dim", "sum", "chinese"], "sources": ["osm", "overture"], "website": "https://pos.chowbus.com/online-ordering/store/dim-sum-factory/15517", "phone": "+14256442888", "address": "4092 Factoria Blvd SE"}, "geometry": {"type": "Point", "coordinates": [-122.1720921, 47.5733611]}}, {"type": "Feature", "properties": {"id": 4241455374, "name": "Arepa Venezuelan Kitchen", "category": "cafe", "tags": ["cafe", "indoor-seating", "restaurant", "venezuelan"], "sources": ["osm", "overture"], "website": "https://arepavenezuelakitchen.com", "address": "4058 Factoria Square Mall SE", "hours": "Mo-Sa 11:00-20:00; Su 11:00-18:00"}, "geometry": {"type": "Point", "coordinates": [-122.172068, 47.5739072]}}, {"type": "Feature", "properties": {"id": 9480378422, "name": "T4", "category": "cafe", "tags": ["cafe", "bubble-tea", "indoor-seating", "takeaway"], "sources": ["osm"], "website": "https://t4seattle.com"}, "geometry": {"type": "Point", "coordinates": [-122.1719133, 47.573918]}}, {"type": "Feature", "properties": {"id": 12067451254, "name": "Mama's Korean Comfort Food", "category": "restaurant", "tags": ["restaurant", "korean"], "sources": ["osm"], "phone": "+1-425-747-2950", "address": "12672 Southeast 38th Street", "hours": "Su-Mo 11:00-21:00; Tu-Th 11:00-22:00; Fr-Sa 11:00-23:00"}, "geometry": {"type": "Point", "coordinates": [-122.1706603, 47.5770245]}}, {"type": "Feature", "properties": {"id": 89618088, "name": "Novilhilo's Brazilian Steakhouse", "category": "restaurant", "tags": ["restaurant", "brazilian"], "sources": ["osm"], "address": "12405 Southeast 38th Street"}, "geometry": {"type": "Point", "coordinates": [-122.1730836, 47.5770219]}}, {"type": "Feature", "properties": {"id": 160182380, "name": "Top Gun Restaurant", "category": "restaurant", "tags": ["restaurant", "chinese"], "sources": ["osm"], "address": "12450 Southeast 38th Street"}, "geometry": {"type": "Point", "coordinates": [-122.1726079, 47.5780418]}}, {"type": "Feature", "properties": {"id": "e39ea819-b8dc-412f-bcd5-639343170959", "name": "Old Country Buffet", "category": "restaurant", "tags": ["restaurant", "american"], "sources": ["overture"], "website": "http://locations.buffet.com/wa/bellevue/0197/", "phone": "(425) 644-5499", "address": "4022 Factoria Blvd Se"}, "geometry": {"type": "Point", "coordinates": [-122.1714096, 47.5741501]}}, {"type": "Feature", "properties": {"id": "f89b33ce-6d66-4147-9665-523f32a97a31", "name": "Ricardo\u2019s Family Mexican Restaurant", "category": "restaurant", "tags": ["restaurant"], "sources": ["overture"], "address": "4065 Factoria Blvd SE"}, "geometry": {"type": "Point", "coordinates": [-122.1702728, 47.5727234]}}, {"type": "Feature", "properties": {"id": "828c2a6c-32d6-4059-b694-ba33898ea3a4", "name": "Shanghai Cafe", "category": "restaurant", "tags": ["restaurant", "chinese"], "sources": ["overture"], "website": "http://www.shanghaicafebellevue.com", "phone": "(425) 603-1689", "address": "12708 SE 38th St"}, "geometry": {"type": "Point", "coordinates": [-122.1704102, 47.576683]}}, {"type": "Feature", "properties": {"id": "71007282-020b-42af-b82a-22ef7083e142", "name": "Mama's Kitchen", "category": "restaurant", "tags": ["restaurant", "korean", "asian"], "sources": ["overture"], "website": "http://www.mamaskitchenbellevue.com", "phone": "+14257472950", "address": "12672 SE 38th St"}, "geometry": {"type": "Point", "coordinates": [-122.1706085, 47.5769577]}}, {"type": "Feature", "properties": {"id": "5648fd58-d6b8-48c1-a83f-9b2d404bd39c", "name": "Tony Maroni's Pizza", "category": "restaurant", "tags": ["restaurant", "pizza"], "sources": ["overture"], "website": "http://tonymaronisbellevuewa.com", "phone": "(425) 957-1111", "address": "12672 SE 38th St"}, "geometry": {"type": "Point", "coordinates": [-122.1706619, 47.5770302]}}, {"type": "Feature", "properties": {"id": "2e6c015f-6106-4225-b12d-aa401022c2e9", "name": "La'bean", "category": "cafe", "tags": ["cafe", "coffee", "vietnamese"], "sources": ["overture"], "website": "http://WWW.LABEANN.COM/", "phone": "+14259563045", "address": "12668 SE 38th St"}, "geometry": {"type": "Point", "coordinates": [-122.1707687, 47.576973]}}, {"type": "Feature", "properties": {"id": "071b53ee-7fdd-4d93-9130-2eb9a4254994", "name": "Top Gun Seafood Restaurant", "category": "restaurant", "tags": ["restaurant", "seafood", "asian"], "sources": ["overture"], "website": "http://www.topgunrestaurants.com/", "phone": "+14256413386", "address": "12450 SE 38th St"}, "geometry": {"type": "Point", "coordinates": [-122.1725616, 47.5779572]}}, {"type": "Feature", "properties": {"id": "b9d7888a-151d-4297-8c44-873b6bb16371", "name": "T4, Themed Tea House", "category": "cafe", "tags": ["cafe", "tea", "room", "theme"], "sources": ["overture"], "website": "http://www.t4seattle.com/", "phone": "+14254692355", "address": "ULTA Target Entrance, 4056 Factoria Blvd SE Ste H1"}, "geometry": {"type": "Point", "coordinates": [-122.1718597, 47.5739136]}}, {"type": "Feature", "properties": {"id": "cdc793e1-3717-4df9-af52-469a5e6a8a86", "name": "Street Food \u8857\u982d\u5c0f\u5403", "category": "fast_food", "tags": ["fast-food", "food", "truck"], "sources": ["overture"], "website": "http://sjjjs.com", "phone": "(425) 555-1212"}, "geometry": {"type": "Point", "coordinates": [-122.171936, 47.5729485]}}, {"type": "Feature", "properties": {"id": "d57e7d92-e14f-4382-91c2-d3e616ce9d96", "name": "Hollywood Coffee Co.", "category": "cafe", "tags": ["cafe", "coffee"], "sources": ["overture"], "website": "http://www.hollywoodcoffeeco.com/", "address": "4013 Factoria Square Mall SE"}, "geometry": {"type": "Point", "coordinates": [-122.1721878, 47.573452]}}, {"type": "Feature", "properties": {"id": "25d2c080-5340-472a-b092-f12b4aeedc5b", "name": "Moo Desserts and Teas", "category": "cafe", "tags": ["cafe", "coffee"], "sources": ["overture"], "phone": "+14256442888", "address": "4092 Factoria Square Mall SE"}, "geometry": {"type": "Point", "coordinates": [-122.1723022, 47.5733528]}}, {"type": "Feature", "properties": {"id": "56ed26d3-cfd2-469e-98cc-162e47787ed6", "name": "Just Poke Factoria Mall", "category": "restaurant", "tags": ["restaurant", "poke", "fast-food"], "sources": ["overture"], "website": "http://justpoke.com/", "phone": "+14255029668", "address": "4059 Factoria Square Mall SE"}, "geometry": {"type": "Point", "coordinates": [-122.1724472, 47.574028]}}, {"type": "Feature", "properties": {"id": "dd626bf3-03df-4a9a-96aa-30571e82d106", "name": "Rising Star International Llc", "category": "restaurant", "tags": ["restaurant"], "sources": ["overture"], "address": "12405 SE 38th St"}, "geometry": {"type": "Point", "coordinates": [-122.1730499, 47.5769653]}}, {"type": "Feature", "properties": {"id": "a4d31bf2-67a9-4b8e-878f-7ea39022b369", "name": "Novilhos Brazilian Steakhouse", "category": "restaurant", "tags": ["restaurant", "brazilian", "latin-american"], "sources": ["overture"], "website": "https://www.novilhos.com/", "phone": "+14256031111", "address": "12405 SE 38th St"}, "geometry": {"type": "Point", "coordinates": [-122.1730499, 47.5769272]}}, {"type": "Feature", "properties": {"id": "64a98010-0e41-448a-81de-373294e8fc14", "name": "Novilhos Marketing Department", "category": "restaurant", "tags": ["restaurant"], "sources": ["overture"], "website": "http://seattle.citysearch.com/profile/external/604263702/bellevue_wa/novilhos_restaurant.html", "phone": "(425) 351-4869", "address": "12405 SE 38th St"}, "geometry": {"type": "Point", "coordinates": [-122.1730423, 47.5770645]}}, {"type": "Feature", "properties": {"id": "47162372-862f-4652-9c4e-46ddac4061d4", "name": "Happy Melon Bakery & Deli", "category": "bakery", "tags": ["bakery"], "sources": ["overture"], "website": "http://www.happymelonbakerydeli.com", "phone": "(425) 644-3548", "address": "12402 SE 38th St"}, "geometry": {"type": "Point", "coordinates": [-122.1732559, 47.5778084]}}, {"type": "Feature", "properties": {"id": "108044de-e9e5-44e2-9ba1-0c84f3067445", "name": "Shanghai Homestyle Express", "category": "restaurant", "tags": ["restaurant", "chinese", "asian"], "sources": ["overture"], "phone": "+14258909439", "address": "12402 SE 38th St"}, "geometry": {"type": "Point", "coordinates": [-122.1731949, 47.5777397]}}, {"type": "Feature", "properties": {"id": "d92aec3c-a013-46ab-9272-2cbb98757849", "name": "KidsQuest Children's Museum", "category": "museum", "tags": ["museum"], "sources": ["overture"], "website": "http://www.kidsquestmuseum.org", "phone": "+14256378100", "address": "4091 Factoria Square Mall SE"}, "geometry": {"type": "Point", "coordinates": [-122.1727142, 47.5733681]}}, {"type": "Feature", "properties": {"id": 4806905594, "name": "Funtastic Playtorium", "category": "playground", "tags": ["playground", "wheelchair-accessible"], "sources": ["osm"], "address": "4077 Factoria Mall Southeast"}, "geometry": {"type": "Point", "coordinates": [-122.1725366, 47.5736088]}}, {"type": "Feature", "properties": {"id": 13289593301, "name": "Monster Mini Golf", "category": "playground", "tags": ["playground"], "sources": ["osm"]}, "geometry": {"type": "Point", "coordinates": [-122.1720725, 47.5734303]}}, {"type": "Feature", "properties": {"id": "b8d33bf8-b11e-4fbf-bafd-d29e65b15c28", "name": "Hyatt Bellevue", "category": "hotel", "tags": ["hotel"], "sources": ["overture"], "phone": "+12069020530", "address": "12522 SE 42nd St"}, "geometry": {"type": "Point", "coordinates": [-122.1723633, 47.5709]}}, {"type": "Feature", "properties": {"id": 1038707356, "name": "Target", "category": "department_store", "tags": ["department-store", "wheelchair-accessible", "wifi", "department"], "sources": ["osm", "overture"], "website": "https://www.target.com/sl/factoria/339", "phone": "+14255620830", "address": "4053 Factoria Square Mall SE", "hours": "Mo-Su 08:00-22:00"}, "geometry": {"type": "Point", "coordinates": [-122.1734248, 47.5738505]}}, {"type": "Feature", "properties": {"id": 1038707361, "name": "Nordstrom Rack", "category": "clothes", "tags": ["clothes", "wheelchair-accessible"], "sources": ["osm", "overture"], "website": "https://stores.nordstromrack.com/us/wa/bellevue/3920-124th-ave-se?utm_source=facebook&utm_medium=organic&utm_campaign=rack&utm_content=14&utm_channel=low_nd_seo_local&sp_source=facebook&sp_campaign=rack", "phone": "+14257467200", "address": "3920 124th Ave SE", "hours": "Mo-Sa 10:00-20:00; Su 11:00-19:00"}, "geometry": {"type": "Point", "coordinates": [-122.1721648, 47.5755127]}}, {"type": "Feature", "properties": {"id": 1038707394, "name": "TJ Maxx", "category": "department_store", "tags": ["department-store", "wheelchair-accessible", "wifi", "department"], "sources": ["osm", "overture"], "website": "https://tjmaxx.tjx.com/store/index.jsp", "phone": "+14253730071", "address": "4001 Factoria Square Mall SE", "hours": "Mo-Su 09:30-21:30"}, "geometry": {"type": "Point", "coordinates": [-122.17226, 47.5744336]}}, {"type": "Feature", "properties": {"id": 1038707454, "name": "Old Navy", "category": "clothes", "tags": ["clothes", "wheelchair-accessible"], "sources": ["osm", "overture"], "website": "https://oldnavy.gap.com/products/bellevue-wa-store-6047.jsp", "phone": "+14258180668", "address": "4037 Factoria Blvd SE"}, "geometry": {"type": "Point", "coordinates": [-122.1712303, 47.5737084]}}, {"type": "Feature", "properties": {"id": 89618102, "name": "Big 5 Sporting Goods", "category": "sports", "tags": ["sports", "wheelchair-accessible"], "sources": ["osm"], "address": "4055 Factoria Boulevard Southeast", "hours": "Mo-Th 10:00-20:30; Fr 09:30-21:00; Sa 09:00-20:30; Su 09:30-20:00"}, "geometry": {"type": "Point", "coordinates": [-122.1700414, 47.5732888]}}, {"type": "Feature", "properties": {"id": 3308773661, "name": "Verizon", "category": "mobile_phone", "tags": ["mobile-phone", "wheelchair-accessible", "mobile"], "sources": ["osm", "overture"], "website": "https://victra.com/stores/wa-bellevue?y_source=1_Mjk2ODE2NC01NTktbG9jYXRpb24ud2Vic2l0ZQ%3D%3D", "phone": "+14256433727", "address": "4049 Factoria Square Mall SE Ste A6", "hours": "Mo-Fr 11:00-19:00; Sa 10:00-19:00; Su 12:00-17:00"}, "geometry": {"type": "Point", "coordinates": [-122.171221, 47.5743996]}}, {"type": "Feature", "properties": {"id": 3308773561, "name": "Ulta Beauty", "category": "cosmetics", "tags": ["cosmetics", "wheelchair-accessible"], "sources": ["osm"], "website": "https://www.ulta.com/stores/bellevue-wa-1017", "phone": "+1-425-643-2666", "address": "4036 Factoria Square Mall Southeast", "hours": "Mo-We 10:00-20:00; Th-Sa 10:00-21:00; Su 11:00-18:00"}, "geometry": {"type": "Point", "coordinates": [-122.1712295, 47.5738578]}}, {"type": "Feature", "properties": {"id": 9480351810, "name": "Bath & Body Works", "category": "cosmetics", "tags": ["cosmetics"], "sources": ["osm"]}, "geometry": {"type": "Point", "coordinates": [-122.1715642, 47.5740895]}}, {"type": "Feature", "properties": {"id": "bf3633ee-29a2-46aa-8503-3b6296c2c403", "name": "Torrid", "category": "clothes", "tags": ["clothes"], "sources": ["overture"], "website": "https://www.torrid.com", "phone": "(425) 747-4043", "address": "4055 Factoria Square Mall SE, Spc A5"}, "geometry": {"type": "Point", "coordinates": [-122.1712341, 47.5743752]}}, {"type": "Feature", "properties": {"id": 9480378417, "name": "Famous Footwear", "category": "shoes", "tags": ["shoes", "wheelchair-accessible", "shoe"], "sources": ["osm", "overture"], "website": "http://666z.x.yupoo.com/", "phone": "+14252568324", "address": "THE MARKETPLACE AT, 4055 Factoria Square Mall SE SUITE G2-3"}, "geometry": {"type": "Point", "coordinates": [-122.1725761, 47.5741943]}}, {"type": "Feature", "properties": {"id": 3884179765, "name": "Bricks and Wheels", "category": "toys", "tags": ["toys"], "sources": ["osm", "overture"], "website": "http://www.bricksandwheels.com/", "phone": "+14256438028", "address": "12678 SE 38th St", "hours": "Mo,We-Sa 10:00-19:00; Tu off; Su 10:00-17:00"}, "geometry": {"type": "Point", "coordinates": [-122.1704912, 47.5770088]}}, {"type": "Feature", "properties": {"id": 5150674825, "name": "Restoration Hardware", "category": "furniture", "tags": ["furniture", "wheelchair-accessible"], "sources": ["osm"], "hours": "Mo-Sa 10:00-19:00; Su 11:00-18:00"}, "geometry": {"type": "Point", "coordinates": [-122.172267, 47.5748413]}}, {"type": "Feature", "properties": {"id": "5c877f96-dc7a-4395-bac5-a847e140f69c", "name": "Ted Baker", "category": "clothes", "tags": ["clothes"], "sources": ["overture"], "website": "https://www.tedbaker.com", "phone": "(425) 453-5582", "address": "41 Bellevue Square"}, "geometry": {"type": "Point", "coordinates": [-122.1725998, 47.5728798]}}, {"type": "Feature", "properties": {"id": 9480351807, "name": "Pet Supplies Plus", "category": "pet", "tags": ["pet", "wheelchair-accessible"], "sources": ["osm"], "hours": "Mo-Sa 08:30-18:00; Su 10:00-18:00"}, "geometry": {"type": "Point", "coordinates": [-122.1710838, 47.5756336]}}, {"type": "Feature", "properties": {"id": 9480351808, "name": "Lakeshore Learning Store", "category": "toys", "tags": ["toys", "wheelchair-accessible"], "sources": ["osm"], "hours": "Mo-Sa 10:00-20:00; Su 11:00-17:00"}, "geometry": {"type": "Point", "coordinates": [-122.1709974, 47.5749961]}}, {"type": "Feature", "properties": {"id": 9480351809, "name": "Exclusively Art", "category": "art", "tags": ["art", "gallery"], "sources": ["osm", "overture"], "website": "http://www.exclusivelyart.com/", "phone": "+14257474899", "address": "3934 Factoria Square Mall SE"}, "geometry": {"type": "Point", "coordinates": [-122.1712587, 47.5747136]}}, {"type": "Feature", "properties": {"id": 9480351812, "name": "Olsen & Sons Fine Jewelry", "category": "jewelry", "tags": ["jewelry"], "sources": ["osm", "overture"], "website": "http://olsenandsonsfinejewelry.godaddysites.com/", "phone": "+14256441101", "address": "3935 Factoria Blvd SE", "hours": "Mo,Fr 10:00-19:00; Tu-Th,Sa 10:00-18:00; Su 11:00-17:00"}, "geometry": {"type": "Point", "coordinates": [-122.1715712, 47.5746299]}}, {"type": "Feature", "properties": {"id": 12047179802, "name": "KMStore", "category": "jewelry", "tags": ["jewelry"], "sources": ["osm"]}, "geometry": {"type": "Point", "coordinates": [-122.1715443, 47.5742874]}}, {"type": "Feature", "properties": {"id": 13002752719, "name": "Rani Jewels", "category": "jewelry", "tags": ["jewelry"], "sources": ["osm"], "website": "https://www.ranijewels.us", "phone": "+1-425-274-5965", "hours": "Mo off; Tu-We \"by appointment only\"; Th-Su 11:00-18:00"}, "geometry": {"type": "Point", "coordinates": [-122.1725847, 47.5739416]}}, {"type": "Feature", "properties": {"id": 160182337, "name": "Jing Jing Asian Market", "category": "supermarket", "tags": ["supermarket", "asian", "chinese", "wheelchair-accessible"], "sources": ["osm"], "website": "no", "phone": "+1-425-644-3548", "address": "12402 Southeast 38th Street", "hours": "09:00-20:30"}, "geometry": {"type": "Point", "coordinates": [-122.1733258, 47.5777983]}}, {"type": "Feature", "properties": {"id": 326011779, "name": "T&T Supermarket", "category": "supermarket", "tags": ["supermarket", "asian", "chinese", "japanese", "korean"], "sources": ["osm"], "website": "https://tntsupermarket.us", "phone": "+1-425-818-3260", "address": "12620 Southeast 41st Place", "hours": "Sa-Su 08:00-22:00; Mo-Fr 09:00-22:00"}, "geometry": {"type": "Point", "coordinates": [-122.1725323, 47.5728637]}}, {"type": "Feature", "properties": {"id": "e63e3feb-ec4c-4547-be8c-a8a835949af4", "name": "Rite Aid", "category": "convenience", "tags": ["convenience"], "sources": ["overture"], "phone": "4256442925", "address": "3905 Factoria Blvd SE"}, "geometry": {"type": "Point", "coordinates": [-122.1708908, 47.5755501]}}, {"type": "Feature", "properties": {"id": "dce457ce-9802-48af-a8eb-1bf8351be3f1", "name": "Amazon Fresh", "category": "gift", "tags": ["gift"], "sources": ["overture"], "website": "http://www.amazon.com/freshstores?", "phone": "8002500668", "address": "3901 Factoria Sq Mall SE"}, "geometry": {"type": "Point", "coordinates": [-122.1711426, 47.5758896]}}, {"type": "Feature", "properties": {"id": "c9724028-e791-454d-becc-e86e6815a13a", "name": "DSW Designer Shoe Warehouse", "category": "shoes", "tags": ["shoes", "shoe"], "sources": ["overture"], "website": "https://stores.dsw.com/usa/wa/bellevue/dsw-designer-shoe-warehouse-factoria-mall.html", "phone": "(425) 641-2190", "address": "4001 Factoria Mall Southeast"}, "geometry": {"type": "Point", "coordinates": [-122.1719742, 47.574852]}}, {"type": "Feature", "properties": {"id": "f7e743c4-13c1-421b-b623-8b614734f197", "name": "Nike Factory Store - Bellevue", "category": "shoes", "tags": ["shoes", "shoe"], "sources": ["overture"], "website": "https://www.nike.com/retail/s/nike-factory-store-bellevue?cp=84620811901_seo_%3Fcp%3D84620811901_seo_&y_source=1_MTE4MzU2MTQtNDgzLWxvY2F0aW9uLndlYnNpdGU%3D", "phone": "4257472848", "address": "4026 Factoria Square Mall SE, #A01"}, "geometry": {"type": "Point", "coordinates": [-122.1711731, 47.5741806]}}, {"type": "Feature", "properties": {"id": "df073600-5efa-4488-bb4b-e5cbec03cd02", "name": "Goldbergs' Deli", "category": "deli", "tags": ["deli", "delicatessen"], "sources": ["overture"], "website": "http://www.goldbergsdeli.com/", "phone": "(425) 641-6622", "address": "3924 Factoria Blvd SE"}, "geometry": {"type": "Point", "coordinates": [-122.1710663, 47.5750313]}}, {"type": "Feature", "properties": {"id": "0b6be92d-c98a-4d38-857a-98a5d7571aa5", "name": "Pet Supplies Plus Bellevue", "category": "pet", "tags": ["pet"], "sources": ["overture"], "website": "https://www.petsuppliesplus.com/Store/WA/Bellevue//4445", "phone": "+14258927387", "address": "3903 Factoria Square Mall SE"}, "geometry": {"type": "Point", "coordinates": [-122.171196, 47.5759659]}}, {"type": "Feature", "properties": {"id": "91544674-6115-4cfc-ad77-f7779204e689", "name": "The House Of Lr&c", "category": "clothes", "tags": ["clothes", "mens"], "sources": ["overture"], "website": "https://thehouseoflrc.com", "phone": "+14252141924", "address": "3921 Factoria Square Mall SE"}, "geometry": {"type": "Point", "coordinates": [-122.1714172, 47.575058]}}, {"type": "Feature", "properties": {"id": "93c5e448-9f0d-456b-b70e-bbc0fe24d2b2", "name": "1MBAD", "category": "clothes", "tags": ["clothes", "womens"], "sources": ["overture"], "website": "https://www.1mbad.com/", "phone": "+13604864970", "address": "4009 Factoria Square Mall SE"}, "geometry": {"type": "Point", "coordinates": [-122.1716232, 47.5741196]}}, {"type": "Feature", "properties": {"id": "e9fc4f41-caed-4955-8626-9c5dc5bc1480", "name": "Join T&T Supermarket US", "category": "supermarket", "tags": ["supermarket"], "sources": ["overture"], "website": "https://www.tntsupermarket.us/", "phone": "+18883724220", "address": "12620 SE 41st Pl"}, "geometry": {"type": "Point", "coordinates": [-122.1720428, 47.572773]}}, {"type": "Feature", "properties": {"id": "d39896bc-5fc4-43e3-af3d-5e2dd5a58a23", "name": "RediClinic", "category": "clinic", "tags": ["clinic", "medical"], "sources": ["overture"], "website": "http://www.rediclinic.com/clinics/washington/bellevue/rediclinic-factoria-square-mall/", "phone": "4256442925", "address": "3905 Factria Sq Mall SE"}, "geometry": {"type": "Point", "coordinates": [-122.1710281, 47.5754166]}}, {"type": "Feature", "properties": {"id": "11031b73-328e-4132-b8ee-85c1ca2fa999", "name": "Pharmacy Onesource, Inc", "category": "pharmacy", "tags": ["pharmacy"], "sources": ["overture"], "website": "pharmacyonesource.com", "phone": "18006548395", "address": "3535 Factoria Blvd SE"}, "geometry": {"type": "Point", "coordinates": [-122.1716309, 47.5787621]}}, {"type": "Feature", "properties": {"id": "f3ae84a4-93b7-4ed2-9534-3c9cb7ae1af3", "name": "United States Postal Service", "category": "post_office", "tags": ["post-office", "office"], "sources": ["overture"], "website": "http://www.usps.com", "phone": "+18002758777", "address": "12400 SE 38th St"}, "geometry": {"type": "Point", "coordinates": [-122.1726074, 47.5777512]}}, {"type": "Feature", "properties": {"id": "5aa304aa-7d9d-42dc-b12f-d9f6cd1e5172", "name": "Post Office Midlakes", "category": "post_office", "tags": ["post-office", "office"], "sources": ["overture"], "website": "http://www.usps.com", "phone": "+14254543087", "address": "12400 SE 38th St"}, "geometry": {"type": "Point", "coordinates": [-122.1727448, 47.5773087]}}, {"type": "Feature", "properties": {"id": "d0eba407-d252-4870-a10b-a9b72a37a781", "name": "Bodyvera Fitness", "category": "fitness_centre", "tags": ["fitness-centre", "pilates", "studio"], "sources": ["overture"], "website": "https://www.bodyverafitness.com", "phone": "14256796056", "address": "12600 Se 38th St  Ste 130"}, "geometry": {"type": "Point", "coordinates": [-122.1710434, 47.5775108]}}]}