{"type": "FeatureCollection", "features": [{"type": "Feature", "properties": {"id": 6019615725, "name": "Subway", "category": "fast_food", "tags": ["fast-food", "sandwich", "takeaway", "fast", "food"], "sources": ["osm", "overture"], "website": "https://restaurants.subway.com/united-states/wa/kent/20932-108th-avenue-south?utm_source=yxt-bing&utm_medium=local&utm_term=acq&utm_content=10558&utm_campaign=evergreen-2020&y_source=1_MTQ5MTMyMTQtNDgzLWxvY2F0aW9uLndlYnNpdGU%3D", "phone": "2538520614", "address": "20932 108th Avenue South, Space B2 Building B", "hours": "Mo-Sa 09:00-22:00; Su 09:00-21:00"}, "geometry": {"type": "Point", "coordinates": [-122.1956575, 47.4144537]}}, {"type": "Feature", "properties": {"id": 3649757562, "name": "Starbucks", "category": "cafe", "tags": ["cafe", "coffee-shop", "takeaway", "coffee"], "sources": ["osm", "overture"], "website": "https://www.starbucks.com/store-locator/store/9056/208th-benson-panther-lk-10700-se-208th-street-kent-wa-980315545-us", "phone": "2538595317", "address": "10700 SE 208th St (208th & Benson/Pant, Her Lk )"}, "geometry": {"type": "Point", "coordinates": [-122.1981426, 47.4160567]}}, {"type": "Feature", "properties": {"id": 4782125621, "name": "Starbucks", "category": "cafe", "tags": ["cafe", "coffee-shop", "takeaway"], "sources": ["osm"], "website": "https://www.starbucks.com/store-locator/store/9901/safeway-kent-459-20830-108th-ave-se-kent-wa-980312168-us", "phone": "+1-253-854-2814", "address": "20830 108th Avenue Southeast"}, "geometry": {"type": "Point", "coordinates": [-122.1957382, 47.4152438]}}, {"type": "Feature", "properties": {"id": "f84c3290-bee9-476e-a586-dd41592d9caa", "name": "Starbucks", "category": "cafe", "tags": ["cafe", "coffee"], "sources": ["overture"], "website": "http://www.starbucks.com", "phone": "(253) 850-0880", "address": "20600 108th Ave SE"}, "geometry": {"type": "Point", "coordinates": [-122.1955338, 47.4171028]}}, {"type": "Feature", "properties": {"id": 3649757576, "name": "Papa Murphy's", "category": "fast_food", "tags": ["fast-food", "pizza", "takeaway", "restaurant"], "sources": ["osm", "overture"], "website": "https://locations.papamurphys.com/wa/kent/20528-108th-avenue-south-east", "phone": "+12538593591", "address": "20528 108th Avenue South East"}, "geometry": {"type": "Point", "coordinates": [-122.1955533, 47.4178344]}}, {"type": "Feature", "properties": {"id": 3649757585, "name": "Yummy Teriyaki", "category": "restaurant", "tags": ["restaurant", "japanese"], "sources": ["osm", "overture"], "phone": "12538131966", "address": "10844 SE 208th St"}, "geometry": {"type": "Point", "coordinates": [-122.1955651, 47.4160378]}}, {"type": "Feature", "properties": {"id": 3649757564, "name": "Sidetrack Eatery & Pub", "category": "pub", "tags": ["pub", "bar", "sports", "american"], "sources": ["osm", "overture"], "website": "http://www.citysearch.com/profile/10744973/kent_wa/sidetrack_eatery_pub.html", "phone": "+12538528311", "address": "10700 SE 208th St"}, "geometry": {"type": "Point", "coordinates": [-122.1979572, 47.4165947]}}, {"type": "Feature", "properties": {"id": 3649757573, "name": "Cat Sang Vietnamese Restaurant", "category": "restaurant", "tags": ["restaurant", "vietnamese"], "sources": ["osm"], "phone": "+1-253-850-6414", "address": "20512 108th Avenue Southeast", "hours": "Mo-Sa 09:00-22:00; Su 09:00-21:00"}, "geometry": {"type": "Point", "coordinates": [-122.1955215, 47.4185282]}}, {"type": "Feature", "properties": {"id": 3721666744, "name": "Fire Starter Bar & Grill", "category": "restaurant", "tags": ["restaurant"], "sources": ["osm"]}, "geometry": {"type": "Point", "coordinates": [-122.196501, 47.414465]}}, {"type": "Feature", "properties": {"id": 4796051061, "name": "Teriyaki", "category": "restaurant", "tags": ["restaurant", "japanese"], "sources": ["osm"]}, "geometry": {"type": "Point", "coordinates": [-122.1956975, 47.4139354]}}, {"type": "Feature", "properties": {"id": 4213226190, "name": "San Wok Express", "category": "restaurant", "tags": ["restaurant", "asian", "takeaway", "chinese"], "sources": ["osm", "overture"], "website": "https://www.sanwok.com/", "phone": "+12539813078", "address": "20710 108th Ave SE", "hours": "Mo 11:00-21:00; Tu closed; We-Su 11:00-21:00"}, "geometry": {"type": "Point", "coordinates": [-122.196525, 47.4165542]}}, {"type": "Feature", "properties": {"id": "f400ea60-587d-4f8e-a5b6-55141e85f7b0", "name": "Cowgirls Espresso", "category": "cafe", "tags": ["cafe", "coffee"], "sources": ["overture"], "website": "http://www.cowgirlsespresso.com", "phone": "2538131600", "address": "21009 108th Ave SE"}, "geometry": {"type": "Point", "coordinates": [-122.1978226, 47.4138527]}}, {"type": "Feature", "properties": {"id": 4796051051, "name": "Golden Curry", "category": "restaurant", "tags": ["restaurant", "indian"], "sources": ["osm"]}, "geometry": {"type": "Point", "coordinates": [-122.1956921, 47.4140825]}}, {"type": "Feature", "properties": {"id": 4796051062, "name": "Thai", "category": "restaurant", "tags": ["restaurant", "thai"], "sources": ["osm"]}, "geometry": {"type": "Point", "coordinates": [-122.1956975, 47.4138138]}}, {"type": "Feature", "properties": {"id": 4848587423, "name": "Ting Tong Thai Cafe", "category": "restaurant", "tags": ["restaurant", "thai", "wifi", "asian"], "sources": ["osm", "overture"], "website": "http://www.tingtongthaicafe.com/", "phone": "+12538540707", "address": "20910 108th Ave SE"}, "geometry": {"type": "Point", "coordinates": [-122.196505, 47.4145498]}}, {"type": "Feature", "properties": {"id": 5177374221, "name": "Chopsticks", "category": "restaurant", "tags": ["restaurant", "chinese"], "sources": ["osm", "overture"], "website": "http://chopstickskent.com", "phone": "(253) 373-9250", "address": "21030 108th Ave SE"}, "geometry": {"type": "Point", "coordinates": [-122.1962367, 47.4137284]}}, {"type": "Feature", "properties": {"id": 5177374222, "name": "Boiling Crawfish Seafood Restaurant", "category": "restaurant", "tags": ["restaurant"], "sources": ["osm"]}, "geometry": {"type": "Point", "coordinates": [-122.1958476, 47.4137219]}}, {"type": "Feature", "properties": {"id": 6019612158, "name": "Maza", "category": "restaurant", "tags": ["restaurant"], "sources": ["osm"], "phone": "+1-253-277-2566", "address": "21000 108th Avenue Southeast"}, "geometry": {"type": "Point", "coordinates": [-122.195667, 47.414106]}}, {"type": "Feature", "properties": {"id": 1423179506, "name": "Gravity Coffee", "category": "cafe", "tags": ["cafe", "coffee-shop", "coffee"], "sources": ["osm", "overture"], "website": "https://www.gravitycoffee.com/", "phone": "2534778750", "address": "20602 108th Ave SE", "hours": "Mo-Fr 05:00-20:00"}, "geometry": {"type": "Point", "coordinates": [-122.1967219, 47.4171084]}}, {"type": "Feature", "properties": {"id": 9217370693, "name": "Daily Dose Espresso", "category": "cafe", "tags": ["cafe", "coffee", "tea", "drive-through"], "sources": ["osm"], "phone": "+1-253-359-5438", "address": "20900 108th Avenue Southeast", "hours": "Mo-Fr 05:00-18:00; Sa 06:00-17:30; Su 06:30-17:00"}, "geometry": {"type": "Point", "coordinates": [-122.196775, 47.4140766]}}, {"type": "Feature", "properties": {"id": 11882073228, "name": "Lukinya", "category": "restaurant", "tags": ["restaurant"], "sources": ["osm"]}, "geometry": {"type": "Point", "coordinates": [-122.1966581, 47.4136004]}}, {"type": "Feature", "properties": {"id": 12308320612, "name": "Deli O'clock", "category": "fast_food", "tags": ["fast-food", "sandwich"], "sources": ["osm"]}, "geometry": {"type": "Point", "coordinates": [-122.1978397, 47.4165955]}}, {"type": "Feature", "properties": {"id": "f71b2113-b996-4db6-86f7-8f54304c175d", "name": "Crawfish Chef", "category": "restaurant", "tags": ["restaurant", "seafood", "cajun-and-creole"], "sources": ["overture"], "website": "http://www.crawfishchef.com/", "phone": "+12532364468", "address": "21022 108th Ave SE"}, "geometry": {"type": "Point", "coordinates": [-122.1960754, 47.4137421]}}, {"type": "Feature", "properties": {"id": 647099884, "name": "Jack in the Box", "category": "fast_food", "tags": ["fast-food", "burger", "takeaway", "drive-through", "fast", "food"], "sources": ["osm", "overture"], "website": "https://www.jackinthebox.com", "phone": "+12538521529", "address": "20746 108th Ave SE", "hours": "24/7"}, "geometry": {"type": "Point", "coordinates": [-122.1965098, 47.4161938]}}, {"type": "Feature", "properties": {"id": "a048aa73-4da6-4e4e-986c-b42faaa12925", "name": "ZENSHI Handcrafted Sushi", "category": "restaurant", "tags": ["restaurant", "sushi", "japanese", "asian"], "sources": ["overture"], "website": "https://www.zenshisushi.com/", "phone": "+12538542814", "address": "20830 108th Ave SE"}, "geometry": {"type": "Point", "coordinates": [-122.1955719, 47.4151421]}}, {"type": "Feature", "properties": {"id": "e07c3b72-9d00-4cd4-be6b-499d70c381e9", "name": "Pizza Takeout & Delivery", "category": "fast_food", "tags": ["fast-food", "fast", "food"], "sources": ["overture"], "website": "https://locations.papamurphys.com/wa/kent/20528-108th-avenue-south-east"}, "geometry": {"type": "Point", "coordinates": [-122.1955185, 47.4178123]}}, {"type": "Feature", "properties": {"id": "06fe0b12-705b-451e-af8c-df4b2f787612", "name": "Kjs Cakery Bakery Sweet Shop", "category": "bakery", "tags": ["bakery"], "sources": ["overture"], "website": "https://www.kjscakerybakery.com", "phone": "12532772516", "address": "20855 108th Ave SE"}, "geometry": {"type": "Point", "coordinates": [-122.1973343, 47.4141884]}}, {"type": "Feature", "properties": {"id": "f57d8b9f-b8a4-421f-ae10-250715e2cb42", "name": "Creative Cake Designs", "category": "bakery", "tags": ["bakery"], "sources": ["overture"], "phone": "2538592812", "address": "20855 108th Ave SE"}, "geometry": {"type": "Point", "coordinates": [-122.1973343, 47.4141884]}}, {"type": "Feature", "properties": {"id": "025a7ea7-b624-4312-8716-0a9d32eb80b6", "name": "Gentle Puppies Inc", "category": "restaurant", "tags": ["restaurant"], "sources": ["overture"], "address": "10700 Se 208th St Ste 204"}, "geometry": {"type": "Point", "coordinates": [-122.1978226, 47.4163551]}}, {"type": "Feature", "properties": {"id": "774beef4-4ffb-4e69-8f35-6c7fa4acf994", "name": "Cancun Mexican Restaurant", "category": "restaurant", "tags": ["restaurant", "mexican"], "sources": ["overture"], "phone": "2535208300", "address": "20512 108th Ave SE"}, "geometry": {"type": "Point", "coordinates": [-122.1970444, 47.4183159]}}, {"type": "Feature", "properties": {"id": "6d74f116-8672-4269-a6cf-0181de057bb8", "name": "Pho Cat Sang", "category": "restaurant", "tags": ["restaurant", "vietnamese", "asian", "noodles"], "sources": ["overture"], "website": "http://m.facebook.com/pages/Cat-Sang/207063542656203", "phone": "+12538506414", "address": "20512 108th Ave SE"}, "geometry": {"type": "Point", "coordinates": [-122.195549, 47.4184914]}}, {"type": "Feature", "properties": {"id": "dcb24073-79a7-4590-ab63-115dca9e82df", "name": "Pho T-Q Restaurant", "category": "restaurant", "tags": ["restaurant"], "sources": ["overture"], "website": "https://www.photqkent.com/home.html", "phone": "2538568800", "address": "20942 108th Ave SE"}, "geometry": {"type": "Point", "coordinates": [-122.1952057, 47.4141846]}}, {"type": "Feature", "properties": {"id": "070ccec7-c26b-41df-9803-654de201ea54", "name": "Coriander Indian Curry House", "category": "restaurant", "tags": ["restaurant", "indian"], "sources": ["overture"], "website": "https://www.corianderindian.com", "phone": "12538521425", "address": "20934 108th Ave SE"}, "geometry": {"type": "Point", "coordinates": [-122.19561, 47.4142685]}}, {"type": "Feature", "properties": {"id": "57d8a17e-f7f5-494d-b3e4-dd89858e1e6f", "name": "Wing Dome Kent", "category": "restaurant", "tags": ["restaurant"], "sources": ["overture"], "website": "http://thewingdome.com/", "phone": "2538549464", "address": "21008 108th Ave SE"}, "geometry": {"type": "Point", "coordinates": [-122.1970444, 47.4137459]}}, {"type": "Feature", "properties": {"id": "7b890b09-b951-4419-9925-d540ba990b8d", "name": "Daily Dose Coffee Co. - Kent", "category": "cafe", "tags": ["cafe", "coffee"], "sources": ["overture"], "website": "https://www.doordash.com/store/daily-dose-coffee-co-kent-2025253/", "phone": "+12533211244", "address": "20900 108th Ave SE"}, "geometry": {"type": "Point", "coordinates": [-122.1967926, 47.414032]}}, {"type": "Feature", "properties": {"id": "cf7ae122-b32b-412d-a58a-8cd775d50c4e", "name": "No Name Bar & Grill", "category": "restaurant", "tags": ["restaurant"], "sources": ["overture"], "address": "21022 108th Ave SE"}, "geometry": {"type": "Point", "coordinates": [-122.1959305, 47.4137001]}}, {"type": "Feature", "properties": {"id": "7674651a-bfbf-4e8b-a856-6a77058b04cb", "name": "Firestarter Bar and Grill", "category": "restaurant", "tags": ["restaurant", "bar-and-grill", "bar", "grill", "american"], "sources": ["overture"], "website": "http://www.firestarterbarandgrill.com/", "phone": "+12538549464", "address": "21008 108th Ave SE"}, "geometry": {"type": "Point", "coordinates": [-122.1957779, 47.4138489]}}, {"type": "Feature", "properties": {"id": "178a47c0-ca31-437b-8aac-1ceb8866267d", "name": "Tokyo Town Teriyaki", "category": "restaurant", "tags": ["restaurant", "japanese", "asian"], "sources": ["overture"], "website": "https://www.groupon.com/biz/kent-wa/tokyo-town-teriyaki-1", "phone": "+12538544937", "address": "21004 108th Ave SE"}, "geometry": {"type": "Point", "coordinates": [-122.1957703, 47.4140244]}}, {"type": "Feature", "properties": {"id": "dfaa0832-4c60-46d2-b219-2cd0f84eeca7", "name": "Maza Steaks", "category": "restaurant", "tags": ["restaurant", "burger", "fast-food", "chicken"], "sources": ["overture"], "website": "http://www.mazasteaks.com/", "phone": "+12532586487", "address": "21000 108th Ave SE"}, "geometry": {"type": "Point", "coordinates": [-122.1957016, 47.4141083]}}, {"type": "Feature", "properties": {"id": "3fe6e77f-4bd9-4953-9b36-e8b5d61c05d8", "name": "Maza Grill", "category": "restaurant", "tags": ["restaurant", "pakistani", "halal"], "sources": ["overture"], "website": "https://mazagrill.co/menu/", "phone": "+12532772566", "address": "21000 108th Ave SE"}, "geometry": {"type": "Point", "coordinates": [-122.1957016, 47.4141121]}}, {"type": "Feature", "properties": {"id": "5972422e-0597-4fbf-813d-9cd41342a5b0", "name": "Abraham Thomas Agency Inc", "category": "restaurant", "tags": ["restaurant"], "sources": ["overture"], "address": "21010 108th Ave SE"}, "geometry": {"type": "Point", "coordinates": [-122.1956787, 47.4138298]}}, {"type": "Feature", "properties": {"id": "3981f21b-8f9e-4916-9b7d-75531d1bb61e", "name": "Indigo Springs", "category": "attraction", "tags": ["attraction", "landmark", "historical", "building"], "sources": ["overture"], "website": "https://www.decron.com/apartments/wa/kent/indigo-springs/?utm_source=facebook", "phone": "+12534999686", "address": "11101 SE 208th St"}, "geometry": {"type": "Point", "coordinates": [-122.1929703, 47.4153824]}}, {"type": "Feature", "properties": {"id": 638804371, "name": "7-Eleven", "category": "convenience", "tags": ["convenience"], "sources": ["osm", "overture"], "website": "https://www.7-eleven.com/", "phone": "+12532856878", "address": "20727 108th Ave SE"}, "geometry": {"type": "Point", "coordinates": [-122.1976155, 47.4162666]}}, {"type": "Feature", "properties": {"id": "590cc65b-c7b0-4125-b996-e64ff5a7b167", "name": "Circle K", "category": "convenience", "tags": ["convenience"], "sources": ["overture"], "website": "https://www.circlek.com/store-locator/US/kent/20727-108th-ave-se/2701602", "phone": "+12538590936", "address": "20727 108th Ave SE"}, "geometry": {"type": "Point", "coordinates": [-122.1975098, 47.4160004]}}, {"type": "Feature", "properties": {"id": 5177374621, "name": "Metro by T-Mobile", "category": "mobile_phone", "tags": ["mobile-phone"], "sources": ["osm"]}, "geometry": {"type": "Point", "coordinates": [-122.195704, 47.4139693]}}, {"type": "Feature", "properties": {"id": 144350988, "name": "Safeway", "category": "supermarket", "tags": ["supermarket", "wifi", "pharmacy"], "sources": ["osm", "overture"], "website": "https://local.safeway.com/safeway/wa/kent/20830-108th-ave-se.html", "phone": "+12538542814", "address": "20830 108th Ave SE", "hours": "Mo-Su 05:00-01:00"}, "geometry": {"type": "Point", "coordinates": [-122.1955804, 47.4151343]}}, {"type": "Feature", "properties": {"id": 3649757581, "name": "Dollar Tree", "category": "variety_store", "tags": ["variety-store", "discount"], "sources": ["osm", "overture"], "website": "https://locations.dollartree.com/wa/kent/20618-108th-ave-se", "phone": "+14256593037", "address": "20618 108th Ave. SE", "hours": "Mo-Sa 09:00-21:00; Su 10:00-20:00"}, "geometry": {"type": "Point", "coordinates": [-122.1955335, 47.4168891]}}, {"type": "Feature", "properties": {"id": 3649757570, "name": "Cigar Land", "category": "tobacco", "tags": ["tobacco"], "sources": ["osm"], "address": "10700 Southeast 208th Street"}, "geometry": {"type": "Point", "coordinates": [-122.19813, 47.4164106]}}, {"type": "Feature", "properties": {"id": 3649757565, "name": "Wireless Connect", "category": "mobile_phone", "tags": ["mobile-phone", "mobile"], "sources": ["osm", "overture"], "website": "https://www.wirelessconnectus.com/", "phone": "+12538561527", "address": "10700 SE 208th St #103"}, "geometry": {"type": "Point", "coordinates": [-122.1981523, 47.4161179]}}, {"type": "Feature", "properties": {"id": 3649757575, "name": "K-Smoke", "category": "tobacco", "tags": ["tobacco"], "sources": ["osm", "overture"], "website": "http://www.ksmoke.com/", "phone": "+12538506000", "address": "20526 108th Ave SE"}, "geometry": {"type": "Point", "coordinates": [-122.1955561, 47.4178802]}}, {"type": "Feature", "properties": {"id": 5177367023, "name": "Smoke", "category": "tobacco", "tags": ["tobacco"], "sources": ["osm"]}, "geometry": {"type": "Point", "coordinates": [-122.1956956, 47.4138961]}}, {"type": "Feature", "properties": {"id": 4213226290, "name": "Benson Mart", "category": "convenience", "tags": ["convenience", "supermarket"], "sources": ["osm", "overture"], "website": "https://benson-mart.hub.biz/", "phone": "+12538569160", "address": "20712 108th Ave SE"}, "geometry": {"type": "Point", "coordinates": [-122.1965109, 47.4164314]}}, {"type": "Feature", "properties": {"id": 4796051042, "name": "Buddy's Home Furnishings", "category": "furniture", "tags": ["furniture"], "sources": ["osm"]}, "geometry": {"type": "Point", "coordinates": [-122.195686, 47.4143602]}}, {"type": "Feature", "properties": {"id": 5970735588, "name": "Chok Hlei Asian Grocery", "category": "supermarket", "tags": ["supermarket"], "sources": ["osm"], "address": "10700 Southeast 208th Street"}, "geometry": {"type": "Point", "coordinates": [-122.1981512, 47.4165045]}}, {"type": "Feature", "properties": {"id": "e4abbba0-3917-474a-879c-c0a982c59086", "name": "Metropcs", "category": "mobile_phone", "tags": ["mobile-phone", "mobile"], "sources": ["overture"], "website": "https://www.t-mobile.com", "phone": "+12539997260", "address": "21000 108th Ave SE"}, "geometry": {"type": "Point", "coordinates": [-122.1960297, 47.4136429]}}, {"type": "Feature", "properties": {"id": "9d1954ef-e439-479c-b86d-680b5b373da0", "name": "Quality Rentals Inc", "category": "furniture", "tags": ["furniture"], "sources": ["overture"], "website": "http://www.shopqualityrentals.com", "phone": "2538524000", "address": "21002 108th Ave SE"}, "geometry": {"type": "Point", "coordinates": [-122.1956787, 47.4140396]}}, {"type": "Feature", "properties": {"id": "5495807d-347b-43a2-9347-690de1d1a51f", "name": "Wizard's Keep Games", "category": "toys", "tags": ["toys"], "sources": ["overture"], "website": "http://www.wizardskeepgames.com/", "phone": "+14255726541", "address": "20514 108th Ave SE"}, "geometry": {"type": "Point", "coordinates": [-122.1956177, 47.4183197]}}, {"type": "Feature", "properties": {"id": "ac153c6c-fc9e-4d31-9529-8de9cd15a938", "name": "Lukinya International Fashion House USA", "category": "clothes", "tags": ["clothes"], "sources": ["overture"], "website": "https://lukinya.com/", "phone": "+12538677830", "address": "21080 108th Ave SE"}, "geometry": {"type": "Point", "coordinates": [-122.1966324, 47.4136086]}}, {"type": "Feature", "properties": {"id": "ad9b724d-5647-4eb8-8fec-f6d4f1ceb3a7", "name": "Laaksh boutique", "category": "clothes", "tags": ["clothes", "womens"], "sources": ["overture"], "website": "http://Www.lakshboutique.com/facebook", "phone": "+12064713435", "address": "20936 108th Ave SE"}, "geometry": {"type": "Point", "coordinates": [-122.1956711, 47.4143028]}}, {"type": "Feature", "properties": {"id": "6312e3ac-7137-4fed-92bc-eded0f620e3f", "name": "India Bazaar", "category": "supermarket", "tags": ["supermarket"], "sources": ["overture"], "website": "https://www.indiabazaarfm.com", "phone": "+12538508906", "address": "20936 108th Ave SE"}, "geometry": {"type": "Point", "coordinates": [-122.1956863, 47.4143066]}}, {"type": "Feature", "properties": {"id": "7bb96bdf-9067-468b-9442-028b17bba9f4", "name": "Benson Smoke Shop", "category": "tobacco", "tags": ["tobacco"], "sources": ["overture"], "phone": "12538596120", "address": "21006 108th Ave SE"}, "geometry": {"type": "Point", "coordinates": [-122.1956787, 47.4139328]}}, {"type": "Feature", "properties": {"id": 3649757574, "name": "Rite Aid", "category": "pharmacy", "tags": ["pharmacy"], "sources": ["osm"], "website": "https://www.riteaid.com/locations/wa/kent/20518-108th-ave-se.html", "phone": "+1-253-854-2999", "address": "20518 108th Avenue Southeast", "hours": "Mo-Su 08:00-22:00; \"store hours see pharmacy hours additional entry\""}, "geometry": {"type": "Point", "coordinates": [-122.1955512, 47.4180906]}}, {"type": "Feature", "properties": {"id": "835fa5e2-f5a7-4cb5-b86b-e4cdeaa75728", "name": "Rite Aid", "category": "pharmacy", "tags": ["pharmacy"], "sources": ["overture"], "website": "https://www.riteaid.com/store-details?storeNumber=5189", "phone": "2538542999", "address": "20518 108th Ave SE"}, "geometry": {"type": "Point", "coordinates": [-122.1970139, 47.4173927]}}, {"type": "Feature", "properties": {"id": 647100004, "name": "Gesa Credit Union", "category": "bank", "tags": ["bank"], "sources": ["osm"], "address": "20540 108th Avenue Southeast"}, "geometry": {"type": "Point", "coordinates": [-122.1967446, 47.4177224]}}, {"type": "Feature", "properties": {"id": 647100049, "name": "Kent Panther Lake Library", "category": "library", "tags": ["library", "wheelchair-accessible"], "sources": ["osm", "overture"], "website": "https://kcls.org/locations/155/", "phone": "+12538540211", "address": "20500 108th Ave SE", "hours": "Mo,Th-Fr 10:00-18:00; Tu-We 12:00-20:00; Sa 11:00-18:00; Su off"}, "geometry": {"type": "Point", "coordinates": [-122.1967193, 47.4184215]}}, {"type": "Feature", "properties": {"id": "9826b157-cd61-4d92-bc7d-b9302b4871ba", "name": "Bank of America ATM", "category": "bank", "tags": ["bank", "credit", "union"], "sources": ["overture"], "website": "https://locators.bankofamerica.com/wa/kent/atm-kent-110636.html", "phone": "8444018500", "address": "20942 108th Ave SE"}, "geometry": {"type": "Point", "coordinates": [-122.196785, 47.4140663]}}, {"type": "Feature", "properties": {"id": 5604949521, "name": "24 Hour Fitness", "category": "fitness_centre", "tags": ["fitness-centre", "weightlifting", "basketball", "cycling", "exercise", "swimming", "gym"], "sources": ["osm", "overture"], "website": "https://www.24hourfitness.com/", "phone": "+12532202342", "address": "20600 108th Avenue SE", "hours": "24/7"}, "geometry": {"type": "Point", "coordinates": [-122.1956019, 47.4173238]}}]}