{"type": "FeatureCollection", "features": [{"type": "Feature", "properties": {"id": 4107771494, "name": "Subway", "category": "fast_food", "tags": ["fast-food", "sandwich", "takeaway", "wheelchair-accessible", "restaurant"], "sources": ["osm", "overture"], "website": "https://restaurants.subway.com/united-states/wa/renton/485-rainier-ave-s", "phone": "+14252359442", "address": "485 Rainier Ave S", "hours": "Mo-Su 09:00-21:00"}, "geometry": {"type": "Point", "coordinates": [-122.2157109, 47.4767075]}}, {"type": "Feature", "properties": {"id": 4162354589, "name": "Domino's", "category": "fast_food", "tags": ["fast-food", "pizza", "indoor-seating", "takeaway"], "sources": ["osm"], "website": "https://pizza.dominos.com/washington/renton/20-sw-7th-st-suite-b", "phone": "+1-425-793-5002", "address": "20 Southwest 7th Street", "hours": "Mo-Fr 10:00-24:00; Sa,Su 00:00-01:00,10:00-24:00"}, "geometry": {"type": "Point", "coordinates": [-122.2174235, 47.4741093]}}, {"type": "Feature", "properties": {"id": 2860419309, "name": "Starbucks", "category": "cafe", "tags": ["cafe", "coffee-shop", "outdoor-seating", "indoor-seating", "takeaway", "wheelchair-accessible", "vegetarian", "air-conditioned", "wifi", "coffee"], "sources": ["osm", "overture"], "website": "https://www.starbucks.com/store-locator/store/16754/", "phone": "+14252279262", "address": "601 S Grady Way", "hours": "Mo-Fr 04:30-18:00; Sa, Su 06:00-17:00"}, "geometry": {"type": "Point", "coordinates": [-122.2114961, 47.471516]}}, {"type": "Feature", "properties": {"id": 282187993, "name": "Starbucks", "category": "cafe", "tags": ["cafe", "coffee-shop", "indoor-seating", "takeaway", "drive-through", "wifi"], "sources": ["osm", "overture"], "website": "https://www.starbucks.com/store-locator/store/116598/", "phone": "+14252770554", "address": "641 Rainier Ave S"}, "geometry": {"type": "Point", "coordinates": [-122.2162881, 47.4741138]}}, {"type": "Feature", "properties": {"id": "0b9b8312-38ca-44f4-8330-a2299fa612ab", "name": "Starbucks", "category": "cafe", "tags": ["cafe", "coffee"], "sources": ["overture"], "website": "https://www.starbucks.com/store-locator/store/1013014", "phone": "+14252045233", "address": "365 Renton Center Way Sw"}, "geometry": {"type": "Point", "coordinates": [-122.2184982, 47.4774361]}}, {"type": "Feature", "properties": {"id": 42422633, "name": "McDonald's", "category": "fast_food", "tags": ["fast-food", "burger", "takeaway", "drive-through", "wifi", "fast", "food"], "sources": ["osm", "overture"], "website": "https://www.mcdonalds.com/us/en-us/location/wa/renton/401-s-grady-way/15723.html?cid=RF%3AYXT%3ARoN%3A%3AClicks%3Fcid%3DRF%3AYXT%3AFB%3A%3AClicks", "phone": "+14252713031", "address": "401 S Grady Way", "hours": "24/7"}, "geometry": {"type": "Point", "coordinates": [-122.2126658, 47.4712004]}}, {"type": "Feature", "properties": {"id": 551077654, "name": "King Buffet", "category": "restaurant", "tags": ["restaurant", "chinese", "indoor-seating", "wheelchair-accessible", "vegetarian", "buffet", "asian"], "sources": ["osm", "overture"], "website": "http://www.kingbuffetrenton.com", "phone": "+14252283666", "address": "20 SW 7th St", "hours": "Mo-Sa 11:00-15:20,15:30-21:00; Su 11:00-21:30"}, "geometry": {"type": "Point", "coordinates": [-122.2171977, 47.4741246]}}, {"type": "Feature", "properties": {"id": 2968211008, "name": "Jimmy John's", "category": "fast_food", "tags": ["fast-food", "sandwich", "indoor-seating", "takeaway", "restaurant"], "sources": ["osm", "overture"], "website": "https://locations.jimmyjohns.com/wa/renton/sandwiches-2405.html", "phone": "+14259704680", "address": "439 Rainier Ave S"}, "geometry": {"type": "Point", "coordinates": [-122.2163838, 47.4774546]}}, {"type": "Feature", "properties": {"id": 3708666566, "name": "Papa Murphy's", "category": "fast_food", "tags": ["fast-food", "pizza", "takeaway", "wheelchair-accessible", "vegetarian"], "sources": ["osm"], "hours": "Mo-Su 11:00-20:00"}, "geometry": {"type": "Point", "coordinates": [-122.2192363, 47.4781837]}}, {"type": "Feature", "properties": {"id": "27a6a474-5bfc-4725-abec-b90df0a42e38", "name": "Papa Murphy's", "category": "restaurant", "tags": ["restaurant", "pizza"], "sources": ["overture"], "website": "https://locations.papamurphys.com/wa/renton/365-renton-center-way-south-west", "phone": "+14252717272", "address": "365 Renton Center Way South West"}, "geometry": {"type": "Point", "coordinates": [-122.2179794, 47.4768486]}}, {"type": "Feature", "properties": {"id": 5161991522, "name": "Baskin-Robbins", "category": "ice_cream", "tags": ["ice-cream", "takeaway", "wheelchair-accessible"], "sources": ["osm"], "website": "https://locations.baskinrobbins.com/wa/renton/520-rainier-ave-s-360740-br", "phone": "+1-425-226-3113", "address": "520 Rainier Avenue South", "hours": "Mo-Su 11:00-22:00"}, "geometry": {"type": "Point", "coordinates": [-122.2146049, 47.4758371]}}, {"type": "Feature", "properties": {"id": 3708666540, "name": "Chipotle", "category": "fast_food", "tags": ["fast-food", "mexican", "outdoor-seating", "indoor-seating", "takeaway", "wheelchair-accessible"], "sources": ["osm"], "website": "https://locations.chipotle.com/wa/renton/439-rainier-ave-s", "phone": "+1-425-226-6646", "address": "439 Rainier Avenue South", "hours": "Mo-Su 10:45-23:00"}, "geometry": {"type": "Point", "coordinates": [-122.216194, 47.4775409]}}, {"type": "Feature", "properties": {"id": 3771319429, "name": "Genki Sushi", "category": "restaurant", "tags": ["restaurant", "sushi"], "sources": ["osm"], "website": "https://www.genkisushiusa.com", "phone": "+1-425-277-1050", "address": "365 South Grady Way", "hours": "Su-Th 11:00-20:00; Fr,Sa 11:00-21:00"}, "geometry": {"type": "Point", "coordinates": [-122.213191, 47.4705373]}}, {"type": "Feature", "properties": {"id": 203300151, "name": "IHOP", "category": "restaurant", "tags": ["restaurant", "breakfast", "pancake", "wheelchair-accessible", "vegetarian", "breakfast-and-brunch", "brunch", "american"], "sources": ["osm", "overture"], "website": "http://www.ihop.com/", "phone": "+14252288697", "address": "610 Rainier Ave S", "hours": "Mo-Su 07:00-17:00"}, "geometry": {"type": "Point", "coordinates": [-122.2141975, 47.474732]}}, {"type": "Feature", "properties": {"id": 2968213759, "name": "The Lemongrass", "category": "restaurant", "tags": ["restaurant", "vietnamese", "asian", "noodles"], "sources": ["osm", "overture"], "website": "http://thelemongrassrestaurant.com/", "phone": "+14252282000", "address": "365 S Grady Way", "hours": "Mo-Th 10:00-21:00; Fr 10:00-22:00; Su 09:00-21:00; Sa 09:00-22:00"}, "geometry": {"type": "Point", "coordinates": [-122.2131914, 47.4705886]}}, {"type": "Feature", "properties": {"id": 222956268, "name": "Taco Bell", "category": "fast_food", "tags": ["fast-food", "tex-mex", "takeaway", "wheelchair-accessible", "fast", "food", "taco", "mexican"], "sources": ["osm", "overture"], "website": "http://www.tacobell.com/", "phone": "+14252541507", "address": "320 Rainier Avenue South", "hours": "Mo-Su 07:00-22:00"}, "geometry": {"type": "Point", "coordinates": [-122.2161149, 47.4790496]}}, {"type": "Feature", "properties": {"id": "ab7664af-0ef9-4fe9-a70c-7e3e7983c5aa", "name": "KFC", "category": "fast_food", "tags": ["fast-food", "fast", "food", "chicken"], "sources": ["overture"], "website": "https://locations.kfc.com/wa/renton/604-rainier-ave-s", "phone": "+14252552160", "address": "604 Rainier Ave. S"}, "geometry": {"type": "Point", "coordinates": [-122.2144394, 47.4750366]}}, {"type": "Feature", "properties": {"id": 3675523890, "name": "Pho 88", "category": "restaurant", "tags": ["restaurant", "vietnamese", "asian", "wheelchair-accessible"], "sources": ["osm"], "address": "757 Rainier Avenue South", "hours": "Mo-Sa 10:00-21:00; Su 11:00-21:00"}, "geometry": {"type": "Point", "coordinates": [-122.219267, 47.4713901]}}, {"type": "Feature", "properties": {"id": 3708666544, "name": "Teriyaki Box", "category": "restaurant", "tags": ["restaurant", "asian", "indoor-seating", "wheelchair-accessible", "japanese"], "sources": ["osm", "overture"], "phone": "14252553888", "address": "364 Renton Center Way Sw  Ste 55", "hours": "Mo-Sa 10:30-20:30; Su off"}, "geometry": {"type": "Point", "coordinates": [-122.2174821, 47.4784742]}}, {"type": "Feature", "properties": {"id": 3734933016, "name": "L&L Hawaiian Barbecue", "category": "fast_food", "tags": ["fast-food", "hawaiian", "takeaway"], "sources": ["osm"], "website": "https://www.hawaiianbarbecue.com/", "phone": "+1-425-227-6980", "address": "20 Southwest 7th Street"}, "geometry": {"type": "Point", "coordinates": [-122.2169878, 47.4744241]}}, {"type": "Feature", "properties": {"id": 3771319428, "name": "Taco Dudes & Caribbean", "category": "restaurant", "tags": ["restaurant", "mexican", "caribbean", "taco"], "sources": ["osm", "overture"], "website": "http://www.TACODUDESCARIBBEAN.COM/", "phone": "+14255725205", "address": "365 S Grady Way", "hours": "Mo-Sa 09:30-20:00; Su 11:00-20:00"}, "geometry": {"type": "Point", "coordinates": [-122.2131891, 47.4702573]}}, {"type": "Feature", "properties": {"id": 4238295413, "name": "New Zen", "category": "restaurant", "tags": ["restaurant", "asian"], "sources": ["osm"], "address": "509 South 3rd Street", "hours": "Mo-Fr 12:00-20:00; Sa 15:00-20:00; Su off"}, "geometry": {"type": "Point", "coordinates": [-122.210049, 47.4796179]}}, {"type": "Feature", "properties": {"id": 4303502989, "name": "Ono Teriyaki", "category": "restaurant", "tags": ["restaurant", "japanese", "asian"], "sources": ["osm", "overture"], "website": "http://www.onoteriyaki.com/", "phone": "+14252357570", "address": "20 SW 7th St"}, "geometry": {"type": "Point", "coordinates": [-122.2174407, 47.4744111]}}, {"type": "Feature", "properties": {"id": 4303507990, "name": "Miss Boba Premium Tea", "category": "cafe", "tags": ["cafe", "bubble-tea"], "sources": ["osm"], "address": "485 Rainier Avenue South"}, "geometry": {"type": "Point", "coordinates": [-122.215765, 47.4768351]}}, {"type": "Feature", "properties": {"id": 4317483191, "name": "Oasis Bubble Tea", "category": "cafe", "tags": ["cafe", "tea"], "sources": ["osm"], "address": "501 South Grady Way", "hours": "Mo-Th 11:00-19:00; Fr-Su 11:00-20:00"}, "geometry": {"type": "Point", "coordinates": [-122.2123889, 47.4700074]}}, {"type": "Feature", "properties": {"id": 4338636691, "name": "Organic Juice Bar and Gyros", "category": "restaurant", "tags": ["restaurant", "gyros", "smoothie", "juice", "filipino", "mediterranean", "american", "takeaway", "vegetarian", "vegan", "gluten-free", "halal"], "sources": ["osm", "overture"], "website": "http://www.organicjuicebarandgyros.com/", "phone": "+14252777755", "address": "229 S 4th Pl", "hours": "Mo-Th 11:00-20:00; Fr-Sa 11:00-21:00"}, "geometry": {"type": "Point", "coordinates": [-122.214113, 47.476599]}}, {"type": "Feature", "properties": {"id": 4386156091, "name": "La Rancherita Mexican Cuisine", "category": "restaurant", "tags": ["restaurant", "mexican", "indoor-seating"], "sources": ["osm"], "website": "https://rancheritarenton.com/", "phone": "+1-425-988-3120", "address": "530 Rainier Avenue South", "hours": "Mo-Fr 10:00-21:30, Sa,Su 10:00-22:00"}, "geometry": {"type": "Point", "coordinates": [-122.2144809, 47.4758503]}}, {"type": "Feature", "properties": {"id": 5823458156, "name": "Pho Box", "category": "restaurant", "tags": ["restaurant", "indoor-seating", "vietnamese", "asian", "korean"], "sources": ["osm", "overture"], "website": "http://phobox1.com", "phone": "+14252917465", "address": "364 Renton Center Way SW #56", "hours": "Mo-Sa 10:00-20:30; Su 11:00-20:30"}, "geometry": {"type": "Point", "coordinates": [-122.2175558, 47.4785619]}}, {"type": "Feature", "properties": {"id": 5823502253, "name": "Pabla Indian Cuisine", "category": "restaurant", "tags": ["restaurant", "indian", "caterer", "indoor-seating", "takeaway", "delivery", "wheelchair-accessible", "vegetarian", "vegan", "kosher", "dairy-free"], "sources": ["osm", "overture"], "website": "http://www.pablacuisine.com/", "phone": "+14252284625", "address": "364 Renton Center Way SW", "hours": "We-Mo 11:00-14:30,17:00-21:00"}, "geometry": {"type": "Point", "coordinates": [-122.2176916, 47.4787132]}}, {"type": "Feature", "properties": {"id": 7131896085, "name": "Renton Bistro", "category": "restaurant", "tags": ["restaurant", "vietnamese", "asian", "noodles"], "sources": ["osm", "overture"], "website": "http://www.rentonbistrowa.com", "phone": "+14255235413", "address": "212 S 3rd St"}, "geometry": {"type": "Point", "coordinates": [-122.2135301, 47.4799664]}}, {"type": "Feature", "properties": {"id": 10675042951, "name": "Boga Drinks & More", "category": "cafe", "tags": ["cafe", "bubble-tea"], "sources": ["osm"], "address": "505 South 3rd Street", "hours": "Mo-Th,Su 11:30-17:00; Fr-Sa 11:30-18:00"}, "geometry": {"type": "Point", "coordinates": [-122.2104203, 47.4796174]}}, {"type": "Feature", "properties": {"id": 1024123478, "name": "Chick-fil-A", "category": "fast_food", "tags": ["fast-food", "chicken", "outdoor-seating", "indoor-seating", "takeaway", "delivery", "drive-through", "wheelchair-accessible", "wifi", "fast", "food"], "sources": ["osm", "overture"], "website": "https://www.chick-fil-a.com/locations/wa/rainier-ave-at-renton-center?utm_source=yext&utm_medium=link", "phone": "+14253367010", "address": "375 Rainier Ave S", "hours": "Mo-Sa 06:30-22:00; Su off"}, "geometry": {"type": "Point", "coordinates": [-122.2169143, 47.4784418]}}, {"type": "Feature", "properties": {"id": 14066931502, "name": "Mi Chalateca", "category": "restaurant", "tags": ["restaurant"], "sources": ["osm"], "address": "601 South Grady Way", "hours": "Mo-Su 10:00-20:00"}, "geometry": {"type": "Point", "coordinates": [-122.2115071, 47.4709619]}}, {"type": "Feature", "properties": {"id": "c2e4b942-20e8-42fd-8c34-a95a83b58da1", "name": "Jack In The Box", "category": "fast_food", "tags": ["fast-food", "fast", "food", "burger", "american"], "sources": ["overture"], "website": "https://locations.jackinthebox.com/us/wa/renton/479-rainier-ave-s?utm_source=Facebook&utm_medium=local&utm_campaign=facebook-local", "phone": "+14252261923", "address": "479 Rainier Ave S"}, "geometry": {"type": "Point", "coordinates": [-122.2159424, 47.4770203]}}, {"type": "Feature", "properties": {"id": 43612740, "name": "Applebee's", "category": "restaurant", "tags": ["restaurant", "american", "bar-and-grill"], "sources": ["osm", "overture"], "website": "https://restaurants.applebees.com/en-us/wa/renton/375-s-grady-way-75020", "phone": "+14256871200", "address": "375 S Grady Way", "hours": "Mo-Fr 11:00-24:00; Sa,Su 11:00-24:00,00:00-01:00"}, "geometry": {"type": "Point", "coordinates": [-122.2132332, 47.4709876]}}, {"type": "Feature", "properties": {"id": 43614480, "name": "Jimmy Mac's Roadhouse", "category": "restaurant", "tags": ["restaurant", "burger", "american"], "sources": ["osm"], "website": "https://www.jimmymacsroadhouse.com/", "phone": "+1-425-227-6881", "address": "225 Southwest 7th Street", "hours": "Su-Th 11:00-22:00; Fr-Sa 11:00-23:00"}, "geometry": {"type": "Point", "coordinates": [-122.2190575, 47.4734452]}}, {"type": "Feature", "properties": {"id": 43614485, "name": "Popeyes", "category": "fast_food", "tags": ["fast-food", "chicken", "takeaway", "delivery", "drive-through", "wifi", "fast", "food", "cajun-and-creole"], "sources": ["osm", "overture"], "website": "https://www.popeyes.com/store-locator/store/restaurant_83571", "phone": "+14252262627", "address": "105 SW 7th St", "hours": "10:00-24:00"}, "geometry": {"type": "Point", "coordinates": [-122.2182049, 47.473085]}}, {"type": "Feature", "properties": {"id": 691057654, "name": "Dutch Bros. Coffee", "category": "cafe", "tags": ["cafe", "coffee-shop", "takeaway", "coffee", "theme"], "sources": ["osm", "overture"], "website": "https://www.dutchbros.com/locations/wa/renton/735-hardie-ave-sw?y_source=1_MTUyMjg1NDAtNTU5LWxvY2F0aW9uLndlYnNpdGU%3D", "phone": "+18778992767", "address": "735 Hardie Ave SW", "hours": "05:00-23:00"}, "geometry": {"type": "Point", "coordinates": [-122.2181413, 47.4728623]}}, {"type": "Feature", "properties": {"id": 203300157, "name": "A&W/KFC", "category": "fast_food", "tags": ["fast-food", "burger", "chicken", "indoor-seating", "drive-through"], "sources": ["osm"], "website": "https://locations.kfc.com/wa/renton/604-rainier-ave-s/", "address": "604 Rainier Avenue South"}, "geometry": {"type": "Point", "coordinates": [-122.2144182, 47.4750367]}}, {"type": "Feature", "properties": {"id": 203300158, "name": "Zapata\u2019s", "category": "restaurant", "tags": ["restaurant", "mexican", "indoor-seating", "wheelchair-accessible", "vegetarian", "air-conditioned"], "sources": ["osm"], "address": "540 Rainier Avenue South"}, "geometry": {"type": "Point", "coordinates": [-122.2141948, 47.4753231]}}, {"type": "Feature", "properties": {"id": 282187992, "name": "The Best Pho & Thai Restaurant", "category": "restaurant", "tags": ["restaurant", "vietnamese", "thai", "indoor-seating", "wheelchair-accessible", "air-conditioned"], "sources": ["osm"], "website": "www.thebestphoandthai.com", "phone": "+1-425-228-4226", "address": "739 Rainier Avenue South", "hours": "Mo-Su 10:30-21:00"}, "geometry": {"type": "Point", "coordinates": [-122.217678, 47.4730674]}}, {"type": "Feature", "properties": {"id": 366889860, "name": "Feast Buffet", "category": "restaurant", "tags": ["restaurant", "asian", "buffet"], "sources": ["osm", "overture"], "website": "http://www.feastbuffetrenton.com", "phone": "+14252351888", "address": "485 Renton Center Way SW", "hours": "Su-Th 11:00-22:00; Fr-Sa 11:00-22:30"}, "geometry": {"type": "Point", "coordinates": [-122.218126, 47.4764451]}}, {"type": "Feature", "properties": {"id": "a783a92e-85c1-4ff1-8a74-a79855d0fe4d", "name": "Pizza Takeout & Delivery", "category": "fast_food", "tags": ["fast-food", "fast", "food"], "sources": ["overture"], "website": "https://locations.papamurphys.com/wa/renton/365-renton-center-way-south-west"}, "geometry": {"type": "Point", "coordinates": [-122.2195511, 47.4780273]}}, {"type": "Feature", "properties": {"id": "807d6770-34f0-42c1-b098-7fd216bc2f73", "name": "Chipotle Mexican Grill", "category": "restaurant", "tags": ["restaurant", "mexican", "fast-food"], "sources": ["overture"], "website": "https://locations.chipotle.com/wa/renton/439-rainier-ave-s?utm_source=facebook&utm_medium=yext&utm_campaign=yext_listings", "phone": "+14252266646", "address": "439 Rainier Ave S Ste B"}, "geometry": {"type": "Point", "coordinates": [-122.2161789, 47.4774895]}}, {"type": "Feature", "properties": {"id": "3e646606-4cb2-40f9-80ec-c83155388351", "name": "Seattle's Best Coffee", "category": "cafe", "tags": ["cafe", "coffee"], "sources": ["overture"], "website": "http://seattlesbest.com", "phone": "(425) 430-9810", "address": "365 Renton Center Way SW"}, "geometry": {"type": "Point", "coordinates": [-122.2185974, 47.47752]}}, {"type": "Feature", "properties": {"id": "de29fe1c-be84-4630-b39b-54be1d00608e", "name": "Geri's casual dining and catering", "category": "restaurant", "tags": ["restaurant", "southern"], "sources": ["overture"], "website": "http://geriscasualdining.com", "phone": "(206) 293-2322", "address": "509 S 3rd St"}, "geometry": {"type": "Point", "coordinates": [-122.2101974, 47.4795113]}}, {"type": "Feature", "properties": {"id": "c651c3f8-a467-42bb-9015-1dd768b75ac5", "name": "Fujiwara Omakase", "category": "restaurant", "tags": ["restaurant", "sushi"], "sources": ["overture"], "phone": "(425) 633-5500", "address": "509 S 3rd St Ste A"}, "geometry": {"type": "Point", "coordinates": [-122.2101669, 47.4795799]}}, {"type": "Feature", "properties": {"id": "8701e4b7-f387-40fb-8303-3fdda1ce7466", "name": "New Zen Japanese Restaurant", "category": "restaurant", "tags": ["restaurant", "japanese", "sushi", "asian"], "sources": ["overture"], "website": "http://www.newzensushi.com/", "phone": "+14252541599", "address": "509 S 3rd St Ste a"}, "geometry": {"type": "Point", "coordinates": [-122.2100372, 47.4796257]}}, {"type": "Feature", "properties": {"id": "3112b45c-5d3f-4d8c-ad18-5a8b9e794ceb", "name": "Yummy Meats & Deli", "category": "restaurant", "tags": ["restaurant", "chicken"], "sources": ["overture"], "website": "https://www.yummyspicy888.com", "phone": "+14252711418", "address": "509 S 3rd St Unit B"}, "geometry": {"type": "Point", "coordinates": [-122.2100449, 47.4795532]}}, {"type": "Feature", "properties": {"id": "0410dc1e-045b-49c8-a4d4-71f994c4ebd5", "name": "Huyen & Son Llc", "category": "restaurant", "tags": ["restaurant"], "sources": ["overture"], "address": "365 S Grady Way Ste A"}, "geometry": {"type": "Point", "coordinates": [-122.2133026, 47.4704285]}}, {"type": "Feature", "properties": {"id": "e978f13c-9178-474a-8eef-ceb649d25f35", "name": "Genki Sushi USA", "category": "restaurant", "tags": ["restaurant", "sushi", "japanese", "asian"], "sources": ["overture"], "website": "http://www.genkisushiusa.com", "phone": "+14252771050", "address": "365 S Grady Way"}, "geometry": {"type": "Point", "coordinates": [-122.2133331, 47.4704857]}}, {"type": "Feature", "properties": {"id": "e3fae197-b97f-4b68-a837-38a8c62e8431", "name": "A&w Restaurant", "category": "fast_food", "tags": ["fast-food", "fast", "food"], "sources": ["overture"], "website": "https://www.awrestaurants.com", "phone": "14252552160", "address": "604 Rainier Ave S"}, "geometry": {"type": "Point", "coordinates": [-122.2144241, 47.4750099]}}, {"type": "Feature", "properties": {"id": "e489a784-2b35-44d2-9707-5798e91b45d5", "name": "A&W", "category": "fast_food", "tags": ["fast-food", "fast", "food"], "sources": ["overture"], "website": "https://awrestaurants.com/locations/washington/renton/604-rainier-ave-s/", "address": "604 Ranier Ave S"}, "geometry": {"type": "Point", "coordinates": [-122.2144241, 47.4752922]}}, {"type": "Feature", "properties": {"id": "40d60b74-7560-41a4-80bf-5f8b500bd031", "name": "Habanero's Taqueria & Grill", "category": "restaurant", "tags": ["restaurant", "mexican", "taco", "bar-and-grill"], "sources": ["overture"], "website": "http://www.tacosguaymas.com", "phone": "+14259883120", "address": "530 Rainier Ave S"}, "geometry": {"type": "Point", "coordinates": [-122.2145081, 47.4758453]}}, {"type": "Feature", "properties": {"id": "83915f3e-2387-4a27-97e0-885da2776bb1", "name": "La Rancherita Renton", "category": "restaurant", "tags": ["restaurant", "mexican", "taco", "latin-american"], "sources": ["overture"], "website": "https://rancheritarenton.com/", "phone": "+14259883120", "address": "530 Rainier Ave S"}, "geometry": {"type": "Point", "coordinates": [-122.2144775, 47.4757805]}}, {"type": "Feature", "properties": {"id": "5a164858-246c-44a1-8d08-0c111429929e", "name": "Zapata\u2019s Mexican Prime Grill", "category": "restaurant", "tags": ["restaurant", "mexican", "latin-american"], "sources": ["overture"], "website": "https://zapatasprimegrill.com/card/", "phone": "+14252268299", "address": "540 Rainier Ave S"}, "geometry": {"type": "Point", "coordinates": [-122.2142181, 47.4753151]}}, {"type": "Feature", "properties": {"id": "3a544b20-c08c-4398-ac7e-835118ad4132", "name": "Shawarma Tiger", "category": "restaurant", "tags": ["restaurant", "mediterranean", "middle-eastern"], "sources": ["overture"], "website": "https://shawarmatiger.com/", "phone": "+14259703659", "address": "229 S 4th Pl"}, "geometry": {"type": "Point", "coordinates": [-122.2140579, 47.4765854]}}, {"type": "Feature", "properties": {"id": "4d9213f1-2f72-4796-af0f-a0ea5f51f356", "name": "Raining Tacos Mexican Food Truck", "category": "fast_food", "tags": ["fast-food", "food", "truck", "mexican", "taco"], "sources": ["overture"], "website": "http://rainingtacos.com/", "phone": "+12068897110", "address": "440 Rainier Ave S"}, "geometry": {"type": "Point", "coordinates": [-122.2145004, 47.4775009]}}, {"type": "Feature", "properties": {"id": "72c06e75-2132-429a-9957-9fade3be0b9f", "name": "Indian Curry Corner", "category": "restaurant", "tags": ["restaurant", "halal"], "sources": ["overture"], "phone": "4252777755", "address": "229 S 4th Pl"}, "geometry": {"type": "Point", "coordinates": [-122.2140121, 47.4769936]}}, {"type": "Feature", "properties": {"id": "dd3627d9-9ae2-4c78-98c9-69f5ef1149b9", "name": "Vino Ristorante Italiano", "category": "restaurant", "tags": ["restaurant", "italian"], "sources": ["overture"], "website": "http://www.vinorestorante.com", "phone": "(425) 271-7042", "address": "212 S 3rd St"}, "geometry": {"type": "Point", "coordinates": [-122.2135773, 47.4799767]}}, {"type": "Feature", "properties": {"id": "90e11641-fc7a-4bc4-8f8d-c0e74d73c313", "name": "Club Monaco Gaming Llc", "category": "restaurant", "tags": ["restaurant"], "sources": ["overture"], "address": "111 S 3rd St"}, "geometry": {"type": "Point", "coordinates": [-122.2153397, 47.4794426]}}, {"type": "Feature", "properties": {"id": "16b2a781-f88d-4fe5-ab48-b6feb1dc3404", "name": "Vitality Foot Massage Spa Llc", "category": "restaurant", "tags": ["restaurant"], "sources": ["overture"], "address": "207 S 4th Pl"}, "geometry": {"type": "Point", "coordinates": [-122.2147064, 47.4763908]}}, {"type": "Feature", "properties": {"id": "05853de3-69fe-4949-bbd8-e27c471ef8d8", "name": "Clyde's Southern Wood Fired Barbeque", "category": "restaurant", "tags": ["restaurant", "barbecue", "southern", "american"], "sources": ["overture"], "website": "https://clydesbarbeque.com", "phone": "+12064468885", "address": "201 S 4th Pl"}, "geometry": {"type": "Point", "coordinates": [-122.2149887, 47.4763718]}}, {"type": "Feature", "properties": {"id": "42f277c4-33ae-4d7f-9318-e1ea512894b5", "name": "Taqueria Guaymas", "category": "restaurant", "tags": ["restaurant", "taco"], "sources": ["overture"], "website": "http://www.tacosguaymas.com", "phone": "(425) 235-2152", "address": "530 Rainier Ave Sourh"}, "geometry": {"type": "Point", "coordinates": [-122.2146378, 47.4758072]}}, {"type": "Feature", "properties": {"id": "da7c6ee3-b5f9-41ad-afc5-2cd513f39c37", "name": "Raising Cane's Chicken Fingers", "category": "fast_food", "tags": ["fast-food", "fast", "food"], "sources": ["overture"], "website": "https://www.raisingcanes.com/locations/C1112", "address": "Rainer & 3rd"}, "geometry": {"type": "Point", "coordinates": [-122.2170334, 47.4797554]}}, {"type": "Feature", "properties": {"id": "3cd6e6e4-4f66-4aec-b561-71ddc6e3ccae", "name": "Pho 88 Cafe", "category": "restaurant", "tags": ["restaurant", "vietnamese", "asian"], "sources": ["overture"], "website": "http://pho88cafe.com", "phone": "+14257930404", "address": "757 Rainier Ave S #6A"}, "geometry": {"type": "Point", "coordinates": [-122.2191467, 47.4714088]}}, {"type": "Feature", "properties": {"id": "cc8a12ea-b45d-48bb-bf86-92ae4b3ff0b8", "name": "Sonic Drive-In", "category": "restaurant", "tags": ["restaurant", "burger", "fast-food"], "sources": ["overture"], "website": "https://locations.sonicdrivein.com/wa/renton/741-rainier-avenue.html", "phone": "4252078115", "address": "741 Rainier Ave S"}, "geometry": {"type": "Point", "coordinates": [-122.2177124, 47.4724045]}}, {"type": "Feature", "properties": {"id": "cdb93be5-e445-4ee5-96e3-7028825d1b96", "name": "Renton, WA (Hardie Ln)", "category": "cafe", "tags": ["cafe", "coffee"], "sources": ["overture"], "website": "https://locations.dutchbros.com/dutch-bros-coffee-wa/renton/735-hardie-ave-sw", "address": "735 Hardie Ave SW"}, "geometry": {"type": "Point", "coordinates": [-122.2181931, 47.4728432]}}, {"type": "Feature", "properties": {"id": "fc54d8c5-8ba3-41e3-b8b0-b20ca9042b0c", "name": "The Best Pho & Thai", "category": "restaurant", "tags": ["restaurant", "vietnamese", "thai", "asian"], "sources": ["overture"], "website": "https://www.thebestphoandthai.com/", "phone": "+14252284226", "address": "739 Rainier Ave S"}, "geometry": {"type": "Point", "coordinates": [-122.2175598, 47.4730186]}}, {"type": "Feature", "properties": {"id": "dfe8b2cc-4f51-4f9e-9cca-e4112fe597a8", "name": "Good Living Llc", "category": "restaurant", "tags": ["restaurant"], "sources": ["overture"], "address": "20 Sw 7th St Ste H"}, "geometry": {"type": "Point", "coordinates": [-122.2172699, 47.4742203]}}, {"type": "Feature", "properties": {"id": "f2a965f4-256d-4b5d-a61d-af0a9b70d924", "name": "L and L Hawaiian Barbecue", "category": "restaurant", "tags": ["restaurant", "barbecue", "hawaiian", "japanese"], "sources": ["overture"], "website": "https://www.hawaiianbarbecue.com/locations/renton", "phone": "+14252276980", "address": "20 SW 7th St H"}, "geometry": {"type": "Point", "coordinates": [-122.2168808, 47.4744225]}}, {"type": "Feature", "properties": {"id": 9937450251, "name": "Henry Moses Honoring Pole", "category": "artwork", "tags": ["artwork"], "sources": ["osm"]}, "geometry": {"type": "Point", "coordinates": [-122.2193059, 47.478383]}}, {"type": "Feature", "properties": {"id": "8bcb7154-01ee-494e-a4e3-7853a1e4ca07", "name": "Red Lion Hotel & Conference Center Seattle Renton", "category": "hotel", "tags": ["hotel", "resort"], "sources": ["overture"], "website": "https://www.redlion.com/renton", "phone": "4252267700", "address": "1 S Grady Way"}, "geometry": {"type": "Point", "coordinates": [-122.2171097, 47.4702187]}}, {"type": "Feature", "properties": {"id": 424470683, "name": "7-Eleven", "category": "convenience", "tags": ["convenience"], "sources": ["osm", "overture"], "website": "https://www.7-eleven.com/", "phone": "+14252773350", "address": "300 Rainier Ave S", "hours": "24/7"}, "geometry": {"type": "Point", "coordinates": [-122.2163088, 47.4793806]}}, {"type": "Feature", "properties": {"id": 366889859, "name": "Fred Meyer", "category": "supermarket", "tags": ["supermarket", "wheelchair-accessible", "wifi", "organic", "department-store", "department"], "sources": ["osm", "overture"], "website": "https://www.fredmeyer.com/stores/grocery/wa/renton/renton/701/00459?cid=loc_70100459_fb", "phone": "+14252045200", "address": "365 Renton Center Way SW", "hours": "Mo-Su 06:00-22:00; Dec 24 06:00-18:00; Dec 25 off; Dec 31 06:00-19:00; Jan 01 06:00-19:00"}, "geometry": {"type": "Point", "coordinates": [-122.2192603, 47.4775252]}}, {"type": "Feature", "properties": {"id": 654879646, "name": "T-Mobile", "category": "mobile_phone", "tags": ["mobile-phone"], "sources": ["osm"], "website": "https://www.t-mobile.com/stores/bd/t-mobile-renton-wa-98057-4327", "address": "330 Rainier Avenue South"}, "geometry": {"type": "Point", "coordinates": [-122.2161163, 47.4787556]}}, {"type": "Feature", "properties": {"id": 2968213749, "name": "Big 5 Sporting Goods", "category": "sports", "tags": ["sports", "wheelchair-accessible"], "sources": ["osm"], "address": "601 South Grady Way", "hours": "Mo-Th 10:00-20:30; Fr 09:30-21:00; Sa 09:00-20:30; Su 09:30-20:00"}, "geometry": {"type": "Point", "coordinates": [-122.2115259, 47.4712163]}}, {"type": "Feature", "properties": {"id": 2861294919, "name": "Metro by T-Mobile", "category": "mobile_phone", "tags": ["mobile-phone", "wheelchair-accessible", "mobile"], "sources": ["osm", "overture"], "website": "https://www.metrobyt-mobile.com/stores/bd/metro-by-t-mobile-renton-wa-10332517/?utm_source=facebook&utm_medium=lastmile&utm_campaign=33842", "phone": "+14257935130", "address": "757 Rainier Ave S", "hours": "Mo-Sa 10:00-20:00; Su 11:00-18:00"}, "geometry": {"type": "Point", "coordinates": [-122.218873, 47.4713913]}}, {"type": "Feature", "properties": {"id": 5161982622, "name": "Metro by T-Mobile", "category": "mobile_phone", "tags": ["mobile-phone"], "sources": ["osm"], "address": "536 Rainier Avenue South"}, "geometry": {"type": "Point", "coordinates": [-122.2139509, 47.4759893]}}, {"type": "Feature", "properties": {"id": 203296209, "name": "ampm", "category": "convenience", "tags": ["convenience"], "sources": ["osm", "overture"], "website": "https://www.ampm.com/", "phone": "+14252270843", "address": "710 S Grady Way"}, "geometry": {"type": "Point", "coordinates": [-122.2100297, 47.4729577]}}, {"type": "Feature", "properties": {"id": 2968207819, "name": "Dollar Tree", "category": "variety_store", "tags": ["variety-store", "wheelchair-accessible", "discount"], "sources": ["osm", "overture"], "website": "https://www.dollartree.com/locations/WA/renton/7340/", "phone": "+12066354891", "address": "757 Rainer Avenue S", "hours": "08:00-22:00"}, "geometry": {"type": "Point", "coordinates": [-122.2195316, 47.4713961]}}, {"type": "Feature", "properties": {"id": 2861294916, "name": "Tobacco City", "category": "tobacco", "tags": ["tobacco", "wheelchair-accessible"], "sources": ["osm"], "address": "601 South Grady Way", "hours": "Mo-Sa 08:30-20:00; Su 09:00-19:00"}, "geometry": {"type": "Point", "coordinates": [-122.2110669, 47.4715196]}}, {"type": "Feature", "properties": {"id": 2861294917, "name": "Knittery", "category": "art", "tags": ["art", "wheelchair-accessible"], "sources": ["osm"], "address": "601 South Grady Way", "hours": "Tu-Sa 10:00-18:00; Su 10:00-14:00; Mo off"}, "geometry": {"type": "Point", "coordinates": [-122.2111957, 47.471516]}}, {"type": "Feature", "properties": {"id": 2861312466, "name": "USA Minimart", "category": "convenience", "tags": ["convenience"], "sources": ["osm"]}, "geometry": {"type": "Point", "coordinates": [-122.2183674, 47.4716097]}}, {"type": "Feature", "properties": {"id": 2968213760, "name": "Sierra Fish & Pets", "category": "pet", "tags": ["pet"], "sources": ["osm", "overture"], "website": "https://sierrafishandpets.com/", "phone": "+14252263215", "address": "601 S Grady Way Ste M", "hours": "Mo-Sa 11:00-19:00; Su 11:00-17:00"}, "geometry": {"type": "Point", "coordinates": [-122.211486, 47.4706699]}}, {"type": "Feature", "properties": {"id": 661326822, "name": "ExtraMile", "category": "convenience", "tags": ["convenience"], "sources": ["osm"], "address": "301 South Grady Way"}, "geometry": {"type": "Point", "coordinates": [-122.2154531, 47.4707936]}}, {"type": "Feature", "properties": {"id": 87481409, "name": "McLendon Hardware", "category": "doityourself", "tags": ["doityourself", "wheelchair-accessible", "hardware"], "sources": ["osm", "overture"], "website": "http://www.mclendons.com/", "phone": "+14252353555", "address": "440 Rainier Ave S", "hours": "Mo-Fr 07:00-20:00; Sa 08:00-20:00; Su 09:00-19:00"}, "geometry": {"type": "Point", "coordinates": [-122.213996, 47.4778549]}}, {"type": "Feature", "properties": {"id": 3675523891, "name": "Smoke & Vapor", "category": "tobacco", "tags": ["tobacco", "wheelchair-accessible"], "sources": ["osm"], "address": "757 Rainier Avenue South", "hours": "Mo-Sa 09:00-21:00; Su 10:00-21:00"}, "geometry": {"type": "Point", "coordinates": [-122.2186329, 47.4713861]}}, {"type": "Feature", "properties": {"id": 3771319430, "name": "Michael's Watch & Jewelry Repair", "category": "jewelry", "tags": ["jewelry", "watchmaker"], "sources": ["osm"], "address": "601 South Grady Way", "hours": "Mo-Fr 10:00-18:00"}, "geometry": {"type": "Point", "coordinates": [-122.2114851, 47.4700882]}}, {"type": "Feature", "properties": {"id": 4303508589, "name": "Fred Meyer Jewelers", "category": "jewelry", "tags": ["jewelry", "wheelchair-accessible"], "sources": ["osm", "overture"], "website": "https://www.fredmeyerjewelers.com", "phone": "14252045215", "address": "365 Renton Center Way SW", "hours": "Mo-Sa 09:00-20:00; Su 11:00-18:00"}, "geometry": {"type": "Point", "coordinates": [-122.218724, 47.4772749]}}, {"type": "Feature", "properties": {"id": 4686186430, "name": "Cigars Plus", "category": "tobacco", "tags": ["tobacco"], "sources": ["osm"], "address": "20 Southwest 7th Street"}, "geometry": {"type": "Point", "coordinates": [-122.217438, 47.474339]}}, {"type": "Feature", "properties": {"id": 5492661028, "name": "Latin Market", "category": "convenience", "tags": ["convenience", "supermarket"], "sources": ["osm", "overture"], "website": "http://www.agr.wa.gov", "phone": "+14252770347", "address": "217 S 4th Pl"}, "geometry": {"type": "Point", "coordinates": [-122.2144372, 47.4765723]}}, {"type": "Feature", "properties": {"id": 5492661029, "name": "A-Solutions", "category": "mobile_phone", "tags": ["mobile-phone"], "sources": ["osm"]}, "geometry": {"type": "Point", "coordinates": [-122.214149, 47.4766763]}}, {"type": "Feature", "properties": {"id": 10007514814, "name": "California Market Mexican Store", "category": "convenience", "tags": ["convenience"], "sources": ["osm"], "address": "536\u00bd Rainier Avenue South"}, "geometry": {"type": "Point", "coordinates": [-122.2138023, 47.4760211]}}, {"type": "Feature", "properties": {"id": 12883898011, "name": "The Phone Guys", "category": "mobile_phone", "tags": ["mobile-phone", "mobile"], "sources": ["osm", "overture"], "website": "https://www.phoneguysonline.com", "phone": "14259023630", "address": "365 S Grady Way  Ste E", "hours": "Mo-Fr 10:00-20:00; Sa 11:00-18:00; Su 11:00-17:00"}, "geometry": {"type": "Point", "coordinates": [-122.2131913, 47.470414]}}, {"type": "Feature", "properties": {"id": 654879679, "name": "Cugini Florists", "category": "florist", "tags": ["florist"], "sources": ["osm"], "address": "413 South 3rd Street", "hours": "Mo-Fr 08:00-17:30; Sa 09:00-17:00"}, "geometry": {"type": "Point", "coordinates": [-122.2114121, 47.4795624]}}, {"type": "Feature", "properties": {"id": "562b85a2-7d9e-4706-b3d0-5e4a7cb21a9a", "name": "Cricket Wireless Authorized Retailer", "category": "mobile_phone", "tags": ["mobile-phone", "mobile"], "sources": ["overture"], "website": "https://www.att.com", "address": "365 Renton Center Way SW"}, "geometry": {"type": "Point", "coordinates": [-122.2191772, 47.4775925]}}, {"type": "Feature", "properties": {"id": "fd824f27-4bda-4d20-a000-55788f73a2d2", "name": "T-Mobile Authorized Retailer", "category": "mobile_phone", "tags": ["mobile-phone", "mobile"], "sources": ["overture"], "website": "https://www.t-mobile.com/stores/bd/t-mobile-renton-wa-98057-4327?utm_source=facebook&utm_medium=lastmile&utm_campaign=4327", "phone": "+14252550506", "address": "330 Rainier Ave S"}, "geometry": {"type": "Point", "coordinates": [-122.216217, 47.4787521]}}, {"type": "Feature", "properties": {"id": "2874389d-ae17-4b4a-8f2c-38ae86efa46c", "name": "PaylessShoeSource", "category": "shoes", "tags": ["shoes", "shoe"], "sources": ["overture"], "phone": "4252350384", "address": "465 Renton Center Way SW"}, "geometry": {"type": "Point", "coordinates": [-122.2178268, 47.4769135]}}, {"type": "Feature", "properties": {"id": "954a8904-bfc3-4cea-9c06-9011e580774a", "name": "Total Wireless", "category": "mobile_phone", "tags": ["mobile-phone", "mobile"], "sources": ["overture"], "website": "https://www.totalwireless.com/stores/wa/renton/520-rainier-ave-s?utm_campaign=list", "phone": "4255726155", "address": "520 Rainier Ave S"}, "geometry": {"type": "Point", "coordinates": [-122.2148895, 47.4758186]}}, {"type": "Feature", "properties": {"id": "f3559754-cbc5-4a5d-af45-d96e285ff768", "name": "Baci Jewelers", "category": "jewelry", "tags": ["jewelry"], "sources": ["overture"], "website": "http://www.bacijewelers.com/", "phone": "+14252774653", "address": "601 S Grady Way"}, "geometry": {"type": "Point", "coordinates": [-122.2114792, 47.4711876]}}, {"type": "Feature", "properties": {"id": "9479d9a6-7b42-40f3-8f74-8be2e64c8c3e", "name": "Tobacco City 2", "category": "tobacco", "tags": ["tobacco"], "sources": ["overture"], "website": "http://tobaccocity.com", "phone": "+14252267040", "address": "601 S Grady Way Ste B"}, "geometry": {"type": "Point", "coordinates": [-122.2110825, 47.4715271]}}, {"type": "Feature", "properties": {"id": "e867ee1e-1184-4cc4-b878-8c6850012516", "name": "Avenue", "category": "clothes", "tags": ["clothes", "womens"], "sources": ["overture"], "website": "http://www.avenue.com/", "phone": "4252287827", "address": "601 S Grady Way"}, "geometry": {"type": "Point", "coordinates": [-122.2116165, 47.4707222]}}, {"type": "Feature", "properties": {"id": "d3534319-2593-40d6-92ec-3bbbd1f3ac0f", "name": "California Market Renton", "category": "supermarket", "tags": ["supermarket"], "sources": ["overture"], "website": "http://www.californiamarketrenton.weebly.com/", "phone": "+14254309000", "address": "536 Rainier Ave S"}, "geometry": {"type": "Point", "coordinates": [-122.2140045, 47.475956]}}, {"type": "Feature", "properties": {"id": "9912bb27-dfcc-43fd-9115-70c778be7b89", "name": "Sugarfoot", "category": "clothes", "tags": ["clothes"], "sources": ["overture"], "website": "https://www.shopsugarfoot.com", "phone": "12068544331", "address": "241 S 4th Pl  Ste D"}, "geometry": {"type": "Point", "coordinates": [-122.213623, 47.4767151]}}, {"type": "Feature", "properties": {"id": "53941861-762f-4ccc-b4fe-af6b53242b03", "name": "17o1 Hookah To Go", "category": "tobacco", "tags": ["tobacco"], "sources": ["overture"], "phone": "14254968652", "address": "485 Rainier Ave S  Ste B"}, "geometry": {"type": "Point", "coordinates": [-122.2159958, 47.4766884]}}, {"type": "Feature", "properties": {"id": "645f54e2-ce12-45ad-9403-d5afe17b3a75", "name": "Just Parrots Etc", "category": "pet", "tags": ["pet"], "sources": ["overture"], "phone": "+14252774555", "address": "364 Renton Center Way Sw Ste C57"}, "geometry": {"type": "Point", "coordinates": [-122.2177124, 47.4787979]}}, {"type": "Feature", "properties": {"id": "38d4c7c4-e0da-4c0a-aed5-ee4a8ae9f310", "name": "Valley Dollar", "category": "supermarket", "tags": ["supermarket"], "sources": ["overture"], "website": "http://valleydollarrenton.com", "phone": "(425) 228-6405", "address": "757 Rainier Ave S Ste 9"}, "geometry": {"type": "Point", "coordinates": [-122.2191925, 47.4712715]}}, {"type": "Feature", "properties": {"id": "50de3ef9-c48a-4435-bef4-9746259204f2", "name": "Mini Mart", "category": "convenience", "tags": ["convenience"], "sources": ["overture"], "website": "http://conocophillips.com", "phone": "+14252779395", "address": "765 Rainier Ave S"}, "geometry": {"type": "Point", "coordinates": [-122.2184372, 47.4718323]}}, {"type": "Feature", "properties": {"id": "278cd0f5-61da-48b6-93f9-dedc1eef47ee", "name": "Yankee Grill", "category": "supermarket", "tags": ["supermarket"], "sources": ["overture"], "website": "https://www.yankeegrillrenton.com", "address": "1 S Grady Way"}, "geometry": {"type": "Point", "coordinates": [-122.2168808, 47.4702568]}}, {"type": "Feature", "properties": {"id": "1eb406a1-a9a0-43b2-8fd0-1f57c2636819", "name": "Cigar Plus", "category": "tobacco", "tags": ["tobacco"], "sources": ["overture"], "website": "http://www.cigarsplus.com", "phone": "+14257937755", "address": "20 SW 7th St C"}, "geometry": {"type": "Point", "coordinates": [-122.2175446, 47.4742699]}}, {"type": "Feature", "properties": {"id": "50d0669c-7e28-494e-9eae-aeb4f7d2ff23", "name": "EM ExtraMile", "category": "convenience", "tags": ["convenience"], "sources": ["overture"], "website": "https://www.chevronextramile.com/station-finder/301-s-grady-way-renton-wa-98055-3298-id99114", "phone": "+14252550561", "address": "301 S Grady Way"}, "geometry": {"type": "Point", "coordinates": [-122.2155762, 47.4708099]}}, {"type": "Feature", "properties": {"id": "3330928d-b75e-4af8-a033-787c5eaabbe4", "name": "Rite Aid", "category": "pharmacy", "tags": ["pharmacy"], "sources": ["overture"], "website": "https://www.riteaid.com", "phone": "+14252264390", "address": "601 S Grady Way"}, "geometry": {"type": "Point", "coordinates": [-122.211319, 47.4708099]}}, {"type": "Feature", "properties": {"id": "90d88aac-d3d3-4142-969b-d415b4e786cd", "name": "Rite Aid", "category": "pharmacy", "tags": ["pharmacy"], "sources": ["overture"], "website": "https://www.riteaid.com/store-details?storeNumber=5201", "phone": "4252264390", "address": "601 S Grady Way Ste P"}, "geometry": {"type": "Point", "coordinates": [-122.2170029, 47.4708939]}}, {"type": "Feature", "properties": {"id": 193279749, "name": "KeyBank", "category": "bank", "tags": ["bank", "wheelchair-accessible", "credit", "union"], "sources": ["osm", "overture"], "website": "https://www.key.com/locations/WA/Renton/BRCH47310257/53-Sw-Sunset-Blvd?ppc=cmpyxt", "phone": "+14252038940", "address": "53 SW Sunset Blvd", "hours": "Mo-Th 09:00-17:00; Fr 09:00-18:00; Sa 10:00-13:30; Su off"}, "geometry": {"type": "Point", "coordinates": [-122.2179862, 47.479272]}}, {"type": "Feature", "properties": {"id": 42388916, "name": "Wells Fargo", "category": "bank", "tags": ["bank", "credit", "union"], "sources": ["osm", "overture"], "website": "http://www.wellsfargo.com", "phone": "+14252280101", "address": "355 S Grady Way"}, "geometry": {"type": "Point", "coordinates": [-122.2139687, 47.4708892]}}, {"type": "Feature", "properties": {"id": "c8efc4f2-14cf-4b1b-930e-cabbadba3dda", "name": "Becu", "category": "bank", "tags": ["bank", "credit", "union"], "sources": ["overture"], "website": "https://www.becu.org/", "phone": "2062393701", "address": "200 S 3rd St"}, "geometry": {"type": "Point", "coordinates": [-122.2146225, 47.4797211]}}, {"type": "Feature", "properties": {"id": "d318430b-f378-4116-a152-77ea1533ff0a", "name": "UPS Access Point location", "category": "post_office", "tags": ["post-office", "office"], "sources": ["overture"], "website": "https://locations.ups.com/wa/renton/access-point-location-146808.html?utm_source=bing&utm_medium=organic&utm_campaign=rio", "address": "601 S Grady Way"}, "geometry": {"type": "Point", "coordinates": [-122.2119141, 47.4705925]}}, {"type": "Feature", "properties": {"id": 654879687, "name": "Ruffhouse", "category": "fitness_centre", "tags": ["fitness-centre", "martial-arts"], "sources": ["osm"], "website": "https://ruffhouserenton.com", "address": "405 South 3rd Street"}, "geometry": {"type": "Point", "coordinates": [-122.2116157, 47.4794821]}}, {"type": "Feature", "properties": {"id": "44a65824-951e-448d-a381-bc5dd024b9f8", "name": "Powerhouse Gym", "category": "fitness_centre", "tags": ["fitness-centre", "gym"], "sources": ["overture"], "phone": "+14252640399", "address": "485 Renton Center Way SW"}, "geometry": {"type": "Point", "coordinates": [-122.2180557, 47.4764786]}}]}