{"type": "FeatureCollection", "features": [{"type": "Feature", "properties": {"id": 2207104562, "name": "Fuel", "category": "cafe", "tags": ["cafe", "coffee-shop"], "sources": ["osm"], "website": "https://www.fuelcoffeeseattle.com", "address": "2300 24th Avenue East"}, "geometry": {"type": "Point", "coordinates": [-122.301911, 47.6396555]}}, {"type": "Feature", "properties": {"id": 36952957, "name": "Caf\u00e9 Lago", "category": "restaurant", "tags": ["restaurant", "italian"], "sources": ["osm", "overture"], "website": "http://www.cafelago.com/", "phone": "+12063298005", "address": "2305 24th Ave E"}, "geometry": {"type": "Point", "coordinates": [-122.3023474, 47.6396934]}}, {"type": "Feature", "properties": {"id": 96677583, "name": "Oxbow", "category": "cafe", "tags": ["cafe", "coffee-shop", "bagel", "bakery"], "sources": ["osm", "overture"], "website": "https://www.oxbowmontlake.com", "phone": "(206) 322-6617", "address": "2307 24th Ave E"}, "geometry": {"type": "Point", "coordinates": [-122.3023469, 47.6398305]}}, {"type": "Feature", "properties": {"id": "2cff11f5-c86f-47ed-a5a8-41d66d910d3d", "name": "Purr Cocktail Lounge", "category": "bar", "tags": ["bar"], "sources": ["overture"], "website": "http://www.purrseattle.com", "phone": "(206) 325-3112", "address": "2307 24th Ave E, Seattle, WA 98112"}, "geometry": {"type": "Point", "coordinates": [-122.3023605, 47.639843]}}, {"type": "Feature", "properties": {"id": "6507eaeb-94db-4a79-948d-0b388c1d54cb", "name": "Fuel Coffee & Books", "category": "cafe", "tags": ["cafe", "coffee"], "sources": ["overture"], "website": "https://www.fuelcoffeeseattle.com/", "phone": "+12063280700", "address": "2300 24th Ave E"}, "geometry": {"type": "Point", "coordinates": [-122.302002, 47.6396599]}}, {"type": "Feature", "properties": {"id": 12028765598, "name": "Wishing Tree", "category": "artwork", "tags": ["artwork"], "sources": ["osm"]}, "geometry": {"type": "Point", "coordinates": [-122.3048837, 47.6322148]}}, {"type": "Feature", "properties": {"id": 12107632225, "name": "Quotidian (daisy/orange)", "category": "artwork", "tags": ["artwork"], "sources": ["osm"], "website": "https://www.arts.wa.gov/artwork/?request=record%3Bid=10740%3Btype=101", "address": "1242 18th Avenue East"}, "geometry": {"type": "Point", "coordinates": [-122.307666, 47.631437]}}, {"type": "Feature", "properties": {"id": 12107632226, "name": "Romulus and Remus C", "category": "artwork", "tags": ["artwork"], "sources": ["osm"], "website": "https://www.arts.wa.gov/artwork/?request=record%3Bid=10804%3Btype=101", "address": "1242 18th Avenue East"}, "geometry": {"type": "Point", "coordinates": [-122.307666, 47.631496]}}, {"type": "Feature", "properties": {"id": "17e15762-cee3-4f8c-8c27-7e0229e7297f", "name": "Hall Spassov Gallery", "category": "gallery", "tags": ["gallery", "art"], "sources": ["overture"], "website": "http://www.hallspassov.com/", "phone": "+12063108048", "address": "2400 E Boston St"}, "geometry": {"type": "Point", "coordinates": [-122.3015594, 47.6389008]}}, {"type": "Feature", "properties": {"id": 306759590, "name": "West Gateway Park", "category": "park", "tags": ["park"], "sources": ["osm"]}, "geometry": {"type": "Point", "coordinates": [-122.3018831, 47.6351545]}}, {"type": "Feature", "properties": {"id": 306759592, "name": "East Gateway Park", "category": "park", "tags": ["park"], "sources": ["osm"]}, "geometry": {"type": "Point", "coordinates": [-122.3012407, 47.6350542]}}, {"type": "Feature", "properties": {"id": "bc004cc9-06f4-471d-879a-a2c745e25187", "name": "Interlaken Park", "category": "park", "tags": ["park"], "sources": ["overture"], "website": "http://www.greenseattle.org/", "phone": "+12066844075", "address": "2451 Delmar Drive East"}, "geometry": {"type": "Point", "coordinates": [-122.3084106, 47.6354637]}}, {"type": "Feature", "properties": {"id": 463013463, "name": "Montlake Bicycle Shop", "category": "bicycle", "tags": ["bicycle"], "sources": ["osm"], "website": "https://www.montlakebike.com/", "phone": "+1-206-329-7333", "address": "2223 24th Avenue East", "hours": "Mo-Fr 11:00-19:00; Sa-Su 10:00-16:00"}, "geometry": {"type": "Point", "coordinates": [-122.302295, 47.6393933]}}, {"type": "Feature", "properties": {"id": 2270109247, "name": "Tony Moses Fitness", "category": "fitness_centre", "tags": ["fitness-centre"], "sources": ["osm"], "address": "2311 24th Avenue East"}, "geometry": {"type": "Point", "coordinates": [-122.3022649, 47.6399269]}}, {"type": "Feature", "properties": {"id": "5c25e51d-7279-47ed-a23f-a51628939fc6", "name": "Balanced Flow Yoga", "category": "fitness_centre", "tags": ["fitness-centre", "yoga", "studio"], "sources": ["overture"], "website": "http://www.balancedflowyoga.net/", "phone": "+16179055694", "address": "2080 23rd Ave E"}, "geometry": {"type": "Point", "coordinates": [-122.3031616, 47.6393471]}}]}