{"type": "FeatureCollection", "features": [{"type": "Feature", "properties": {"id": "fd1f222e-e7f7-4aa3-a63f-3164076557ab", "name": "Moonie Icy Tunes", "category": "fast_food", "tags": ["fast-food", "food", "truck"], "sources": ["overture"], "website": "http://www.moonieicytunes.com", "phone": "(425) 223-1890", "address": "16037 NE 105th Ct"}, "geometry": {"type": "Point", "coordinates": [-122.1245346, 47.6939049]}}, {"type": "Feature", "properties": {"id": 162040572, "name": "Meadow Park", "category": "park", "tags": ["park"], "sources": ["osm", "overture"], "website": "http://www.redmond.gov/cms/one.aspx?portalId=169&pageId=4125", "phone": "+1-425-556-2300", "address": "10710 160th Ave NE", "hours": "dawn-dusk"}, "geometry": {"type": "Point", "coordinates": [-122.1257088, 47.6963879]}}]}