{"type": "FeatureCollection", "features": [{"type": "Feature", "properties": {"id": 1287812510, "name": "Cafe Javasti", "category": "cafe", "tags": ["cafe", "coffee-shop"], "sources": ["osm", "overture"], "website": "http://javasti.com/", "phone": "+12069859903", "address": "8410 5th Ave NE", "hours": "Mo-Fr 06:00-17:00; Sa,Su 07:00-17:00"}, "geometry": {"type": "Point", "coordinates": [-122.3227856, 47.6900895]}}, {"type": "Feature", "properties": {"id": 2463977704, "name": "Kona Kitchen", "category": "restaurant", "tags": ["restaurant", "hawaiian"], "sources": ["osm"], "website": "https://konakitchen.com", "phone": "+1-206-517-5662", "address": "8501 5th Avenue Northeast", "hours": "Mo-Th 10:00-21:00; Fr 10:00-02:00; Sa 09:00-02:00; Su 09:00-21:00"}, "geometry": {"type": "Point", "coordinates": [-122.323192, 47.6905365]}}, {"type": "Feature", "properties": {"id": 2463977711, "name": "The Old 5th Avenue", "category": "pub", "tags": ["pub"], "sources": ["osm"], "phone": "+1-206-522-1515", "address": "8507 5th Avenue Northeast", "hours": "Mo-Su 14:00-02:00"}, "geometry": {"type": "Point", "coordinates": [-122.323192, 47.6906483]}}, {"type": "Feature", "properties": {"id": "ace29f74-82b4-41fb-a61d-55621b57bc81", "name": "Optum - Northgate Plaza Imaging", "category": "cafe", "tags": ["cafe", "coffee"], "sources": ["overture"], "website": "https://www.polyclinic.com/locations-nav/locations/wa/optum-northgate-plaza-imaging-9709-3rd-ave-ne-seattle-wa-98115/DMC94068454.html", "phone": "2068605496", "address": "9709 3rd Ave NE", "stations": [{"stopCode": 45, "lines": "1,2", "name": "Northgate Station", "walkingMeters": 589, "walkingSeconds": 424, "band": 10}]}, "geometry": {"type": "Point", "coordinates": [-122.3259354, 47.699276]}}, {"type": "Feature", "properties": {"id": "7473e80c-0407-4947-b05e-a7f9398d5c84", "name": "Old 5th Avenue Tavern", "category": "bar", "tags": ["bar", "dive"], "sources": ["overture"], "website": "https://m.facebook.com/pages/Old-5th-Avenue-Tavern/109440285761126", "phone": "+12065221515", "address": "8507 5th Ave NE"}, "geometry": {"type": "Point", "coordinates": [-122.3230896, 47.6906471]}}, {"type": "Feature", "properties": {"id": "ed2ae4a2-c996-45da-a3c6-0df89ebb7c59", "name": "Kona Kitchen - Seattle", "category": "restaurant", "tags": ["restaurant", "japanese", "asian", "hawaiian"], "sources": ["overture"], "website": "http://www.konakitchen.com/", "phone": "+12065175662", "address": "8501 5th Ave NE"}, "geometry": {"type": "Point", "coordinates": [-122.3232117, 47.6906319]}}, {"type": "Feature", "properties": {"id": "de0b7678-41e6-4c61-be3c-a8d3651cb51b", "name": "Yuji's Bar & Lounge", "category": "restaurant", "tags": ["restaurant", "hawaiian", "american"], "sources": ["overture"], "website": "http://konakitchen.com", "phone": "+12065175662", "address": "8501 5th Ave NE"}, "geometry": {"type": "Point", "coordinates": [-122.3232574, 47.6906052]}}, {"type": "Feature", "properties": {"id": "0e348b51-ab9b-49a4-83b3-fb022961cac8", "name": "Marie Callender's", "category": "restaurant", "tags": ["restaurant", "diner"], "sources": ["overture"], "website": "http://www.mariecallenders.com", "phone": "(206) 526-5785", "address": "9538 1st Ave NE", "stations": [{"stopCode": 45, "lines": "1,2", "name": "Northgate Station", "walkingMeters": 615, "walkingSeconds": 442, "band": 5}]}, "geometry": {"type": "Point", "coordinates": [-122.3281326, 47.6991081]}}, {"type": "Feature", "properties": {"id": 39944909, "name": "Hampton Inn & Suites", "category": "hotel", "tags": ["hotel"], "sources": ["osm"], "website": "https://www.hilton.com/en/hotels/seanghx-hampton-suites-seattle-northgate/", "phone": "+1-206-522-6991", "address": "9550 1st Avenue Northeast", "stations": [{"stopCode": 45, "lines": "1,2", "name": "Northgate Station", "walkingMeters": 601, "walkingSeconds": 432, "band": 5}]}, "geometry": {"type": "Point", "coordinates": [-122.3280784, 47.6992145]}}, {"type": "Feature", "properties": {"id": "c055fa9f-b8b4-4004-ba84-2a1623311030", "name": "Hampton Inn and Suites by Hilton Seattle Northgate", "category": "hotel", "tags": ["hotel"], "sources": ["overture"], "website": "http://seattlenorthgate.hamptonbyhilton.com/", "phone": "+12065226991", "address": "9550 1st Ave NE", "stations": [{"stopCode": 45, "lines": "1,2", "name": "Northgate Station", "walkingMeters": 569, "walkingSeconds": 410, "band": 5}]}, "geometry": {"type": "Point", "coordinates": [-122.3281174, 47.6993866]}}, {"type": "Feature", "properties": {"id": 9995523448, "name": "Rick's Chevron", "category": "convenience", "tags": ["convenience"], "sources": ["osm"], "website": "https://www.rickstireandchevron.com/", "phone": "+1-206-525-9392", "address": "8506 5th Avenue Northeast"}, "geometry": {"type": "Point", "coordinates": [-122.3227635, 47.6905865]}}, {"type": "Feature", "properties": {"id": 1287812512, "name": "Metropolitan Music", "category": "music", "tags": ["music"], "sources": ["osm"], "website": "https://metropolitan-music.com/", "phone": "+1-206-729-9299", "address": "8414 5th Avenue Northeast", "hours": "Mo-Fr 12:00-17:00; Sa 10:00-14:00"}, "geometry": {"type": "Point", "coordinates": [-122.3227878, 47.6902718]}}, {"type": "Feature", "properties": {"id": "e1d745f7-4bf7-4047-8ab6-afecac76c7ad", "name": "Mrs Pets", "category": "supermarket", "tags": ["supermarket"], "sources": ["overture"], "address": "8412 5th Ave NE"}, "geometry": {"type": "Point", "coordinates": [-122.3227615, 47.6901665]}}, {"type": "Feature", "properties": {"id": 13300830066, "name": "Optum - Northgate Plaza Urgent Care", "category": "clinic", "tags": ["clinic"], "sources": ["osm"], "website": "https://www.optum.com/locations-nav/locations/ocwa/optum-northgate-plaza-urgent-care-9709-3rd-ave-ne-seattle-ocwa-98115/DMC94068456.html", "phone": "+1-206-401-3191", "address": "9709 3rd Avenue Northeast", "hours": "Mo-Fr 07:30-19:00; Sa-Su 08:00-17:00", "stations": [{"stopCode": 45, "lines": "1,2", "name": "Northgate Station", "walkingMeters": 538, "walkingSeconds": 389, "band": 10}]}, "geometry": {"type": "Point", "coordinates": [-122.3270233, 47.6992648]}}, {"type": "Feature", "properties": {"id": 39944897, "name": "Optum - Northgate Plaza", "category": "clinic", "tags": ["clinic"], "sources": ["osm"], "website": "https://www.optum.com/locations-nav/locations/ocwa/optum-northgate-plaza-9709-3rd-ave-ne-seattle-ocwa-98115/DMC94068457.html", "phone": "+1-206-329-1760", "address": "9709 3rd Avenue Northeast", "hours": "Mo-Fr 07:30-19:00; Sa,Su 08:00-17:00", "stations": [{"stopCode": 45, "lines": "1,2", "name": "Northgate Station", "walkingMeters": 626, "walkingSeconds": 451, "band": 10}]}, "geometry": {"type": "Point", "coordinates": [-122.3269109, 47.6991895]}}, {"type": "Feature", "properties": {"id": "a87237fb-0222-442d-b90a-d2f8302d19c1", "name": "Northgate South Medical Center", "category": "clinic", "tags": ["clinic", "medical"], "sources": ["overture"], "website": "https://healthy.kaiserpermanente.org/washington/facilities/northgate-south-medical-center-338985", "address": "9720 4th Ave NE", "stations": [{"stopCode": 45, "lines": "1,2", "name": "Northgate Station", "walkingMeters": 591, "walkingSeconds": 441, "band": 10}]}, "geometry": {"type": "Point", "coordinates": [-122.3242722, 47.6999588]}}, {"type": "Feature", "properties": {"id": "24f2f2db-aa2b-43fc-aeef-ed8e0253aa89", "name": "Rheumatology", "category": "clinic", "tags": ["clinic", "medical"], "sources": ["overture"], "website": "https://polyclinic.com", "phone": "(206) 860-5580", "address": "9709 3rd Ave NE", "stations": [{"stopCode": 45, "lines": "1,2", "name": "Northgate Station", "walkingMeters": 533, "walkingSeconds": 385, "band": 10}]}, "geometry": {"type": "Point", "coordinates": [-122.326889, 47.699295]}}, {"type": "Feature", "properties": {"id": "f83363bc-a3cd-4d38-b641-5ad7f3051f38", "name": "Maxim Healthcare Services", "category": "clinic", "tags": ["clinic", "medical"], "sources": ["overture"], "phone": "+12065270657", "address": "9709 3rd Ave Ne Ste 305", "stations": [{"stopCode": 45, "lines": "1,2", "name": "Northgate Station", "walkingMeters": 582, "walkingSeconds": 434, "band": 10}]}, "geometry": {"type": "Point", "coordinates": [-122.3270645, 47.6990891]}}, {"type": "Feature", "properties": {"id": 9837120514, "name": "East West Bank", "category": "bank", "tags": ["bank", "credit", "union"], "sources": ["osm", "overture"], "website": "https://www.eastwestbank.com/", "phone": "2065258118", "address": "9709 3rd Avenue NE, Suite 110", "hours": "Mo-Fr 09:00-17:00", "stations": [{"stopCode": 45, "lines": "1,2", "name": "Northgate Station", "walkingMeters": 557, "walkingSeconds": 403, "band": 10}]}, "geometry": {"type": "Point", "coordinates": [-122.3264652, 47.6992521]}}, {"type": "Feature", "properties": {"id": "f572d425-9780-49b0-a323-1a4d4529c99c", "name": "HouseholderGroup Estate & Retirement Specialists", "category": "bank", "tags": ["bank", "credit", "union"], "sources": ["overture"], "website": "https://www.balinfinancialservices.com/", "phone": "2065172342", "address": "9725 3rd Ave NE Ste 201 Ste 201", "stations": [{"stopCode": 45, "lines": "1,2", "name": "Northgate Station", "walkingMeters": 480, "walkingSeconds": 347, "band": 5}]}, "geometry": {"type": "Point", "coordinates": [-122.3266068, 47.6999664]}}, {"type": "Feature", "properties": {"id": 39767587, "name": "Seattle Athletic Club", "category": "fitness_centre", "tags": ["fitness-centre", "basketball", "racquet"], "sources": ["osm"], "address": "333 Northeast 97th Street", "hours": "Mo-Fr 05:30-22:00; Sa,Su 07:00-20:00", "stations": [{"stopCode": 45, "lines": "1,2", "name": "Northgate Station", "walkingMeters": 680, "walkingSeconds": 489, "band": 10}]}, "geometry": {"type": "Point", "coordinates": [-122.3247761, 47.698845]}}, {"type": "Feature", "properties": {"id": "8ea59c8a-077d-4490-84b8-311e6ff7f500", "name": "Seattle Athletic Club Northgate", "category": "fitness_centre", "tags": ["fitness-centre", "gym"], "sources": ["overture"], "website": "http://www.sacng.com/", "phone": "+12065229400", "address": "333 NE 97th St", "stations": [{"stopCode": 45, "lines": "1,2", "name": "Northgate Station", "walkingMeters": 680, "walkingSeconds": 489, "band": 10}]}, "geometry": {"type": "Point", "coordinates": [-122.3248062, 47.6988678]}}, {"type": "Feature", "properties": {"id": "31edaf56-6bc9-41e5-a0ee-1a63ea66cd8f", "name": "Curves of Northgate", "category": "fitness_centre", "tags": ["fitness-centre", "gym"], "sources": ["overture"], "website": "http://www.curves.com/", "phone": "2069850660", "address": "9580 1st Ave NE", "stations": [{"stopCode": 45, "lines": "1,2", "name": "Northgate Station", "walkingMeters": 539, "walkingSeconds": 388, "band": 10}]}, "geometry": {"type": "Point", "coordinates": [-122.3284683, 47.6983147]}}]}