{"type": "FeatureCollection", "features": [{"type": "Feature", "properties": {"id": 352690765, "name": "Hollerbach Park", "category": "park", "tags": ["park"], "sources": ["osm"]}, "geometry": {"type": "Point", "coordinates": [-122.2164097, 47.5654705]}}, {"type": "Feature", "properties": {"id": "3794f0fe-788c-43b6-af62-84eeffa34778", "name": "Hollerbach Open Space", "category": "park", "tags": ["park"], "sources": ["overture"], "phone": "+12069659990", "address": "4505 91st Ave SE"}, "geometry": {"type": "Point", "coordinates": [-122.2161102, 47.5654068]}}, {"type": "Feature", "properties": {"id": "84126f15-fa96-41e4-bf49-de3d698530c2", "name": "Energize Pilates", "category": "fitness_centre", "tags": ["fitness-centre", "pilates", "studio"], "sources": ["overture"], "website": "http://energizepilates.com/", "phone": "2067136196", "address": "9445 SE 47th St"}, "geometry": {"type": "Point", "coordinates": [-122.2143402, 47.562439]}}]}