{"type": "FeatureCollection", "features": [{"type": "Feature", "properties": {"id": "1d96de34-9bf1-4b58-b7d2-efa3033a70f5", "name": "SUBWAY", "category": "restaurant", "tags": ["restaurant", "sandwich"], "sources": ["overture"], "website": "http://www.subway.com", "phone": "(425) 672-2791", "address": "19720 44th Ave W", "stations": [{"stopCode": 40, "lines": "1,2", "name": "Lynnwood City Center Station", "walkingMeters": 709, "walkingSeconds": 510, "band": 10}]}, "geometry": {"type": "Point", "coordinates": [-122.293129, 47.8199615]}}, {"type": "Feature", "properties": {"id": "0d6cc85d-d738-4fd5-bf61-b2c901c7255b", "name": "Starbucks", "category": "cafe", "tags": ["cafe", "coffee"], "sources": ["overture"], "phone": "4257784034", "address": "19720 W Lynnwood Sq # 44th Ave", "stations": [{"stopCode": 40, "lines": "1,2", "name": "Lynnwood City Center Station", "walkingMeters": 619, "walkingSeconds": 446, "band": 10}]}, "geometry": {"type": "Point", "coordinates": [-122.292511, 47.8199272]}}, {"type": "Feature", "properties": {"id": 565644218, "name": "McDonald's", "category": "fast_food", "tags": ["fast-food", "burger", "takeaway", "drive-through", "wifi", "fast", "food"], "sources": ["osm", "overture"], "website": "https://www.mcdonalds.com/us/en-us/location/wa/lynnwood/19808-44th-ave-w/14102.html?cid=RF%3AYXT%3ARoN%3A%3AClicks%3Fcid%3DRF%3AYXT%3AFB%3A%3AClicks", "phone": "+14257743629", "address": "19808 44th Ave W", "hours": "Mo-Fr 06:00-22:00; Sa-Su 07:00-22:00", "stations": [{"stopCode": 40, "lines": "1,2", "name": "Lynnwood City Center Station", "walkingMeters": 592, "walkingSeconds": 426, "band": 10}]}, "geometry": {"type": "Point", "coordinates": [-122.2931358, 47.818967]}}, {"type": "Feature", "properties": {"id": "deba7dfd-efbd-4e7f-8ba5-04621c920d58", "name": "Buca di Beppo", "category": "restaurant", "tags": ["restaurant", "pizza"], "sources": ["overture"], "website": "http://www.bucadibeppo.com/restaurants/wa/lynnwood/", "phone": "4257447272", "address": "4301 Alderwood Mall Blvd", "stations": [{"stopCode": 40, "lines": "1,2", "name": "Lynnwood City Center Station", "walkingMeters": 497, "walkingSeconds": 357, "band": 5}]}, "geometry": {"type": "Point", "coordinates": [-122.2910004, 47.8177986]}}, {"type": "Feature", "properties": {"id": 7487771399, "name": "Cafe Kleo", "category": "cafe", "tags": ["cafe", "bubble-tea"], "sources": ["osm", "overture"], "website": "https://cafekleo.com", "phone": "14253611799", "address": "19720 44th Ave W  Ste K", "stations": [{"stopCode": 40, "lines": "1,2", "name": "Lynnwood City Center Station", "walkingMeters": 704, "walkingSeconds": 507, "band": 10}]}, "geometry": {"type": "Point", "coordinates": [-122.292936, 47.8198593]}}, {"type": "Feature", "properties": {"id": 10874107773, "name": "Pub 44", "category": "bar", "tags": ["bar", "pub", "bar-and-grill"], "sources": ["osm", "overture"], "website": "http://pub-44.poi.place", "phone": "+14255828808", "address": "19720 44th Ave W", "stations": [{"stopCode": 40, "lines": "1,2", "name": "Lynnwood City Center Station", "walkingMeters": 629, "walkingSeconds": 453, "band": 10}]}, "geometry": {"type": "Point", "coordinates": [-122.29329, 47.8196697]}}, {"type": "Feature", "properties": {"id": 13240052601, "name": "Ciao Caff\u00e9", "category": "cafe", "tags": ["cafe", "coffee-shop", "takeaway"], "sources": ["osm"], "address": "20122 46th Avenue West", "hours": "Mo-Fr 05:00-17:00; Sa-Su 08:00-15:00", "stations": [{"stopCode": 40, "lines": "1,2", "name": "Lynnwood City Center Station", "walkingMeters": 168, "walkingSeconds": 121, "band": 5}]}, "geometry": {"type": "Point", "coordinates": [-122.2953676, 47.8158252]}}, {"type": "Feature", "properties": {"id": 13805305568, "name": "Evergreen Donuts", "category": "fast_food", "tags": ["fast-food", "donut"], "sources": ["osm"], "phone": "+1-425-361-1489", "address": "20101 44th Avenue West", "stations": [{"stopCode": 40, "lines": "1,2", "name": "Lynnwood City Center Station", "walkingMeters": 436, "walkingSeconds": 314, "band": 5}]}, "geometry": {"type": "Point", "coordinates": [-122.2916734, 47.8164421]}}, {"type": "Feature", "properties": {"id": 589131175, "name": "Cafe India", "category": "restaurant", "tags": ["restaurant", "indian", "vegetarian"], "sources": ["osm", "overture"], "website": "http://www.cafeindialynnwood.com", "phone": "+14259539739", "address": "19817 44th Ave W", "stations": [{"stopCode": 40, "lines": "1,2", "name": "Lynnwood City Center Station", "walkingMeters": 497, "walkingSeconds": 358, "band": 5}]}, "geometry": {"type": "Point", "coordinates": [-122.2918743, 47.8185774]}}, {"type": "Feature", "properties": {"id": "f051f899-999f-40d0-84da-e966c72eb0b9", "name": "King Tut", "category": "restaurant", "tags": ["restaurant", "mediterranean"], "sources": ["overture"], "website": "http://www.kingtut7000.com", "phone": "(425) 774-6100", "address": "4520 200th St SW Ste 213", "stations": [{"stopCode": 40, "lines": "1,2", "name": "Lynnwood City Center Station", "walkingMeters": 297, "walkingSeconds": 214, "band": 5}]}, "geometry": {"type": "Point", "coordinates": [-122.294342, 47.8169899]}}, {"type": "Feature", "properties": {"id": "73084036-a9c6-45a2-a3dc-5eb817458719", "name": "Black Angus Steakhouse", "category": "restaurant", "tags": ["restaurant", "steakhouse"], "sources": ["overture"], "website": "http://locations.blackangus.com/ll/us/wa/lynnwood/20102-44th-avenue-w", "phone": "(425) 774-6556", "address": "20102 44th Avenue W", "stations": [{"stopCode": 40, "lines": "1,2", "name": "Lynnwood City Center Station", "walkingMeters": 338, "walkingSeconds": 243, "band": 5}]}, "geometry": {"type": "Point", "coordinates": [-122.2928619, 47.815979]}}, {"type": "Feature", "properties": {"id": "c15c6d3a-8b0a-450b-8f1e-ff3fe4256f99", "name": "Hingston Miller Hingston Pllc", "category": "restaurant", "tags": ["restaurant"], "sources": ["overture"], "address": "20700 44th Ave W Ste 210", "stations": [{"stopCode": 40, "lines": "1,2", "name": "Lynnwood City Center Station", "walkingMeters": 683, "walkingSeconds": 510, "band": 15}]}, "geometry": {"type": "Point", "coordinates": [-122.2957001, 47.8109131]}}, {"type": "Feature", "properties": {"id": "e4a4754d-8732-4b64-8207-ed6c4215c32a", "name": "Lynnwood Transit Coffee", "category": "cafe", "tags": ["cafe", "coffee"], "sources": ["overture"], "website": "http://www.cambridge-lynnwood.com", "phone": "(425) 778-4539", "address": "20122 46th Ave W", "stations": [{"stopCode": 40, "lines": "1,2", "name": "Lynnwood City Center Station", "walkingMeters": 159, "walkingSeconds": 114, "band": 5}]}, "geometry": {"type": "Point", "coordinates": [-122.2954559, 47.8158112]}}, {"type": "Feature", "properties": {"id": "75fe17d6-ea7c-4c43-812c-aab11ec3d8f1", "name": "Kalia Indian Cuisine", "category": "restaurant", "tags": ["restaurant", "indian"], "sources": ["overture"], "website": "http://kaliacuisine.com/", "phone": "(425) 771-6422", "address": "4520 200th St SW", "stations": [{"stopCode": 40, "lines": "1,2", "name": "Lynnwood City Center Station", "walkingMeters": 326, "walkingSeconds": 234, "band": 5}]}, "geometry": {"type": "Point", "coordinates": [-122.2940369, 47.8170128]}}, {"type": "Feature", "properties": {"id": "4eaa555b-6e04-421d-8e08-91f52e973a68", "name": "Talay Thai Restaurant", "category": "restaurant", "tags": ["restaurant", "thai"], "sources": ["overture"], "website": "http://talaythaidc.com", "phone": "(425) 670-1340", "address": "4520 200th St SW", "stations": [{"stopCode": 40, "lines": "1,2", "name": "Lynnwood City Center Station", "walkingMeters": 308, "walkingSeconds": 222, "band": 5}]}, "geometry": {"type": "Point", "coordinates": [-122.2941895, 47.8169403]}}, {"type": "Feature", "properties": {"id": "33e45945-3aa8-4827-a25a-f16b5c2ffa62", "name": "Old Country Buffet", "category": "restaurant", "tags": ["restaurant", "american"], "sources": ["overture"], "website": "http://locations.buffet.com/wa/lynnwood/0243/", "phone": "(425) 672-9731", "address": "4601 200th St Sw", "stations": [{"stopCode": 40, "lines": "1,2", "name": "Lynnwood City Center Station", "walkingMeters": 444, "walkingSeconds": 319, "band": 5}]}, "geometry": {"type": "Point", "coordinates": [-122.2941437, 47.8183212]}}, {"type": "Feature", "properties": {"id": "e589652f-5855-470d-be05-97af68035065", "name": "Lynnwood \u2013 Alderwood", "category": "fast_food", "tags": ["fast-food", "fast", "food"], "sources": ["overture"], "website": "https://tacotimenw.com/find-us/lynnwood-lynnwood-square/", "address": "4424 196th Street SW Lynnwood, WA 98036", "stations": [{"stopCode": 40, "lines": "1,2", "name": "Lynnwood City Center Station", "walkingMeters": 597, "walkingSeconds": 446, "band": 10}]}, "geometry": {"type": "Point", "coordinates": [-122.2940979, 47.819706]}}, {"type": "Feature", "properties": {"id": "d13620ad-ea9b-4745-b189-8c35f8be1b33", "name": "Genghis Mongolian Grill", "category": "restaurant", "tags": ["restaurant", "chinese"], "sources": ["overture"], "website": "http://www.mongoliangrill.com/", "phone": "(425) 712-8387", "address": "19800 44th Ave W", "stations": [{"stopCode": 40, "lines": "1,2", "name": "Lynnwood City Center Station", "walkingMeters": 610, "walkingSeconds": 439, "band": 10}]}, "geometry": {"type": "Point", "coordinates": [-122.2948914, 47.8199768]}}, {"type": "Feature", "properties": {"id": "83b97261-df37-4956-b55e-0b415a9abb25", "name": "Cascades", "category": "restaurant", "tags": ["restaurant", "american", "bar-and-grill"], "sources": ["overture"], "website": "http://eatcascades.com/", "phone": "+14257752500", "address": "20610 44th Ave W", "stations": [{"stopCode": 40, "lines": "1,2", "name": "Lynnwood City Center Station", "walkingMeters": 1087, "walkingSeconds": 782, "band": 15}]}, "geometry": {"type": "Point", "coordinates": [-122.2933807, 47.8115654]}}, {"type": "Feature", "properties": {"id": "43b3db71-04d0-4d13-b514-d03c776ba8e3", "name": "Atlantic Restaurants, Llc", "category": "restaurant", "tags": ["restaurant"], "sources": ["overture"], "address": "4208 198th St Sw Ste 211", "stations": [{"stopCode": 40, "lines": "1,2", "name": "Lynnwood City Center Station", "walkingMeters": 624, "walkingSeconds": 466, "band": 10}]}, "geometry": {"type": "Point", "coordinates": [-122.2900772, 47.818531]}}, {"type": "Feature", "properties": {"id": "64d86658-da28-4a00-9203-e3d3874cd460", "name": "Pacific Restaurants", "category": "fast_food", "tags": ["fast-food", "fast", "food"], "sources": ["overture"], "website": "indiahouseportland.com", "phone": "14257789119", "address": "4208 198th St Sw  Ste 211", "stations": [{"stopCode": 40, "lines": "1,2", "name": "Lynnwood City Center Station", "walkingMeters": 624, "walkingSeconds": 466, "band": 10}]}, "geometry": {"type": "Point", "coordinates": [-122.2900772, 47.818531]}}, {"type": "Feature", "properties": {"id": "efb50603-13eb-482c-a3e8-592355cda120", "name": "Szechuan Garden", "category": "restaurant", "tags": ["restaurant", "chinese"], "sources": ["overture"], "website": "http://www.lynnwoodszechuangarden.com", "phone": "(425) 672-6383", "address": "4309 198th St SW", "stations": [{"stopCode": 40, "lines": "1,2", "name": "Lynnwood City Center Station", "walkingMeters": 726, "walkingSeconds": 522, "band": 10}]}, "geometry": {"type": "Point", "coordinates": [-122.2910233, 47.8197899]}}, {"type": "Feature", "properties": {"id": "4ce0933e-15f1-4025-aa6a-4ebccf18493c", "name": "Just Left Pub & Grill", "category": "bar", "tags": ["bar", "sports", "bar-and-grill"], "sources": ["overture"], "website": "http://justleftpub.com/", "phone": "+14257767379", "address": "4308 198th St SW", "stations": [{"stopCode": 40, "lines": "1,2", "name": "Lynnwood City Center Station", "walkingMeters": 663, "walkingSeconds": 477, "band": 10}]}, "geometry": {"type": "Point", "coordinates": [-122.2911682, 47.8192482]}}, {"type": "Feature", "properties": {"id": "fae64e11-4861-4880-bb5b-adc2f35e6306", "name": "Q Sushi Bar & Kitchen", "category": "restaurant", "tags": ["restaurant", "sushi", "japanese", "asian"], "sources": ["overture"], "website": "http://qsushibarkitchen.com/", "phone": "+14253688889", "address": "20101 44th Ave W Ste E", "stations": [{"stopCode": 40, "lines": "1,2", "name": "Lynnwood City Center Station", "walkingMeters": 425, "walkingSeconds": 306, "band": 5}]}, "geometry": {"type": "Point", "coordinates": [-122.2917252, 47.8165398]}}, {"type": "Feature", "properties": {"id": "25c5f583-1479-4a05-a42f-66c7ef0b05e3", "name": "Cafe Taka", "category": "restaurant", "tags": ["restaurant"], "sources": ["overture"], "address": "20101 44th Ave W Ste E", "stations": [{"stopCode": 40, "lines": "1,2", "name": "Lynnwood City Center Station", "walkingMeters": 342, "walkingSeconds": 255, "band": 5}]}, "geometry": {"type": "Point", "coordinates": [-122.291687, 47.8167038]}}, {"type": "Feature", "properties": {"id": "a651687b-dd03-4bbc-a1f8-d386751529c1", "name": "Taste Of Pho Llc", "category": "restaurant", "tags": ["restaurant"], "sources": ["overture"], "address": "20101 44th Ave W Ste E", "stations": [{"stopCode": 40, "lines": "1,2", "name": "Lynnwood City Center Station", "walkingMeters": 418, "walkingSeconds": 300, "band": 5}]}, "geometry": {"type": "Point", "coordinates": [-122.291687, 47.8167038]}}, {"type": "Feature", "properties": {"id": "c60e03d2-85e6-4cb6-ae43-06292fb4d522", "name": "Lamba & Narwal Singh Corp", "category": "restaurant", "tags": ["restaurant"], "sources": ["overture"], "address": "19817 44th Ave W", "stations": [{"stopCode": 40, "lines": "1,2", "name": "Lynnwood City Center Station", "walkingMeters": 506, "walkingSeconds": 378, "band": 5}]}, "geometry": {"type": "Point", "coordinates": [-122.2918777, 47.8184967]}}, {"type": "Feature", "properties": {"id": 12099729134, "name": "Kitchen Window Curtain", "category": "artwork", "tags": ["artwork"], "sources": ["osm"], "stations": [{"stopCode": 40, "lines": "1,2", "name": "Lynnwood City Center Station", "walkingMeters": 116, "walkingSeconds": 83, "band": 5}]}, "geometry": {"type": "Point", "coordinates": [-122.294685, 47.8159089]}}, {"type": "Feature", "properties": {"id": 12099729135, "name": "City Hummingbird", "category": "artwork", "tags": ["artwork"], "sources": ["osm"], "stations": [{"stopCode": 40, "lines": "1,2", "name": "Lynnwood City Center Station", "walkingMeters": 101, "walkingSeconds": 73, "band": 5}]}, "geometry": {"type": "Point", "coordinates": [-122.2945072, 47.8159551]}}, {"type": "Feature", "properties": {"id": 12100097668, "name": "Shift", "category": "artwork", "tags": ["artwork"], "sources": ["osm"], "stations": [{"stopCode": 40, "lines": "1,2", "name": "Lynnwood City Center Station", "walkingMeters": 161, "walkingSeconds": 115, "band": 5}]}, "geometry": {"type": "Point", "coordinates": [-122.295288, 47.8158668]}}, {"type": "Feature", "properties": {"id": 12109434435, "name": "Generational Confluence", "category": "artwork", "tags": ["artwork"], "sources": ["osm"], "website": "https://www.prestonsingletary.com/commissions/detail/generational-confluence", "stations": [{"stopCode": 40, "lines": "1,2", "name": "Lynnwood City Center Station", "walkingMeters": 9, "walkingSeconds": 6, "band": 5}]}, "geometry": {"type": "Point", "coordinates": [-122.2947233, 47.8156622]}}, {"type": "Feature", "properties": {"id": "f1229034-1577-4f7e-a0f4-16d30cd96659", "name": "Brittany Place", "category": "attraction", "tags": ["attraction", "landmark", "historical", "building"], "sources": ["overture"], "phone": "+14256725100", "address": "19805 48th Ave W", "stations": [{"stopCode": 40, "lines": "1,2", "name": "Lynnwood City Center Station", "walkingMeters": 572, "walkingSeconds": 427, "band": 10}]}, "geometry": {"type": "Point", "coordinates": [-122.2975159, 47.8191147]}}, {"type": "Feature", "properties": {"id": "81fcdcae-8661-4a3a-85f1-0f6e7f151c31", "name": "Beaver Creek Apartments", "category": "attraction", "tags": ["attraction", "landmark", "historical", "building"], "sources": ["overture"], "website": "http://www.beavercreekapthomes.com", "phone": "+14257745212", "address": "4807 200th St SW", "stations": [{"stopCode": 40, "lines": "1,2", "name": "Lynnwood City Center Station", "walkingMeters": 610, "walkingSeconds": 438, "band": 10}]}, "geometry": {"type": "Point", "coordinates": [-122.299202, 47.8177071]}}, {"type": "Feature", "properties": {"id": "2d182b25-064d-4776-9577-2bc1e30a69ff", "name": "Woodland Greens", "category": "attraction", "tags": ["attraction", "landmark", "historical", "building"], "sources": ["overture"], "website": "https://williamsinv.quickleasepro.com/properties", "phone": "+14257719494", "address": "19801 50th Ave W", "stations": [{"stopCode": 40, "lines": "1,2", "name": "Lynnwood City Center Station", "walkingMeters": 917, "walkingSeconds": 659, "band": 10}]}, "geometry": {"type": "Point", "coordinates": [-122.2995758, 47.8192673]}}, {"type": "Feature", "properties": {"id": 1129513366, "name": "Scriber Creek Park", "category": "park", "tags": ["park"], "sources": ["osm", "overture"], "website": "http://www.ci.lynnwood.wa.us", "phone": "+14256705732", "address": "20015 Cedar Valley Rd", "hours": "sunrise-sunset", "stations": [{"stopCode": 40, "lines": "1,2", "name": "Lynnwood City Center Station", "walkingMeters": 677, "walkingSeconds": 494, "band": 10}]}, "geometry": {"type": "Point", "coordinates": [-122.2999842, 47.8164521]}}, {"type": "Feature", "properties": {"id": 232604027, "name": "Courtyard", "category": "hotel", "tags": ["hotel"], "sources": ["osm"], "website": "https://www.marriott.com/sealn", "phone": "+1-425-670-0500", "address": "4220 Alderwood Mall Boulevard", "stations": [{"stopCode": 40, "lines": "1,2", "name": "Lynnwood City Center Station", "walkingMeters": 575, "walkingSeconds": 414, "band": 10}]}, "geometry": {"type": "Point", "coordinates": [-122.2902865, 47.81607]}}, {"type": "Feature", "properties": {"id": 232603915, "name": "La Quinta Inn Lynnwood", "category": "hotel", "tags": ["hotel"], "sources": ["osm"], "website": "https://www.wyndhamhotels.com/laquinta/lynnwood-washington/la-quinta-inn-lynnwood/overview", "phone": "+1-425-775-7447", "address": "4300 Alderwood Mall Boulevard", "stations": [{"stopCode": 40, "lines": "1,2", "name": "Lynnwood City Center Station", "walkingMeters": 463, "walkingSeconds": 332, "band": 5}]}, "geometry": {"type": "Point", "coordinates": [-122.2909232, 47.8167456]}}, {"type": "Feature", "properties": {"id": 382541888, "name": "Embassy Suites by Hilton Seattle North Lynnwood", "category": "hotel", "tags": ["hotel"], "sources": ["osm", "overture"], "website": "http://www.embassysuiteslynnwood.com/", "phone": "+14257752500", "address": "20610 44th Ave W", "stations": [{"stopCode": 40, "lines": "1,2", "name": "Lynnwood City Center Station", "walkingMeters": 1043, "walkingSeconds": 751, "band": 15}]}, "geometry": {"type": "Point", "coordinates": [-122.2940601, 47.8113912]}}, {"type": "Feature", "properties": {"id": "484a62c7-7179-4366-b619-72c1dcd44064", "name": "La Quinta Inn", "category": "hotel", "tags": ["hotel"], "sources": ["overture"], "website": "http://www.laquintaseattlelynnwood.com/?cid=local_794", "phone": "+14257757447", "address": "4300 Alderwood Mall Blvd", "stations": [{"stopCode": 40, "lines": "1,2", "name": "Lynnwood City Center Station", "walkingMeters": 510, "walkingSeconds": 366, "band": 5}]}, "geometry": {"type": "Point", "coordinates": [-122.2907257, 47.8167763]}}, {"type": "Feature", "properties": {"id": "3fc2c985-f839-449b-9059-7d8b42da4a69", "name": "Courtyard by Marriott Seattle North/Lynnwood Everett", "category": "hotel", "tags": ["hotel"], "sources": ["overture"], "website": "https://www.marriott.com/en-us/hotels/sealn-courtyard-seattle-north-lynnwood-everett/overview/?scid=d2406702-e8ea-4b45-bb9b-69cddaaef03d", "phone": "+14256700500", "address": "4220 Alderwood Mall Blvd", "stations": [{"stopCode": 40, "lines": "1,2", "name": "Lynnwood City Center Station", "walkingMeters": 588, "walkingSeconds": 422, "band": 10}]}, "geometry": {"type": "Point", "coordinates": [-122.2904205, 47.8160896]}}, {"type": "Feature", "properties": {"id": 545754607, "name": "Food Mart", "category": "convenience", "tags": ["convenience"], "sources": ["osm"], "stations": [{"stopCode": 40, "lines": "1,2", "name": "Lynnwood City Center Station", "walkingMeters": 402, "walkingSeconds": 289, "band": 5}]}, "geometry": {"type": "Point", "coordinates": [-122.2930009, 47.8176624]}}, {"type": "Feature", "properties": {"id": 13481079250, "name": "European Food Store", "category": "supermarket", "tags": ["supermarket"], "sources": ["osm", "overture"], "website": "http://www.washseattle.com", "phone": "+14256731418", "address": "20101 44th Ave W C", "hours": "Mo-Su 11:00-20:00", "stations": [{"stopCode": 40, "lines": "1,2", "name": "Lynnwood City Center Station", "walkingMeters": 402, "walkingSeconds": 289, "band": 5}]}, "geometry": {"type": "Point", "coordinates": [-122.2916742, 47.8167455]}}, {"type": "Feature", "properties": {"id": 557144751, "name": "JD's Market", "category": "supermarket", "tags": ["supermarket", "indian"], "sources": ["osm", "overture"], "website": "http://jds.market/", "phone": "+14256723497", "address": "4309 198th St SW", "hours": "07:00-21:30", "stations": [{"stopCode": 40, "lines": "1,2", "name": "Lynnwood City Center Station", "walkingMeters": 728, "walkingSeconds": 524, "band": 10}]}, "geometry": {"type": "Point", "coordinates": [-122.2909956, 47.8197912]}}, {"type": "Feature", "properties": {"id": "aafbc537-1e00-41c0-81fd-4b128dc91396", "name": "Green Wellness", "category": "cannabis", "tags": ["cannabis", "clinic"], "sources": ["overture"], "website": "https://www.greenwellness.org/", "phone": "+14255070944", "address": "4720 200th St SW", "stations": [{"stopCode": 40, "lines": "1,2", "name": "Lynnwood City Center Station", "walkingMeters": 415, "walkingSeconds": 298, "band": 5}]}, "geometry": {"type": "Point", "coordinates": [-122.2973557, 47.8169632]}}, {"type": "Feature", "properties": {"id": "898c7c3a-e760-47d2-8c24-5859d9a4d72c", "name": "Discount Deals Liquidation", "category": "variety_store", "tags": ["variety-store", "discount"], "sources": ["overture"], "phone": "+14255245553", "address": "19800 44th Ave W Ste B", "stations": [{"stopCode": 40, "lines": "1,2", "name": "Lynnwood City Center Station", "walkingMeters": 523, "walkingSeconds": 378, "band": 10}]}, "geometry": {"type": "Point", "coordinates": [-122.2950211, 47.819252]}}, {"type": "Feature", "properties": {"id": "19a6ad11-5317-40a1-9566-6a82e836797f", "name": "Glass Doctor of Lynnwood", "category": "doityourself", "tags": ["doityourself", "building", "supply"], "sources": ["overture"], "website": "https://glassdoctor.com/lynnwood/", "phone": "(425) 242-5647", "address": "4210 198th St SW Ste 208", "stations": [{"stopCode": 40, "lines": "1,2", "name": "Lynnwood City Center Station", "walkingMeters": 702, "walkingSeconds": 504, "band": 10}]}, "geometry": {"type": "Point", "coordinates": [-122.2901764, 47.8189926]}}, {"type": "Feature", "properties": {"id": "9cc16432-8ce4-4f19-81ce-91ec5ef5ba14", "name": "Fiker Market", "category": "supermarket", "tags": ["supermarket"], "sources": ["overture"], "phone": "14256165209", "address": "20101 44th Ave W  Unit H", "stations": [{"stopCode": 40, "lines": "1,2", "name": "Lynnwood City Center Station", "walkingMeters": 342, "walkingSeconds": 255, "band": 5}]}, "geometry": {"type": "Point", "coordinates": [-122.291687, 47.8167038]}}, {"type": "Feature", "properties": {"id": 565644217, "name": "KeyBank", "category": "bank", "tags": ["bank", "credit", "union"], "sources": ["osm", "overture"], "website": "https://www.key.com/locations/WA/Lynnwood/BRCH47310169/19820-44th-Ave-W?ppc=cmpyxt", "phone": "+14257757266", "address": "19820 44th Ave W", "stations": [{"stopCode": 40, "lines": "1,2", "name": "Lynnwood City Center Station", "walkingMeters": 507, "walkingSeconds": 365, "band": 5}]}, "geometry": {"type": "Point", "coordinates": [-122.2929855, 47.8186778]}}, {"type": "Feature", "properties": {"id": "e9c8aa70-cc85-435a-ab21-bcda06f999c3", "name": "Experience Momentum", "category": "fitness_centre", "tags": ["fitness-centre", "gym"], "sources": ["overture"], "website": "http://www.experiencemomentum.org/", "phone": "+14257760803", "address": "4720 200th St SW", "stations": [{"stopCode": 40, "lines": "1,2", "name": "Lynnwood City Center Station", "walkingMeters": 373, "walkingSeconds": 268, "band": 5}]}, "geometry": {"type": "Point", "coordinates": [-122.297142, 47.817009]}}, {"type": "Feature", "properties": {"id": 12177388772, "name": "Seattle Tae Kwon Do", "category": "sports_centre", "tags": ["sports-centre", "martial-arts"], "sources": ["osm"], "address": "19720 44th Avenue West", "stations": [{"stopCode": 40, "lines": "1,2", "name": "Lynnwood City Center Station", "walkingMeters": 688, "walkingSeconds": 495, "band": 10}]}, "geometry": {"type": "Point", "coordinates": [-122.292941, 47.8197141]}}, {"type": "Feature", "properties": {"id": "fd917dd4-8ab4-4690-b2dc-073789920b70", "name": "Vida Fit Club Lynnwood", "category": "fitness_centre", "tags": ["fitness-centre", "gym"], "sources": ["overture"], "address": "44th Ave W", "stations": [{"stopCode": 40, "lines": "1,2", "name": "Lynnwood City Center Station", "walkingMeters": 259, "walkingSeconds": 186, "band": 5}]}, "geometry": {"type": "Point", "coordinates": [-122.2953796, 47.8170242]}}]}