{"type": "FeatureCollection", "features": [{"type": "Feature", "properties": {"id": "3595dbc0-b3d2-49d2-afee-a32778c12b55", "name": "Canterbury Shores Condo", "category": "attraction", "tags": ["attraction", "landmark", "historical", "building"], "sources": ["overture"], "website": "http://canterburyshorescondos.org/page/14714~142235/Contacts", "phone": "+12063233129", "address": "2500 Canterbury Ln E APT 102"}, "geometry": {"type": "Point", "coordinates": [-122.2805634, 47.6418037]}}, {"type": "Feature", "properties": {"id": 294394890, "name": "Beaver Lodge Sanctuary", "category": "park", "tags": ["park"], "sources": ["osm"]}, "geometry": {"type": "Point", "coordinates": [-122.2852379, 47.6427025]}}]}