{"type": "FeatureCollection", "features": [{"type": "Feature", "properties": {"id": 9535881044, "name": "Flyers", "category": "artwork", "tags": ["artwork"], "sources": ["osm"]}, "geometry": {"type": "Point", "coordinates": [-122.344782, 47.5251827]}}, {"type": "Feature", "properties": {"id": 9535881070, "name": "Flyers", "category": "artwork", "tags": ["artwork"], "sources": ["osm"]}, "geometry": {"type": "Point", "coordinates": [-122.342632, 47.5245211]}}, {"type": "Feature", "properties": {"id": 9535902618, "name": "Flyers", "category": "artwork", "tags": ["artwork"], "sources": ["osm"]}, "geometry": {"type": "Point", "coordinates": [-122.3427042, 47.525831]}}, {"type": "Feature", "properties": {"id": 607816885, "name": "Westcrest Park Viewpoint", "category": "viewpoint", "tags": ["viewpoint"], "sources": ["osm"]}, "geometry": {"type": "Point", "coordinates": [-122.3433955, 47.523067]}}, {"type": "Feature", "properties": {"id": 31870890, "name": "Westcrest Park", "category": "park", "tags": ["park"], "sources": ["osm"], "website": "https://www.seattle.gov/parks/allparks/westcrest-park", "address": "9000 8th Avenue Southwest"}, "geometry": {"type": "Point", "coordinates": [-122.3401704, 47.5227723]}}, {"type": "Feature", "properties": {"id": 394247926, "name": "Westcrest Park", "category": "playground", "tags": ["playground", "park"], "sources": ["osm", "overture"], "website": "http://www.seattle.gov/Parks/park_detail.asp?id=468", "phone": "+12066844075", "address": "9000 8th Ave SW"}, "geometry": {"type": "Point", "coordinates": [-122.3432646, 47.5218992]}}, {"type": "Feature", "properties": {"id": "ca54bbd2-2eab-4a9c-9d0a-67ba59d63826", "name": "Highland Park", "category": "playground", "tags": ["playground"], "sources": ["overture"], "website": "http://seattle.gov/parks/park_detail.asp?ID=457", "phone": "+12066844075", "address": "1100 SW Cloverdale St"}, "geometry": {"type": "Point", "coordinates": [-122.3489685, 47.5277176]}}, {"type": "Feature", "properties": {"id": "6c5ff3be-f5a9-4524-89b0-c8d9131e3faa", "name": "Highland Park, Seattle", "category": "park", "tags": ["park"], "sources": ["overture"], "address": "13th Ave SW"}, "geometry": {"type": "Point", "coordinates": [-122.3431396, 47.5256767]}}, {"type": "Feature", "properties": {"id": "f1778dc4-d283-4529-831b-1703f8f94e36", "name": "Addy's Pet Shop", "category": "pet", "tags": ["pet"], "sources": ["overture"], "website": "http://www.addyspetshop.com/", "phone": "+12066790464", "address": "1022 SW Henderson St"}, "geometry": {"type": "Point", "coordinates": [-122.3491592, 47.5229378]}}, {"type": "Feature", "properties": {"id": "bafa6641-0ef7-430f-b201-b2760514d510", "name": "Pirtles Inc", "category": "supermarket", "tags": ["supermarket"], "sources": ["overture"], "address": "8855 9th Ave SW"}, "geometry": {"type": "Point", "coordinates": [-122.3471146, 47.5230904]}}]}