{"type": "FeatureCollection", "features": [{"type": "Feature", "properties": {"id": "6299aa47-fd4c-42d6-8442-4520fc119e34", "name": "Providence Apartments", "category": "attraction", "tags": ["attraction", "landmark", "historical", "building"], "sources": ["overture"], "website": "http://www.equityapartments.com/seattle/bothell/providence-apartments", "phone": "+14254859995", "address": "21653 16th Dr SE"}, "geometry": {"type": "Point", "coordinates": [-122.2115021, 47.8022995]}}, {"type": "Feature", "properties": {"id": 481523213, "name": "Centennial Park", "category": "park", "tags": ["park"], "sources": ["osm"], "website": "https://www.bothellwa.gov/1029/Centennial-Park", "address": "1129 208th St SE"}, "geometry": {"type": "Point", "coordinates": [-122.2144725, 47.8075001]}}, {"type": "Feature", "properties": {"id": "85ae39e1-c7b3-4a7e-bb53-48c133fbfad6", "name": "Centennial Park", "category": "park", "tags": ["park"], "sources": ["overture"], "website": "http://www.myparksandrecreation.com/ParksTrails/Details.aspx?pid=314", "phone": "+14258066760", "address": "1130 208th St SE"}, "geometry": {"type": "Point", "coordinates": [-122.2172318, 47.808754]}}]}