{"type": "FeatureCollection", "features": [{"type": "Feature", "properties": {"id": 1724758561, "name": "East Portal View", "category": "viewpoint", "tags": ["viewpoint"], "sources": ["osm"]}, "geometry": {"type": "Point", "coordinates": [-122.2889593, 47.5904234]}}, {"type": "Feature", "properties": {"id": 3211770088, "name": "Seattle - Portal to the Pacific", "category": "artwork", "tags": ["artwork"], "sources": ["osm"]}, "geometry": {"type": "Point", "coordinates": [-122.2885854, 47.5905051]}}, {"type": "Feature", "properties": {"id": "d12eef82-b03e-4233-8dbd-3171fca1292d", "name": "Leschi Shores Condo", "category": "attraction", "tags": ["attraction", "landmark", "historical", "building"], "sources": ["overture"], "phone": "+12063242612", "address": "720 Lakeside Ave S"}, "geometry": {"type": "Point", "coordinates": [-122.2872467, 47.59589]}}, {"type": "Feature", "properties": {"id": "3c3107a0-2550-4920-a839-6069e697945c", "name": "Lakeside Court Apartments", "category": "attraction", "tags": ["attraction", "landmark", "historical", "building"], "sources": ["overture"], "phone": "+12066617568", "address": "526 Lakeside Ave S"}, "geometry": {"type": "Point", "coordinates": [-122.2866364, 47.5970459]}}, {"type": "Feature", "properties": {"id": "5c069380-41ef-4fa8-bf9a-13bfa83651c0", "name": "Avana on the Lake - Formerly \"The Shang\"", "category": "attraction", "tags": ["attraction", "landmark", "historical", "building"], "sources": ["overture"], "website": "http://www.avanashangnow.com/", "phone": "+12063286357", "address": "538 Lakeside Ave S"}, "geometry": {"type": "Point", "coordinates": [-122.2867126, 47.5967178]}}, {"type": "Feature", "properties": {"id": 50419098, "name": "East Portal View", "category": "park", "tags": ["park"], "sources": ["osm"], "website": "https://www.seattle.gov/parks/allparks/east-portal-viewpoint"}, "geometry": {"type": "Point", "coordinates": [-122.2877286, 47.5903384]}}, {"type": "Feature", "properties": {"id": 50419099, "name": "Day Street Boat Ramp", "category": "park", "tags": ["park"], "sources": ["osm"], "website": "https://www.seattle.gov/parks/allparks/day-street-boat-ramp"}, "geometry": {"type": "Point", "coordinates": [-122.2862162, 47.5904078]}}, {"type": "Feature", "properties": {"id": 57885591, "name": "Mount Baker Ridge Viewpoint", "category": "park", "tags": ["park"], "sources": ["osm"], "website": "https://www.seattle.gov/parks/allparks/mt-baker-ridge-viewpoint", "stations": [{"stopCode": 54, "lines": "2", "name": "Judkins Park Station", "walkingMeters": 1190, "walkingSeconds": 857, "band": 15}]}, "geometry": {"type": "Point", "coordinates": [-122.2893596, 47.5904541]}}, {"type": "Feature", "properties": {"id": 184539622, "name": "South Charles Street End", "category": "park", "tags": ["park"], "sources": ["osm"]}, "geometry": {"type": "Point", "coordinates": [-122.2871124, 47.5945798]}}, {"type": "Feature", "properties": {"id": 184539827, "name": "South Dearborn Street End", "category": "park", "tags": ["park"], "sources": ["osm"]}, "geometry": {"type": "Point", "coordinates": [-122.2868402, 47.5957488]}}, {"type": "Feature", "properties": {"id": 184543442, "name": "South Norman Street End", "category": "park", "tags": ["park"], "sources": ["osm"]}, "geometry": {"type": "Point", "coordinates": [-122.2873387, 47.5934026]}}, {"type": "Feature", "properties": {"id": 184543513, "name": "South Judkins Street End", "category": "park", "tags": ["park"], "sources": ["osm"]}, "geometry": {"type": "Point", "coordinates": [-122.2869161, 47.5922497]}}, {"type": "Feature", "properties": {"id": 184620777, "name": "South King Street End", "category": "park", "tags": ["park"], "sources": ["osm"]}, "geometry": {"type": "Point", "coordinates": [-122.2864238, 47.5979042]}}, {"type": "Feature", "properties": {"id": 185035547, "name": "South Jackson Street End", "category": "park", "tags": ["park"], "sources": ["osm"]}, "geometry": {"type": "Point", "coordinates": [-122.2858853, 47.5991001]}}, {"type": "Feature", "properties": {"id": 294469893, "name": "South Irving Street End", "category": "park", "tags": ["park"], "sources": ["osm"]}, "geometry": {"type": "Point", "coordinates": [-122.2866437, 47.5910723]}}, {"type": "Feature", "properties": {"id": "50769a70-c7a0-4b0a-8bec-a726ab862be4", "name": "South Day Street Park", "category": "park", "tags": ["park"], "sources": ["overture"], "website": "https://localwiki.org/seattle/South_Day_Street_Park", "phone": "+12066844075", "address": "3308 S Day St"}, "geometry": {"type": "Point", "coordinates": [-122.2865601, 47.5904732]}}, {"type": "Feature", "properties": {"id": "089db901-6bfb-424c-84fb-da5e7f5369d7", "name": "Day Street Park", "category": "park", "tags": ["park"], "sources": ["overture"], "website": "https://localwiki.org/seattle/South_Day_Street_Park", "address": "1402 Lakeside Ave S"}, "geometry": {"type": "Point", "coordinates": [-122.2863312, 47.590435]}}, {"type": "Feature", "properties": {"id": "67f42dea-7af9-49f7-b160-3e053abfeb28", "name": "East Portal Viewpoint", "category": "park", "tags": ["park"], "sources": ["overture"], "website": "http://www.seattle.gov/parks/park_detail.asp?id=4241", "phone": "+12066844075", "address": "1400 Lake Washington Blvd S"}, "geometry": {"type": "Point", "coordinates": [-122.2890167, 47.5904121]}}]}