{"type": "FeatureCollection", "features": [{"type": "Feature", "properties": {"id": "daba1a88-c4f6-4ed8-b1b2-f2e52520caa0", "name": "Starbucks", "category": "cafe", "tags": ["cafe", "coffee"], "sources": ["overture"], "website": "http://www.starbucks.com", "address": "1254-1462 Monster Rd SW"}, "geometry": {"type": "Point", "coordinates": [-122.2429123, 47.472168]}}, {"type": "Feature", "properties": {"id": 13556324123, "name": "Caf\u00e9 Sienna", "category": "cafe", "tags": ["cafe"], "sources": ["osm"]}, "geometry": {"type": "Point", "coordinates": [-122.2490313, 47.4701154]}}, {"type": "Feature", "properties": {"id": "05782052-560c-4638-baa2-13bfb6f279a7", "name": "Cafe Siena", "category": "cafe", "tags": ["cafe"], "sources": ["overture"], "website": "https://northwesternplasticsurgery.com", "phone": "+12062422760", "address": "14800 Starfire Way"}, "geometry": {"type": "Point", "coordinates": [-122.2494202, 47.4700317]}}, {"type": "Feature", "properties": {"id": "54068331-8677-4103-a017-b48a0aa0aeb7", "name": "Fort Dent Park", "category": "park", "tags": ["park"], "sources": ["overture"], "phone": "+12067682822", "address": "6800 Fort Dent Way"}, "geometry": {"type": "Point", "coordinates": [-122.249649, 47.47118]}}, {"type": "Feature", "properties": {"id": 622149128, "name": "Starfire Athletic Center", "category": "fitness_centre", "tags": ["fitness-centre", "soccer"], "sources": ["osm"], "website": "https://www.starfiresports.com/", "address": "14800 Starfire Way"}, "geometry": {"type": "Point", "coordinates": [-122.2493891, 47.4700586]}}, {"type": "Feature", "properties": {"id": "5d9ca2d3-fa01-4d13-9638-d22c6b7a09ab", "name": "Eagleclaw Football Club", "category": "sports_centre", "tags": ["sports-centre", "sports", "club", "league"], "sources": ["overture"], "website": "https://eagleclawfc.com", "phone": "12062952567", "address": "14800 Starfire Way"}, "geometry": {"type": "Point", "coordinates": [-122.2494202, 47.4700317]}}]}