{"type": "FeatureCollection", "features": [{"type": "Feature", "properties": {"id": 5239052338, "name": "Subway", "category": "fast_food", "tags": ["fast-food", "sandwich", "takeaway", "restaurant"], "sources": ["osm", "overture"], "website": "https://restaurants.subway.com/united-states/wa/renton/1702-duvall-ave-ne", "phone": "+14254302666", "address": "1702 Duvall Ave NE", "hours": "07:00-20:00"}, "geometry": {"type": "Point", "coordinates": [-122.1559176, 47.5072239]}}, {"type": "Feature", "properties": {"id": 401881856, "name": "Starbucks", "category": "cafe", "tags": ["cafe", "coffee-shop", "takeaway", "drive-through"], "sources": ["osm", "overture"], "website": "https://www.starbucks.com/store-locator/store/14356/", "phone": "+14259179821", "address": "4637 NE Sunset Blvd"}, "geometry": {"type": "Point", "coordinates": [-122.1569211, 47.5051459]}}, {"type": "Feature", "properties": {"id": 331548920, "name": "McDonald's", "category": "fast_food", "tags": ["fast-food", "burger", "takeaway", "drive-through", "wifi", "fast", "food", "american"], "sources": ["osm", "overture"], "website": "https://www.mcdonalds.com/us/en-us/location/wa/renton/4411-ne-sunset-blvd/5356.html?cid=RF%3AYXT%3ARoN%3A%3AClicks%3Fcid%3DRF%3AYXT%3AFB%3A%3AClicks", "phone": "+14252716551", "address": "4411 NE Sunset Blvd", "hours": "07:00-23:00"}, "geometry": {"type": "Point", "coordinates": [-122.1597033, 47.5042508]}}, {"type": "Feature", "properties": {"id": 401881857, "name": "El Rinconsito", "category": "fast_food", "tags": ["fast-food", "mexican", "takeaway", "restaurant", "taco", "latin-american"], "sources": ["osm", "overture"], "website": "http://www.elrinconsito.com/", "phone": "+14254302606", "address": "4619 NE Sunset Blvd"}, "geometry": {"type": "Point", "coordinates": [-122.1577001, 47.5050071]}}, {"type": "Feature", "properties": {"id": 4914126305, "name": "Kim Phuong Vietnamese Restaurant", "category": "restaurant", "tags": ["restaurant", "vietnamese"], "sources": ["osm"], "address": "4500 Northeast Sunset Boulevard", "hours": "Mo-Sa 10:00-21:00; Su 10:00-20:00"}, "geometry": {"type": "Point", "coordinates": [-122.158597, 47.5054666]}}, {"type": "Feature", "properties": {"id": 5239052344, "name": "I Luv Teriyaki", "category": "restaurant", "tags": ["restaurant", "japanese", "sushi", "asian"], "sources": ["osm", "overture"], "website": "http://www.iltca.com", "phone": "+14252352160", "address": "4500 NE Sunset Blvd E", "hours": "Mo-Sa 10:30-21:00"}, "geometry": {"type": "Point", "coordinates": [-122.1586829, 47.5054257]}}, {"type": "Feature", "properties": {"id": 11050132716, "name": "Ahram Kitchen", "category": "restaurant", "tags": ["restaurant", "korean"], "sources": ["osm"], "website": "https://www.ahramkitchen.com/", "phone": "+1-425-572-6708", "address": "1630 Duvall Avenue Northeast", "hours": "Tu-Su 11:00-20:00"}, "geometry": {"type": "Point", "coordinates": [-122.1554587, 47.5062959]}}, {"type": "Feature", "properties": {"id": 13317601928, "name": "See Fah Thai Cuisine", "category": "restaurant", "tags": ["restaurant", "thai", "asian"], "sources": ["osm", "overture"], "website": "https://www.seefahthai.com/", "phone": "+14252078630", "address": "1630 Duvall Ave NE", "hours": "Mo-Sa 11:00-21:00"}, "geometry": {"type": "Point", "coordinates": [-122.1554653, 47.5068514]}}, {"type": "Feature", "properties": {"id": "73b18150-4a8d-4f8b-b5f8-a2d2b89fdb19", "name": "Tully's Coffee", "category": "cafe", "tags": ["cafe", "coffee"], "sources": ["overture"], "website": "http://www.tullys.com/", "phone": "4252716976", "address": "4500 NE Sunset Blvd"}, "geometry": {"type": "Point", "coordinates": [-122.1586227, 47.5050621]}}, {"type": "Feature", "properties": {"id": "c30f2762-6c1f-49d8-87ec-5397999b04b4", "name": "Sushi Roll Roll Roll", "category": "restaurant", "tags": ["restaurant", "sushi"], "sources": ["overture"], "website": "http://triplerollsushi.com", "phone": "(425) 228-0371", "address": "1630 Duvall Ave NE"}, "geometry": {"type": "Point", "coordinates": [-122.1555481, 47.506237]}}, {"type": "Feature", "properties": {"id": "72c9d206-a9ab-4b82-932d-51f38df7d5c5", "name": "Kim Phuong", "category": "restaurant", "tags": ["restaurant", "vietnamese", "asian", "noodles"], "sources": ["overture"], "website": "http://www.kimphuongrestaurant.com", "phone": "+14252820402", "address": "4500 NE Sunset Blvd"}, "geometry": {"type": "Point", "coordinates": [-122.1585388, 47.5054245]}}, {"type": "Feature", "properties": {"id": 499403826, "name": "Summerwind Private Park", "category": "park", "tags": ["park"], "sources": ["osm"]}, "geometry": {"type": "Point", "coordinates": [-122.1527653, 47.5078786]}}, {"type": "Feature", "properties": {"id": 401881864, "name": "ampm", "category": "convenience", "tags": ["convenience"], "sources": ["osm", "overture"], "website": "https://www.ampm.com/", "phone": "+14252773818", "address": "1537 Duvall Ave NE"}, "geometry": {"type": "Point", "coordinates": [-122.1572597, 47.5061525]}}, {"type": "Feature", "properties": {"id": 4042426715, "name": "Ross", "category": "department_store", "tags": ["department-store"], "sources": ["osm"], "phone": "+1-425-255-5047", "hours": "Mo-Th 09:00-22:00; Fr,Sa 09:00-22:30; Su 09:30-22:00"}, "geometry": {"type": "Point", "coordinates": [-122.1584899, 47.5039029]}}, {"type": "Feature", "properties": {"id": 4042909086, "name": "Ace Hardware", "category": "doityourself", "tags": ["doityourself", "hardware"], "sources": ["osm", "overture"], "website": "http://acehardware.com/", "phone": "+14257930323", "address": "4601 NE Sunset Blvd", "hours": "Mo-Sa 07:00-19:00; Su 08:00-18:00"}, "geometry": {"type": "Point", "coordinates": [-122.1588951, 47.503905]}}, {"type": "Feature", "properties": {"id": "14b7fb25-04ff-41c6-b819-ccc9cb6b7b32", "name": "Big Lots", "category": "variety_store", "tags": ["variety-store", "discount"], "sources": ["overture"], "website": "local.biglots.com", "phone": "14252284144", "address": "4601 NE Sunset Blvd"}, "geometry": {"type": "Point", "coordinates": [-122.1587601, 47.5037079]}}, {"type": "Feature", "properties": {"id": 653046414, "name": "Albertsons", "category": "supermarket", "tags": ["supermarket"], "sources": ["osm", "overture"], "website": "https://local.albertsons.com/wa/renton/4621-ne-sunset-blvd.html", "phone": "+14252712564", "address": "4621 NE Sunset Blvd", "hours": "Mo-Su 06:00-24:00"}, "geometry": {"type": "Point", "coordinates": [-122.1573326, 47.5036834]}}, {"type": "Feature", "properties": {"id": "b558d784-a596-460b-b50d-076fe11f738e", "name": "Sherwin-Williams", "category": "hardware", "tags": ["hardware"], "sources": ["overture"], "website": "https://www.sherwin-williams.com/store-locator/paint-store/renton/wa/721330", "phone": "+14256879914", "address": "4500 NE Sunset Blvd"}, "geometry": {"type": "Point", "coordinates": [-122.1588516, 47.5053711]}}, {"type": "Feature", "properties": {"id": "fc7bcdb5-3f9f-4218-abc5-a0df26e9eb03", "name": "Ross Dress for Less", "category": "clothes", "tags": ["clothes"], "sources": ["overture"], "website": "https://www.rossstores.com/", "phone": "4252555047", "address": "4601 NE Sunset Blvd Ste B"}, "geometry": {"type": "Point", "coordinates": [-122.1586609, 47.5037041]}}, {"type": "Feature", "properties": {"id": "3ec91a09-c8be-4101-aa13-1e04f2490aee", "name": "Boyd's Clocks", "category": "jewelry", "tags": ["jewelry"], "sources": ["overture"], "website": "http://boydsclocks.com/", "phone": "+14254518788", "address": "4602 NE Sunset Blvd"}, "geometry": {"type": "Point", "coordinates": [-122.1578979, 47.5055199]}}, {"type": "Feature", "properties": {"id": 653044039, "name": "Bank of America", "category": "bank", "tags": ["bank"], "sources": ["osm"], "website": "https://locators.bankofamerica.com/wa/renton/financial-centers-renton-8747.html", "address": "1640 Duvall Avenue Northeast"}, "geometry": {"type": "Point", "coordinates": [-122.1559658, 47.5068794]}}, {"type": "Feature", "properties": {"id": "1b51095d-ec04-4b12-bbe9-402893a1a7e7", "name": "Bank of America Financial Center", "category": "bank", "tags": ["bank", "credit", "union"], "sources": ["overture"], "website": "https://locators.bankofamerica.com/wa/renton/financial-centers-renton-8747.html", "phone": "2063582620", "address": "1640 Duvall Ave NE"}, "geometry": {"type": "Point", "coordinates": [-122.1560669, 47.5069084]}}, {"type": "Feature", "properties": {"id": "8bb3e423-6a16-4018-b9e6-a68befc80379", "name": "U.S. Bank ATM", "category": "bank", "tags": ["bank", "credit", "union"], "sources": ["overture"], "website": "http://www.usbank.com/locations", "phone": "8008722657", "address": "4621 NE Sunset Blvd"}, "geometry": {"type": "Point", "coordinates": [-122.1572418, 47.5040321]}}, {"type": "Feature", "properties": {"id": 653046429, "name": "Planet Fitness", "category": "fitness_centre", "tags": ["fitness-centre", "gym"], "sources": ["osm", "overture"], "website": "https://www.planetfitness.com/gyms/renton-wa?utm_medium=organic&utm_source=extnet", "phone": "+14252555522", "address": "4613 NE Sunset Blvd"}, "geometry": {"type": "Point", "coordinates": [-122.1579548, 47.5036997]}}, {"type": "Feature", "properties": {"id": 9480344459, "name": "Hazen Pool", "category": "swimming_pool", "tags": ["swimming-pool", "swimming", "pool"], "sources": ["osm", "overture"], "website": "http://www.hazenpool.com/", "phone": "+14252044230", "address": "1101 Hoquiam Ave NE"}, "geometry": {"type": "Point", "coordinates": [-122.1534588, 47.5010428]}}, {"type": "Feature", "properties": {"id": "44850512-cecf-49b8-a28d-24ea55327745", "name": "GOLF CLASH  Addiction Clinic", "category": "fitness_centre", "tags": ["fitness-centre", "gym"], "sources": ["overture"], "phone": "+14257571449", "address": "4617 NE 17th St"}, "geometry": {"type": "Point", "coordinates": [-122.1573639, 47.5065956]}}]}