{"type": "FeatureCollection", "features": [{"type": "Feature", "properties": {"id": "3ec411a7-4e3a-4999-8250-428cd122572b", "name": "Taco Time", "category": "restaurant", "tags": ["restaurant", "mexican"], "sources": ["overture"], "website": "http://www.TacoTimeNW.com", "phone": "(206) 440-3195", "address": "401 NE Northgate Way", "stations": [{"stopCode": 45, "lines": "1,2", "name": "Northgate Station", "walkingMeters": 396, "walkingSeconds": 284, "band": 5}]}, "geometry": {"type": "Point", "coordinates": [-122.3258209, 47.7047234]}}, {"type": "Feature", "properties": {"id": 2461755977, "name": "Subway", "category": "fast_food", "tags": ["fast-food", "sandwich", "takeaway", "restaurant"], "sources": ["osm", "overture"], "website": "https://restaurants.subway.com/united-states/wa/seattle/327-thornton-place-ne", "phone": "+12065246802", "address": "327 Thornton Place NE Suite 6, Building 2 South", "hours": "Mo-Fr 07:30-21:00; Sa,Su 09:00-19:00", "stations": [{"stopCode": 45, "lines": "1,2", "name": "Northgate Station", "walkingMeters": 326, "walkingSeconds": 234, "band": 5}]}, "geometry": {"type": "Point", "coordinates": [-122.324431, 47.7027266]}}, {"type": "Feature", "properties": {"id": "b13c83d6-833a-4033-894d-0a052077c6c0", "name": "Subway", "category": "restaurant", "tags": ["restaurant", "sandwich"], "sources": ["overture"], "website": "https://www.subway.com/en-US", "phone": "(206) 363-1300", "address": "401 NE Northgate Way Spc VC03", "stations": [{"stopCode": 45, "lines": "1,2", "name": "Northgate Station", "walkingMeters": 340, "walkingSeconds": 254, "band": 5}]}, "geometry": {"type": "Point", "coordinates": [-122.3256226, 47.7045441]}}, {"type": "Feature", "properties": {"id": 2433072050, "name": "Domino's", "category": "fast_food", "tags": ["fast-food", "pizza", "takeaway", "vegetarian", "air-conditioned"], "sources": ["osm"], "website": "https://pizza.dominos.com/washington/seattle/11025-5th-ave-ne", "phone": "+1-206-362-3103", "address": "11025 5th Avenue Northeast", "hours": "Su-Th 10:00-24:00, Fr,Sa 10:00-01:00", "stations": [{"stopCode": 45, "lines": "1,2", "name": "Northgate Station", "walkingMeters": 1053, "walkingSeconds": 757, "band": 15}]}, "geometry": {"type": "Point", "coordinates": [-122.323595, 47.7094257]}}, {"type": "Feature", "properties": {"id": 9188152637, "name": "Starbucks", "category": "cafe", "tags": ["cafe", "coffee-shop", "takeaway", "coffee"], "sources": ["osm", "overture"], "website": "https://www.starbucks.ca/store-locator/store/1031527/", "phone": "+12533675630", "address": "10601 5th Ave Ne", "hours": "Mo-Th 07:00-19:00; Fr-Su 07:00-20:00", "stations": [{"stopCode": 45, "lines": "1,2", "name": "Northgate Station", "walkingMeters": 614, "walkingSeconds": 442, "band": 10}]}, "geometry": {"type": "Point", "coordinates": [-122.3249263, 47.706062]}}, {"type": "Feature", "properties": {"id": 9719755787, "name": "Starbucks", "category": "cafe", "tags": ["cafe", "coffee-shop", "takeaway"], "sources": ["osm"], "website": "https://www.starbucks.com/store-locator/store/18608/target-northgate-1284-302-ne-northgate-way-seattle-wa-981256047-us", "phone": "+1-206-494-0897", "address": "302 Northeast Northgate Way", "hours": "Mo-Su 08:00-20:00", "stations": [{"stopCode": 45, "lines": "1,2", "name": "Northgate Station", "walkingMeters": 1003, "walkingSeconds": 721, "band": 15}]}, "geometry": {"type": "Point", "coordinates": [-122.3248342, 47.709453]}}, {"type": "Feature", "properties": {"id": "9f2686e2-0350-40a1-97bd-8147b73f3704", "name": "Starbucks", "category": "cafe", "tags": ["cafe", "coffee"], "sources": ["overture"], "phone": "2063676651", "address": "540 NE Northgate Way Northgate", "stations": [{"stopCode": 45, "lines": "1,2", "name": "Northgate Station", "walkingMeters": 1084, "walkingSeconds": 780, "band": 15}]}, "geometry": {"type": "Point", "coordinates": [-122.321579, 47.7085838]}}, {"type": "Feature", "properties": {"id": 479527694, "name": "Just Pok\u00e9", "category": "fast_food", "tags": ["fast-food", "poke", "hawaiian", "outdoor-seating", "takeaway"], "sources": ["osm"], "website": "https://justpoke.com/locations/northgate/", "phone": "+1-206-702-1145", "address": "334 Northeast Northgate Way", "hours": "Mo-Su 11:00-20:00", "stations": [{"stopCode": 45, "lines": "1,2", "name": "Northgate Station", "walkingMeters": 944, "walkingSeconds": 679, "band": 15}]}, "geometry": {"type": "Point", "coordinates": [-122.324481, 47.7087621]}}, {"type": "Feature", "properties": {"id": 944701944, "name": "Taco Del Mar", "category": "fast_food", "tags": ["fast-food", "mexican", "outdoor-seating", "takeaway", "restaurant", "taco", "latin-american"], "sources": ["osm", "overture"], "website": "http://www.tacodelmar.com", "phone": "+12062676767", "address": "11016 8th Ave NE", "hours": "Mo-Sa 10:30-21:00; Su 11:00-20:00", "stations": [{"stopCode": 45, "lines": "1,2", "name": "Northgate Station", "walkingMeters": 1270, "walkingSeconds": 913, "band": 15}]}, "geometry": {"type": "Point", "coordinates": [-122.3202727, 47.7092728]}}, {"type": "Feature", "properties": {"id": 3390526762, "name": "Jimmy John's", "category": "fast_food", "tags": ["fast-food", "sandwich", "indoor-seating", "takeaway", "vegetarian", "restaurant"], "sources": ["osm", "overture"], "website": "https://locations.jimmyjohns.com/wa/seattle/sandwiches-1089.html", "phone": "+12069570770", "address": "507 Northgate Way", "hours": "Mo-Fr 11:00-19:00; Sa 11:00-17:00", "stations": [{"stopCode": 45, "lines": "1,2", "name": "Northgate Station", "walkingMeters": 1015, "walkingSeconds": 730, "band": 15}]}, "geometry": {"type": "Point", "coordinates": [-122.3223388, 47.7084069]}}, {"type": "Feature", "properties": {"id": 3158762361, "name": "Chipotle", "category": "fast_food", "tags": ["fast-food", "mexican", "outdoor-seating", "takeaway", "vegetarian", "vegan"], "sources": ["osm"], "website": "https://locations.chipotle.com/wa/seattle/401-ne-northgate-way", "phone": "+1-206-362-0285", "address": "401 Northeast Northgate Way", "hours": "Mo-Su 10:45-22:00", "stations": [{"stopCode": 45, "lines": "1,2", "name": "Northgate Station", "walkingMeters": 343, "walkingSeconds": 246, "band": 5}]}, "geometry": {"type": "Point", "coordinates": [-122.3267169, 47.7050071]}}, {"type": "Feature", "properties": {"id": "be2cf819-9207-49c8-9db9-a81024a67b81", "name": "Jai Thai", "category": "restaurant", "tags": ["restaurant", "thai"], "sources": ["overture"], "website": "http://www.jaithai.com", "phone": "(206) 362-3757", "address": "543 NE Northgate Way", "stations": [{"stopCode": 45, "lines": "1,2", "name": "Northgate Station", "walkingMeters": 1135, "walkingSeconds": 816, "band": 15}]}, "geometry": {"type": "Point", "coordinates": [-122.3214798, 47.7080383]}}, {"type": "Feature", "properties": {"id": "2ad2ba31-b5ca-472e-a38b-8724ef3f6e0f", "name": "Panera Bread", "category": "cafe", "tags": ["cafe", "coffee"], "sources": ["overture"], "website": "http://www.panerabread.com/", "phone": "2063623188", "address": "401 NE Northgate Way", "stations": [{"stopCode": 45, "lines": "1,2", "name": "Northgate Station", "walkingMeters": 625, "walkingSeconds": 450, "band": 10}]}, "geometry": {"type": "Point", "coordinates": [-122.3269577, 47.7076225]}}, {"type": "Feature", "properties": {"id": 2867489102, "name": "Red Robin", "category": "restaurant", "tags": ["restaurant", "burger"], "sources": ["osm"], "website": "https://redrobin.com/locations/wa/seattle/northgate-12", "address": "401 Northeast Northgate Way", "hours": "Su-Th 11:00-22:00; Fr,Sa 11:00-23:00", "stations": [{"stopCode": 45, "lines": "1,2", "name": "Northgate Station", "walkingMeters": 370, "walkingSeconds": 266, "band": 5}]}, "geometry": {"type": "Point", "coordinates": [-122.325154, 47.7041354]}}, {"type": "Feature", "properties": {"id": 2461755946, "name": "Five Guys", "category": "fast_food", "tags": ["fast-food", "burger", "indoor-seating", "takeaway", "fast", "food", "american"], "sources": ["osm", "overture"], "website": "https://restaurants.fiveguys.com/311-ne-103rd-street", "phone": "+12067295028", "address": "311 NE 103rd Street", "hours": "Mo-Su 11:00-22:00", "stations": [{"stopCode": 45, "lines": "1,2", "name": "Northgate Station", "walkingMeters": 266, "walkingSeconds": 191, "band": 5}]}, "geometry": {"type": "Point", "coordinates": [-122.3250769, 47.7029915]}}, {"type": "Feature", "properties": {"id": 2433072034, "name": "Gyro Hut", "category": "fast_food", "tags": ["fast-food", "greek", "mediterranean", "takeaway", "delivery", "vegetarian", "vegan", "restaurant", "middle-eastern"], "sources": ["osm", "overture"], "website": "https://gyrohutwa.com/", "phone": "+12063624976", "address": "11020 8th Ave NE", "hours": "Mo-Sa 10:30-22:00; Su 11:00-21:00", "stations": [{"stopCode": 45, "lines": "1,2", "name": "Northgate Station", "walkingMeters": 1289, "walkingSeconds": 927, "band": 15}]}, "geometry": {"type": "Point", "coordinates": [-122.3202751, 47.7094515]}}, {"type": "Feature", "properties": {"id": 2461755878, "name": "Watershed Pub", "category": "pub", "tags": ["pub", "italian", "outdoor-seating", "wifi"], "sources": ["osm"], "website": "https://www.watershedpub.com/", "phone": "+1-206-729-7433", "address": "10104 3rd Avenue Northeast", "hours": "Mo-Th 11:00-23:00, Fr 11:00-24:00, Sa 10:00-24:00, Su 10:00-23:00", "stations": [{"stopCode": 45, "lines": "1,2", "name": "Northgate Station", "walkingMeters": 350, "walkingSeconds": 251, "band": 5}]}, "geometry": {"type": "Point", "coordinates": [-122.3255337, 47.701915]}}, {"type": "Feature", "properties": {"id": 2461755947, "name": "Tengu Sushi", "category": "restaurant", "tags": ["restaurant", "japanese", "takeaway", "sushi"], "sources": ["osm", "overture"], "website": "http://www.tengujapanese.com/", "phone": "+12065259999", "address": "311 NE Thornton Pl", "hours": "Mo-Su 11:00-21:00", "stations": [{"stopCode": 45, "lines": "1,2", "name": "Northgate Station", "walkingMeters": 334, "walkingSeconds": 240, "band": 5}]}, "geometry": {"type": "Point", "coordinates": [-122.325146, 47.7022635]}}, {"type": "Feature", "properties": {"id": 2461755971, "name": "Kizuki Ramen & Izakaya - Northgate", "category": "restaurant", "tags": ["restaurant", "japanese", "outdoor-seating", "takeaway"], "sources": ["osm"], "website": "https://www.kizuki.com/", "phone": "+1-206-584-2983", "address": "319 Northeast Thornton Place", "hours": "Su-Th 11:00-21:30; Fr,Sa 11:00-22:00", "stations": [{"stopCode": 45, "lines": "1,2", "name": "Northgate Station", "walkingMeters": 349, "walkingSeconds": 251, "band": 5}]}, "geometry": {"type": "Point", "coordinates": [-122.3247288, 47.702336]}}, {"type": "Feature", "properties": {"id": 2461755973, "name": "Jewel Box Cafe", "category": "cafe", "tags": ["cafe", "coffee-shop", "breakfast-and-brunch"], "sources": ["osm", "overture"], "website": "http://www.jewelboxcafe.com/", "phone": "+12064329341", "address": "321 NE Thornton Pl", "hours": "Mo-Fr 06:00-21:00; Sa,Su 08:00-21:00", "stations": [{"stopCode": 45, "lines": "1,2", "name": "Northgate Station", "walkingMeters": 357, "walkingSeconds": 257, "band": 5}]}, "geometry": {"type": "Point", "coordinates": [-122.3245444, 47.7024574]}}, {"type": "Feature", "properties": {"id": 2461755974, "name": "Thai Fusion Bistro", "category": "restaurant", "tags": ["restaurant", "thai", "asian"], "sources": ["osm", "overture"], "website": "http://www.thaifusionbistro.com/", "phone": "+12062680787", "address": "323 NE Thornton Pl", "hours": "Mo-Th 11:00-21:00; Fr 11:00-22:00; Sa 12:00-22:00; Su 12:00-21:00", "stations": [{"stopCode": 45, "lines": "1,2", "name": "Northgate Station", "walkingMeters": 379, "walkingSeconds": 272, "band": 5}]}, "geometry": {"type": "Point", "coordinates": [-122.324434, 47.7025685]}}, {"type": "Feature", "properties": {"id": "2b92d226-4908-44e3-be67-ac48b7b21dce", "name": "Taco Bell", "category": "restaurant", "tags": ["restaurant", "mexican", "fast-food"], "sources": ["overture"], "website": "http://www.tacobell.com/", "phone": "+12064179964", "address": "401 NE Northgate Way", "stations": [{"stopCode": 45, "lines": "1,2", "name": "Northgate Station", "walkingMeters": 370, "walkingSeconds": 266, "band": 5}]}, "geometry": {"type": "Point", "coordinates": [-122.3253632, 47.7042961]}}, {"type": "Feature", "properties": {"id": 3390526763, "name": "Masala of India", "category": "restaurant", "tags": ["restaurant", "indian", "indoor-seating", "vegetarian"], "sources": ["osm"], "website": "https://masalaofindia.com/", "address": "507 Northeast Northgate Way", "hours": "Mo-Su 10:00-22:00", "stations": [{"stopCode": 45, "lines": "1,2", "name": "Northgate Station", "walkingMeters": 984, "walkingSeconds": 707, "band": 15}]}, "geometry": {"type": "Point", "coordinates": [-122.3227586, 47.7084114]}}, {"type": "Feature", "properties": {"id": "94e54d07-40a8-44ea-93fd-cd24162bd98c", "name": "Charleys Philly Steaks", "category": "restaurant", "tags": ["restaurant", "cheesesteak"], "sources": ["overture"], "website": "http://charleys.com/", "phone": "2063624778", "address": "401 NE Northgate Way", "stations": [{"stopCode": 45, "lines": "1,2", "name": "Northgate Station", "walkingMeters": 504, "walkingSeconds": 363, "band": 10}]}, "geometry": {"type": "Point", "coordinates": [-122.3260956, 47.7058907]}}, {"type": "Feature", "properties": {"id": "c901997e-fcf8-44a1-a841-66d65f5eee9a", "name": "Pizza Hut Express", "category": "fast_food", "tags": ["fast-food", "fast", "food"], "sources": ["overture"], "website": "https://locations.pizzahut.com/wa/seattle/300-ne-northgate-way", "address": "300 NE Northgate Way", "stations": [{"stopCode": 45, "lines": "1,2", "name": "Northgate Station", "walkingMeters": 883, "walkingSeconds": 635, "band": 15}]}, "geometry": {"type": "Point", "coordinates": [-122.3257675, 47.7087669]}}, {"type": "Feature", "properties": {"id": 4766222629, "name": "Trezo", "category": "fast_food", "tags": ["fast-food", "bubble-tea", "smoothie", "hawaiian", "poke", "vietnamese", "banh-mi", "indoor-seating", "vegetarian"], "sources": ["osm"], "website": "https://www.trezousa.com/", "phone": "+1-206-234-4523", "address": "540 Northeast Northgate Way", "hours": "Mo-Su 11:00-20:30", "stations": [{"stopCode": 45, "lines": "1,2", "name": "Northgate Station", "walkingMeters": 1118, "walkingSeconds": 804, "band": 15}]}, "geometry": {"type": "Point", "coordinates": [-122.3215181, 47.7087857]}}, {"type": "Feature", "properties": {"id": "5f8414da-9a07-4e43-978d-4c4a484003d7", "name": "Azteca Mexican Restaurants", "category": "restaurant", "tags": ["restaurant", "mexican"], "sources": ["overture"], "phone": "2062090049", "address": "401 NE Northgate Way", "stations": [{"stopCode": 45, "lines": "1,2", "name": "Northgate Station", "walkingMeters": 951, "walkingSeconds": 684, "band": 15}]}, "geometry": {"type": "Point", "coordinates": [-122.3237534, 47.7085533]}}, {"type": "Feature", "properties": {"id": "a31caf89-2ed7-4d8b-984d-f9dbc309e593", "name": "Sbarro", "category": "restaurant", "tags": ["restaurant", "pizza"], "sources": ["overture"], "website": "http://www.sbarro.com", "phone": "(206) 364-2208", "address": "555 Northgate Mall", "stations": [{"stopCode": 45, "lines": "1,2", "name": "Northgate Station", "walkingMeters": 275, "walkingSeconds": 200, "band": 5}]}, "geometry": {"type": "Point", "coordinates": [-122.3258209, 47.7043724]}}, {"type": "Feature", "properties": {"id": "0628e395-df08-4a77-90c5-67dffda1274f", "name": "Sarku Japan", "category": "restaurant", "tags": ["restaurant", "japanese"], "sources": ["overture"], "website": "http://www.sarkujapan.com", "phone": "(206) 368-8886", "address": "401 NE Northgate Way", "stations": [{"stopCode": 45, "lines": "1,2", "name": "Northgate Station", "walkingMeters": 308, "walkingSeconds": 221, "band": 5}]}, "geometry": {"type": "Point", "coordinates": [-122.3257294, 47.7043877]}}, {"type": "Feature", "properties": {"id": 9233920847, "name": "32 Bar & Grill", "category": "pub", "tags": ["pub", "bar", "sports", "bar-and-grill"], "sources": ["osm", "overture"], "website": "https://www.krakencommunityiceplex.com/venue/32-bar-grill", "phone": "+12062797770", "address": "10601 5th Ave NE", "hours": "Mo-Su 11:00-00:30", "stations": [{"stopCode": 45, "lines": "1,2", "name": "Northgate Station", "walkingMeters": 548, "walkingSeconds": 394, "band": 10}]}, "geometry": {"type": "Point", "coordinates": [-122.3256875, 47.7062696]}}, {"type": "Feature", "properties": {"id": "682a188d-2bdc-4011-8479-1577f1bccd41", "name": "Cinnabon", "category": "cafe", "tags": ["cafe", "coffee"], "sources": ["overture"], "website": "https://www.cinnabon.com/", "phone": "2063669764", "address": "401 Northgate Way NE Ste #471", "stations": [{"stopCode": 45, "lines": "1,2", "name": "Northgate Station", "walkingMeters": 827, "walkingSeconds": 595, "band": 10}]}, "geometry": {"type": "Point", "coordinates": [-122.3234024, 47.7074242]}}, {"type": "Feature", "properties": {"id": "39212604-eade-4690-a40a-f79fa302bc3b", "name": "Kizuki Ramen & Izakaya", "category": "restaurant", "tags": ["restaurant", "japanese", "asian"], "sources": ["overture"], "website": "https://www.kizuki.com/", "phone": "+18778390559", "address": "319 NE Thornton Pl", "stations": [{"stopCode": 45, "lines": "1,2", "name": "Northgate Station", "walkingMeters": 347, "walkingSeconds": 249, "band": 5}]}, "geometry": {"type": "Point", "coordinates": [-122.3247757, 47.7024307]}}, {"type": "Feature", "properties": {"id": "d98d7887-754d-4964-a13b-d54316eb2749", "name": "Engimono Ramen", "category": "restaurant", "tags": ["restaurant", "noodles"], "sources": ["overture"], "website": "http://engimonoramen.com", "phone": "(206) 366-8888", "address": "300 NE Northgate Way", "stations": [{"stopCode": 45, "lines": "1,2", "name": "Northgate Station", "walkingMeters": 891, "walkingSeconds": 665, "band": 15}]}, "geometry": {"type": "Point", "coordinates": [-122.3256302, 47.7089272]}}, {"type": "Feature", "properties": {"id": "d06be776-a962-44d1-bc63-1b70dc058b8d", "name": "Thai Go", "category": "restaurant", "tags": ["restaurant", "thai"], "sources": ["overture"], "website": "http://thaigousa.com", "phone": "(206) 361-9448", "address": "401 NE 103rd St.", "stations": [{"stopCode": 45, "lines": "1,2", "name": "Northgate Station", "walkingMeters": 390, "walkingSeconds": 280, "band": 5}]}, "geometry": {"type": "Point", "coordinates": [-122.3258209, 47.7046242]}}, {"type": "Feature", "properties": {"id": 39946255, "name": "Stanford's Restaurant & Bar", "category": "restaurant", "tags": ["restaurant", "american"], "sources": ["osm"], "website": "https://stanfords.com/locations/northgate/", "phone": "+1-206-834-6277", "address": "401 Northeast Northgate Way", "hours": "Su-Th 11:00-21:00; Fr,Sa 11:00-22:00", "stations": [{"stopCode": 45, "lines": "1,2", "name": "Northgate Station", "walkingMeters": 719, "walkingSeconds": 517, "band": 10}]}, "geometry": {"type": "Point", "coordinates": [-122.3281889, 47.7083294]}}, {"type": "Feature", "properties": {"id": "b245ea8e-11f5-481b-a7d4-252c40c4d89a", "name": "BevMo!", "category": "bar", "tags": ["bar", "wine"], "sources": ["overture"], "phone": "2063670911", "address": "10700 5th Ave NE", "stations": [{"stopCode": 45, "lines": "1,2", "name": "Northgate Station", "walkingMeters": 800, "walkingSeconds": 575, "band": 10}]}, "geometry": {"type": "Point", "coordinates": [-122.3226395, 47.7068863]}}, {"type": "Feature", "properties": {"id": "c07f99e1-495f-4c0e-ba1d-1a2e12f2c059", "name": "Starbucks Coffee Company", "category": "cafe", "tags": ["cafe", "coffee"], "sources": ["overture"], "website": "https://www.starbucks.com/store-locator/store/18608", "phone": "+12064940897", "address": "302 NE Northgate Way", "stations": [{"stopCode": 45, "lines": "1,2", "name": "Northgate Station", "walkingMeters": 900, "walkingSeconds": 672, "band": 15}]}, "geometry": {"type": "Point", "coordinates": [-122.3248825, 47.7088127]}}, {"type": "Feature", "properties": {"id": "fb04a6e2-07a7-4fb1-95b1-b7cbdfac2336", "name": "Chipotle Mexican Grill", "category": "restaurant", "tags": ["restaurant", "mexican", "fast-food"], "sources": ["overture"], "website": "http://www.chipotle.com", "phone": "+12063620285", "address": "401 NE Northgate Way Spc 1119", "stations": [{"stopCode": 45, "lines": "1,2", "name": "Northgate Station", "walkingMeters": 343, "walkingSeconds": 246, "band": 5}]}, "geometry": {"type": "Point", "coordinates": [-122.3267365, 47.7049904]}}, {"type": "Feature", "properties": {"id": "ba1fb22d-dca2-406c-a2b3-fd5c10f56cbb", "name": "Caf\u00e9 Pho", "category": "restaurant", "tags": ["restaurant", "vietnamese"], "sources": ["overture"], "website": "http://www.cafepho.com", "phone": "(206) 363-1227", "address": "401 NE Northgate Way", "stations": [{"stopCode": 45, "lines": "1,2", "name": "Northgate Station", "walkingMeters": 413, "walkingSeconds": 297, "band": 5}]}, "geometry": {"type": "Point", "coordinates": [-122.3269577, 47.705616]}}, {"type": "Feature", "properties": {"id": "5cc24260-4341-4d1f-9d3a-627628cd6935", "name": "Red Robin Gourmet Burgers", "category": "restaurant", "tags": ["restaurant", "burger", "american", "fast-food"], "sources": ["overture"], "website": "https://www.redrobin.com/locations/wa/seattle/northgate-12", "phone": "+12063650933", "address": "401 NE Northgate Way", "stations": [{"stopCode": 45, "lines": "1,2", "name": "Northgate Station", "walkingMeters": 319, "walkingSeconds": 229, "band": 5}]}, "geometry": {"type": "Point", "coordinates": [-122.3253098, 47.7041054]}}, {"type": "Feature", "properties": {"id": "c609f8e2-80aa-4be6-b134-b76d633d9df3", "name": "Ram Restaurant & Brewery", "category": "bar", "tags": ["bar", "sports", "burger"], "sources": ["overture"], "website": "http://www.theram.com/washington/northgate.shtml", "phone": "2063648000", "address": "401 NE Northgate Way", "stations": [{"stopCode": 45, "lines": "1,2", "name": "Northgate Station", "walkingMeters": 886, "walkingSeconds": 638, "band": 15}]}, "geometry": {"type": "Point", "coordinates": [-122.324791, 47.7085915]}}, {"type": "Feature", "properties": {"id": "4441c9a2-7e57-482c-88f7-c93c3bf2c396", "name": "Mama Stortini's", "category": "restaurant", "tags": ["restaurant", "italian"], "sources": ["overture"], "website": "http://mamastortinis.com", "phone": "(206) 362-4778", "address": "401 NE Northgate Way", "stations": [{"stopCode": 45, "lines": "1,2", "name": "Northgate Station", "walkingMeters": 580, "walkingSeconds": 417, "band": 10}]}, "geometry": {"type": "Point", "coordinates": [-122.3269348, 47.7071037]}}, {"type": "Feature", "properties": {"id": "73d1635f-dd65-47d0-ac55-c3cd0edd928b", "name": "Donatos Pizza", "category": "restaurant", "tags": ["restaurant", "pizza"], "sources": ["overture"], "website": "https://www.donatos.com", "phone": "12063650933", "address": "401 Ne Northgate Way  Spc 430", "stations": [{"stopCode": 45, "lines": "1,2", "name": "Northgate Station", "walkingMeters": 151, "walkingSeconds": 109, "band": 10}]}, "geometry": {"type": "Point", "coordinates": [-122.3260498, 47.7062378]}}, {"type": "Feature", "properties": {"id": "b224ad99-fccc-4b1a-8653-c1ce551cb3fc", "name": "Ivar's Seafood Restaurant", "category": "restaurant", "tags": ["restaurant", "seafood"], "sources": ["overture"], "website": "http://www.ivars.net", "phone": "(206) 367-4820", "address": "401 NE Northgate Way", "stations": [{"stopCode": 45, "lines": "1,2", "name": "Northgate Station", "walkingMeters": 626, "walkingSeconds": 450, "band": 10}]}, "geometry": {"type": "Point", "coordinates": [-122.3251877, 47.7062492]}}, {"type": "Feature", "properties": {"id": "df625af9-3678-415f-9be7-f3e4a1bbc8a5", "name": "Marketplace Cafe", "category": "cafe", "tags": ["cafe"], "sources": ["overture"], "website": "https://shop.nordstrom.com/st/nordstrom-northgate", "phone": "2063155712", "address": "401 NE Northgate Way", "stations": [{"stopCode": 45, "lines": "1,2", "name": "Northgate Station", "walkingMeters": 951, "walkingSeconds": 684, "band": 15}]}, "geometry": {"type": "Point", "coordinates": [-122.3237534, 47.7085533]}}, {"type": "Feature", "properties": {"id": "32cf6689-4079-4db7-96a9-4ff02d8a8fa2", "name": "Indo Cafe", "category": "restaurant", "tags": ["restaurant", "bistro"], "sources": ["overture"], "website": "http://www.myindocafe.com", "phone": "(206) 361-0699", "address": "543 NE Northgate Way Ste J", "stations": [{"stopCode": 45, "lines": "1,2", "name": "Northgate Station", "walkingMeters": 976, "walkingSeconds": 702, "band": 15}]}, "geometry": {"type": "Point", "coordinates": [-122.3228683, 47.7084084]}}, {"type": "Feature", "properties": {"id": "81680aa7-78de-4991-a936-3830c98f6677", "name": "Romano's Macaroni Grill", "category": "restaurant", "tags": ["restaurant"], "sources": ["overture"], "phone": "2068386009", "address": "401 NE Northgate Way Spc 1103", "stations": [{"stopCode": 45, "lines": "1,2", "name": "Northgate Station", "walkingMeters": 951, "walkingSeconds": 684, "band": 15}]}, "geometry": {"type": "Point", "coordinates": [-122.3237534, 47.7085533]}}, {"type": "Feature", "properties": {"id": "01eef51d-91b2-4130-8e4e-10aaaad52f05", "name": "Nordstrom Ebar Artisan Coffee", "category": "cafe", "tags": ["cafe", "coffee"], "sources": ["overture"], "website": "https://shop.nordstrom.com/st/nordstrom-northgate", "phone": "2063155713", "address": "401 NE Northgate Way", "stations": [{"stopCode": 45, "lines": "1,2", "name": "Northgate Station", "walkingMeters": 951, "walkingSeconds": 684, "band": 15}]}, "geometry": {"type": "Point", "coordinates": [-122.3237534, 47.7085533]}}, {"type": "Feature", "properties": {"id": "917db71d-7cbe-49a5-93bb-a3a8814bde35", "name": "Just Poke Northgate", "category": "restaurant", "tags": ["restaurant", "poke", "hawaiian"], "sources": ["overture"], "website": "https://justpoke.com/locations/northgate/", "phone": "+12067021145", "address": "334 NE Northgate Way", "stations": [{"stopCode": 45, "lines": "1,2", "name": "Northgate Station", "walkingMeters": 948, "walkingSeconds": 682, "band": 15}]}, "geometry": {"type": "Point", "coordinates": [-122.3244781, 47.7087975]}}, {"type": "Feature", "properties": {"id": "c0ab8940-ce2f-4e99-b44d-a2b0e19df950", "name": "Tian Fu", "category": "restaurant", "tags": ["restaurant", "chinese", "asian"], "sources": ["overture"], "website": "https://tianfuchunqiu.com/", "phone": "+12063633292", "address": "300 NE Northgate Way", "stations": [{"stopCode": 45, "lines": "1,2", "name": "Northgate Station", "walkingMeters": 973, "walkingSeconds": 700, "band": 15}]}, "geometry": {"type": "Point", "coordinates": [-122.3246536, 47.7090988]}}, {"type": "Feature", "properties": {"id": "007a7ac6-9233-4df2-a64d-b4c3ce48c636", "name": "The Corner", "category": "restaurant", "tags": ["restaurant", "bistro"], "sources": ["overture"], "website": "http://thecornerseattle.com", "address": "300 NE Northgate Way", "stations": [{"stopCode": 45, "lines": "1,2", "name": "Northgate Station", "walkingMeters": 873, "walkingSeconds": 651, "band": 15}]}, "geometry": {"type": "Point", "coordinates": [-122.325592, 47.7087898]}}, {"type": "Feature", "properties": {"id": "60d1be9a-c970-425a-8462-9bc4d387294f", "name": "California Pizza Kitchen at Northgate Mall", "category": "restaurant", "tags": ["restaurant", "pizza"], "sources": ["overture"], "website": "https://www.cpk.com/location/details/Northgate-Mall", "phone": "2063674445", "address": "401 N E Northgate Way, Spc 944, Northgate Mall", "stations": [{"stopCode": 45, "lines": "1,2", "name": "Northgate Station", "walkingMeters": 761, "walkingSeconds": 547, "band": 10}]}, "geometry": {"type": "Point", "coordinates": [-122.3261032, 47.708004]}}, {"type": "Feature", "properties": {"id": "9ecfe2ec-7994-40c9-a741-a4a13a496dc8", "name": "Linh Restaurant Llc", "category": "restaurant", "tags": ["restaurant"], "sources": ["overture"], "website": "https://linh-son-restaurant.business.site", "address": "401 Ne Northgate Way Ste 1108a", "stations": [{"stopCode": 45, "lines": "1,2", "name": "Northgate Station", "walkingMeters": 513, "walkingSeconds": 383, "band": 10}]}, "geometry": {"type": "Point", "coordinates": [-122.3260498, 47.7062378]}}, {"type": "Feature", "properties": {"id": "8a4e5027-ca53-46ee-8bfb-7805a50063fc", "name": "Sushi Maru", "category": "restaurant", "tags": ["restaurant", "sushi"], "sources": ["overture"], "website": "http://sushimarubellevue.com", "phone": "(206) 363-0165", "address": "401 NE Northgate Way Ste 1109", "stations": [{"stopCode": 45, "lines": "1,2", "name": "Northgate Station", "walkingMeters": 412, "walkingSeconds": 296, "band": 5}]}, "geometry": {"type": "Point", "coordinates": [-122.3269272, 47.7056046]}}, {"type": "Feature", "properties": {"id": "4789ff34-c70e-4b57-a89a-0fb828052b45", "name": "Bluefin Sushi and Seafood Buffet", "category": "restaurant", "tags": ["restaurant", "buffet", "asian", "seafood", "sushi"], "sources": ["overture"], "website": "http://bluefinseattle.com/", "phone": "2063670115", "address": "401 NE Northgate Way", "stations": [{"stopCode": 45, "lines": "1,2", "name": "Northgate Station", "walkingMeters": 342, "walkingSeconds": 246, "band": 5}]}, "geometry": {"type": "Point", "coordinates": [-122.3265839, 47.7047386]}}, {"type": "Feature", "properties": {"id": "8ddc7e12-82c6-4f01-b70b-56af2502c9ba", "name": "Ruby Thai Northgate", "category": "restaurant", "tags": ["restaurant", "thai"], "sources": ["overture"], "website": "https://qmenu.us/#/ruby-thai-northgate-washington", "phone": "2063641228", "address": "301 NE Northgate Way", "stations": [{"stopCode": 45, "lines": "1,2", "name": "Northgate Station", "walkingMeters": 412, "walkingSeconds": 296, "band": 5}]}, "geometry": {"type": "Point", "coordinates": [-122.3256989, 47.7046509]}}, {"type": "Feature", "properties": {"id": "dfa7af16-8edc-48b9-a80e-1042c8fd2579", "name": "Taste of Masala", "category": "restaurant", "tags": ["restaurant"], "sources": ["overture"], "website": "https://www.tasteofmasalawa.com/?utm_source=bing&utm_medium=websiteurl&utm_campaign=search", "phone": "2062902490", "address": "507 NE Northgate Way Unit G", "stations": [{"stopCode": 45, "lines": "1,2", "name": "Northgate Station", "walkingMeters": 910, "walkingSeconds": 654, "band": 15}]}, "geometry": {"type": "Point", "coordinates": [-122.3228607, 47.708004]}}, {"type": "Feature", "properties": {"id": "ca798f47-87c7-4fce-bd75-758731fbf6dc", "name": "Masala of India Cuisine", "category": "restaurant", "tags": ["restaurant", "indian"], "sources": ["overture"], "website": "https://masalaofindia.com/", "phone": "+12064171118", "address": "507 NE Northgate Way Ste G", "stations": [{"stopCode": 45, "lines": "1,2", "name": "Northgate Station", "walkingMeters": 937, "walkingSeconds": 674, "band": 15}]}, "geometry": {"type": "Point", "coordinates": [-122.3227921, 47.708252]}}, {"type": "Feature", "properties": {"id": "4dca9e3a-b935-430e-9420-dc89b6d72de1", "name": "Thai Hut Llc", "category": "restaurant", "tags": ["restaurant"], "sources": ["overture"], "website": "https://thethaihut.com", "address": "323 NE Thornton Pl", "stations": [{"stopCode": 45, "lines": "1,2", "name": "Northgate Station", "walkingMeters": 377, "walkingSeconds": 281, "band": 5}]}, "geometry": {"type": "Point", "coordinates": [-122.32444, 47.7027092]}}, {"type": "Feature", "properties": {"id": "3e59bc8f-e1c4-4fc3-a77a-37fdaf8b4a92", "name": "Tony Enterprises Inc", "category": "restaurant", "tags": ["restaurant"], "sources": ["overture"], "address": "327 NE Thornton Pl", "stations": [{"stopCode": 45, "lines": "1,2", "name": "Northgate Station", "walkingMeters": 379, "walkingSeconds": 283, "band": 5}]}, "geometry": {"type": "Point", "coordinates": [-122.3244171, 47.7027168]}}, {"type": "Feature", "properties": {"id": "1ac57e3f-341c-425c-9d21-c2d70f05d250", "name": "Watershed Pub & Kitchen", "category": "restaurant", "tags": ["restaurant", "pub"], "sources": ["overture"], "website": "https://linktr.ee/watershedpub", "phone": "+12067297433", "address": "10104 3rd Ave NE", "stations": [{"stopCode": 45, "lines": "1,2", "name": "Northgate Station", "walkingMeters": 335, "walkingSeconds": 241, "band": 5}]}, "geometry": {"type": "Point", "coordinates": [-122.3256683, 47.7018585]}}, {"type": "Feature", "properties": {"id": "13902979-1979-4cbd-b3c3-289ea13e8c29", "name": "Lilly's at Aljoya", "category": "restaurant", "tags": ["restaurant", "american"], "sources": ["overture"], "website": "http://www.lilyspamperingsalon.com", "phone": "(206) 306-7920", "address": "450 NE 100th St", "stations": [{"stopCode": 45, "lines": "1,2", "name": "Northgate Station", "walkingMeters": 467, "walkingSeconds": 336, "band": 10}]}, "geometry": {"type": "Point", "coordinates": [-122.3236618, 47.7017288]}}, {"type": "Feature", "properties": {"id": "8ecd780d-8956-4cad-969f-b6083ae120cd", "name": "The Bistro at Aljoya", "category": "cafe", "tags": ["cafe"], "sources": ["overture"], "website": "http://www.35bistro.com", "phone": "(206) 306-7920", "address": "450 NE 100th St", "stations": [{"stopCode": 45, "lines": "1,2", "name": "Northgate Station", "walkingMeters": 523, "walkingSeconds": 376, "band": 10}]}, "geometry": {"type": "Point", "coordinates": [-122.3235626, 47.7015228]}}, {"type": "Feature", "properties": {"id": "743a6065-ecda-41ef-b443-e0134ec86bd7", "name": "Sub Master", "category": "restaurant", "tags": ["restaurant"], "sources": ["overture"], "website": "https://www.submaster.in", "address": "9586 1st Ave NE", "stations": [{"stopCode": 45, "lines": "1,2", "name": "Northgate Station", "walkingMeters": 382, "walkingSeconds": 285, "band": 5}]}, "geometry": {"type": "Point", "coordinates": [-122.3278809, 47.7004013]}}, {"type": "Feature", "properties": {"id": "e6edbe36-2ab5-4250-b4f0-67007d0935d8", "name": "The Seattle Saloon", "category": "restaurant", "tags": ["restaurant", "barbecue"], "sources": ["overture"], "website": "http://SeattleSaloon.com/", "phone": "+12063624778", "address": "401 NE Northgate Way", "stations": [{"stopCode": 45, "lines": "1,2", "name": "Northgate Station", "walkingMeters": 643, "walkingSeconds": 463, "band": 10}]}, "geometry": {"type": "Point", "coordinates": [-122.3281937, 47.7083435]}}, {"type": "Feature", "properties": {"id": "30ec6bd7-e28d-4324-b89c-75579b6fede2", "name": "Stanford's Northgate", "category": "restaurant", "tags": ["restaurant", "american", "bar-and-grill"], "sources": ["overture"], "website": "https://stanfords.com/locations/northgate/", "phone": "+12068346277", "address": "401 NE Northgate Way", "stations": [{"stopCode": 45, "lines": "1,2", "name": "Northgate Station", "walkingMeters": 690, "walkingSeconds": 497, "band": 10}]}, "geometry": {"type": "Point", "coordinates": [-122.3280258, 47.7082977]}}, {"type": "Feature", "properties": {"id": 3211770325, "name": "In Transition is Unity", "category": "artwork", "tags": ["artwork"], "sources": ["osm"], "stations": [{"stopCode": 45, "lines": "1,2", "name": "Northgate Station", "walkingMeters": 735, "walkingSeconds": 528, "band": 10}]}, "geometry": {"type": "Point", "coordinates": [-122.322567, 47.705883]}}, {"type": "Feature", "properties": {"id": 3211770327, "name": "Circulation", "category": "artwork", "tags": ["artwork"], "sources": ["osm"], "stations": [{"stopCode": 45, "lines": "1,2", "name": "Northgate Station", "walkingMeters": 766, "walkingSeconds": 551, "band": 10}]}, "geometry": {"type": "Point", "coordinates": [-122.3226648, 47.7060295]}}, {"type": "Feature", "properties": {"id": 5581525005, "name": "The Eddy", "category": "artwork", "tags": ["artwork"], "sources": ["osm"], "stations": [{"stopCode": 45, "lines": "1,2", "name": "Northgate Station", "walkingMeters": 735, "walkingSeconds": 529, "band": 10}]}, "geometry": {"type": "Point", "coordinates": [-122.322399, 47.705767]}}, {"type": "Feature", "properties": {"id": 9780691549, "name": "Surge - Wiggle Posts", "category": "artwork", "tags": ["artwork"], "sources": ["osm"], "website": "http://www.bensonshaw.com/bensonshaw.com/T_CREEK.html", "stations": [{"stopCode": 45, "lines": "1,2", "name": "Northgate Station", "walkingMeters": 378, "walkingSeconds": 272, "band": 5}]}, "geometry": {"type": "Point", "coordinates": [-122.3234289, 47.703026]}}, {"type": "Feature", "properties": {"id": 9780691550, "name": "Surge - Bad Buoys", "category": "artwork", "tags": ["artwork"], "sources": ["osm"], "website": "http://www.bensonshaw.com/bensonshaw.com/T_CREEK.html", "stations": [{"stopCode": 45, "lines": "1,2", "name": "Northgate Station", "walkingMeters": 444, "walkingSeconds": 319, "band": 5}]}, "geometry": {"type": "Point", "coordinates": [-122.3242738, 47.701814]}}, {"type": "Feature", "properties": {"id": 9780691551, "name": "Surge - Falling Water", "category": "artwork", "tags": ["artwork"], "sources": ["osm"], "website": "http://www.bensonshaw.com/bensonshaw.com/T_CREEK.html", "stations": [{"stopCode": 45, "lines": "1,2", "name": "Northgate Station", "walkingMeters": 365, "walkingSeconds": 262, "band": 5}]}, "geometry": {"type": "Point", "coordinates": [-122.3256012, 47.7014944]}}, {"type": "Feature", "properties": {"id": 9915278740, "name": "Twilight Flight", "category": "artwork", "tags": ["artwork"], "sources": ["osm"], "stations": [{"stopCode": 45, "lines": "1,2", "name": "Northgate Station", "walkingMeters": 280, "walkingSeconds": 201, "band": 5}]}, "geometry": {"type": "Point", "coordinates": [-122.3255146, 47.7024429]}}, {"type": "Feature", "properties": {"id": 10908623238, "name": "Understory", "category": "artwork", "tags": ["artwork"], "sources": ["osm"], "stations": [{"stopCode": 45, "lines": "1,2", "name": "Northgate Station", "walkingMeters": 111, "walkingSeconds": 80, "band": 5}]}, "geometry": {"type": "Point", "coordinates": [-122.328116, 47.7021913]}}, {"type": "Feature", "properties": {"id": 10908623239, "name": "Overlay", "category": "artwork", "tags": ["artwork"], "sources": ["osm"], "website": "https://crisbruch.com/the_work/northgate/", "stations": [{"stopCode": 45, "lines": "1,2", "name": "Northgate Station", "walkingMeters": 447, "walkingSeconds": 322, "band": 5}]}, "geometry": {"type": "Point", "coordinates": [-122.3283794, 47.7034548]}}, {"type": "Feature", "properties": {"id": 13687331007, "name": "Kiku Rising", "category": "artwork", "tags": ["artwork"], "sources": ["osm"], "stations": [{"stopCode": 45, "lines": "1,2", "name": "Northgate Station", "walkingMeters": 326, "walkingSeconds": 234, "band": 5}]}, "geometry": {"type": "Point", "coordinates": [-122.3283972, 47.7056802]}}, {"type": "Feature", "properties": {"id": "199fc522-ad27-4308-a209-e53552c7ada9", "name": "Modera Northgate", "category": "attraction", "tags": ["attraction", "landmark", "historical", "building"], "sources": ["overture"], "website": "https://www.moderanorthgateseattle.com/?switch_cls%5Bid%5D=95046%2F%3Futm_source%3DFacebook_Instagram&utm_medium=Community+Listing", "phone": "+12064567003", "address": "10631 8th Ave NE", "stations": [{"stopCode": 45, "lines": "1,2", "name": "Northgate Station", "walkingMeters": 1034, "walkingSeconds": 743, "band": 10}]}, "geometry": {"type": "Point", "coordinates": [-122.3213425, 47.706459]}}, {"type": "Feature", "properties": {"id": "be1da68a-2315-4607-ac47-bf3222dfe11e", "name": "Lane Apartments", "category": "attraction", "tags": ["attraction", "landmark", "historical", "building"], "sources": ["overture"], "website": "https://www.equityapartments.com/seattle/north-seattle/lane-apartments", "phone": "+12063473824", "address": "10720 5th Ave NE", "stations": [{"stopCode": 45, "lines": "1,2", "name": "Northgate Station", "walkingMeters": 875, "walkingSeconds": 629, "band": 15}]}, "geometry": {"type": "Point", "coordinates": [-122.3226852, 47.7074394]}}, {"type": "Feature", "properties": {"id": "60d86947-bd29-448e-8ce0-b4e1d91e9625", "name": "The Enclave", "category": "attraction", "tags": ["attraction", "landmark", "historical", "building"], "sources": ["overture"], "website": "https://enclavenorthgate.com/", "phone": "+12066232222", "address": "101 NE Northgate Way", "stations": [{"stopCode": 45, "lines": "1,2", "name": "Northgate Station", "walkingMeters": 952, "walkingSeconds": 710, "band": 15}]}, "geometry": {"type": "Point", "coordinates": [-122.3220978, 47.7081299]}}, {"type": "Feature", "properties": {"id": "a7c3f654-eb21-47e5-bcc8-814e3ad93410", "name": "Prism", "category": "attraction", "tags": ["attraction", "landmark", "historical", "building"], "sources": ["overture"], "website": "https://www.liveatprism.com/?utm_knock=sm", "phone": "+12064880373", "address": "10711 8th Ave NE", "stations": [{"stopCode": 45, "lines": "1,2", "name": "Northgate Station", "walkingMeters": 998, "walkingSeconds": 718, "band": 15}]}, "geometry": {"type": "Point", "coordinates": [-122.3209686, 47.7071114]}}, {"type": "Feature", "properties": {"id": "d5d7ce53-dd19-44fb-9bfb-3fe96cf9b749", "name": "McGuire Court Apartments", "category": "attraction", "tags": ["attraction", "landmark", "historical", "building"], "sources": ["overture"], "website": "http://liveatmcguire.com/", "phone": "+12063658948", "address": "10740 8th Ave NE", "stations": [{"stopCode": 45, "lines": "1,2", "name": "Northgate Station", "walkingMeters": 1141, "walkingSeconds": 821, "band": 15}]}, "geometry": {"type": "Point", "coordinates": [-122.3201828, 47.707737]}}, {"type": "Feature", "properties": {"id": "37df8263-1bc1-470a-ba16-1a4b3d9736a5", "name": "Northgate Villa", "category": "attraction", "tags": ["attraction", "landmark", "historical", "building"], "sources": ["overture"], "phone": "+12063622472", "address": "10501 8th Ave NE", "stations": [{"stopCode": 45, "lines": "1,2", "name": "Northgate Station", "walkingMeters": 828, "walkingSeconds": 596, "band": 10}]}, "geometry": {"type": "Point", "coordinates": [-122.3206024, 47.7054596]}}, {"type": "Feature", "properties": {"id": "3d81aedd-c476-4fc9-ba89-857145e2893d", "name": "Thornton Creek Apartments", "category": "attraction", "tags": ["attraction", "landmark", "historical", "building"], "sources": ["overture"], "website": "http://trinitypartnership.net", "phone": "+12065238733", "address": "516 NE 103rd St", "stations": [{"stopCode": 45, "lines": "1,2", "name": "Northgate Station", "walkingMeters": 594, "walkingSeconds": 443, "band": 10}]}, "geometry": {"type": "Point", "coordinates": [-122.3221893, 47.7032089]}}, {"type": "Feature", "properties": {"id": "c0eca0a3-ff6a-4dd9-94e4-e4e0649fbf3a", "name": "Thornton Place", "category": "attraction", "tags": ["attraction", "landmark", "historical", "building"], "sources": ["overture"], "website": "https://www.thornton-place.com/", "phone": "+18445412393", "address": "337 NE 103rd St", "stations": [{"stopCode": 45, "lines": "1,2", "name": "Northgate Station", "walkingMeters": 292, "walkingSeconds": 210, "band": 5}]}, "geometry": {"type": "Point", "coordinates": [-122.3245163, 47.7030411]}}, {"type": "Feature", "properties": {"id": 35090134, "name": "Northgate Park", "category": "park", "tags": ["park"], "sources": ["osm", "overture"], "website": "https://www.seattle.gov", "phone": "12066844075", "address": "10510 5th Ave NE", "stations": [{"stopCode": 45, "lines": "1,2", "name": "Northgate Station", "walkingMeters": 743, "walkingSeconds": 534, "band": 10}]}, "geometry": {"type": "Point", "coordinates": [-122.322458, 47.7057013]}}, {"type": "Feature", "properties": {"id": 37094857, "name": "Maple Leaf Community Gardens", "category": "park", "tags": ["park"], "sources": ["osm"], "hours": "06:00-22:00", "stations": [{"stopCode": 45, "lines": "1,2", "name": "Northgate Station", "walkingMeters": 494, "walkingSeconds": 355, "band": 10}]}, "geometry": {"type": "Point", "coordinates": [-122.3220956, 47.7029441]}}, {"type": "Feature", "properties": {"id": 37299975, "name": "Thornton Creek Water Quality Channel", "category": "park", "tags": ["park"], "sources": ["osm"], "stations": [{"stopCode": 45, "lines": "1,2", "name": "Northgate Station", "walkingMeters": 376, "walkingSeconds": 270, "band": 5}]}, "geometry": {"type": "Point", "coordinates": [-122.3244854, 47.7022455]}}, {"type": "Feature", "properties": {"id": "fdfe7f97-f627-4409-8cfa-829d0d8ca2ca", "name": "Thornton Creek Park 6", "category": "park", "tags": ["park"], "sources": ["overture"], "address": "806 NE 105th St", "stations": [{"stopCode": 45, "lines": "1,2", "name": "Northgate Station", "walkingMeters": 800, "walkingSeconds": 575, "band": 10}]}, "geometry": {"type": "Point", "coordinates": [-122.3201523, 47.7048149]}}, {"type": "Feature", "properties": {"id": 459660375, "name": "Residence Inn Seattle Northgate Station", "category": "hotel", "tags": ["hotel"], "sources": ["osm"], "stations": [{"stopCode": 45, "lines": "1,2", "name": "Northgate Station", "walkingMeters": 417, "walkingSeconds": 300, "band": 5}]}, "geometry": {"type": "Point", "coordinates": [-122.3281673, 47.706197]}}, {"type": "Feature", "properties": {"id": "cfe8849c-002b-4370-bb2a-0eafe5924ca9", "name": "Residence Inn by Marriott Seattle Northgate Station", "category": "hotel", "tags": ["hotel"], "sources": ["overture"], "website": "https://www.marriott.com/en-us/hotels/searn-residence-inn-seattle-northgate-station/overview/", "phone": "+12065801001", "address": "10600 1st Ave NE", "stations": [{"stopCode": 45, "lines": "1,2", "name": "Northgate Station", "walkingMeters": 444, "walkingSeconds": 331, "band": 5}]}, "geometry": {"type": "Point", "coordinates": [-122.3280334, 47.7060928]}}, {"type": "Feature", "properties": {"id": 479527692, "name": "Best Buy", "category": "electronics", "tags": ["electronics", "wheelchair-accessible"], "sources": ["osm"], "website": "https://stores.bestbuy.com/wa/seattle/330-ne-northgate-way-470.html", "phone": "+1-206-306-7663", "address": "330 Northeast Northgate Way", "hours": "Mo-Th 11:00-20:00; Fr,Sa 10:00-20:00; Su 11:00-19:00", "stations": [{"stopCode": 45, "lines": "1,2", "name": "Northgate Station", "walkingMeters": 991, "walkingSeconds": 713, "band": 15}]}, "geometry": {"type": "Point", "coordinates": [-122.324837, 47.7092276]}}, {"type": "Feature", "properties": {"id": "dac42620-a19f-48ed-afe2-8524431e9613", "name": "Trader Joe's", "category": "supermarket", "tags": ["supermarket"], "sources": ["overture"], "website": "https://locations.traderjoes.com/wa/seattle/297/", "address": "401 NE Northgate Way", "stations": [{"stopCode": 45, "lines": "1,2", "name": "Northgate Station", "walkingMeters": 460, "walkingSeconds": 343, "band": 10}]}, "geometry": {"type": "Point", "coordinates": [-122.3258438, 47.7057495]}}, {"type": "Feature", "properties": {"id": 39721041, "name": "Barnes & Noble", "category": "books", "tags": ["books"], "sources": ["osm", "overture"], "website": "http://www.barnesandnoble.com/", "phone": "+12064172967", "address": "401 NE Northgate Way #1100", "hours": "Mo-Th 09:00-20:00; Fr,Sa 09:00-21:00; Su 10:00-20:00", "stations": [{"stopCode": 45, "lines": "1,2", "name": "Northgate Station", "walkingMeters": 662, "walkingSeconds": 476, "band": 10}]}, "geometry": {"type": "Point", "coordinates": [-122.3267825, 47.7079571]}}, {"type": "Feature", "properties": {"id": 1735391029, "name": "Target", "category": "department_store", "tags": ["department-store", "wheelchair-accessible", "department"], "sources": ["osm", "overture"], "website": "https://www.target.com/sl/northgate/1284", "phone": "+12064940897", "address": "302 NE Northgate Way Seattle, WA 98125", "hours": "Mo-Su 08:00-22:00", "stations": [{"stopCode": 45, "lines": "1,2", "name": "Northgate Station", "walkingMeters": 973, "walkingSeconds": 700, "band": 15}]}, "geometry": {"type": "Point", "coordinates": [-122.325169, 47.7092311]}}, {"type": "Feature", "properties": {"id": 7238064970, "name": "Nordstrom Rack", "category": "clothes", "tags": ["clothes", "wheelchair-accessible"], "sources": ["osm"], "website": "https://stores.nordstromrack.com/us/wa/seattle/401-ne-northgate-way", "address": "401 Northeast Northgate Way", "hours": "Mo-Sa 10:00-20:00; Su 11:00-19:00", "stations": [{"stopCode": 45, "lines": "1,2", "name": "Northgate Station", "walkingMeters": 313, "walkingSeconds": 225, "band": 5}]}, "geometry": {"type": "Point", "coordinates": [-122.32547, 47.7040262]}}, {"type": "Feature", "properties": {"id": 7161830500, "name": "T-Mobile", "category": "mobile_phone", "tags": ["mobile-phone", "mobile"], "sources": ["osm", "overture"], "website": "https://www.t-mobile.com/stores/bd/t-mobile-seattle-wa-98125-8934?utm_source=facebook&utm_medium=lastmile&utm_campaign=8934", "phone": "+12063621360", "address": "401 NE Northgate Way Ste 944A", "hours": "Mo-Sa 10:00-20:00; Su 11:00-19:00", "stations": [{"stopCode": 45, "lines": "1,2", "name": "Northgate Station", "walkingMeters": 757, "walkingSeconds": 545, "band": 10}]}, "geometry": {"type": "Point", "coordinates": [-122.3261529, 47.7079832]}}, {"type": "Feature", "properties": {"id": "16a60d76-c66c-4b1d-ad8b-8fc6291530ca", "name": "T-mobile", "category": "mobile_phone", "tags": ["mobile-phone", "mobile"], "sources": ["overture"], "website": "https://www.t-mobile.com", "phone": "+12063658400", "address": "507 Ne Northgate Way Ste E", "stations": [{"stopCode": 45, "lines": "1,2", "name": "Northgate Station", "walkingMeters": 913, "walkingSeconds": 681, "band": 15}]}, "geometry": {"type": "Point", "coordinates": [-122.3226166, 47.7080612]}}, {"type": "Feature", "properties": {"id": 4308236989, "name": "AT&T", "category": "mobile_phone", "tags": ["mobile-phone", "mobile"], "sources": ["osm", "overture"], "website": "https://www.att.com/stores/washington/seattle/1875?source=E-Fls10000000000X&wtExtndSource=website", "phone": "+12063612259", "address": "401 NE Northgate Way", "hours": "Mo-Sa 09:00-20:00; Su 11:00-18:00", "stations": [{"stopCode": 45, "lines": "1,2", "name": "Northgate Station", "walkingMeters": 643, "walkingSeconds": 463, "band": 10}]}, "geometry": {"type": "Point", "coordinates": [-122.326341, 47.7074169]}}, {"type": "Feature", "properties": {"id": 2433072408, "name": "Petco", "category": "pet", "tags": ["pet"], "sources": ["osm", "overture"], "website": "https://stores.petco.com/wa/seattle/pet-supplies-seattle-wa-1253.html", "phone": "+12063630388", "address": "318 NE Northgate Way", "hours": "Mo-Sa 09:00-20:00; Su 10:00-19:00", "stations": [{"stopCode": 45, "lines": "1,2", "name": "Northgate Station", "walkingMeters": 914, "walkingSeconds": 658, "band": 15}]}, "geometry": {"type": "Point", "coordinates": [-122.324842, 47.7088092]}}, {"type": "Feature", "properties": {"id": 3158762461, "name": "Verizon", "category": "mobile_phone", "tags": ["mobile-phone", "mobile"], "sources": ["osm", "overture"], "website": "https://www.verizon.com/nextgendigital/nos/storelocator/detail/washington/seattle/seattle-northgate-r00000151174/", "phone": "+12063670687", "address": "401 NE Northgate Way", "hours": "Mo-Sa 10:00-18:00; Su 11:00-18:00", "stations": [{"stopCode": 45, "lines": "1,2", "name": "Northgate Station", "walkingMeters": 364, "walkingSeconds": 262, "band": 5}]}, "geometry": {"type": "Point", "coordinates": [-122.326812, 47.7050995]}}, {"type": "Feature", "properties": {"id": 81047510, "name": "Men's Wearhouse", "category": "clothes", "tags": ["clothes", "mens"], "sources": ["osm", "overture"], "website": "https://www.menswearhouse.com/store-locator/2682", "phone": "+12063668344", "address": "500 NE Northgate Way", "hours": "Mo-Sa 10:00-21:00; Su 11:00-18:00", "stations": [{"stopCode": 45, "lines": "1,2", "name": "Northgate Station", "walkingMeters": 1004, "walkingSeconds": 722, "band": 15}]}, "geometry": {"type": "Point", "coordinates": [-122.3228891, 47.7088398]}}, {"type": "Feature", "properties": {"id": 2433072413, "name": "Dick's Sporting Goods", "category": "sports", "tags": ["sports"], "sources": ["osm"], "website": "https://stores.dickssportinggoods.com/wa/seattle/1419/", "phone": "+1-206-962-5894", "address": "328 Northeast Northgate Way", "hours": "Mo-Sa 09:00-21:00; Su 10:00-19:00", "stations": [{"stopCode": 45, "lines": "1,2", "name": "Northgate Station", "walkingMeters": 973, "walkingSeconds": 700, "band": 15}]}, "geometry": {"type": "Point", "coordinates": [-122.3248392, 47.7090693]}}, {"type": "Feature", "properties": {"id": 2461755884, "name": "San Antonio Shoemakers", "category": "shoes", "tags": ["shoes"], "sources": ["osm"], "address": "10106 3rd Avenue Northeast", "hours": "Mo-Sa 10:00-19:00; Su 12:00-17:00", "stations": [{"stopCode": 45, "lines": "1,2", "name": "Northgate Station", "walkingMeters": 298, "walkingSeconds": 214, "band": 5}]}, "geometry": {"type": "Point", "coordinates": [-122.3256389, 47.7021618]}}, {"type": "Feature", "properties": {"id": 3711400489, "name": "Total Wine", "category": "alcohol", "tags": ["alcohol", "wheelchair-accessible", "wifi"], "sources": ["osm"], "website": "https://www.totalwine.com/store-info/washington-seattle-northgate/1409", "phone": "+1-206-365-0572", "address": "525 Northeast Northgate Way", "hours": "Mo-Sa 09:00-22:00; Su 09:00-21:00", "stations": [{"stopCode": 45, "lines": "1,2", "name": "Northgate Station", "walkingMeters": 1033, "walkingSeconds": 743, "band": 15}]}, "geometry": {"type": "Point", "coordinates": [-122.3219164, 47.7083684]}}, {"type": "Feature", "properties": {"id": 3390526764, "name": "Bricks & Minifigs", "category": "toys", "tags": ["toys"], "sources": ["osm"], "address": "Northeast Northgate Way", "stations": [{"stopCode": 45, "lines": "1,2", "name": "Northgate Station", "walkingMeters": 993, "walkingSeconds": 714, "band": 15}]}, "geometry": {"type": "Point", "coordinates": [-122.3226377, 47.7084114]}}, {"type": "Feature", "properties": {"id": 5027595657, "name": "Rockler Woodworking & Hardware", "category": "doityourself", "tags": ["doityourself"], "sources": ["osm"], "address": "832 Northeast Northgate Way", "hours": "Mo-Sa 09:00-18:00; Su 11:00-16:00"}, "geometry": {"type": "Point", "coordinates": [-122.320179, 47.7096748]}}, {"type": "Feature", "properties": {"id": "ea70e0ff-9a04-4124-b048-a6d0a8581f89", "name": "Fred Meyer Jewelers", "category": "jewelry", "tags": ["jewelry"], "sources": ["overture"], "website": "http://www.fredmeyerjewelers.com", "phone": "(206) 361-3677", "address": "401 NE Northgate Way Spc 620", "stations": [{"stopCode": 45, "lines": "1,2", "name": "Northgate Station", "walkingMeters": 573, "walkingSeconds": 412, "band": 10}]}, "geometry": {"type": "Point", "coordinates": [-122.3259506, 47.7064781]}}, {"type": "Feature", "properties": {"id": "57bdd9f6-cb65-46b7-9d82-e52b44be380f", "name": "Green Lake Jewelry Works", "category": "jewelry", "tags": ["jewelry"], "sources": ["overture"], "website": "http://www.greenlakejewelry.com/", "phone": "+12065271108", "address": "401 NE Northgate Way Ste 915A", "stations": [{"stopCode": 45, "lines": "1,2", "name": "Northgate Station", "walkingMeters": 1179, "walkingSeconds": 848, "band": 10}]}, "geometry": {"type": "Point", "coordinates": [-122.3256912, 47.7080307]}}, {"type": "Feature", "properties": {"id": "01a5fac0-a4bb-47da-8eaa-3eadb7ff68a8", "name": "Foot Locker", "category": "shoes", "tags": ["shoes", "shoe"], "sources": ["overture"], "website": "https://stores.footlocker.com/wa/seattle/401-ne-northgate-way-7368.html", "phone": "2063670676", "address": "401 NE Northgate Way, Spc 753", "stations": [{"stopCode": 45, "lines": "1,2", "name": "Northgate Station", "walkingMeters": 545, "walkingSeconds": 392, "band": 10}]}, "geometry": {"type": "Point", "coordinates": [-122.3260345, 47.706234]}}, {"type": "Feature", "properties": {"id": "46ef6c0d-8669-4604-88d9-aade1f665d01", "name": "Champs Sports", "category": "shoes", "tags": ["shoes", "shoe"], "sources": ["overture"], "website": "https://stores.champssports.com/us/wa/seattle/401-ne-northgate-way", "phone": "(206) 362-1306", "address": "401 NE Northgate Way", "stations": [{"stopCode": 45, "lines": "1,2", "name": "Northgate Station", "walkingMeters": 519, "walkingSeconds": 373, "band": 10}]}, "geometry": {"type": "Point", "coordinates": [-122.3256836, 47.7059784]}}, {"type": "Feature", "properties": {"id": 8517748938, "name": "Pure Hockey", "category": "sports", "tags": ["sports"], "sources": ["osm"], "website": "https://purehockey.com", "address": "401 Northeast Northgate Way", "hours": "Mo-Fr 11:00-19:00; Sa 09:00-18:00; Su 10:00-17:00", "stations": [{"stopCode": 45, "lines": "1,2", "name": "Northgate Station", "walkingMeters": 384, "walkingSeconds": 276, "band": 5}]}, "geometry": {"type": "Point", "coordinates": [-122.32685, 47.705274]}}, {"type": "Feature", "properties": {"id": "e0b0e06e-1a8f-46f4-92d4-84a6414e0c37", "name": "Vans", "category": "shoes", "tags": ["shoes", "shoe"], "sources": ["overture"], "website": "http://Vans.com/", "phone": "+12063623004", "address": "401 NE Northgate Way", "stations": [{"stopCode": 45, "lines": "1,2", "name": "Northgate Station", "walkingMeters": 495, "walkingSeconds": 356, "band": 10}]}, "geometry": {"type": "Point", "coordinates": [-122.3262177, 47.7057533]}}, {"type": "Feature", "properties": {"id": "6c5079e7-c7ef-4354-bce6-f329b6b2c185", "name": "LOFT", "category": "clothes", "tags": ["clothes", "womens"], "sources": ["overture"], "website": "https://stores.loft.com/us/wa/seattle/401-ne-northgateway-way.html", "phone": "(206) 306-0395", "address": "401 NE Northgate Way", "stations": [{"stopCode": 45, "lines": "1,2", "name": "Northgate Station", "walkingMeters": 529, "walkingSeconds": 395, "band": 10}]}, "geometry": {"type": "Point", "coordinates": [-122.3264389, 47.7064667]}}, {"type": "Feature", "properties": {"id": "16e21c10-2b91-4f2d-ab19-133a998cd1df", "name": "Finish Line", "category": "shoes", "tags": ["shoes", "shoe"], "sources": ["overture"], "phone": "2063671456", "address": "401 NE Northgate Way 408", "stations": [{"stopCode": 45, "lines": "1,2", "name": "Northgate Station", "walkingMeters": 900, "walkingSeconds": 647, "band": 15}]}, "geometry": {"type": "Point", "coordinates": [-122.3246078, 47.7085915]}}, {"type": "Feature", "properties": {"id": "e815ddf1-9bfb-41cf-9577-aca1a1f2b488", "name": "Macy's", "category": "department_store", "tags": ["department-store", "department"], "sources": ["overture"], "website": "http://www.macys.com/", "phone": "2064406000", "address": "401 NE Northgate Way #602", "stations": [{"stopCode": 45, "lines": "1,2", "name": "Northgate Station", "walkingMeters": 951, "walkingSeconds": 684, "band": 15}]}, "geometry": {"type": "Point", "coordinates": [-122.3237534, 47.7085533]}}, {"type": "Feature", "properties": {"id": "aed3aca7-2cbe-4f50-9d62-ac39a93e3c5a", "name": "JCPenney", "category": "clothes", "tags": ["clothes"], "sources": ["overture"], "website": "http://stores.jcpenney.com/wa/seattle/clothing-stores-seattle-wa-0106.html", "phone": "2063612500", "address": "401 NE Northgate Way Ste 475", "stations": [{"stopCode": 45, "lines": "1,2", "name": "Northgate Station", "walkingMeters": 214, "walkingSeconds": 156, "band": 5}]}, "geometry": {"type": "Point", "coordinates": [-122.3272552, 47.7042198]}}, {"type": "Feature", "properties": {"id": "418d64c0-493e-4eeb-a9c4-910066515841", "name": "Hollister", "category": "clothes", "tags": ["clothes", "womens"], "sources": ["overture"], "website": "http://stores.hollisterco.com/wa/seattle/clothing-stores-seattle-wa-30228.html", "phone": "2064405554", "address": "401 NE Northgate Way Spc 724A", "stations": [{"stopCode": 45, "lines": "1,2", "name": "Northgate Station", "walkingMeters": 951, "walkingSeconds": 684, "band": 15}]}, "geometry": {"type": "Point", "coordinates": [-122.3237534, 47.7085533]}}, {"type": "Feature", "properties": {"id": "6aee52bc-9fd5-4cce-82b6-69e4c438dc65", "name": "Kay Jewelers", "category": "jewelry", "tags": ["jewelry"], "sources": ["overture"], "website": "https://stores.kay.com/wa/seattle/401-ne-northgate-way.html?cid=YEXT", "phone": "2063632422", "address": "401 NE Northgate Way Ste 913A", "stations": [{"stopCode": 45, "lines": "1,2", "name": "Northgate Station", "walkingMeters": 951, "walkingSeconds": 684, "band": 15}]}, "geometry": {"type": "Point", "coordinates": [-122.3237534, 47.7085533]}}, {"type": "Feature", "properties": {"id": "61292828-8799-4005-913c-3d193218bde3", "name": "Kay Jewelers", "category": "jewelry", "tags": ["jewelry"], "sources": ["overture"], "website": "https://stores.kay.com/wa/seattle/401-ne-northgate-way.html", "phone": "(206) 363-2422", "address": "401 NE Northgate Way Spc 913A", "stations": [{"stopCode": 45, "lines": "1,2", "name": "Northgate Station", "walkingMeters": 370, "walkingSeconds": 266, "band": 5}]}, "geometry": {"type": "Point", "coordinates": [-122.3262558, 47.7048531]}}, {"type": "Feature", "properties": {"id": "e9adef4a-6a34-4d07-bb2e-442d0bd2af8a", "name": "Just Cozy", "category": "clothes", "tags": ["clothes", "womens"], "sources": ["overture"], "address": "401 Ne Northgate Way Ste 210", "stations": [{"stopCode": 45, "lines": "1,2", "name": "Northgate Station", "walkingMeters": 513, "walkingSeconds": 383, "band": 10}]}, "geometry": {"type": "Point", "coordinates": [-122.3260498, 47.7062378]}}, {"type": "Feature", "properties": {"id": "0c8e435d-c41c-46d5-b63f-a00319611ea3", "name": "Ross Dress for Less", "category": "clothes", "tags": ["clothes"], "sources": ["overture"], "website": "http://www.rossstores.com/", "phone": "2063642111", "address": "300 NE Northgate Way", "stations": [{"stopCode": 45, "lines": "1,2", "name": "Northgate Station", "walkingMeters": 810, "walkingSeconds": 583, "band": 10}]}, "geometry": {"type": "Point", "coordinates": [-122.3259735, 47.7085991]}}, {"type": "Feature", "properties": {"id": "d158c6fa-e8f1-45e0-ade7-42a7f158e216", "name": "Payless ShoeSource", "category": "shoes", "tags": ["shoes", "shoe"], "sources": ["overture"], "phone": "2063670649", "address": "401 NE Northgate Way", "stations": [{"stopCode": 45, "lines": "1,2", "name": "Northgate Station", "walkingMeters": 951, "walkingSeconds": 684, "band": 15}]}, "geometry": {"type": "Point", "coordinates": [-122.3237534, 47.7085533]}}, {"type": "Feature", "properties": {"id": "ef378aa7-5b28-485c-8854-e7cde0413321", "name": "The Walking Company", "category": "shoes", "tags": ["shoes", "shoe"], "sources": ["overture"], "website": "http://thewalkingcompany.com", "phone": "(206) 367-0629", "address": "401 NE Northgate Way Spc 564", "stations": [{"stopCode": 45, "lines": "1,2", "name": "Northgate Station", "walkingMeters": 508, "walkingSeconds": 365, "band": 10}]}, "geometry": {"type": "Point", "coordinates": [-122.325798, 47.7059174]}}, {"type": "Feature", "properties": {"id": "036f444e-39e7-4b2b-ba16-4220da8bcd9a", "name": "Things Remembered", "category": "gift", "tags": ["gift"], "sources": ["overture"], "website": "https://www.thingsremembered.com/", "phone": "2063640552", "address": "401 NE Northgate Way", "stations": [{"stopCode": 45, "lines": "1,2", "name": "Northgate Station", "walkingMeters": 951, "walkingSeconds": 684, "band": 15}]}, "geometry": {"type": "Point", "coordinates": [-122.3237534, 47.7085533]}}, {"type": "Feature", "properties": {"id": "82855541-3726-415b-91ff-f5fb10d8a591", "name": "Total Wine & More", "category": "alcohol", "tags": ["alcohol"], "sources": ["overture"], "website": "https://www.totalwine.com/store-info/washington-seattle-northgate/1409?cid=referral%3Awebsite_link%3A%3Amomentfeed%3A1409_northgate_store_details_page%3A", "phone": "+12063650572", "address": "525 NE Northgate Way #5", "stations": [{"stopCode": 45, "lines": "1,2", "name": "Northgate Station", "walkingMeters": 1085, "walkingSeconds": 780, "band": 15}]}, "geometry": {"type": "Point", "coordinates": [-122.3214111, 47.7084084]}}, {"type": "Feature", "properties": {"id": "735a5350-a09c-4cad-b30e-a6bcc20b66b9", "name": "Rockler Woodworking and Hardware", "category": "hardware", "tags": ["hardware"], "sources": ["overture"], "website": "http://www.rockler.com", "phone": "+12066343222", "address": "832 NE Northgate Way"}, "geometry": {"type": "Point", "coordinates": [-122.3201828, 47.7096062]}}, {"type": "Feature", "properties": {"id": "9494bf6c-f920-45b1-bb25-42fa95bdac91", "name": "SKECHERS Retail", "category": "shoes", "tags": ["shoes", "shoe"], "sources": ["overture"], "website": "http://local.skechers.com/wa/seattle/201/", "phone": "2063622930", "address": "401 NE Northgate Way #533C", "stations": [{"stopCode": 45, "lines": "1,2", "name": "Northgate Station", "walkingMeters": 475, "walkingSeconds": 341, "band": 15}]}, "geometry": {"type": "Point", "coordinates": [-122.3246231, 47.7085991]}}, {"type": "Feature", "properties": {"id": "e34016c8-a7fc-4420-9fc9-f348ae7d36cb", "name": "The Children's Place", "category": "clothes", "tags": ["clothes", "childrens"], "sources": ["overture"], "website": "https://www.childrensplace.com/us/store/northgatemall-seattle-WA-114338", "phone": "2063630662", "address": "401 NE Northgate Way", "stations": [{"stopCode": 45, "lines": "1,2", "name": "Northgate Station", "walkingMeters": 951, "walkingSeconds": 684, "band": 15}]}, "geometry": {"type": "Point", "coordinates": [-122.3237534, 47.7085533]}}, {"type": "Feature", "properties": {"id": "c26d6e57-9d73-49e4-822b-d22bee9ba00e", "name": "Bed Bath & Beyond", "category": "department_store", "tags": ["department-store", "department"], "sources": ["overture"], "website": "https://www.bedbathandbeyond.com", "phone": "12063068766", "address": "401 NE Northgate Way", "stations": [{"stopCode": 45, "lines": "1,2", "name": "Northgate Station", "walkingMeters": 513, "walkingSeconds": 383, "band": 10}]}, "geometry": {"type": "Point", "coordinates": [-122.3260498, 47.7062378]}}, {"type": "Feature", "properties": {"id": "6caf70cf-be15-479e-b7a0-27762c605ab9", "name": "Brookstone", "category": "gift", "tags": ["gift"], "sources": ["overture"], "website": "http://stores.brookstone.com/WA/SEATTLE/273/?", "phone": "2063682555", "address": "401 NE Northgate Way Spc 708", "stations": [{"stopCode": 45, "lines": "1,2", "name": "Northgate Station", "walkingMeters": 899, "walkingSeconds": 647, "band": 15}]}, "geometry": {"type": "Point", "coordinates": [-122.3246231, 47.7085991]}}, {"type": "Feature", "properties": {"id": "89781c88-bd99-4446-ae53-af0b4deb2370", "name": "CeX", "category": "mobile_phone", "tags": ["mobile-phone", "mobile"], "sources": ["overture"], "website": "http://webuy.com", "phone": "(510) 859-7727", "address": "401 NE Northgate Way Spc 759", "stations": [{"stopCode": 45, "lines": "1,2", "name": "Northgate Station", "walkingMeters": 645, "walkingSeconds": 464, "band": 10}]}, "geometry": {"type": "Point", "coordinates": [-122.3259659, 47.7071266]}}, {"type": "Feature", "properties": {"id": "7289cefb-627d-484e-98d2-4d26f3afac74", "name": "Eternity LED Glow", "category": "furniture", "tags": ["furniture"], "sources": ["overture"], "website": "https://eternityledglow.com", "phone": "(855) 533-4569", "address": "401 NE Northgate Way", "stations": [{"stopCode": 45, "lines": "1,2", "name": "Northgate Station", "walkingMeters": 662, "walkingSeconds": 476, "band": 10}]}, "geometry": {"type": "Point", "coordinates": [-122.325943, 47.7072716]}}, {"type": "Feature", "properties": {"id": "863b2bf5-cef9-438f-8583-831ae213cc30", "name": "DSW Designer Shoe Warehouse", "category": "shoes", "tags": ["shoes", "shoe"], "sources": ["overture"], "website": "https://stores.dsw.com/usa/wa/seattle/dsw-designer-shoe-warehouse-northgate-mall.html", "phone": "(206) 367-1289", "address": "401 Northeast Northgate Way", "stations": [{"stopCode": 45, "lines": "1,2", "name": "Northgate Station", "walkingMeters": 752, "walkingSeconds": 541, "band": 10}]}, "geometry": {"type": "Point", "coordinates": [-122.3253326, 47.7075958]}}, {"type": "Feature", "properties": {"id": "13368a3e-6a95-46b3-87b8-0dd536ece09d", "name": "Life Uniform", "category": "clothes", "tags": ["clothes"], "sources": ["overture"], "website": "http://locations.scrubsandbeyond.com/wa/seattle/401-ne-northgate-way-ste758.html", "phone": "(206) 363-4412", "address": "401 NE Northgate Way Spc 758", "stations": [{"stopCode": 45, "lines": "1,2", "name": "Northgate Station", "walkingMeters": 678, "walkingSeconds": 488, "band": 10}]}, "geometry": {"type": "Point", "coordinates": [-122.3253784, 47.7071075]}}, {"type": "Feature", "properties": {"id": "a07b7a85-a469-4afd-b880-fd0a67ac5a9a", "name": "Batteries & Bands Exp", "category": "jewelry", "tags": ["jewelry"], "sources": ["overture"], "website": "http://precisiontimeco.info", "phone": "(206) 365-3374", "address": "401 NE Northgate Way", "stations": [{"stopCode": 45, "lines": "1,2", "name": "Northgate Station", "walkingMeters": 626, "walkingSeconds": 450, "band": 10}]}, "geometry": {"type": "Point", "coordinates": [-122.3251877, 47.7062492]}}, {"type": "Feature", "properties": {"id": "8db49283-f4b5-47aa-9a91-687ad75e2708", "name": "The Kraken Team Store", "category": "clothes", "tags": ["clothes"], "sources": ["overture"], "website": "https://www.nhl.com/kraken/fans/store", "phone": "(888) 316-0714", "address": "10601 5th Ave NE", "stations": [{"stopCode": 45, "lines": "1,2", "name": "Northgate Station", "walkingMeters": 540, "walkingSeconds": 388, "band": 10}]}, "geometry": {"type": "Point", "coordinates": [-122.3253098, 47.7062912]}}, {"type": "Feature", "properties": {"id": "614f1e46-84fc-44a1-a162-bf628671b229", "name": "Back To Bali", "category": "gift", "tags": ["gift"], "sources": ["overture"], "phone": "+12064175121", "address": "401 NE Northgate Way", "stations": [{"stopCode": 45, "lines": "1,2", "name": "Northgate Station", "walkingMeters": 513, "walkingSeconds": 383, "band": 10}]}, "geometry": {"type": "Point", "coordinates": [-122.3260498, 47.7062378]}}, {"type": "Feature", "properties": {"id": "054ead3d-88d1-4931-815d-016907515ffd", "name": "Express Jewelers, Llc", "category": "jewelry", "tags": ["jewelry"], "sources": ["overture"], "website": "https://www.expressjewelers.business.site", "address": "401 NE Northgate Way", "stations": [{"stopCode": 45, "lines": "1,2", "name": "Northgate Station", "walkingMeters": 513, "walkingSeconds": 383, "band": 10}]}, "geometry": {"type": "Point", "coordinates": [-122.3260498, 47.7062378]}}, {"type": "Feature", "properties": {"id": "f6d6f6dd-1845-4f36-bd0e-fbbf9e45a283", "name": "American Eagle", "category": "clothes", "tags": ["clothes"], "sources": ["overture"], "website": "http://www.ae.com", "address": "401 NE Northgate Way Spc 710", "stations": [{"stopCode": 45, "lines": "1,2", "name": "Northgate Station", "walkingMeters": 594, "walkingSeconds": 427, "band": 10}]}, "geometry": {"type": "Point", "coordinates": [-122.3259735, 47.706665]}}, {"type": "Feature", "properties": {"id": "2c67dc94-abd6-468b-986c-8f4e2b8ef809", "name": "Romy Northgate Mall", "category": "clothes", "tags": ["clothes"], "sources": ["overture"], "website": "https://www.shopfuego.com", "phone": "(206) 339-1121", "address": "401 NE Northgate Way", "stations": [{"stopCode": 45, "lines": "1,2", "name": "Northgate Station", "walkingMeters": 441, "walkingSeconds": 317, "band": 10}]}, "geometry": {"type": "Point", "coordinates": [-122.3258133, 47.7053146]}}, {"type": "Feature", "properties": {"id": "d8144ac6-847b-49df-a342-3370f2cd8cef", "name": "Alana Antique & Estate Jewelry", "category": "jewelry", "tags": ["jewelry"], "sources": ["overture"], "website": "http://shop.alanajewelry.com", "phone": "(206) 362-6227", "address": "401 NE Northgate Way Spc 520", "stations": [{"stopCode": 45, "lines": "1,2", "name": "Northgate Station", "walkingMeters": 415, "walkingSeconds": 298, "band": 5}]}, "geometry": {"type": "Point", "coordinates": [-122.3258438, 47.7050819]}}, {"type": "Feature", "properties": {"id": "5f4f7b33-d0e1-4e4e-9bc4-7e0c1e289777", "name": "Bricks & Minifigs Seattle Northgate", "category": "toys", "tags": ["toys"], "sources": ["overture"], "website": "https://bricksandminifigs.com/northseattle-wa/", "phone": "+12065563961", "address": "507 NE Northgate Way Ste E", "stations": [{"stopCode": 45, "lines": "1,2", "name": "Northgate Station", "walkingMeters": 1004, "walkingSeconds": 722, "band": 15}]}, "geometry": {"type": "Point", "coordinates": [-122.3224792, 47.7083931]}}, {"type": "Feature", "properties": {"id": "7b563037-1078-4d15-8d13-43f45863136b", "name": "Washington \u2013 Seattle Northgate", "category": "toys", "tags": ["toys"], "sources": ["overture"], "website": "https://bricksandminifigs.com/northseattle-wa/", "address": "507 NE Northgate Way, Suite E", "stations": [{"stopCode": 45, "lines": "1,2", "name": "Northgate Station", "walkingMeters": 955, "walkingSeconds": 713, "band": 15}]}, "geometry": {"type": "Point", "coordinates": [-122.3224869, 47.7083549]}}, {"type": "Feature", "properties": {"id": "f26d9587-78ec-4d1c-831c-c6180d1c42bb", "name": "Michaelacorning.com", "category": "clothes", "tags": ["clothes", "womens"], "sources": ["overture"], "website": "https://www.michaelacorning.com", "phone": "12068907975", "address": "540 Ne Northgate Way  Ste B", "stations": [{"stopCode": 45, "lines": "1,2", "name": "Northgate Station", "walkingMeters": 1133, "walkingSeconds": 815, "band": 15}]}, "geometry": {"type": "Point", "coordinates": [-122.3215256, 47.7089157]}}, {"type": "Feature", "properties": {"id": "8279b430-b8d2-4a1b-b546-5627689791f5", "name": "Piercing Pagoda", "category": "jewelry", "tags": ["jewelry"], "sources": ["overture"], "website": "https://www.signetjewelers.com", "phone": "+12063677710", "address": "540 Ne Northgate Way Ste B", "stations": [{"stopCode": 45, "lines": "1,2", "name": "Northgate Station", "walkingMeters": 1076, "walkingSeconds": 803, "band": 15}]}, "geometry": {"type": "Point", "coordinates": [-122.3215256, 47.7089157]}}, {"type": "Feature", "properties": {"id": "21f152b0-83ae-4678-8933-d564680429c5", "name": "Activate Cellular", "category": "mobile_phone", "tags": ["mobile-phone", "mobile"], "sources": ["overture"], "website": "https://www.att.com", "phone": "+12063688310", "address": "550 NE Northgate Way", "stations": [{"stopCode": 45, "lines": "1,2", "name": "Northgate Station", "walkingMeters": 1108, "walkingSeconds": 827, "band": 15}]}, "geometry": {"type": "Point", "coordinates": [-122.3210068, 47.7089233]}}, {"type": "Feature", "properties": {"id": "043ee612-5751-433f-8c49-d01dfc338bee", "name": "Fac\u00e8r\u00e9 Jewelry Art Gallery", "category": "jewelry", "tags": ["jewelry"], "sources": ["overture"], "website": "https://www.facerejewelryart.com", "phone": "12065271108", "address": "550 NE Northgate Way", "stations": [{"stopCode": 45, "lines": "1,2", "name": "Northgate Station", "walkingMeters": 1108, "walkingSeconds": 827, "band": 15}]}, "geometry": {"type": "Point", "coordinates": [-122.3210068, 47.7089233]}}, {"type": "Feature", "properties": {"id": "b7dc8d39-6db9-47f1-8f6a-026580abf7e0", "name": "Maple Leaf Construction", "category": "doityourself", "tags": ["doityourself", "building", "supply"], "sources": ["overture"], "website": "http://www.lni.wa.gov", "phone": "(206) 527-6335", "address": "9801 8th Ave NE", "stations": [{"stopCode": 45, "lines": "1,2", "name": "Northgate Station", "walkingMeters": 844, "walkingSeconds": 609, "band": 15}]}, "geometry": {"type": "Point", "coordinates": [-122.3206329, 47.7005615]}}, {"type": "Feature", "properties": {"id": "4e1aa476-567b-455d-9aa9-8de038bb8f4a", "name": "Splash", "category": "clothes", "tags": ["clothes", "womens"], "sources": ["overture"], "address": "301 NE Northgate Way", "stations": [{"stopCode": 45, "lines": "1,2", "name": "Northgate Station", "walkingMeters": 204, "walkingSeconds": 152, "band": 5}]}, "geometry": {"type": "Point", "coordinates": [-122.3264236, 47.7036667]}}, {"type": "Feature", "properties": {"id": "2519bf4f-e0ba-490c-b6d4-be542e3bf15c", "name": "beuteeshop", "category": "clothes", "tags": ["clothes"], "sources": ["overture"], "website": "https://beuteeshop.com/", "phone": "+16194780031", "address": "155 NE 100th St", "stations": [{"stopCode": 45, "lines": "1,2", "name": "Northgate Station", "walkingMeters": 335, "walkingSeconds": 250, "band": 5}]}, "geometry": {"type": "Point", "coordinates": [-122.326622, 47.7010002]}}, {"type": "Feature", "properties": {"id": 12525067480, "name": "CVS Pharmacy", "category": "pharmacy", "tags": ["pharmacy"], "sources": ["osm", "overture"], "website": "https://www.cvs.com", "phone": "12064940898", "address": "302 NE Northgate Way", "hours": "Mo-Fr 09:00-13:30,14:00-20:00; Sa-Su 09:00-13:30,14:00-18:00", "stations": [{"stopCode": 45, "lines": "1,2", "name": "Northgate Station", "walkingMeters": 894, "walkingSeconds": 644, "band": 15}]}, "geometry": {"type": "Point", "coordinates": [-122.3255419, 47.7092462]}}, {"type": "Feature", "properties": {"id": 2461755961, "name": "Primary Care at Northgate", "category": "clinic", "tags": ["clinic", "wheelchair-accessible", "air-conditioned", "wifi"], "sources": ["osm"], "website": "https://www.uwmedicine.org/locations/primary-care-northgate", "phone": "+1-206-528-8000", "address": "314 Northeast Thornton Place", "hours": "Mo-Th 08:00-20:00; Fr 08:00-17:00; Sa 08:30-16:00; Su off", "stations": [{"stopCode": 45, "lines": "1,2", "name": "Northgate Station", "walkingMeters": 297, "walkingSeconds": 214, "band": 5}]}, "geometry": {"type": "Point", "coordinates": [-122.325125, 47.7027095]}}, {"type": "Feature", "properties": {"id": 9816394666, "name": "RAYUS Radiology", "category": "clinic", "tags": ["clinic", "wheelchair-accessible"], "sources": ["osm"], "website": "https://rayusradiology.com/locations/rayus-radiology-seattle-wa/", "phone": "+1-206-524-5599", "address": "115 Northeast 100th Street", "hours": "Mo-Fr 06:30-21:00", "stations": [{"stopCode": 45, "lines": "1,2", "name": "Northgate Station", "walkingMeters": 321, "walkingSeconds": 233, "band": 5}]}, "geometry": {"type": "Point", "coordinates": [-122.3270621, 47.7008618]}}, {"type": "Feature", "properties": {"id": "36a2cb6e-214c-4b35-9a8b-cab395f77b85", "name": "Kaiser Permanente", "category": "hospital", "tags": ["hospital"], "sources": ["overture"], "website": "https://healthy.kaiserpermanente.org/", "phone": "+12063021200", "address": "9800 4th Ave NE", "stations": [{"stopCode": 45, "lines": "1,2", "name": "Northgate Station", "walkingMeters": 668, "walkingSeconds": 481, "band": 10}]}, "geometry": {"type": "Point", "coordinates": [-122.3237686, 47.7005882]}}, {"type": "Feature", "properties": {"id": 9188152638, "name": "Virginia Mason Franciscan Health Medical Pavilion", "category": "clinic", "tags": ["clinic"], "sources": ["osm"], "address": "10601 5th Avenue Northeast", "hours": "Mo-Fr 08:00-18:00", "stations": [{"stopCode": 45, "lines": "1,2", "name": "Northgate Station", "walkingMeters": 519, "walkingSeconds": 373, "band": 10}]}, "geometry": {"type": "Point", "coordinates": [-122.325736, 47.7059287]}}, {"type": "Feature", "properties": {"id": 9955229846, "name": "Northwest Asthma & Allergy Center", "category": "clinic", "tags": ["clinic", "wheelchair-accessible"], "sources": ["osm"], "website": "https://www.nwasthma.com/locations-and-shot-hours/seattle/", "phone": "+1-206-527-1200", "address": "9725 3rd Avenue Northeast", "hours": "Mo 08:00-16:30; Tu 10:00-17:30; We 07:30-16:30; Th 08:30-16:30; Fr 08:30-16:00", "stations": [{"stopCode": 45, "lines": "1,2", "name": "Northgate Station", "walkingMeters": 394, "walkingSeconds": 286, "band": 5}]}, "geometry": {"type": "Point", "coordinates": [-122.3270796, 47.7002014]}}, {"type": "Feature", "properties": {"id": 54582945, "name": "Kaiser Permanente Northgate Medical Center", "category": "clinic", "tags": ["clinic", "wifi"], "sources": ["osm"], "website": "https://healthy.kaiserpermanente.org/washington/facilities/Northgate-Medical-Center-338983", "phone": "+1-206-302-1200", "address": "9800 4th Avenue Northeast", "hours": "Mo-Fr 07:45-17:30; \"varies by department\"", "stations": [{"stopCode": 45, "lines": "1,2", "name": "Northgate Station", "walkingMeters": 663, "walkingSeconds": 477, "band": 10}]}, "geometry": {"type": "Point", "coordinates": [-122.3236925, 47.70071]}}, {"type": "Feature", "properties": {"id": 81048027, "name": "Pacific Medical Center Northgate", "category": "clinic", "tags": ["clinic"], "sources": ["osm"], "address": "10416 5th Avenue Northeast", "hours": "Mo-Th 07:30-17:30; Fr 07:30-17:00", "stations": [{"stopCode": 45, "lines": "1,2", "name": "Northgate Station", "walkingMeters": 571, "walkingSeconds": 410, "band": 10}]}, "geometry": {"type": "Point", "coordinates": [-122.3228473, 47.7044217]}}, {"type": "Feature", "properties": {"id": "e5c0752a-3fe9-49cf-8cf4-3e2ad3260a0e", "name": "Kindred Hospital Seattle - Northgate", "category": "hospital", "tags": ["hospital"], "sources": ["overture"], "website": "http://www.kindredhospitalseattle.com/", "phone": "2063642050", "address": "10631 8th Ave NE", "stations": [{"stopCode": 45, "lines": "1,2", "name": "Northgate Station", "walkingMeters": 1043, "walkingSeconds": 750, "band": 10}]}, "geometry": {"type": "Point", "coordinates": [-122.3214645, 47.706604]}}, {"type": "Feature", "properties": {"id": "89da7ffb-395b-49b0-88df-5c0d2d48e84a", "name": "Option Care Health", "category": "clinic", "tags": ["clinic", "medical"], "sources": ["overture"], "website": "https://optioncarehealth.com/locations/seattle-wa-155-ne-100th-street", "phone": "4253483600", "address": "155 NE 100th St Ste 305", "stations": [{"stopCode": 45, "lines": "1,2", "name": "Northgate Station", "walkingMeters": 335, "walkingSeconds": 243, "band": 5}]}, "geometry": {"type": "Point", "coordinates": [-122.3268356, 47.7009735]}}, {"type": "Feature", "properties": {"id": "baaf2d49-3a59-4d6d-a937-ab1e651ca991", "name": "Shmily Aesthetics", "category": "clinic", "tags": ["clinic", "medical"], "sources": ["overture"], "website": "https://shmilyaesthetics.com/", "phone": "2066987493", "address": "9730 3rd Ave NE Ste 208", "stations": [{"stopCode": 45, "lines": "1,2", "name": "Northgate Station", "walkingMeters": 664, "walkingSeconds": 478, "band": 10}]}, "geometry": {"type": "Point", "coordinates": [-122.3258438, 47.7000809]}}, {"type": "Feature", "properties": {"id": "b04b6c7a-8ca9-424b-8586-103e707da12f", "name": "Canzim Seattle", "category": "clinic", "tags": ["clinic", "medical"], "sources": ["overture"], "website": "https://www.canzimseattle.com", "phone": "12065882204", "address": "9730 3rd Ave Ne  Ste 103", "stations": [{"stopCode": 45, "lines": "1,2", "name": "Northgate Station", "walkingMeters": 533, "walkingSeconds": 398, "band": 10}]}, "geometry": {"type": "Point", "coordinates": [-122.3250275, 47.7000656]}}, {"type": "Feature", "properties": {"id": "97cc7f3d-5e2e-401e-a05e-65cafd182206", "name": "Group Health Pharmacy @Northgate", "category": "pharmacy", "tags": ["pharmacy"], "sources": ["overture"], "website": "https://kp.org/wa", "phone": "(206) 302-1334", "address": "9800 4th Ave NE", "stations": [{"stopCode": 45, "lines": "1,2", "name": "Northgate Station", "walkingMeters": 510, "walkingSeconds": 367, "band": 10}]}, "geometry": {"type": "Point", "coordinates": [-122.3239441, 47.7011108]}}, {"type": "Feature", "properties": {"id": 2867603035, "name": "Bank of America", "category": "bank", "tags": ["bank", "credit", "union"], "sources": ["osm", "overture"], "website": "https://locators.bankofamerica.com/wa/seattle/financial-centers-seattle-10585.html", "phone": "+12063581866", "address": "345 NE Northgate Station Pl", "hours": "Mo-Fr 10:00-17:00; Sa 10:00-13:00", "stations": [{"stopCode": 45, "lines": "1,2", "name": "Northgate Station", "walkingMeters": 823, "walkingSeconds": 592, "band": 10}]}, "geometry": {"type": "Point", "coordinates": [-122.325332, 47.7080943]}}, {"type": "Feature", "properties": {"id": 39946257, "name": "KeyBank", "category": "bank", "tags": ["bank"], "sources": ["osm"], "address": "353 Northeast Northgate Way", "hours": "Mo-Th 09:00-17:00; Fr 09:00-18:00; Sa 10:00-13:30", "stations": [{"stopCode": 45, "lines": "1,2", "name": "Northgate Station", "walkingMeters": 928, "walkingSeconds": 668, "band": 15}]}, "geometry": {"type": "Point", "coordinates": [-122.3237066, 47.7082815]}}, {"type": "Feature", "properties": {"id": 81047508, "name": "Chase", "category": "bank", "tags": ["bank", "drive-through"], "sources": ["osm"], "website": "https://locator.chase.com/wa/seattle/520-ne-northgate-way", "phone": "+1-206-461-3175", "address": "520 Northeast Northgate Way", "hours": "Mo-Fr 09:00-17:00; Sa 09:00-13:00; Su closed", "stations": [{"stopCode": 45, "lines": "1,2", "name": "Northgate Station", "walkingMeters": 1126, "walkingSeconds": 810, "band": 15}]}, "geometry": {"type": "Point", "coordinates": [-122.3221842, 47.7088502]}}, {"type": "Feature", "properties": {"id": 4766222630, "name": "BECU", "category": "bank", "tags": ["bank", "wifi"], "sources": ["osm"], "address": "551 Northeast Northgate Way", "hours": "Mo-Fr 09:00-18:00; Sa 09:00-13:00", "stations": [{"stopCode": 45, "lines": "1,2", "name": "Northgate Station", "walkingMeters": 1135, "walkingSeconds": 816, "band": 15}]}, "geometry": {"type": "Point", "coordinates": [-122.3210126, 47.7081883]}}, {"type": "Feature", "properties": {"id": "959ad5d0-6e53-4101-8831-0739c05e0a09", "name": "WaFd Bank", "category": "bank", "tags": ["bank", "credit", "union"], "sources": ["overture"], "website": "https://www.wafdbank.com/locations/washington/seattle/jackson-park?utm_source=facebook&utm_medium=yext", "phone": "+12063658200", "address": "10712 5th Ave NE Ste A", "stations": [{"stopCode": 45, "lines": "1,2", "name": "Northgate Station", "walkingMeters": 888, "walkingSeconds": 639, "band": 15}]}, "geometry": {"type": "Point", "coordinates": [-122.3224182, 47.7072258]}}, {"type": "Feature", "properties": {"id": 2463977317, "name": "Salal Credit Union", "category": "bank", "tags": ["bank"], "sources": ["osm"], "address": "10724 5th Avenue Northeast", "hours": "Mo-Fr 09:30-17:30; Sa 10:00-14:00", "stations": [{"stopCode": 45, "lines": "1,2", "name": "Northgate Station", "walkingMeters": 862, "walkingSeconds": 619, "band": 15}]}, "geometry": {"type": "Point", "coordinates": [-122.3229868, 47.7075533]}}, {"type": "Feature", "properties": {"id": 2461755921, "name": "Seattle Credit Union", "category": "bank", "tags": ["bank"], "sources": ["osm"], "address": "303 Northeast Thornton Place", "hours": "Mo-Fr 09:00-17:00; Sa 10:00-14:00", "stations": [{"stopCode": 45, "lines": "1,2", "name": "Northgate Station", "walkingMeters": 290, "walkingSeconds": 209, "band": 5}]}, "geometry": {"type": "Point", "coordinates": [-122.3255863, 47.7022475]}}, {"type": "Feature", "properties": {"id": 34151057, "name": "The Seattle Public Library - Northgate Branch", "category": "library", "tags": ["library", "wifi"], "sources": ["osm"], "website": "https://www.spl.org/hours-and-locations/northgate-branch", "phone": "+1-206-386-1980", "address": "10548 5th Avenue Northeast", "hours": "Tu 10:00-20:00; We 12:00-20:00; Th,Fr,Sa,Su,Mo 10:00-18:00", "stations": [{"stopCode": 45, "lines": "1,2", "name": "Northgate Station", "walkingMeters": 724, "walkingSeconds": 521, "band": 10}]}, "geometry": {"type": "Point", "coordinates": [-122.3228673, 47.7059773]}}, {"type": "Feature", "properties": {"id": "80b3e921-fb2c-48b0-8a55-5a118450dd07", "name": "Chase Bank", "category": "bank", "tags": ["bank", "credit", "union"], "sources": ["overture"], "website": "https://www.chase.com/locator/banking/us/wa/seattle/520-ne-northgate-way?jp_cmp=rb%2FLocalListings%2Faff%2Fbranch%2Fna&y_source=1_MjAzODIzMC00ODMtbG9jYXRpb24ud2Vic2l0ZQ%3D%3D", "phone": "2064613175", "address": "520 NE Northgate Way", "stations": [{"stopCode": 45, "lines": "1,2", "name": "Northgate Station", "walkingMeters": 1126, "walkingSeconds": 810, "band": 15}]}, "geometry": {"type": "Point", "coordinates": [-122.3221817, 47.7088661]}}, {"type": "Feature", "properties": {"id": "8a830ff6-3e51-4d2d-af39-2615e75c6a9f", "name": "Seattle Public Library", "category": "library", "tags": ["library"], "sources": ["overture"], "website": "http://www.spl.org", "phone": "(206) 386-1980", "address": "10548 5th Ave NE", "stations": [{"stopCode": 45, "lines": "1,2", "name": "Northgate Station", "walkingMeters": 724, "walkingSeconds": 521, "band": 10}]}, "geometry": {"type": "Point", "coordinates": [-122.3228836, 47.7059708]}}, {"type": "Feature", "properties": {"id": "82e0b60b-1f23-408c-8bfe-936e7e2484e1", "name": "Northgate Branch", "category": "library", "tags": ["library"], "sources": ["overture"], "website": "http://www.spl.org/locations/northgate-branch", "phone": "+12063861980", "address": "10548 5th Ave NE", "stations": [{"stopCode": 45, "lines": "1,2", "name": "Northgate Station", "walkingMeters": 722, "walkingSeconds": 519, "band": 10}]}, "geometry": {"type": "Point", "coordinates": [-122.3229828, 47.7059517]}}, {"type": "Feature", "properties": {"id": 12591535762, "name": "Anytime Fitness", "category": "fitness_centre", "tags": ["fitness-centre", "gym"], "sources": ["osm", "overture"], "website": "https://www.anytimefitness.com/locations/seattle-washington-5519", "phone": "+12068146614", "address": "809 NE Northgate Way", "hours": "24/7", "stations": [{"stopCode": 45, "lines": "1,2", "name": "Northgate Station", "walkingMeters": 1278, "walkingSeconds": 919, "band": 15}]}, "geometry": {"type": "Point", "coordinates": [-122.320165, 47.7083034]}}, {"type": "Feature", "properties": {"id": 3390526994, "name": "24 Hour Fitness", "category": "fitness_centre", "tags": ["fitness-centre", "fitness", "gym"], "sources": ["osm", "overture"], "website": "https://www.24hourfitness.com/", "phone": "+12063682431", "address": "507 NE Northgate Way", "hours": "Mo-Su 05:00-23:00", "stations": [{"stopCode": 45, "lines": "1,2", "name": "Northgate Station", "walkingMeters": 935, "walkingSeconds": 673, "band": 15}]}, "geometry": {"type": "Point", "coordinates": [-122.3229393, 47.7082365]}}, {"type": "Feature", "properties": {"id": 2461755910, "name": "F45", "category": "fitness_centre", "tags": ["fitness-centre"], "sources": ["osm"], "address": "301 Northeast 103rd Street", "stations": [{"stopCode": 45, "lines": "1,2", "name": "Northgate Station", "walkingMeters": 219, "walkingSeconds": 158, "band": 5}]}, "geometry": {"type": "Point", "coordinates": [-122.325477, 47.7029894]}}, {"type": "Feature", "properties": {"id": 940481177, "name": "Kraken Community Iceplex", "category": "sports_centre", "tags": ["sports-centre", "ice-hockey", "ice-skating"], "sources": ["osm"], "website": "https://www.krakencommunityiceplex.com", "address": "10601 5th Avenue Northeast", "stations": [{"stopCode": 45, "lines": "1,2", "name": "Northgate Station", "walkingMeters": 626, "walkingSeconds": 450, "band": 10}]}, "geometry": {"type": "Point", "coordinates": [-122.3251917, 47.7062407]}}, {"type": "Feature", "properties": {"id": "5426b2ea-fe1f-481b-8717-8de1d4ff1550", "name": "Hot Yoga Inc. Northgate", "category": "fitness_centre", "tags": ["fitness-centre", "gym"], "sources": ["overture"], "website": "https://hotyogainc.com/locations/northgate", "phone": "2063620880", "address": "11030 8th Ave NE", "stations": [{"stopCode": 45, "lines": "1,2", "name": "Northgate Station", "walkingMeters": 1278, "walkingSeconds": 919, "band": 15}]}, "geometry": {"type": "Point", "coordinates": [-122.3206024, 47.7097206]}}, {"type": "Feature", "properties": {"id": "6134b097-51f0-49cc-8c48-baca7f33a04b", "name": "Nw Kendo", "category": "fitness_centre", "tags": ["fitness-centre", "gym"], "sources": ["overture"], "website": "https://www.northwestkendo.com", "address": "10510 5th Ave NE", "stations": [{"stopCode": 45, "lines": "1,2", "name": "Northgate Station", "walkingMeters": 670, "walkingSeconds": 500, "band": 10}]}, "geometry": {"type": "Point", "coordinates": [-122.3222809, 47.7052994]}}, {"type": "Feature", "properties": {"id": "eb519a69-4b57-4f53-a7f0-83f6f48d81cd", "name": "F45 Training Northgate Wa", "category": "fitness_centre", "tags": ["fitness-centre", "gym"], "sources": ["overture"], "website": "https://f45training.com", "phone": "12067010345", "address": "534 NE Northgate Way", "stations": [{"stopCode": 45, "lines": "1,2", "name": "Northgate Station", "walkingMeters": 1065, "walkingSeconds": 795, "band": 15}]}, "geometry": {"type": "Point", "coordinates": [-122.3217316, 47.7089272]}}, {"type": "Feature", "properties": {"id": "87f079a2-a7c7-45e0-839c-85f4318a8433", "name": "F45 Training Northgate", "category": "fitness_centre", "tags": ["fitness-centre", "gym"], "sources": ["overture"], "website": "https://f45training.com/studio/northgatewa/", "phone": "+12067010345", "address": "301 NE 103rd St Ste 2A", "stations": [{"stopCode": 45, "lines": "1,2", "name": "Northgate Station", "walkingMeters": 212, "walkingSeconds": 152, "band": 5}]}, "geometry": {"type": "Point", "coordinates": [-122.3256912, 47.7029686]}}]}