{"type": "FeatureCollection", "features": [{"type": "Feature", "properties": {"id": 498969176, "name": "Maplewood Heights Park", "category": "park", "tags": ["park"], "sources": ["osm"]}, "geometry": {"type": "Point", "coordinates": [-122.1185178, 47.4758927]}}, {"type": "Feature", "properties": {"id": "f32126a4-2d80-4268-9706-96e4525d7967", "name": "Maplewood Heights Park", "category": "park", "tags": ["park"], "sources": ["overture"], "address": "164th Ave SE"}, "geometry": {"type": "Point", "coordinates": [-122.1190567, 47.4769478]}}]}