{"type": "FeatureCollection", "features": [{"type": "Feature", "properties": {"id": 12513035815, "name": "Subway", "category": "fast_food", "tags": ["fast-food", "sandwich", "takeaway", "restaurant"], "sources": ["osm", "overture"], "website": "https://www.subway.com", "phone": "12538723404", "address": "19918 68th Ave S", "hours": "Mo-Fr 06:00-19:00; Sa 10:00-14:00"}, "geometry": {"type": "Point", "coordinates": [-122.2486308, 47.4234227]}}, {"type": "Feature", "properties": {"id": 4161646690, "name": "L&L Hawaiian Barbecue", "category": "fast_food", "tags": ["fast-food", "hawaiian", "takeaway", "restaurant", "barbecue"], "sources": ["osm", "overture"], "website": "http://hawaiianbarbecue.com/", "phone": "+12532777925", "address": "20038 W Valley Hwy #107", "hours": "Mo-Sa 10:00-19:00"}, "geometry": {"type": "Point", "coordinates": [-122.248923, 47.4223588]}}, {"type": "Feature", "properties": {"id": 4161634290, "name": "Teriyaki 2 U", "category": "restaurant", "tags": ["restaurant", "asian"], "sources": ["osm"], "address": "20038 68th Avenue South", "hours": "Mo-Fr 09:30-19:00; Sa 10:00-19:00"}, "geometry": {"type": "Point", "coordinates": [-122.2489217, 47.4222728]}}, {"type": "Feature", "properties": {"id": 4161646689, "name": "Just Pho You", "category": "restaurant", "tags": ["restaurant", "asian", "vietnamese"], "sources": ["osm", "overture"], "website": "https://www.doordash.com/store/just-pho-you-kent-23750340/", "phone": "+12533982447", "address": "20038 68th Ave S", "hours": "Mo-Th 09:30-16:00; Fr 09:30-19:00; Sa 10:00-15:00"}, "geometry": {"type": "Point", "coordinates": [-122.2489257, 47.4225372]}}, {"type": "Feature", "properties": {"id": 4163233291, "name": "Pita Pit", "category": "fast_food", "tags": ["fast-food", "pita", "takeaway", "restaurant", "mediterranean"], "sources": ["osm", "overture"], "website": "https://locations.pitapitusa.com/locations/wa/kent/20038-68th-avenue-s-suite-110", "phone": "+12536569778", "address": "20038 68th Ave S", "hours": "Mo-Fr 09:00-17:00"}, "geometry": {"type": "Point", "coordinates": [-122.2489198, 47.4221479]}}, {"type": "Feature", "properties": {"id": 653691341, "name": "Daisy Mae's Cafe", "category": "cafe", "tags": ["cafe", "coffee-shop", "coffee"], "sources": ["osm", "overture"], "phone": "+12538725580", "address": "19918 68th Ave S"}, "geometry": {"type": "Point", "coordinates": [-122.2490133, 47.4231322]}}, {"type": "Feature", "properties": {"id": "7452a036-d7e5-4289-965b-329e8a511dd9", "name": "Blue Star Farms", "category": "bakery", "tags": ["bakery"], "sources": ["overture"], "website": "http://www.partnerscrackers.com/", "phone": "(206) 762-4123", "address": "20232 72nd Ave S"}, "geometry": {"type": "Point", "coordinates": [-122.2429733, 47.4202499]}}, {"type": "Feature", "properties": {"id": "75bfcfc0-9bc5-4347-ba2d-4fef25e263e2", "name": "1st Proservice Llc", "category": "restaurant", "tags": ["restaurant"], "sources": ["overture"], "website": "http://1stproservice.com", "phone": "13604678001", "address": "19643 70th Ave S  Unit 5-6"}, "geometry": {"type": "Point", "coordinates": [-122.2461777, 47.4245987]}}, {"type": "Feature", "properties": {"id": "e86feab3-a600-4229-bbcf-166a53cc9aa3", "name": "Urban Timber", "category": "cafe", "tags": ["cafe", "coffee"], "sources": ["overture"], "website": "http://urbantimbercoffee.com", "phone": "(253) 872-6866", "address": "20038 68th Ave S"}, "geometry": {"type": "Point", "coordinates": [-122.2488556, 47.4223251]}}, {"type": "Feature", "properties": {"id": "3afc8d4e-b0fd-4846-989e-028eae4ce8d4", "name": "Forza Coffee Co.", "category": "cafe", "tags": ["cafe", "coffee"], "sources": ["overture"], "website": "http://www.forzacoffeecompany.com", "phone": "(253) 867-0356", "address": "20038 68th Ave S"}, "geometry": {"type": "Point", "coordinates": [-122.2488632, 47.4222603]}}, {"type": "Feature", "properties": {"id": "5b071a20-b0fa-4438-945a-b97232296ef6", "name": "Uk Llc", "category": "restaurant", "tags": ["restaurant"], "sources": ["overture"], "address": "20038 68th Ave S"}, "geometry": {"type": "Point", "coordinates": [-122.2488708, 47.422142]}}, {"type": "Feature", "properties": {"id": "a5365338-6c7d-42bb-bc60-64b8c7d2a0d2", "name": "Naya's Cafe", "category": "restaurant", "tags": ["restaurant"], "sources": ["overture"], "website": "http://www.nayascafekent.com", "phone": "12538723505", "address": "20038 68th Ave S  Ste 108"}, "geometry": {"type": "Point", "coordinates": [-122.2488708, 47.422142]}}, {"type": "Feature", "properties": {"id": "86c20e74-c1e1-4379-a8a7-e3efaae3466d", "name": "Sara Lee Bakery Group", "category": "bakery", "tags": ["bakery"], "sources": ["overture"], "website": "http://www.saralee.com", "phone": "+12533953444", "address": "20230 70th Ave S"}, "geometry": {"type": "Point", "coordinates": [-122.2463226, 47.4204979]}}, {"type": "Feature", "properties": {"id": 653691692, "name": "Food Mart", "category": "convenience", "tags": ["convenience"], "sources": ["osm"], "address": "19918 68th Avenue South", "hours": "Mo-Fr 06:00-20:00; Sa 09:00-17:00; Su 09:00-15:00"}, "geometry": {"type": "Point", "coordinates": [-122.2486139, 47.4233805]}}, {"type": "Feature", "properties": {"id": "e8d4e6f2-0699-4c44-8ac3-4f010a21646c", "name": "Floorco Wholesale", "category": "doityourself", "tags": ["doityourself", "home", "improvement"], "sources": ["overture"], "website": "floorcowholesale.com", "phone": "14256560545", "address": "6911 S 196th St"}, "geometry": {"type": "Point", "coordinates": [-122.2471542, 47.4261246]}}, {"type": "Feature", "properties": {"id": 4379834297, "name": "Connie Moon Design", "category": "furniture", "tags": ["furniture"], "sources": ["osm"], "hours": "Mo-Fr 07:00-16:00"}, "geometry": {"type": "Point", "coordinates": [-122.2498623, 47.4285017]}}, {"type": "Feature", "properties": {"id": 4379839792, "name": "Integrity Laundry Solutions", "category": "electronics", "tags": ["electronics"], "sources": ["osm"]}, "geometry": {"type": "Point", "coordinates": [-122.2499289, 47.4288927]}}, {"type": "Feature", "properties": {"id": 4379888293, "name": "Bath Planet", "category": "furniture", "tags": ["furniture"], "sources": ["osm"]}, "geometry": {"type": "Point", "coordinates": [-122.2498321, 47.4299717]}}, {"type": "Feature", "properties": {"id": 429998179, "name": "American Pile Driving Equipment", "category": "hardware", "tags": ["hardware"], "sources": ["osm"]}, "geometry": {"type": "Point", "coordinates": [-122.2453787, 47.4276702]}}, {"type": "Feature", "properties": {"id": "df846b9a-3895-475b-96be-ce05734ddc53", "name": "Bamboo Depot", "category": "doityourself", "tags": ["doityourself", "building", "supply"], "sources": ["overture"], "website": "https://www.bamboosupply.net", "phone": "12532452203", "address": "20231 72nd Ave S"}, "geometry": {"type": "Point", "coordinates": [-122.2449188, 47.4207726]}}, {"type": "Feature", "properties": {"id": "ea9f2913-4d46-46eb-b9ab-32ada988d465", "name": "Addiction Foods LLC", "category": "pet", "tags": ["pet"], "sources": ["overture"], "website": "http://www.addictionfoods.com/", "phone": "4252510330", "address": "19227 72nd Ave S"}, "geometry": {"type": "Point", "coordinates": [-122.2446594, 47.4297028]}}, {"type": "Feature", "properties": {"id": "2d16957d-275b-47db-b6f4-b575d9ae541e", "name": "Gaffer Glass Usa Limited", "category": "art", "tags": ["art", "supply"], "sources": ["overture"], "website": "http://www.gafferglassusa.com", "phone": "+12533953361", "address": "19622 70th Ave S"}, "geometry": {"type": "Point", "coordinates": [-122.2450943, 47.4254646]}}, {"type": "Feature", "properties": {"id": "98c323a9-d12b-42d2-ad4a-a571fc1719c3", "name": "Nicewonger Company", "category": "supermarket", "tags": ["supermarket"], "sources": ["overture"], "address": "19219 68th Ave S Ste M103"}, "geometry": {"type": "Point", "coordinates": [-122.2499161, 47.428997]}}, {"type": "Feature", "properties": {"id": 4163291991, "name": "Umpqua Bank", "category": "bank", "tags": ["bank", "credit", "union"], "sources": ["osm", "overture"], "website": "http://umpquabank.com/locations/washington/kent/kent/", "phone": "2067497274", "address": "20038 68th Avenue S , Stes 102,103 & 111", "hours": "Mo-Th 09:00-17:00; Fr 09:00-18:00"}, "geometry": {"type": "Point", "coordinates": [-122.2489281, 47.4226914]}}, {"type": "Feature", "properties": {"id": "78e71265-4ae2-46b4-835a-9f195efdd1cf", "name": "United Fitness Center", "category": "fitness_centre", "tags": ["fitness-centre", "gym"], "sources": ["overture"], "phone": "4257360173", "address": "19632 70th Ave S 4-3"}, "geometry": {"type": "Point", "coordinates": [-122.2456512, 47.4241753]}}]}