{"type": "FeatureCollection", "features": [{"type": "Feature", "properties": {"id": "b3bf5348-cb30-42e7-ab24-6af7a3ef664a", "name": "Ladybug Espresso", "category": "cafe", "tags": ["cafe", "coffee"], "sources": ["overture"], "phone": "+12064874668", "address": "12666 Des Moines Memorial Dr S"}, "geometry": {"type": "Point", "coordinates": [-122.3112793, 47.4888344]}}, {"type": "Feature", "properties": {"id": 676967652, "name": "LadyBug Bikini Espresso", "category": "cafe", "tags": ["cafe"], "sources": ["osm"], "address": "12666 Des Moines Memorial Drive South"}, "geometry": {"type": "Point", "coordinates": [-122.3112207, 47.4888579]}}, {"type": "Feature", "properties": {"id": 893173646, "name": "Bikini Barista", "category": "cafe", "tags": ["cafe"], "sources": ["osm"]}, "geometry": {"type": "Point", "coordinates": [-122.3122579, 47.4877737]}}, {"type": "Feature", "properties": {"id": "d97b0120-a345-4e58-ad99-a4be4104fd4f", "name": "Oliver's Club", "category": "restaurant", "tags": ["restaurant"], "sources": ["overture"], "phone": "+12062288579", "address": "12610 Des Moines Memorial Dr"}, "geometry": {"type": "Point", "coordinates": [-122.3103409, 47.4899406]}}, {"type": "Feature", "properties": {"id": "c7b40476-560f-4377-b7b0-096d34a9cd51", "name": "Pink Sugar Espresso", "category": "cafe", "tags": ["cafe"], "sources": ["overture"], "address": "12825 Des Moines Memorial Dr"}, "geometry": {"type": "Point", "coordinates": [-122.312439, 47.4878769]}}, {"type": "Feature", "properties": {"id": "fdfc097e-5be6-480f-b1b8-b62dbc97ac59", "name": "Danger Ross Arts LLC", "category": "gallery", "tags": ["gallery", "art"], "sources": ["overture"], "website": "http://www.dangerrossarts.com/", "phone": "+12065512074", "address": "Dr Burien 98168 United State"}, "geometry": {"type": "Point", "coordinates": [-122.3151932, 47.4803352]}}, {"type": "Feature", "properties": {"id": "fffb31da-b99d-43d4-a589-68679c87081c", "name": "Sunset Park", "category": "park", "tags": ["park"], "sources": ["overture"], "address": "13800 16th Ave S"}, "geometry": {"type": "Point", "coordinates": [-122.3117371, 47.4804726]}}, {"type": "Feature", "properties": {"id": "8d1f3530-98bc-4aa9-96b1-9655e5e2a4bb", "name": "Environmental Science Center", "category": "park", "tags": ["park"], "sources": ["overture"], "website": "http://envsciencecenter.org/", "address": "13476 14th Ave S"}, "geometry": {"type": "Point", "coordinates": [-122.3151779, 47.482399]}}, {"type": "Feature", "properties": {"id": "9895b682-86d4-410f-a57f-a2c64a5efce0", "name": "Jackpot Food Mart", "category": "convenience", "tags": ["convenience"], "sources": ["overture"], "website": "http://www.76.com/", "phone": "+12064338077", "address": "12807 Des Moines Memorial Dr S"}, "geometry": {"type": "Point", "coordinates": [-122.3122711, 47.488308]}}]}