{"type": "FeatureCollection", "features": [{"type": "Feature", "properties": {"id": "f671584b-6cde-4474-958d-a5d4f4e29560", "name": "MVPub (CLOSED!!!)", "category": "bar", "tags": ["bar"], "sources": ["overture"], "website": "http://www.mvpubs.com", "phone": "(425) 486-9962", "address": "6620 NE 181st St"}, "geometry": {"type": "Point", "coordinates": [-122.2520752, 47.7600632]}}, {"type": "Feature", "properties": {"id": "aec3d874-7948-439b-9685-3f16a6424fa4", "name": "LINQ Lofts + Flats", "category": "attraction", "tags": ["attraction", "landmark", "historical", "building"], "sources": ["overture"], "website": "https://liveatthelinq.com/?utm_source=social&utm_medium=display&utm_iq=social", "phone": "+14254372288", "address": "18151 68th Ave NE"}, "geometry": {"type": "Point", "coordinates": [-122.250618, 47.7607079]}}, {"type": "Feature", "properties": {"id": "df614b4e-ba77-44c7-b4ed-330a4b8f38a6", "name": "Spencer 68", "category": "attraction", "tags": ["attraction", "landmark", "historical", "building"], "sources": ["overture"], "website": "https://www.liveatspencer68.com/", "phone": "+14253002901", "address": "6711 NE 182nd St"}, "geometry": {"type": "Point", "coordinates": [-122.2512054, 47.7611465]}}, {"type": "Feature", "properties": {"id": 612076000, "name": "Northshore Summit Park", "category": "park", "tags": ["park"], "sources": ["osm", "overture"], "website": "https://www.kenmorewa.gov", "phone": "+14253988900", "address": "6200 NE 193rd St & 62nd"}, "geometry": {"type": "Point", "coordinates": [-122.2597289, 47.7680615]}}, {"type": "Feature", "properties": {"id": "c221c977-c45c-4a31-b09d-9e6959342ccb", "name": "Enliven Bed and Breakfast", "category": "guest_house", "tags": ["guest-house", "bed", "breakfast"], "sources": ["overture"], "website": "http://www.enlivenbnb.com/", "phone": "4254814819", "address": "19322 63rd Ave NE"}, "geometry": {"type": "Point", "coordinates": [-122.2584152, 47.7684631]}}, {"type": "Feature", "properties": {"id": 3570215588, "name": "music non-stop", "category": "music", "tags": ["music"], "sources": ["osm"], "website": "https://musicnon-stop.com/", "address": "6524 Northeast 181st Street", "hours": "Mo-Tu off; We-Su 12:00-20:00"}, "geometry": {"type": "Point", "coordinates": [-122.252311, 47.7602984]}}, {"type": "Feature", "properties": {"id": 3570311011, "name": "Kenmore Camera", "category": "electronics", "tags": ["electronics", "wheelchair-accessible"], "sources": ["osm"], "website": "https://kenmorecamera.com/", "phone": "+1-888-485-7447", "address": "6708 Northeast 181st Street", "hours": "Mo-Fr 09:00-19:00; Sa 09:00-17:00; Su 12:00-17:00"}, "geometry": {"type": "Point", "coordinates": [-122.2511629, 47.7605518]}}, {"type": "Feature", "properties": {"id": 6451160248, "name": "Kenmore Jewel Box", "category": "jewelry", "tags": ["jewelry"], "sources": ["osm", "overture"], "website": "http://ci.kenmore.wa.us", "phone": "+14254865073", "address": "6524 NE 181st St"}, "geometry": {"type": "Point", "coordinates": [-122.2523604, 47.7600701]}}, {"type": "Feature", "properties": {"id": 6450560350, "name": "Evergreen Health Urgent Care", "category": "clinic", "tags": ["clinic"], "sources": ["osm"], "website": "https://www.evergreenhealth.com/urgent-care-kenmore", "hours": "Mo-Sa 08:00-20:00;Su 09:00-17:00"}, "geometry": {"type": "Point", "coordinates": [-122.2504022, 47.7605135]}}, {"type": "Feature", "properties": {"id": 6450560359, "name": "Evergreen Health Primary Care", "category": "clinic", "tags": ["clinic"], "sources": ["osm"], "website": "https://www.evergreenhealth.com/primary-care-kenmore"}, "geometry": {"type": "Point", "coordinates": [-122.2506215, 47.7605119]}}, {"type": "Feature", "properties": {"id": "a9acda33-62c5-4f2b-956b-c0ea4e82bc04", "name": "EvergreenHealth Breast Health Center, Kenmore", "category": "clinic", "tags": ["clinic", "medical"], "sources": ["overture"], "website": "https://www.evergreenhealth.com/urgent-care-kenmore", "phone": "+14258992831", "address": "18151 68th Ave NE #100"}, "geometry": {"type": "Point", "coordinates": [-122.250412, 47.7605591]}}, {"type": "Feature", "properties": {"id": "f534dd14-c8ae-4f08-b37f-14546f021dc4", "name": "Great Play of Northshore Seattle", "category": "fitness_centre", "tags": ["fitness-centre", "fitness", "trainer"], "sources": ["overture"], "website": "http://www.greatplay.com/northshore", "phone": "+14254867900", "address": "6784 NE 181st St"}, "geometry": {"type": "Point", "coordinates": [-122.2503815, 47.7605247]}}]}