{"type": "FeatureCollection", "features": [{"type": "Feature", "properties": {"id": 2139809213, "name": "Asia Ginger Teriyaki & Roll", "category": "fast_food", "tags": ["fast-food", "japanese", "restaurant", "asian", "fusion"], "sources": ["osm", "overture"], "website": "https://asiagingerteriyakiroll.netwaiter.com/seattle/about", "phone": "+12066822444", "address": "4119 4th Ave S", "hours": "Mo-Fr 10:30-19:00"}, "geometry": {"type": "Point", "coordinates": [-122.3300151, 47.5666746]}}, {"type": "Feature", "properties": {"id": 2349895526, "name": "Fulcrum Coffee Roasters", "category": "cafe", "tags": ["cafe", "coffee-shop", "coffee-roaster", "coffee"], "sources": ["osm", "overture"], "website": "https://fulcrumcoffee.com", "phone": "+14257413405", "address": "4660 Ohio Ave S"}, "geometry": {"type": "Point", "coordinates": [-122.3377893, 47.5611547]}}, {"type": "Feature", "properties": {"id": 2350311269, "name": "Nine Pies Pizzeria", "category": "restaurant", "tags": ["restaurant", "pizza", "italian"], "sources": ["osm", "overture"], "website": "http://www.ninepiespizza.com/", "phone": "+12065820777", "address": "3861 1st Ave S"}, "geometry": {"type": "Point", "coordinates": [-122.335205, 47.5679519]}}, {"type": "Feature", "properties": {"id": 2350311270, "name": "Schooner Brewing", "category": "pub", "tags": ["pub", "wheelchair-accessible", "microbrew"], "sources": ["osm"], "phone": "+1-206-432-9734", "address": "3901 1st Avenue South", "hours": "Mo-Fr 11:00-22:00; Sa-Su 10:00-22:00"}, "geometry": {"type": "Point", "coordinates": [-122.3354879, 47.5678008]}}, {"type": "Feature", "properties": {"id": "9f9756e7-5db0-41d6-9702-57e86046b1af", "name": "Din Tai Fung", "category": "restaurant", "tags": ["restaurant", "dim-sum", "dim", "sum", "chinese"], "sources": ["overture"], "website": "https://dintaifungusa.com/", "phone": "+12062571923", "address": "4025 1st Ave S"}, "geometry": {"type": "Point", "coordinates": [-122.3352509, 47.5672493]}}, {"type": "Feature", "properties": {"id": 10655870593, "name": "The Woods Tasting Room", "category": "pub", "tags": ["pub", "outdoor-seating"], "sources": ["osm"], "website": "https://www.seattlecidercompany.com/home/5253-2/", "address": "4660 Ohio Avenue South", "hours": "Mo-Th 12:00-21:00; Fr,Sa 12:00-22:00; Su 12:00-20:00"}, "geometry": {"type": "Point", "coordinates": [-122.3377893, 47.560755]}}, {"type": "Feature", "properties": {"id": 13088508495, "name": "Costco Food Court", "category": "fast_food", "tags": ["fast-food", "hot-dog", "pizza", "sandwich", "takeaway"], "sources": ["osm"], "phone": "+1-206-403-2005", "address": "4401 4th Avenue South"}, "geometry": {"type": "Point", "coordinates": [-122.3304732, 47.5649143]}}, {"type": "Feature", "properties": {"id": "57773c46-b4e3-42f0-8015-adcbf9e85667", "name": "Sodo Urbanworks", "category": "bar", "tags": ["bar", "wine"], "sources": ["overture"], "website": "http://sodo-urbanworks.com/", "phone": "+12062583362", "address": "3901 1st Ave S"}, "geometry": {"type": "Point", "coordinates": [-122.3354645, 47.5678825]}}, {"type": "Feature", "properties": {"id": "260f898b-f8cb-46e7-9511-d385a5fb1502", "name": "San Juan Seltzery", "category": "bar", "tags": ["bar", "brewery"], "sources": ["overture"], "website": "https://sanjuanseltzery.com", "phone": "12064329734", "address": "3901 1st Ave S"}, "geometry": {"type": "Point", "coordinates": [-122.3355865, 47.5677681]}}, {"type": "Feature", "properties": {"id": "f39e40cc-e4d5-4e35-b6c3-3c3245717281", "name": "Schooner Exact", "category": "bar", "tags": ["bar", "brewery"], "sources": ["overture"], "website": "https://schoonerexact.com", "phone": "2064329734", "address": "3901 1st Ave S"}, "geometry": {"type": "Point", "coordinates": [-122.3355865, 47.5677681]}}, {"type": "Feature", "properties": {"id": "6f716fb5-4244-46f9-940c-7fa8f0bd7b1c", "name": "Hallava Falafel", "category": "fast_food", "tags": ["fast-food", "food", "truck"], "sources": ["overture"], "website": "http://www.hallavastreetfood.com", "phone": "(206) 307-4769", "address": "5825 Airport Way S"}, "geometry": {"type": "Point", "coordinates": [-122.3380127, 47.560791]}}, {"type": "Feature", "properties": {"id": "109f6d6f-1762-4feb-a683-048e5d912e66", "name": "Bread And Circuses", "category": "restaurant", "tags": ["restaurant", "american"], "sources": ["overture"], "website": "https://www.eatbreadandcircuses.com", "phone": "12064014779", "address": "4700 Ohio Ave S"}, "geometry": {"type": "Point", "coordinates": [-122.3377228, 47.5605583]}}, {"type": "Feature", "properties": {"id": "c2e3338a-2f02-493c-95a3-35ee388453f8", "name": "Two Beers Brewing Co.", "category": "bar", "tags": ["bar", "brewery"], "sources": ["overture"], "website": "www.twobeersbrewery.com", "phone": "12067620490", "address": "4700 Ohio Ave S"}, "geometry": {"type": "Point", "coordinates": [-122.3377228, 47.5605583]}}, {"type": "Feature", "properties": {"id": "be55e481-58fb-4b1e-ad9d-f6a53407d11e", "name": "The Woods", "category": "bar", "tags": ["bar", "brewery"], "sources": ["overture"], "website": "http://www.twobeersbrewery.com/the-woods/", "phone": "(206) 762-0490", "address": "4660 Ohio Ave S"}, "geometry": {"type": "Point", "coordinates": [-122.3376312, 47.5605125]}}, {"type": "Feature", "properties": {"id": "dc8a0dd2-c21e-4d5a-b67b-7f187ec91e01", "name": "Seattle Cider Company", "category": "bar", "tags": ["bar", "brewery"], "sources": ["overture"], "website": "http://www.seattlecider.com/", "phone": "+12067620490", "address": "4660 Ohio Ave S"}, "geometry": {"type": "Point", "coordinates": [-122.3377151, 47.5605507]}}, {"type": "Feature", "properties": {"id": "82a4edaf-667b-48cf-8a6b-5cc1f508ec47", "name": "Grand Central Bakery Wholesale Division", "category": "bakery", "tags": ["bakery"], "sources": ["overture"], "website": "http://www.grandcentralbakery.com/", "phone": "(206) 768-0320", "address": "4634 E Marginal Way S"}, "geometry": {"type": "Point", "coordinates": [-122.3387375, 47.5612831]}}, {"type": "Feature", "properties": {"id": "de5839ee-2c16-47c7-ab29-17b15a1fd1e1", "name": "Pie Bird Bakeshop", "category": "bakery", "tags": ["bakery"], "sources": ["overture"], "website": "http://www.piebirdbakeshop.com/", "phone": "+12068586452", "address": "4634 E Marginal Way S"}, "geometry": {"type": "Point", "coordinates": [-122.3387604, 47.5614815]}}, {"type": "Feature", "properties": {"id": "7ba35835-d68d-46b2-9a72-dac865c54c5f", "name": "Hi Helen", "category": "restaurant", "tags": ["restaurant", "breakfast-and-brunch", "breakfast", "brunch"], "sources": ["overture"], "phone": "+17322728036", "address": "4634 E Marginal Way S"}, "geometry": {"type": "Point", "coordinates": [-122.3386612, 47.5618057]}}, {"type": "Feature", "properties": {"id": "f7ef3cf9-459b-40f0-a4f2-82fa5e9a7651", "name": "Silver Slice Bakery", "category": "bakery", "tags": ["bakery"], "sources": ["overture"], "website": "silverslicebakery.com", "phone": "2068028666", "address": "4634 E Marginal Way S"}, "geometry": {"type": "Point", "coordinates": [-122.3386612, 47.5618057]}}, {"type": "Feature", "properties": {"id": "f7e1d39c-e310-4be0-934d-486032790a6e", "name": "Michael Ross", "category": "restaurant", "tags": ["restaurant"], "sources": ["overture"], "website": "https://seattlesportschiro.com", "address": "4634 E Marginal Way S"}, "geometry": {"type": "Point", "coordinates": [-122.3386612, 47.5618057]}}, {"type": "Feature", "properties": {"id": "62d7fc1b-4c97-4be3-a908-e7bf25507880", "name": "Rama's Kitchen", "category": "restaurant", "tags": ["restaurant", "indian"], "sources": ["overture"], "website": "http://woodinvilleindiancuisine.com", "phone": "(425) 998-6386", "address": "19600 144th Ave NE"}, "geometry": {"type": "Point", "coordinates": [-122.3390121, 47.5618172]}}, {"type": "Feature", "properties": {"id": 5777081853, "name": "Patterson Cellars", "category": "wine", "tags": ["wine", "winery"], "sources": ["osm", "overture"], "website": "http://www.pattersoncellars.com", "phone": "+12069223371", "address": "3861 1st Ave S"}, "geometry": {"type": "Point", "coordinates": [-122.3348065, 47.5679435]}}, {"type": "Feature", "properties": {"id": "40451e91-d010-41f0-bf3b-6af8f1412550", "name": "T-Mobile", "category": "mobile_phone", "tags": ["mobile-phone", "mobile"], "sources": ["overture"], "website": "https://www.t-mobile.com/stores/bd/t-mobile-seattle-wa-98134-1c13?utm_source=facebook&utm_medium=lastmile&utm_campaign=1C13", "phone": "+12064767363", "address": "4401 4th Ave S"}, "geometry": {"type": "Point", "coordinates": [-122.3303223, 47.5653915]}}, {"type": "Feature", "properties": {"id": 4426792833, "name": "Waters Winery Tasting Room", "category": "wine", "tags": ["wine"], "sources": ["osm"], "website": "https://trwines.com/about?c=waters-winery", "address": "3861 1st Avenue South", "hours": "Th-Sa 11:00-19:00; Su 12:00-17:00"}, "geometry": {"type": "Point", "coordinates": [-122.334907, 47.5679515]}}, {"type": "Feature", "properties": {"id": 4426792835, "name": "Rotie Cellars", "category": "wine", "tags": ["wine", "winery"], "sources": ["osm", "overture"], "website": "http://www.rotiecellars.com/", "phone": "+12064856965", "address": "3861 1st Ave S", "hours": "Th-Sa 11:00-19:00; Su 12:00-17:00"}, "geometry": {"type": "Point", "coordinates": [-122.3346911, 47.5679513]}}, {"type": "Feature", "properties": {"id": 4426792837, "name": "Kerloo Cellars Tasting Room", "category": "wine", "tags": ["wine"], "sources": ["osm"], "phone": "+1-206-349-0641", "address": "3911 1st Avenue South", "hours": "Th-Su 12:00-18:00"}, "geometry": {"type": "Point", "coordinates": [-122.3354883, 47.5676664]}}, {"type": "Feature", "properties": {"id": 5777081553, "name": "Sleight of Hand Cellars", "category": "wine", "tags": ["wine"], "sources": ["osm"]}, "geometry": {"type": "Point", "coordinates": [-122.3350648, 47.5679447]}}, {"type": "Feature", "properties": {"id": 12771043137, "name": "Nine Hats Wines", "category": "wine", "tags": ["wine", "winery"], "sources": ["osm", "overture"], "website": "http://www.ninehatswines.com", "phone": "+12065820700", "address": "3861 1st Ave S", "hours": "Mo-Tu off; We-Sa 12:00-19:00; Su 12:00-17:00"}, "geometry": {"type": "Point", "coordinates": [-122.3352877, 47.5679455]}}, {"type": "Feature", "properties": {"id": 226177349, "name": "Restaurant Depot", "category": "supermarket", "tags": ["supermarket"], "sources": ["osm"], "address": "3670 East Marginal Way South"}, "geometry": {"type": "Point", "coordinates": [-122.3378014, 47.5689471]}}, {"type": "Feature", "properties": {"id": "81500c92-6b4f-4f19-89e5-8015d6ac894b", "name": "Tomboyx", "category": "clothes", "tags": ["clothes", "womens"], "sources": ["overture"], "website": "http://www.tomboyx.com", "phone": "(206) 972-3087", "address": "3663 1st Ave S"}, "geometry": {"type": "Point", "coordinates": [-122.3347168, 47.5697899]}}, {"type": "Feature", "properties": {"id": "b5c5af7d-b3dd-436f-a73d-47da6c89eec3", "name": "Double E Foods", "category": "supermarket", "tags": ["supermarket"], "sources": ["overture"], "phone": "+12066525843", "address": "3625 1st Ave S"}, "geometry": {"type": "Point", "coordinates": [-122.3361511, 47.569912]}}, {"type": "Feature", "properties": {"id": "c0478b13-291b-4a44-8a84-e1d008f4f588", "name": "Papersalt", "category": "books", "tags": ["books"], "sources": ["overture"], "website": "http://www.papersalt.com/", "phone": "+12066595227", "address": "3663 1st Ave S"}, "geometry": {"type": "Point", "coordinates": [-122.334816, 47.5698357]}}, {"type": "Feature", "properties": {"id": "0b2fcf0b-0277-49b2-b1a7-3bda147bd28d", "name": "Sleight of Hand Cellars SODO", "category": "wine", "tags": ["wine", "winery"], "sources": ["overture"], "website": "http://www.sofhcellars.com/", "phone": "+12065821878", "address": "3861 1st Ave S G"}, "geometry": {"type": "Point", "coordinates": [-122.3345947, 47.5680847]}}, {"type": "Feature", "properties": {"id": "7e787266-473d-4dbe-ac3d-c57d948dd4d4", "name": "Sherman Winery", "category": "wine", "tags": ["wine", "winery"], "sources": ["overture"], "website": "http://www.ShermanWinery.com/", "phone": "+12062583362", "address": "3861 1st Ave S"}, "geometry": {"type": "Point", "coordinates": [-122.3348618, 47.5679932]}}, {"type": "Feature", "properties": {"id": "35a33cb2-8f0e-4aaa-9537-49972238d421", "name": "Waters Winery", "category": "wine", "tags": ["wine", "winery"], "sources": ["overture"], "website": "http://trwines.com/about?c=waters-winery", "phone": "(206) 258-3362", "address": "3861 1st Ave S"}, "geometry": {"type": "Point", "coordinates": [-122.3348312, 47.5680542]}}, {"type": "Feature", "properties": {"id": "e09eaee7-f9fd-4a6b-abdd-244b1ca6c5fb", "name": "Michael Florentino Cellars SODO", "category": "wine", "tags": ["wine", "winery"], "sources": ["overture"], "website": "https://www.exploretock.com/michaelflorentinocellars", "phone": "+12064925106", "address": "3861 1st Ave S A"}, "geometry": {"type": "Point", "coordinates": [-122.3353043, 47.5679054]}}, {"type": "Feature", "properties": {"id": "d76e66df-928f-48b1-bc6b-f9bf65a5fe73", "name": "Cairdeas Winery", "category": "wine", "tags": ["wine", "winery"], "sources": ["overture"], "website": "http://www.cairdeaswinery.com", "phone": "+12062680222", "address": "3861 1st Ave S Ste E"}, "geometry": {"type": "Point", "coordinates": [-122.3349686, 47.5678291]}}, {"type": "Feature", "properties": {"id": "630ff6a9-991b-4bc7-90c1-540a1d9932de", "name": "Structure Cellars Winery", "category": "wine", "tags": ["wine", "winery"], "sources": ["overture"], "website": "http://www.structurewines.com/", "phone": "+12063346828", "address": "3849 1st Ave S"}, "geometry": {"type": "Point", "coordinates": [-122.335289, 47.5678291]}}, {"type": "Feature", "properties": {"id": "25cc2b74-436d-4389-8605-2f8dd71f7300", "name": "Filson Customer Service", "category": "clothes", "tags": ["clothes"], "sources": ["overture"], "website": "http://www.filson.com", "phone": "+18668608906", "address": "3851 1st Ave S"}, "geometry": {"type": "Point", "coordinates": [-122.3361664, 47.567791]}}, {"type": "Feature", "properties": {"id": "a323a110-947e-4dfb-87c0-46755d3432ed", "name": "Full Pull Wines", "category": "alcohol", "tags": ["alcohol"], "sources": ["overture"], "website": "http://www.fullpullwines.com/", "phone": "+12064202168", "address": "3933 1st Ave S A"}, "geometry": {"type": "Point", "coordinates": [-122.33535, 47.5675697]}}, {"type": "Feature", "properties": {"id": "5863ae6c-023a-4a29-8eb6-335c0d8b22bc", "name": "Latta Wines", "category": "wine", "tags": ["wine", "winery"], "sources": ["overture"], "website": "http://www.lattawines.com", "phone": "+12064661336", "address": "3933 1st Ave S"}, "geometry": {"type": "Point", "coordinates": [-122.3353424, 47.5674515]}}, {"type": "Feature", "properties": {"id": "e424764e-db81-43bb-ac4f-a71da4d0da2c", "name": "Ecohaus", "category": "doityourself", "tags": ["doityourself", "building", "supply"], "sources": ["overture"], "website": "https://www.ecohaus.com", "address": "4121 1st Ave S"}, "geometry": {"type": "Point", "coordinates": [-122.3351898, 47.5673332]}}, {"type": "Feature", "properties": {"id": "0a79af77-6e12-4afc-b37c-84824cf1ce8f", "name": "Urban Enoteca", "category": "wine", "tags": ["wine", "winery"], "sources": ["overture"], "website": "http://www.urbanenoteca.com", "phone": "(206) 467-9463", "address": "4130 1st Ave S"}, "geometry": {"type": "Point", "coordinates": [-122.333786, 47.5662613]}}, {"type": "Feature", "properties": {"id": "432ea240-d02b-4b09-b7a7-e99085d7cae0", "name": "Daniel Smith Fine Art Materials", "category": "art", "tags": ["art", "supply"], "sources": ["overture"], "website": "https://www.danielsmith.com", "phone": "2062239599", "address": "4150 1st Ave S"}, "geometry": {"type": "Point", "coordinates": [-122.3336182, 47.5655785]}}, {"type": "Feature", "properties": {"id": "bc1d5f18-e780-4d47-9084-de478b505c8d", "name": "Tom James Company", "category": "clothes", "tags": ["clothes", "mens"], "sources": ["overture"], "website": "https://www.tomjames.com/errorpages/ApplicationErrorPage.aspx?aspxerrorpath=%2Flocations%2Fstore.aspx", "phone": "+12066244662", "address": "4130 1st Ave S"}, "geometry": {"type": "Point", "coordinates": [-122.3336334, 47.5663033]}}, {"type": "Feature", "properties": {"id": "9f215446-d67a-4064-a6c9-ae1ed5bfb23f", "name": "Crucible Wines", "category": "wine", "tags": ["wine", "winery"], "sources": ["overture"], "website": "http://www.cruciblewines.com", "phone": "(206) 300-3926", "address": "4700 Ohio Ave S"}, "geometry": {"type": "Point", "coordinates": [-122.3375549, 47.5605125]}}, {"type": "Feature", "properties": {"id": "bf672df4-3967-430c-a5f8-c30b1f247686", "name": "Sprint Store", "category": "mobile_phone", "tags": ["mobile-phone", "mobile"], "sources": ["overture"], "website": "https://www.sprint.com/storefronts/bd/sprint-seattle-wa-98134-d-2207/", "phone": "(206) 380-0308", "address": "4634 E Marginal Way S Ste C200"}, "geometry": {"type": "Point", "coordinates": [-122.3387527, 47.5616341]}}, {"type": "Feature", "properties": {"id": "fab7b054-2d26-4034-ad5c-fcc67c10182b", "name": "Kukree", "category": "supermarket", "tags": ["supermarket"], "sources": ["overture"], "address": "4634 E Marginal Way S"}, "geometry": {"type": "Point", "coordinates": [-122.3386612, 47.5618057]}}, {"type": "Feature", "properties": {"id": "b08117aa-222b-489b-ae19-4ab23bd1f8f9", "name": "Henrybuilt", "category": "furniture", "tags": ["furniture"], "sources": ["overture"], "website": "https://www.henrybuilt.com", "phone": "+12066245656", "address": "4632 Ohio Ave S"}, "geometry": {"type": "Point", "coordinates": [-122.3376617, 47.5617638]}}, {"type": "Feature", "properties": {"id": "9c0c6dc4-232e-4fab-858a-b03acc272f25", "name": "Corfini Gourmet, Inc.", "category": "supermarket", "tags": ["supermarket"], "sources": ["overture"], "website": "http://www.corfinigourmet.com/", "phone": "+12069373141", "address": "4250 E Marginal Way S"}, "geometry": {"type": "Point", "coordinates": [-122.3384705, 47.5642395]}}, {"type": "Feature", "properties": {"id": 4439632989, "name": "Arena Sports Indoor Soccer", "category": "fitness_centre", "tags": ["fitness-centre"], "sources": ["osm"]}, "geometry": {"type": "Point", "coordinates": [-122.3389816, 47.5609518]}}, {"type": "Feature", "properties": {"id": "dc24c090-92c7-4f33-a15e-75f3e46ab1a4", "name": "Kei Fit", "category": "fitness_centre", "tags": ["fitness-centre", "gym"], "sources": ["overture"], "website": "https://keifitpnw.com", "phone": "2067340063", "address": "4632 Ohio Ave S  Ste D"}, "geometry": {"type": "Point", "coordinates": [-122.3376617, 47.5617638]}}, {"type": "Feature", "properties": {"id": "7d5582b9-e271-4bf7-94cd-0175ccb0e594", "name": "Sodo Health & Performance", "category": "fitness_centre", "tags": ["fitness-centre", "gym"], "sources": ["overture"], "website": "http://www.sodocrossfit.com", "phone": "(206) 932-7943", "address": "4634 E Marginal Way S Ste C120"}, "geometry": {"type": "Point", "coordinates": [-122.3390656, 47.5615463]}}]}