{"type": "FeatureCollection", "features": [{"type": "Feature", "properties": {"id": "aa6c2e50-ee35-4617-848b-c92b485e8f80", "name": "Taco Time", "category": "restaurant", "tags": ["restaurant", "mexican"], "sources": ["overture"], "website": "http://www.TacoTimeNW.com", "phone": "(425) 643-9336", "address": "2001 156th Ave NE"}, "geometry": {"type": "Point", "coordinates": [-122.1333466, 47.6280746]}}, {"type": "Feature", "properties": {"id": 335047073, "name": "Off the Rails Sport Bar", "category": "bar", "tags": ["bar"], "sources": ["osm"], "phone": "+1-425-326-1314", "address": "1430 156th Ave NE", "hours": "Su-We 15:00-00:00, Th-Sa 15:00-02:00"}, "geometry": {"type": "Point", "coordinates": [-122.1317151, 47.6229968]}}, {"type": "Feature", "properties": {"id": 335048098, "name": "Subway", "category": "fast_food", "tags": ["fast-food", "sandwich", "takeaway", "restaurant"], "sources": ["osm", "overture"], "website": "https://restaurants.subway.com/united-states/wa/bellevue/1410-156th-ave-ne", "phone": "+14256143256", "address": "1410 156th Ave NE", "hours": "Mo-Fr 08:00-22:00; Sa-Su 09:00-22:00"}, "geometry": {"type": "Point", "coordinates": [-122.132095, 47.6226394]}}, {"type": "Feature", "properties": {"id": 335052583, "name": "Westernco Donut", "category": "fast_food", "tags": ["fast-food", "donut"], "sources": ["osm"]}, "geometry": {"type": "Point", "coordinates": [-122.1320624, 47.6227227]}}, {"type": "Feature", "properties": {"id": 335052591, "name": "Kwality", "category": "ice_cream", "tags": ["ice-cream"], "sources": ["osm"], "website": "https://kwalityfoods.com/", "phone": "+1-425-747-8500", "address": "1400 156th Avenue Northeast"}, "geometry": {"type": "Point", "coordinates": [-122.132036, 47.6225792]}}, {"type": "Feature", "properties": {"id": 339935528, "name": "Mediterranean Grill", "category": "restaurant", "tags": ["restaurant", "indoor-seating", "vegetarian", "mediterranean", "middle-eastern", "halal"], "sources": ["osm", "overture"], "website": "https://www.medgrillbellevue.com/", "phone": "+14256446066", "address": "15253 NE Bel Red Rd", "hours": "Su-Th 11:00-21:00; Fr,Sa 11:00-22:00", "stations": [{"stopCode": 62, "lines": "2", "name": "Overlake Village Station", "walkingMeters": 1284, "walkingSeconds": 924, "band": 15}]}, "geometry": {"type": "Point", "coordinates": [-122.1350637, 47.6287163]}}, {"type": "Feature", "properties": {"id": 29218308, "name": "Starbucks", "category": "cafe", "tags": ["cafe", "coffee-shop", "takeaway", "drive-through"], "sources": ["osm", "overture"], "website": "https://www.starbucks.com/store-locator/store/1021177", "phone": "+14257470690", "address": "1350 156th Ave Ne Suite E-3", "hours": "Mo-Fr 05:00-20:30; Sa, Su 06:00-20:30"}, "geometry": {"type": "Point", "coordinates": [-122.1319776, 47.6220821]}}, {"type": "Feature", "properties": {"id": 390292347, "name": "McDonald's", "category": "fast_food", "tags": ["fast-food", "burger", "takeaway", "drive-through", "wifi", "fast", "food"], "sources": ["osm", "overture"], "website": "https://www.mcdonalds.com/us/en-us/location/wa/bellevue/1401-156th-ave-ne/1498.html?cid=RF%3AYXT%3ARoN%3A%3AClicks%3Fcid%3DRF%3AYXT%3AFB%3A%3AClicks", "phone": "+14257463432", "address": "1401 156th Ave Ne", "hours": "07:00-22:00"}, "geometry": {"type": "Point", "coordinates": [-122.1329186, 47.6225625]}}, {"type": "Feature", "properties": {"id": 12570481061, "name": "Pagliacci Pizza", "category": "fast_food", "tags": ["fast-food", "pizza", "wheelchair-accessible", "vegetarian", "wifi", "restaurant"], "sources": ["osm", "overture"], "website": "https://www.pagliacci.com/", "phone": "4254531717", "address": "15238 NE Bel Red Rd", "hours": "Su-Th 11:00-22:00; Fr,Sa 11:00-23:00", "stations": [{"stopCode": 62, "lines": "2", "name": "Overlake Village Station", "walkingMeters": 1230, "walkingSeconds": 897, "band": 15}]}, "geometry": {"type": "Point", "coordinates": [-122.1359624, 47.6281366]}}, {"type": "Feature", "properties": {"id": "0d5c62cd-1c01-45d0-b1b4-14d79b9163af", "name": "Pizza Hut", "category": "restaurant", "tags": ["restaurant", "pizza"], "sources": ["overture"], "website": "http://www.pizzahut.com", "phone": "(425) 747-5731", "address": "1402 156th Ave NE"}, "geometry": {"type": "Point", "coordinates": [-122.132019, 47.6226501]}}, {"type": "Feature", "properties": {"id": 4129359890, "name": "Jimmy John's", "category": "fast_food", "tags": ["fast-food", "sandwich", "takeaway", "restaurant"], "sources": ["osm", "overture"], "website": "https://locations.jimmyjohns.com/wa/bellevue/sandwiches-1519.html", "phone": "+14259882781", "address": "15253 NE Bel Red Rd", "hours": "Mo-Su 11:00-15:00", "stations": [{"stopCode": 62, "lines": "2", "name": "Overlake Village Station", "walkingMeters": 1300, "walkingSeconds": 936, "band": 15}]}, "geometry": {"type": "Point", "coordinates": [-122.1351225, 47.6286168]}}, {"type": "Feature", "properties": {"id": "27a8968d-1387-436e-8539-784ae60e9996", "name": "Pho Than Brothers", "category": "restaurant", "tags": ["restaurant"], "sources": ["overture"], "website": "https://www.thanbrothers.com", "phone": "+14258184905", "address": "1299 156th Ave Ne Ste 133"}, "geometry": {"type": "Point", "coordinates": [-122.1329651, 47.621212]}}, {"type": "Feature", "properties": {"id": 457863515, "name": "Chipotle", "category": "fast_food", "tags": ["fast-food", "mexican", "takeaway", "wheelchair-accessible"], "sources": ["osm"], "website": "https://locations.chipotle.com/wa/bellevue/1328-156th-ave-ne", "phone": "+1-425-214-0011", "address": "1328 156th Avenue Northeast", "hours": "Mo-Su 10:45-22:00"}, "geometry": {"type": "Point", "coordinates": [-122.1318528, 47.6216076]}}, {"type": "Feature", "properties": {"id": 5338080770, "name": "Happy Lamb Hot Pot", "category": "restaurant", "tags": ["restaurant", "mongolian", "hotpot", "chinese"], "sources": ["osm", "overture"], "website": "http://www.littlesheephotpot.com/", "phone": "+14256531625", "address": "1411 156th Ave NE Ste A", "hours": "Mo-Th 11:30-23:00, Fr-Su 11:30-24:00"}, "geometry": {"type": "Point", "coordinates": [-122.133191, 47.6231735]}}, {"type": "Feature", "properties": {"id": 3413306866, "name": "Nai Brother Chinese Sauerkraut Fish", "category": "restaurant", "tags": ["restaurant", "chinese", "fish", "asian"], "sources": ["osm", "overture"], "website": "https://www.naibrotherbellevue.com/", "phone": "+14255027122", "address": "1299 156th Ave NE"}, "geometry": {"type": "Point", "coordinates": [-122.1331859, 47.6211273]}}, {"type": "Feature", "properties": {"id": 390292349, "name": "Ivar's Seafood Bar", "category": "restaurant", "tags": ["restaurant", "seafood"], "sources": ["osm", "overture"], "website": "https://www.ivars.com/bellevue-seafood-bar", "phone": "+14257476433", "address": "1505 156th Ave NE", "hours": "Mo-Su 11:00-21:00"}, "geometry": {"type": "Point", "coordinates": [-122.1327955, 47.6234508]}}, {"type": "Feature", "properties": {"id": 4535344160, "name": "Bawarchi Indian Restaurant", "category": "restaurant", "tags": ["restaurant", "indian", "takeaway"], "sources": ["osm"]}, "geometry": {"type": "Point", "coordinates": [-122.1331905, 47.6230867]}}, {"type": "Feature", "properties": {"id": "83538a20-228d-45c5-b0a2-744d7d7f67bb", "name": "Pizza Time", "category": "restaurant", "tags": ["restaurant", "pizza"], "sources": ["overture"], "website": "http://www.padrinospizzapasta.com/", "phone": "(425) 746-4911", "address": "15600 NE 8th St"}, "geometry": {"type": "Point", "coordinates": [-122.1317215, 47.6208115]}}, {"type": "Feature", "properties": {"id": 5338080771, "name": "Mr. Six", "category": "restaurant", "tags": ["restaurant", "chinese"], "sources": ["osm"]}, "geometry": {"type": "Point", "coordinates": [-122.1334538, 47.6230307]}}, {"type": "Feature", "properties": {"id": 30705181, "name": "Jack\u2019s BBQ", "category": "restaurant", "tags": ["restaurant", "barbecue"], "sources": ["osm"], "website": "https://jacksbbq.com/redmond/", "address": "2115 Bel-Red Road", "hours": "Mo-Th 07:00-21:00,Fr 07:00-22:00,Sa 10:00-22:00,Su 10:00-21:00", "stations": [{"stopCode": 62, "lines": "2", "name": "Overlake Village Station", "walkingMeters": 1109, "walkingSeconds": 798, "band": 15}]}, "geometry": {"type": "Point", "coordinates": [-122.1355734, 47.629305]}}, {"type": "Feature", "properties": {"id": 30705180, "name": "Can-Am Pizza", "category": "fast_food", "tags": ["fast-food", "pizza", "indoor-seating", "wheelchair-accessible", "air-conditioned", "restaurant"], "sources": ["osm", "overture"], "website": "canampizzaredmond.com", "phone": "14257477777", "address": "2125 Bel Red Rd", "hours": "Mo-Su 11:00-21:00", "stations": [{"stopCode": 62, "lines": "2", "name": "Overlake Village Station", "walkingMeters": 1160, "walkingSeconds": 835, "band": 15}]}, "geometry": {"type": "Point", "coordinates": [-122.1352976, 47.6295602]}}, {"type": "Feature", "properties": {"id": 6571035787, "name": "El Maestro del Taco", "category": "fast_food", "tags": ["fast-food", "mexican", "restaurant", "taco"], "sources": ["osm", "overture"], "phone": "+14252407708", "address": "1836 156th Ave NE", "hours": "Mo-Su 11:00-20:30"}, "geometry": {"type": "Point", "coordinates": [-122.1304706, 47.6271491]}}, {"type": "Feature", "properties": {"id": 9699105836, "name": "Just Tiffins", "category": "restaurant", "tags": ["restaurant", "indian", "vegetarian"], "sources": ["osm", "overture"], "website": "http://www.justtiffins.com", "phone": "14256330696", "address": "1424 156th Ave NE"}, "geometry": {"type": "Point", "coordinates": [-122.1321195, 47.6230523]}}, {"type": "Feature", "properties": {"id": 9699207854, "name": "Yomie's Rice & Yogurt", "category": "ice_cream", "tags": ["ice-cream", "frozen-yogurt"], "sources": ["osm"], "website": "https://yomiesbellevue.com", "phone": "+1-425-559-2628", "address": "1422 156th Avenue Northeast"}, "geometry": {"type": "Point", "coordinates": [-122.132117, 47.6229697]}}, {"type": "Feature", "properties": {"id": 11932404214, "name": "Ten Seconds Yunnan Rice Noodle", "category": "restaurant", "tags": ["restaurant", "chinese", "asian", "noodles"], "sources": ["osm", "overture"], "website": "http://www.tensecondsbellevue.com/", "phone": "+14256981633", "address": "1299 156th Ave NE", "hours": "Mo-Tu,Su 11:00-21:00; Fr-Sa 11:00-21:30"}, "geometry": {"type": "Point", "coordinates": [-122.1331886, 47.6212441]}}, {"type": "Feature", "properties": {"id": 29544556, "name": "Ruchi Indian Restaurant", "category": "restaurant", "tags": ["restaurant", "indian", "takeaway", "asian"], "sources": ["osm", "overture"], "website": "http://www.ruchiindianrestaurant.com/", "phone": "+14256254491", "address": "1360 156th Ave NE"}, "geometry": {"type": "Point", "coordinates": [-122.1320191, 47.6223264]}}, {"type": "Feature", "properties": {"id": 29653567, "name": "Dosa House", "category": "fast_food", "tags": ["fast-food", "indian", "vegetarian", "vegan", "child-friendly", "restaurant"], "sources": ["osm", "overture"], "website": "http://www.bellevuechaathouse.com/dosa-house.html", "phone": "+14259991248", "address": "15259 NE Bel Red Rd", "hours": "Mo-Su 11:30-21:45", "stations": [{"stopCode": 62, "lines": "2", "name": "Overlake Village Station", "walkingMeters": 1288, "walkingSeconds": 927, "band": 15}]}, "geometry": {"type": "Point", "coordinates": [-122.1355952, 47.6281896]}}, {"type": "Feature", "properties": {"id": 30455492, "name": "Sushi Me", "category": "restaurant", "tags": ["restaurant", "sushi", "wheelchair-accessible", "wifi", "japanese", "asian"], "sources": ["osm", "overture"], "website": "http://www.sushimebellevue.com", "phone": "+14256449800", "address": "1299 156th Ave NE"}, "geometry": {"type": "Point", "coordinates": [-122.1328105, 47.6214026]}}, {"type": "Feature", "properties": {"id": "f1ae1418-482e-48de-9fca-9d5c63f0dc3d", "name": "Kidd Valley", "category": "restaurant", "tags": ["restaurant", "burger"], "sources": ["overture"], "website": "http://kiddvalley.com", "phone": "(425) 643-4165", "address": "15259 Bel Red Rd", "stations": [{"stopCode": 62, "lines": "2", "name": "Overlake Village Station", "walkingMeters": 1280, "walkingSeconds": 921, "band": 15}]}, "geometry": {"type": "Point", "coordinates": [-122.1355972, 47.6282654]}}, {"type": "Feature", "properties": {"id": 390292342, "name": "Bento House", "category": "restaurant", "tags": ["restaurant"], "sources": ["osm"], "address": "15045 Bellevue Redmond Road", "stations": [{"stopCode": 62, "lines": "2", "name": "Overlake Village Station", "walkingMeters": 1238, "walkingSeconds": 904, "band": 15}]}, "geometry": {"type": "Point", "coordinates": [-122.1382977, 47.6272357]}}, {"type": "Feature", "properties": {"id": 457863527, "name": "Firenze Ristorante", "category": "restaurant", "tags": ["restaurant", "italian"], "sources": ["osm"]}, "geometry": {"type": "Point", "coordinates": [-122.130047, 47.6208046]}}, {"type": "Feature", "properties": {"id": 457863535, "name": "Mr. Huang Clay Pot Chicken Express", "category": "fast_food", "tags": ["fast-food"], "sources": ["osm"]}, "geometry": {"type": "Point", "coordinates": [-122.1318819, 47.6217227]}}, {"type": "Feature", "properties": {"id": 457863536, "name": "JINYA Ramen Bar", "category": "restaurant", "tags": ["restaurant", "ramen"], "sources": ["osm"], "website": "https://jinya-ramenbar.com/", "hours": "Mo-Su 11:00-22:00"}, "geometry": {"type": "Point", "coordinates": [-122.1304291, 47.6208067]}}, {"type": "Feature", "properties": {"id": 457863544, "name": "Banaras", "category": "restaurant", "tags": ["restaurant", "indian", "outdoor-seating", "reservations", "vegetarian", "pizza"], "sources": ["osm", "overture"], "website": "https://www.banarasbellevue.com/", "phone": "4255909281", "address": "15600 NE 8th St Suite O9, United States", "hours": "Mo-Su 11:30-15:00,17:30-22:00"}, "geometry": {"type": "Point", "coordinates": [-122.1305627, 47.6208036]}}, {"type": "Feature", "properties": {"id": "18150070-741e-4152-b7d2-07b70519b084", "name": "Chipotle Mexican Grill", "category": "restaurant", "tags": ["restaurant", "mexican", "taco", "texmex"], "sources": ["overture"], "website": "http://www.chipotle.com", "phone": "+14252140011", "address": "1328 156th Ave NE"}, "geometry": {"type": "Point", "coordinates": [-122.131958, 47.6216087]}}, {"type": "Feature", "properties": {"id": "8fbce7ce-5e01-4097-a949-174aa373230c", "name": "Taqueria Guaymas", "category": "restaurant", "tags": ["restaurant", "mexican"], "sources": ["overture"], "website": "http://www.taqueriaguaymas.bite2go.com", "phone": "(425) 378-9423", "address": "1360 156th Ave NE"}, "geometry": {"type": "Point", "coordinates": [-122.1321945, 47.6223373]}}, {"type": "Feature", "properties": {"id": "0fac2f41-7d40-43e4-9bf2-db8dfa110089", "name": "Saigon City", "category": "restaurant", "tags": ["restaurant", "vietnamese"], "sources": ["overture"], "website": "http://junglecity.com/", "phone": "(425) 401-0823", "address": "15045 Bel Red Rd", "stations": [{"stopCode": 62, "lines": "2", "name": "Overlake Village Station", "walkingMeters": 1234, "walkingSeconds": 900, "band": 15}]}, "geometry": {"type": "Point", "coordinates": [-122.1383286, 47.6272736]}}, {"type": "Feature", "properties": {"id": "ad67853e-c41b-46e6-8082-a9b3e3f3a1e7", "name": "Sukhothai Restaurant", "category": "restaurant", "tags": ["restaurant", "asian", "fusion", "seafood", "thai"], "sources": ["overture"], "website": "https://sukhothai-bellevue.com/menu/", "phone": "4254010823", "address": "15045 NE Bel Red Rd", "stations": [{"stopCode": 62, "lines": "2", "name": "Overlake Village Station", "walkingMeters": 1193, "walkingSeconds": 871, "band": 15}]}, "geometry": {"type": "Point", "coordinates": [-122.1381912, 47.6275024]}}, {"type": "Feature", "properties": {"id": "d3c7e640-6822-4246-8193-2900c4697a57", "name": "Dough Zone Dumpling Ho", "category": "restaurant", "tags": ["restaurant", "chinese", "asian"], "sources": ["overture"], "address": "1299 156th Ave NE"}, "geometry": {"type": "Point", "coordinates": [-122.132782, 47.6213989]}}, {"type": "Feature", "properties": {"id": "23ffc949-8468-43c8-8ee7-292bd0123356", "name": "Mayuri Indian Cuisine", "category": "restaurant", "tags": ["restaurant", "buffet", "asian"], "sources": ["overture"], "website": "http://www.mayuriindiancuisinewa.com/", "phone": "4256414442", "address": "2115 Bel Red Rd", "stations": [{"stopCode": 62, "lines": "2", "name": "Overlake Village Station", "walkingMeters": 1107, "walkingSeconds": 797, "band": 15}]}, "geometry": {"type": "Point", "coordinates": [-122.1355896, 47.6292992]}}, {"type": "Feature", "properties": {"id": "c7ed4a12-42bd-4fd2-a9bf-d06da1d68548", "name": "Jack's BBQ & Steakhouse", "category": "restaurant", "tags": ["restaurant", "barbecue", "american"], "sources": ["overture"], "website": "https://jacksbbq.com/", "phone": "+14252961950", "address": "2115 NE Bellevue Redmond Rd", "stations": [{"stopCode": 62, "lines": "2", "name": "Overlake Village Station", "walkingMeters": 1104, "walkingSeconds": 795, "band": 15}]}, "geometry": {"type": "Point", "coordinates": [-122.1356277, 47.6292839]}}, {"type": "Feature", "properties": {"id": "1b42bdc0-1220-46ac-a25a-8364dd3fc424", "name": "\u8001\u70ae\u513f\u4e32\u5427\uff01Yummy Chinese BBQ", "category": "restaurant", "tags": ["restaurant", "asian"], "sources": ["overture"], "website": "http://www.yummychinesebbq.com", "phone": "(425) 641-4888", "address": "1411 156th Ave NE Ste C"}, "geometry": {"type": "Point", "coordinates": [-122.1332474, 47.6231003]}}, {"type": "Feature", "properties": {"id": "dfc866f0-590c-4926-bd22-b90f7a65282b", "name": "Yoe's Noodles", "category": "restaurant", "tags": ["restaurant", "soup"], "sources": ["overture"], "website": "http://yoesnoodles.com", "phone": "(425) 643-8528", "address": "1411 156th Ave NE Ste C"}, "geometry": {"type": "Point", "coordinates": [-122.1332779, 47.6229782]}}, {"type": "Feature", "properties": {"id": "95615571-cad8-4948-8e38-1ed9b6d17d02", "name": "Tabrayzee Pizza & Bakery", "category": "restaurant", "tags": ["restaurant", "pizza"], "sources": ["overture"], "website": "http://tabrayzeepizza.com", "phone": "(425) 644-5458", "address": "1313 156th Ave NE Ste 215"}, "geometry": {"type": "Point", "coordinates": [-122.1329269, 47.6221008]}}, {"type": "Feature", "properties": {"id": "e24503c9-fa3b-48e5-8f95-33abfae1f09d", "name": "Virundhu Bawarchi Mandi", "category": "restaurant", "tags": ["restaurant", "indian", "fast-food"], "sources": ["overture"], "website": "http://bawarchibellevue.com", "phone": "+14256532440", "address": "1411 156th Ave NE"}, "geometry": {"type": "Point", "coordinates": [-122.1331558, 47.6230774]}}, {"type": "Feature", "properties": {"id": "bb7f5680-d1a4-48d8-92fa-b2bb1a1012bf", "name": "Food Times \u5c0f\u98df\u4ee3", "category": "restaurant", "tags": ["restaurant", "chinese"], "sources": ["overture"], "website": "http://www.foodtimesbellevue.com", "phone": "14259997345", "address": "1411 156th Ave Ne  Ste C"}, "geometry": {"type": "Point", "coordinates": [-122.1331711, 47.6230469]}}, {"type": "Feature", "properties": {"id": "2d57b33c-0d98-4087-af7f-e6de00da1d30", "name": "Off The Rails Sports Pub", "category": "bar", "tags": ["bar", "sports", "bar-and-grill"], "sources": ["overture"], "phone": "+14253261314", "address": "1428 156th Ave NE"}, "geometry": {"type": "Point", "coordinates": [-122.1317215, 47.6228867]}}, {"type": "Feature", "properties": {"id": "e3d7f2d6-4188-4c48-ad77-da4c8f3cca47", "name": "Udupi Palace", "category": "restaurant", "tags": ["restaurant", "indian"], "sources": ["overture"], "website": "http://www.udupipalace.net/", "phone": "(425) 649-0355", "address": "15600 NE 8th St"}, "geometry": {"type": "Point", "coordinates": [-122.1307755, 47.6205635]}}, {"type": "Feature", "properties": {"id": "386ce927-db8d-4911-87c7-6ba62f82093c", "name": "Modera Overlake", "category": "attraction", "tags": ["attraction", "landmark", "historical", "building"], "sources": ["overture"], "website": "https://www.moderaoverlake.com/?switch_cls%5Bid%5D=95046&utm_source=Facebook%2FInstagram&utm_medium=Community+Listing", "phone": "+14255046650", "address": "15350 NE Bel Red Rd", "stations": [{"stopCode": 62, "lines": "2", "name": "Overlake Village Station", "walkingMeters": 1095, "walkingSeconds": 788, "band": 15}]}, "geometry": {"type": "Point", "coordinates": [-122.1359863, 47.6288261]}}, {"type": "Feature", "properties": {"id": "e452be19-1508-44b4-affc-6b6e341afafd", "name": "Central Park east apartments", "category": "attraction", "tags": ["attraction", "landmark", "historical", "building"], "sources": ["overture"], "website": "https://www.centralparkeastapartments.net/", "phone": "+14257466909", "address": "15201 NE 16th Pl"}, "geometry": {"type": "Point", "coordinates": [-122.1367798, 47.6243019]}}, {"type": "Feature", "properties": {"id": "9f05dc04-75ce-4881-a356-556fe0bb5602", "name": "Cascadian Apartments", "category": "attraction", "tags": ["attraction", "landmark", "historical", "building"], "sources": ["overture"], "website": "http://alliedresidential.com/", "phone": "+14257473567", "address": "15517 NE 12th St"}, "geometry": {"type": "Point", "coordinates": [-122.1327362, 47.6204605]}}, {"type": "Feature", "properties": {"id": "b383b643-1d8c-4e9e-84cf-c999fa894e3f", "name": "Kendall Ridge", "category": "attraction", "tags": ["attraction", "landmark", "historical", "building"], "sources": ["overture"], "website": "https://www.kendallridgeapts.com/", "phone": "+14253293976", "address": "15301 NE 20th St"}, "geometry": {"type": "Point", "coordinates": [-122.134697, 47.6263428]}}, {"type": "Feature", "properties": {"id": "aa07d7cc-3d77-4349-adc9-58d8e696df60", "name": "Hyde Square Apartments", "category": "attraction", "tags": ["attraction", "landmark", "historical", "building"], "sources": ["overture"], "website": "https://www.hydesquare.com", "phone": "+14256992241", "address": "2030 155th Pl NE"}, "geometry": {"type": "Point", "coordinates": [-122.1336441, 47.6283302]}}, {"type": "Feature", "properties": {"id": "33f8eb2f-e073-43c7-a57f-5b2aa808a52d", "name": "Vue 22 Apartments", "category": "attraction", "tags": ["attraction", "landmark", "historical", "building"], "sources": ["overture"], "website": "https://www.vue22apts.com/", "phone": "+14253827718", "address": "2170 NE Bel Red Rd", "stations": [{"stopCode": 62, "lines": "2", "name": "Overlake Village Station", "walkingMeters": 1166, "walkingSeconds": 840, "band": 15}]}, "geometry": {"type": "Point", "coordinates": [-122.1337204, 47.6297607]}}, {"type": "Feature", "properties": {"id": "0b427232-74f4-4766-b782-d298a6498757", "name": "Colonial Square Apartment Homes", "category": "attraction", "tags": ["attraction", "landmark", "historical", "building"], "sources": ["overture"], "website": "https://washington.weidner.com/apartments/wa/bellevue/colonial-square-3/index.aspx?rcstdid=MTE%3D-aKFOxiSL8lQ%3D", "phone": "+14252564042", "address": "1616 156th Ave NE"}, "geometry": {"type": "Point", "coordinates": [-122.1318588, 47.6246452]}}, {"type": "Feature", "properties": {"id": "6072bbbe-8d3d-4f5a-9ca9-30575cf41db3", "name": "Casa Hermosa", "category": "attraction", "tags": ["attraction", "landmark", "historical", "building"], "sources": ["overture"], "address": "15705 NE 18th St"}, "geometry": {"type": "Point", "coordinates": [-122.1306992, 47.6260223]}}, {"type": "Feature", "properties": {"id": 1187060874, "name": "Overlake Park Presbyterian Church Community Garden", "category": "garden", "tags": ["garden"], "sources": ["osm"]}, "geometry": {"type": "Point", "coordinates": [-122.1309171, 47.6269037]}}, {"type": "Feature", "properties": {"id": "f6d59d59-855d-4b59-bab3-ba2c0e299ea4", "name": "Silver Cloud Inn Redmond", "category": "hotel", "tags": ["hotel", "resort"], "sources": ["overture"], "website": "http://www.silvercloud.com/redmond/", "phone": "4257468200", "address": "2122 152nd Ave NE", "stations": [{"stopCode": 62, "lines": "2", "name": "Overlake Village Station", "walkingMeters": 983, "walkingSeconds": 708, "band": 15}]}, "geometry": {"type": "Point", "coordinates": [-122.1372833, 47.6292801]}}, {"type": "Feature", "properties": {"id": 161888054, "name": "QFC", "category": "supermarket", "tags": ["supermarket"], "sources": ["osm", "overture"], "website": "https://www.qfc.com/", "phone": "+14258650282", "address": "15600 NE 8th St Ste K1", "hours": "Mo-Su 05:00-01:00"}, "geometry": {"type": "Point", "coordinates": [-122.1308719, 47.6200837]}}, {"type": "Feature", "properties": {"id": "08d0c365-cb09-44ed-b7b3-3f3eecb36b98", "name": "Metro by T-Mobile", "category": "mobile_phone", "tags": ["mobile-phone", "mobile"], "sources": ["overture"], "website": "https://www.metrobyt-mobile.com/stores/bd/metro-by-t-mobile-bellevue-wa-10231823/?utm_source=facebook&utm_medium=lastmile&utm_campaign=33982", "phone": "+14254293661", "address": "1313 156th Ave NE"}, "geometry": {"type": "Point", "coordinates": [-122.1328659, 47.6221504]}}, {"type": "Feature", "properties": {"id": 31756381, "name": "Dollar Tree", "category": "variety_store", "tags": ["variety-store", "wheelchair-accessible", "discount"], "sources": ["osm", "overture"], "website": "https://locations.dollartree.com/wa/redmond/2209-bel-red-rd", "phone": "+14252857383", "address": "2209 Bel Red Rd", "hours": "Mo-Sa 09:00-22:00; Su 10:00-21:00", "stations": [{"stopCode": 62, "lines": "2", "name": "Overlake Village Station", "walkingMeters": 1088, "walkingSeconds": 783, "band": 15}]}, "geometry": {"type": "Point", "coordinates": [-122.1351437, 47.6298535]}}, {"type": "Feature", "properties": {"id": 161888056, "name": "Dick's Sporting Goods", "category": "sports", "tags": ["sports"], "sources": ["osm"], "website": "https://stores.dickssportinggoods.com/wa/bellevue/1331/", "phone": "+1-425-274-1587", "address": "15600 Northeast 8th Street", "hours": "Mo-Sa 09:00-21:00; Su 10:00-19:00"}, "geometry": {"type": "Point", "coordinates": [-122.131077, 47.6216221]}}, {"type": "Feature", "properties": {"id": 9647876770, "name": "Stop & Shop", "category": "deli", "tags": ["deli"], "sources": ["osm"], "phone": "+1-425-641-0818", "address": "1313 156th Avenue Northeast", "hours": "Mo-Fr 10:00-18:00; Sa 10:00-15:00"}, "geometry": {"type": "Point", "coordinates": [-122.133067, 47.6217706]}}, {"type": "Feature", "properties": {"id": 12046346543, "name": "Bridal Palace", "category": "clothes", "tags": ["clothes"], "sources": ["osm"], "website": "https://www.bridalpalacebellevue.com/", "address": "1413 156th Avenue Northeast"}, "geometry": {"type": "Point", "coordinates": [-122.1329122, 47.6218257]}}, {"type": "Feature", "properties": {"id": "13a25501-d453-465d-b638-0809c006e960", "name": "Quality Food Center", "category": "supermarket", "tags": ["supermarket"], "sources": ["overture"], "website": "https://www.qfc.com/stores/grocery/wa/bellevue/crossroads/705/00826", "address": "15600 NE 8th St Ste K1"}, "geometry": {"type": "Point", "coordinates": [-122.1308823, 47.6202011]}}, {"type": "Feature", "properties": {"id": "50b1f3e3-9559-4c6d-b3ee-0764913ac1d6", "name": "Verizon Authorized Retailer \u2014 Cellular Sales", "category": "mobile_phone", "tags": ["mobile-phone", "mobile"], "sources": ["overture"], "website": "https://www.cellularsales.com/stores/verizon-1299-156th-ave-ne-bellevue-wa-98007/", "phone": "4255317129", "address": "1299 156th Ave NE Ste 100"}, "geometry": {"type": "Point", "coordinates": [-122.1326904, 47.6213951]}}, {"type": "Feature", "properties": {"id": "a5c20ddb-14df-430c-be8d-f797a74f5bdb", "name": "Stop & Shop European Deli", "category": "deli", "tags": ["deli", "delicatessen"], "sources": ["overture"], "website": "https://stopandshop.com/", "phone": "+14256410818", "address": "1313 156th Ave NE"}, "geometry": {"type": "Point", "coordinates": [-122.1330795, 47.621769]}}, {"type": "Feature", "properties": {"id": "4c077ca6-a603-4f9b-af84-00d8b8e063f8", "name": "Furniture Center", "category": "furniture", "tags": ["furniture"], "sources": ["overture"], "website": "https://www.furniturefd.com", "phone": "+14256913358", "address": "2207 NE Bellevue Redmond Rd", "stations": [{"stopCode": 62, "lines": "2", "name": "Overlake Village Station", "walkingMeters": 1014, "walkingSeconds": 730, "band": 15}]}, "geometry": {"type": "Point", "coordinates": [-122.1353226, 47.6299629]}}, {"type": "Feature", "properties": {"id": "cb3684f9-5ec2-453c-bb9d-1b0a45f6dc8b", "name": "Northwest Trading & Spice Company, Inc", "category": "supermarket", "tags": ["supermarket"], "sources": ["overture"], "address": "1313 156th Ave Ne Ste 215"}, "geometry": {"type": "Point", "coordinates": [-122.1329193, 47.622097]}}, {"type": "Feature", "properties": {"id": "d65f2c96-ceee-4f51-9880-9f203f5ee096", "name": "International Food Bazaar Grocers", "category": "supermarket", "tags": ["supermarket"], "sources": ["overture"], "website": "http://www.ifoodbazaar.com", "address": "1313 156th Ave NE"}, "geometry": {"type": "Point", "coordinates": [-122.1329193, 47.622097]}}, {"type": "Feature", "properties": {"id": "e201d75f-7e14-430c-ae86-d0b9ec8b2a8b", "name": "Big Bazaar Bellevue", "category": "supermarket", "tags": ["supermarket"], "sources": ["overture"], "website": "http://BawarchiBellevue.com/", "phone": "+14256368124", "address": "1411 156th Ave NE"}, "geometry": {"type": "Point", "coordinates": [-122.1332245, 47.6231651]}}, {"type": "Feature", "properties": {"id": "bfe41551-65cd-42cc-8b3a-dbea3e1dc4ae", "name": "International Food Corner", "category": "convenience", "tags": ["convenience"], "sources": ["overture"], "website": "http://www.mygyro.net", "phone": "(425) 562-4800", "address": "1424 156th Ave NE"}, "geometry": {"type": "Point", "coordinates": [-122.1320343, 47.6230583]}}, {"type": "Feature", "properties": {"id": "cd9d49ac-5f31-4140-b78a-bb29d3e5ee24", "name": "Purified Water To Go", "category": "supermarket", "tags": ["supermarket"], "sources": ["overture"], "website": "http://www.watertogo.com", "phone": "(425) 957-3507", "address": "15600 NE 8th St"}, "geometry": {"type": "Point", "coordinates": [-122.1317215, 47.6208115]}}, {"type": "Feature", "properties": {"id": 3926543579, "name": "Pharmacy Plus", "category": "pharmacy", "tags": ["pharmacy"], "sources": ["osm", "overture"], "website": "http://pharmacyplus.net", "phone": "+14256448887", "address": "1299 156th Ave NE Ste 140", "hours": "Mo-Fr 09:00-18:00; Sa 10:00-15:00"}, "geometry": {"type": "Point", "coordinates": [-122.1331216, 47.62145]}}, {"type": "Feature", "properties": {"id": 332158219, "name": "Qualstar Credit Union", "category": "bank", "tags": ["bank"], "sources": ["osm"], "website": "https://www.qualstarcu.com/", "stations": [{"stopCode": 62, "lines": "2", "name": "Overlake Village Station", "walkingMeters": 1029, "walkingSeconds": 745, "band": 15}]}, "geometry": {"type": "Point", "coordinates": [-122.138681, 47.6291156]}}, {"type": "Feature", "properties": {"id": 457863570, "name": "U.S. Bank", "category": "bank", "tags": ["bank", "wheelchair-accessible"], "sources": ["osm"], "website": "https://www.usbank.com/", "address": "1128 156th Avenue Northeast", "hours": "Mo-Fr 10:00-18:00; Sa 10:00-13:00; Su off"}, "geometry": {"type": "Point", "coordinates": [-122.1317374, 47.6208369]}}, {"type": "Feature", "properties": {"id": 30454909, "name": "Wells Fargo", "category": "bank", "tags": ["bank"], "sources": ["osm"], "address": "2201 156th Avenue Northeast"}, "geometry": {"type": "Point", "coordinates": [-122.1328419, 47.6293683]}}, {"type": "Feature", "properties": {"id": 390292334, "name": "Chase", "category": "bank", "tags": ["bank"], "sources": ["osm"], "website": "https://locator.chase.com/wa/bellevue/1955-156th-ave-ne", "phone": "+1-425-590-4010", "address": "1955 156th Avenue Northeast", "hours": "Mo-Fr 09:00-17:00; Sa 09:00-13:00; Su closed"}, "geometry": {"type": "Point", "coordinates": [-122.1331982, 47.6274924]}}, {"type": "Feature", "properties": {"id": 457863514, "name": "1st Security Bank", "category": "bank", "tags": ["bank"], "sources": ["osm"], "address": "1320 156th Avenue Northeast"}, "geometry": {"type": "Point", "coordinates": [-122.1318543, 47.6214764]}}, {"type": "Feature", "properties": {"id": "a2177593-954b-4f55-9da6-57753890353f", "name": "First Tech Federal Credit Union", "category": "bank", "tags": ["bank", "credit", "union"], "sources": ["overture"], "website": "http://www.firsttechcu.com", "phone": "+18558558805", "address": "2105 156th Ave NE"}, "geometry": {"type": "Point", "coordinates": [-122.1327591, 47.6288643]}}, {"type": "Feature", "properties": {"id": "23ebdd89-219f-462b-9fed-7521f121f76f", "name": "Wells Fargo Advisors", "category": "bank", "tags": ["bank", "credit", "union"], "sources": ["overture"], "phone": "4254010076", "address": "2201 156TH AVE NE"}, "geometry": {"type": "Point", "coordinates": [-122.1328278, 47.6293678]}}, {"type": "Feature", "properties": {"id": 31756386, "name": "K1 Speed", "category": "sports_centre", "tags": ["sports-centre", "karting", "wheelchair-accessible"], "sources": ["osm"], "address": "2207 Bel-Red Road", "stations": [{"stopCode": 62, "lines": "2", "name": "Overlake Village Station", "walkingMeters": 1008, "walkingSeconds": 726, "band": 15}]}, "geometry": {"type": "Point", "coordinates": [-122.1355045, 47.6299151]}}]}