{"type": "FeatureCollection", "features": [{"type": "Feature", "properties": {"id": "32799da6-695a-4d9d-8da0-253f8314c7a4", "name": "Auburn Environmental Park", "category": "park", "tags": ["park"], "sources": ["overture"], "website": "http://www.auburnwa.gov/things_to_do/parks_trails/aep.htm", "phone": "+12539313043", "address": "413 Western St NW"}, "geometry": {"type": "Point", "coordinates": [-122.2448349, 47.3111992]}}, {"type": "Feature", "properties": {"id": "66227a50-f86e-4c7a-93ca-5a3dd63ea140", "name": "Auburn Wetlands Boardwalk Trail", "category": "park", "tags": ["park"], "sources": ["overture"]}, "geometry": {"type": "Point", "coordinates": [-122.244339, 47.3100891]}}, {"type": "Feature", "properties": {"id": "1453fcc7-c287-4408-9b25-df2141fcc4e6", "name": "Industrial Bolt & Supply", "category": "hardware", "tags": ["hardware"], "sources": ["overture"], "website": "http://www.industrialbolt.com/", "phone": "+12538048666", "address": "740 Clay St NW"}, "geometry": {"type": "Point", "coordinates": [-122.2401352, 47.3147545]}}]}