{"type": "FeatureCollection", "features": [{"type": "Feature", "properties": {"id": "e3e4e032-b099-4646-95f6-372038b152a0", "name": "Starbucks", "category": "cafe", "tags": ["cafe", "coffee"], "sources": ["overture"], "website": "http://www.starbucks.com/", "phone": "(206) 524-6122", "address": "10002 Aurora Avenue North"}, "geometry": {"type": "Point", "coordinates": [-122.3439407, 47.7023582]}}, {"type": "Feature", "properties": {"id": 2328717562, "name": "Manna Teriyaki", "category": "restaurant", "tags": ["restaurant", "japanese", "teriyaki"], "sources": ["osm"], "phone": "+1-206-527-5542", "address": "9831 Aurora Avenue North", "hours": "Mo-Sa 11:00-20:00"}, "geometry": {"type": "Point", "coordinates": [-122.3450912, 47.7007994]}}, {"type": "Feature", "properties": {"id": 1733419949, "name": "Good Guys Pizza", "category": "restaurant", "tags": ["restaurant", "pizza"], "sources": ["osm"]}, "geometry": {"type": "Point", "coordinates": [-122.3443954, 47.7041271]}}, {"type": "Feature", "properties": {"id": 1733419951, "name": "IHOP", "category": "restaurant", "tags": ["restaurant", "breakfast", "pancake", "breakfast-and-brunch", "brunch", "american", "theme"], "sources": ["osm", "overture"], "website": "http://www.ihop.com/", "phone": "+12065174467", "address": "10002 Aurora Ave N", "hours": "Su-Th 06:00-22:00; Fr-Sa 06:00-24:00"}, "geometry": {"type": "Point", "coordinates": [-122.344387, 47.7023384]}}, {"type": "Feature", "properties": {"id": 222586372, "name": "Burgermaster", "category": "fast_food", "tags": ["fast-food", "burger", "takeaway", "wheelchair-accessible", "restaurant", "american"], "sources": ["osm", "overture"], "website": "http://www.burgermaster.biz/", "phone": "+12065222044", "address": "9820 Aurora Ave N", "hours": "Su-Th 11:00-23:00; Fr-Sa 11:00-24:00"}, "geometry": {"type": "Point", "coordinates": [-122.3442879, 47.7011364]}}, {"type": "Feature", "properties": {"id": 2328651086, "name": "Emerald City Smoothie", "category": "fast_food", "tags": ["fast-food", "juice"], "sources": ["osm"], "address": "9881 Aurora Avenue North"}, "geometry": {"type": "Point", "coordinates": [-122.3450908, 47.7010524]}}, {"type": "Feature", "properties": {"id": 2409358401, "name": "Wingstop", "category": "fast_food", "tags": ["fast-food", "wings", "takeaway", "restaurant", "chicken", "american"], "sources": ["osm", "overture"], "website": "https://www.wingstop.com/location/wingstop-1258-seattle-wa-98133/menu?y_source=1_NTUyMDc4NzMtNTU5LWxvY2F0aW9uLndlYnNpdGU%3D", "phone": "+12063279611", "address": "10002 Aurora Ave N. Ste 42", "hours": "Su-Th 10:30-23:00; Fr-Sa 10:30-24:00"}, "geometry": {"type": "Point", "coordinates": [-122.34385, 47.7020853]}}, {"type": "Feature", "properties": {"id": 2409358408, "name": "Mandarin Gate", "category": "restaurant", "tags": ["restaurant", "chinese"], "sources": ["osm"], "website": "https://www.seattlemandaringate.com/", "phone": "+1-206-527-0709", "address": "10000 Aurora Avenue North", "hours": "12:00-21:00"}, "geometry": {"type": "Point", "coordinates": [-122.343802, 47.7016442]}}, {"type": "Feature", "properties": {"id": "1b69dfaf-97b4-4250-a8c9-253a0fc7dd99", "name": "Peet's Coffee", "category": "cafe", "tags": ["cafe", "coffee"], "sources": ["overture"], "website": "http://www.peets.com", "phone": "(206) 526-7930", "address": "10008 Aurora Ave N"}, "geometry": {"type": "Point", "coordinates": [-122.3424301, 47.7026482]}}, {"type": "Feature", "properties": {"id": 8340397764, "name": "Pilgrim Coffeehouse", "category": "cafe", "tags": ["cafe", "coffee-shop", "outdoor-seating", "indoor-seating", "takeaway", "coffee"], "sources": ["osm", "overture"], "website": "http://www.pilgrimcoffeehouse.com/", "phone": "+14253954982", "address": "10002 Aurora Ave N #22", "hours": "Mo-Sa 06:00-18:00"}, "geometry": {"type": "Point", "coordinates": [-122.343832, 47.7023319]}}, {"type": "Feature", "properties": {"id": 8977634619, "name": "Beni", "category": "restaurant", "tags": ["restaurant", "pizza", "pho", "pasta", "indoor-seating", "takeaway"], "sources": ["osm"], "phone": "+1-206-708-7625", "address": "10325 Aurora Avenue North"}, "geometry": {"type": "Point", "coordinates": [-122.3448897, 47.7041183]}}, {"type": "Feature", "properties": {"id": 224052028, "name": "China Dragon", "category": "restaurant", "tags": ["restaurant", "chinese"], "sources": ["osm", "overture"], "website": "http://www.lachinadragon.com", "phone": "(206) 524-5525", "address": "10119 Aurora Ave N"}, "geometry": {"type": "Point", "coordinates": [-122.3449526, 47.702686]}}, {"type": "Feature", "properties": {"id": 605062382, "name": "LadyBug Bikini Espresso", "category": "cafe", "tags": ["cafe", "coffee-shop", "takeaway"], "sources": ["osm"], "website": "https://ladybugbikiniespresso.com", "address": "10733 Aurora Avenue North"}, "geometry": {"type": "Point", "coordinates": [-122.3450403, 47.7075897]}}, {"type": "Feature", "properties": {"id": "7c345bb1-0edb-4670-bda2-d1f3ae9d9b4a", "name": "Pardon My Cheesesteak", "category": "restaurant", "tags": ["restaurant"], "sources": ["overture"], "phone": "8884440934", "address": "10002 Aurora Ave N Ste 2"}, "geometry": {"type": "Point", "coordinates": [-122.3436813, 47.7022324]}}, {"type": "Feature", "properties": {"id": "be996676-1923-4792-b20b-6c7631629e0e", "name": "Tenderfix By Noah Schnapp", "category": "fast_food", "tags": ["fast-food", "fast", "food"], "sources": ["overture"], "website": "https://www.tenderfix.com", "phone": "+18884135074", "address": "10002 Aurora Ave N"}, "geometry": {"type": "Point", "coordinates": [-122.3440475, 47.7022247]}}, {"type": "Feature", "properties": {"id": "27a7020d-d287-4378-8fb2-bc83d5ccb55e", "name": "Anita's Mexican Food", "category": "restaurant", "tags": ["restaurant", "mexican", "taco"], "sources": ["overture"], "website": "http://ANITASMEXIFOOD.COM/", "phone": "+12063640144", "address": "10735 aurora Avenida north"}, "geometry": {"type": "Point", "coordinates": [-122.3452988, 47.7077332]}}, {"type": "Feature", "properties": {"id": "b13fb1f5-4e7a-4c79-8fa4-3b8c7abcb080", "name": "Anita's Mexican Food", "category": "restaurant", "tags": ["restaurant", "mexican"], "sources": ["overture"], "website": "http://anitasmexifood.com/", "phone": "+12063640144", "address": "12245 Aurora Ave N"}, "geometry": {"type": "Point", "coordinates": [-122.3450546, 47.7030182]}}, {"type": "Feature", "properties": {"id": "90481bbb-2332-401a-aab9-6dfc11a519d9", "name": "Chickalatte Aurora", "category": "cafe", "tags": ["cafe", "coffee", "fast-food"], "sources": ["overture"], "website": "http://www.chickalatte.com", "phone": "+12064170778", "address": "10836 Aurora Ave N"}, "geometry": {"type": "Point", "coordinates": [-122.3452606, 47.707695]}}, {"type": "Feature", "properties": {"id": "7a56d408-7242-4be8-b489-5ae3e9fd7ab3", "name": "The Living Room Cafe", "category": "cafe", "tags": ["cafe", "coffee"], "sources": ["overture"], "website": "http://LR-Cafe.com/", "phone": "+12066514451", "address": "1008 N 109th St"}, "geometry": {"type": "Point", "coordinates": [-122.345459, 47.7082062]}}, {"type": "Feature", "properties": {"id": "5b224c33-1574-4279-9f66-2ea7184725f4", "name": "Twins Garden Asian Restaurant", "category": "restaurant", "tags": ["restaurant", "asian"], "sources": ["overture"], "website": "http://tgrestaurant.com", "phone": "(206) 729-2088", "address": "10007 Aurora Ave N"}, "geometry": {"type": "Point", "coordinates": [-122.344986, 47.70158]}}, {"type": "Feature", "properties": {"id": "f48847f9-8679-4824-8d0e-182d6dbf5c2d", "name": "Manna Deli Teriyaki", "category": "restaurant", "tags": ["restaurant", "japanese", "asian", "sushi"], "sources": ["overture"], "website": "https://manna-deli-teriyaki.hub.biz", "phone": "+12065275542", "address": "9831 Aurora Ave N"}, "geometry": {"type": "Point", "coordinates": [-122.344986, 47.7007446]}}, {"type": "Feature", "properties": {"id": "53f498fd-1f49-40b3-b298-27685c905d27", "name": "The Vibe Pub & Grill", "category": "bar", "tags": ["bar", "sports", "bar-and-grill"], "sources": ["overture"], "website": "https://thevibepubandgrill.in/", "phone": "+12064925270", "address": "10000 Aurora Ave N"}, "geometry": {"type": "Point", "coordinates": [-122.3439713, 47.7016716]}}, {"type": "Feature", "properties": {"id": "33393aea-694c-4ec0-9b46-cd209bea490d", "name": "Oak Tree Teriyaki", "category": "restaurant", "tags": ["restaurant", "sushi", "japanese"], "sources": ["overture"], "website": "http://www.oaktreefamilydentistry.com", "phone": "+12065256744", "address": "10002 Aurora Ave N"}, "geometry": {"type": "Point", "coordinates": [-122.3440323, 47.7020454]}}, {"type": "Feature", "properties": {"id": "3077dc6d-a439-4afd-aeb5-7df354cd8143", "name": "Little Amazon Fish & Pets", "category": "restaurant", "tags": ["restaurant"], "sources": ["overture"], "website": "https://www.littleamazonfishandpets.com", "address": "10316 Aurora Ave N"}, "geometry": {"type": "Point", "coordinates": [-122.3442688, 47.7038307]}}, {"type": "Feature", "properties": {"id": "e98e8599-2876-48cf-92ce-2d1ca7480231", "name": "Little Amazon Corp", "category": "restaurant", "tags": ["restaurant"], "sources": ["overture"], "website": "https://www.littleamazonfishandpets.com", "address": "10316 Aurora Ave N"}, "geometry": {"type": "Point", "coordinates": [-122.3442688, 47.7038307]}}, {"type": "Feature", "properties": {"id": "5d63bb60-fb6a-4d02-8a2e-f0d354c52fff", "name": "Lucky Pizza", "category": "restaurant", "tags": ["restaurant", "pizza"], "sources": ["overture"], "website": "https://www.luckypizzawa.com/?utm_source=bing&utm_medium=websiteurl&utm_campaign=search", "phone": "2065286161", "address": "10330 AURORA Ave"}, "geometry": {"type": "Point", "coordinates": [-122.3443527, 47.7041702]}}, {"type": "Feature", "properties": {"id": "86adaff1-a815-4006-85ab-e75f477eb2a5", "name": "The Pattaya Bay Thai", "category": "restaurant", "tags": ["restaurant", "thai"], "sources": ["overture"], "website": "https://www.pattayabayseattle.com", "phone": "(206) 291-3737", "address": "10008 Aurora Ave N"}, "geometry": {"type": "Point", "coordinates": [-122.3424301, 47.7026482]}}, {"type": "Feature", "properties": {"id": "7ab71de8-d9b7-4c16-b3c2-eec6a1a8a1f9", "name": "Shandong Bao House", "category": "restaurant", "tags": ["restaurant"], "sources": ["overture"], "website": "https://www.shandongbaohouse.com/", "address": "10008 Aurora Ave N Ste B"}, "geometry": {"type": "Point", "coordinates": [-122.3425522, 47.7026253]}}, {"type": "Feature", "properties": {"id": "b3197e72-e785-43da-b14b-58fbbbf2abdb", "name": "Argonaut Kitchen Llc", "category": "restaurant", "tags": ["restaurant"], "sources": ["overture"], "website": "https://www.argonautkitchen.com", "address": "10008 Aurora Ave N"}, "geometry": {"type": "Point", "coordinates": [-122.3432999, 47.7023544]}}, {"type": "Feature", "properties": {"id": "faf9a373-90f9-48c8-a683-fdb65c11a149", "name": "Pilgrim Coffeehouse Llc", "category": "restaurant", "tags": ["restaurant"], "sources": ["overture"], "website": "https://pilgrimcoffeehouse.com", "address": "10510 Stone Ave N"}, "geometry": {"type": "Point", "coordinates": [-122.3416214, 47.7053261]}}, {"type": "Feature", "properties": {"id": 3211770319, "name": "Light Bulb Bench", "category": "artwork", "tags": ["artwork"], "sources": ["osm"]}, "geometry": {"type": "Point", "coordinates": [-122.341833, 47.700383]}}, {"type": "Feature", "properties": {"id": 3211770329, "name": "The American Doughboy Bringing Home Victory", "category": "artwork", "tags": ["artwork"], "sources": ["osm"]}, "geometry": {"type": "Point", "coordinates": [-122.3429933, 47.7096261]}}, {"type": "Feature", "properties": {"id": "760cc3b6-8b20-4aec-b67f-11bafa1b102d", "name": "Pacific Science Center", "category": "museum", "tags": ["museum"], "sources": ["overture"], "phone": "+12063069359", "address": "10713 Aurora Ave N"}, "geometry": {"type": "Point", "coordinates": [-122.345253, 47.706974]}}, {"type": "Feature", "properties": {"id": "ee441517-e3b4-4e1c-b46c-634fc6e497fa", "name": "Oak Tree", "category": "attraction", "tags": ["attraction", "landmark", "historical", "building"], "sources": ["overture"], "phone": "+12067822339", "address": "922 N 104th St"}, "geometry": {"type": "Point", "coordinates": [-122.3464279, 47.7044296]}}, {"type": "Feature", "properties": {"id": "cfe3d21f-72d5-4930-b853-9e6b0ed0e860", "name": "Spencer House Apartments", "category": "attraction", "tags": ["attraction", "landmark", "historical", "building"], "sources": ["overture"], "phone": "+12063629021", "address": "10541 Stone Ave N #107"}, "geometry": {"type": "Point", "coordinates": [-122.3422546, 47.7062759]}}, {"type": "Feature", "properties": {"id": 2293053954, "name": "ampm", "category": "convenience", "tags": ["convenience"], "sources": ["osm", "overture"], "website": "https://www.ampm.com/", "phone": "+12065241417", "address": "10504 Aurora Ave N"}, "geometry": {"type": "Point", "coordinates": [-122.3442477, 47.7054011]}}, {"type": "Feature", "properties": {"id": 2328510137, "name": "Tienda Latina El Amiguito", "category": "supermarket", "tags": ["supermarket"], "sources": ["osm", "overture"], "website": "https://g.co/kgs/ckaS5M", "phone": "+12069069597", "address": "10109 Aurora Ave N"}, "geometry": {"type": "Point", "coordinates": [-122.3449084, 47.7024734]}}, {"type": "Feature", "properties": {"id": 2328651081, "name": "Cigarette Lotto / Beer, Wine, Snacks", "category": "tobacco", "tags": ["tobacco"], "sources": ["osm"], "address": "9861 Aurora Avenue North"}, "geometry": {"type": "Point", "coordinates": [-122.3450919, 47.7009616]}}, {"type": "Feature", "properties": {"id": 2328717578, "name": "Drac's", "category": "clothes", "tags": ["clothes"], "sources": ["osm"], "website": "http://dracsseattle.com/", "phone": "+1-206-258-4901", "address": "9911 Aurora Avenue North"}, "geometry": {"type": "Point", "coordinates": [-122.345095, 47.7012038]}}, {"type": "Feature", "properties": {"id": 2409358397, "name": "Mary Catherine's", "category": "clothes", "tags": ["clothes"], "sources": ["osm"], "website": "https://marycatherines.com/", "phone": "+1-206-322-1128", "address": "10002 Aurora Avenue North"}, "geometry": {"type": "Point", "coordinates": [-122.344105, 47.7023373]}}, {"type": "Feature", "properties": {"id": 2409358398, "name": "Cricket Wireless", "category": "mobile_phone", "tags": ["mobile-phone"], "sources": ["osm"], "website": "https://www.cricketwireless.com/stores/ll/US/WA/Seattle/10002-Aurora-Ave", "phone": "+1-206-420-8640", "address": "10002 Aurora Avenue North", "hours": "Mo-Sa 11:00-19:00; Su 12:00-17:00"}, "geometry": {"type": "Point", "coordinates": [-122.34428, 47.7023369]}}, {"type": "Feature", "properties": {"id": 2462238543, "name": "Zoom Room", "category": "pet", "tags": ["pet"], "sources": ["osm"], "website": "https://zoomroom.com/location/seattle/", "phone": "+1-206-486-2104", "address": "10004 Aurora Avenue North", "hours": "Mo-Fr 10:00-20:00; Sa-Su 09:00-20:00"}, "geometry": {"type": "Point", "coordinates": [-122.344066, 47.7029797]}}, {"type": "Feature", "properties": {"id": 4755655112, "name": "Little Amazon", "category": "pet", "tags": ["pet"], "sources": ["osm"], "website": "https://www.littleamazonfishandpets.com/"}, "geometry": {"type": "Point", "coordinates": [-122.3443919, 47.7037106]}}, {"type": "Feature", "properties": {"id": 4755661062, "name": "Easy Smoke & Market", "category": "tobacco", "tags": ["tobacco"], "sources": ["osm"]}, "geometry": {"type": "Point", "coordinates": [-122.3449042, 47.7042052]}}, {"type": "Feature", "properties": {"id": 4755665913, "name": "North Park Grocercy", "category": "convenience", "tags": ["convenience"], "sources": ["osm"]}, "geometry": {"type": "Point", "coordinates": [-122.3444064, 47.7041731]}}, {"type": "Feature", "properties": {"id": 8977634618, "name": "Baker\u00e9\u00e9 North", "category": "cannabis", "tags": ["cannabis"], "sources": ["osm"]}, "geometry": {"type": "Point", "coordinates": [-122.3443879, 47.7040294]}}, {"type": "Feature", "properties": {"id": 9583921597, "name": "Torch Vape Smoke Shop", "category": "tobacco", "tags": ["tobacco"], "sources": ["osm"], "address": "10000 Aurora Avenue North"}, "geometry": {"type": "Point", "coordinates": [-122.3440283, 47.7016534]}}, {"type": "Feature", "properties": {"id": 222586167, "name": "Saar's Super Saver Foods", "category": "supermarket", "tags": ["supermarket"], "sources": ["osm"], "address": "10008 Aurora Avenue North"}, "geometry": {"type": "Point", "coordinates": [-122.342506, 47.7027001]}}, {"type": "Feature", "properties": {"id": 219058085, "name": "The Rose Corner", "category": "florist", "tags": ["florist"], "sources": ["osm"], "address": "10901 Aurora Avenue North"}, "geometry": {"type": "Point", "coordinates": [-122.3450693, 47.7082038]}}, {"type": "Feature", "properties": {"id": 220178638, "name": "Ocean Greens", "category": "cannabis", "tags": ["cannabis"], "sources": ["osm", "overture"], "website": "https://www.oceangreensseattle.com", "phone": "12064207735", "address": "10526 Aurora Ave N"}, "geometry": {"type": "Point", "coordinates": [-122.3442736, 47.7059637]}}, {"type": "Feature", "properties": {"id": "c84c0988-3c09-447f-b51b-8e36a46c68b6", "name": "Ocean Greens", "category": "cannabis", "tags": ["cannabis"], "sources": ["overture"], "website": "http://www.oceangreens420.com", "phone": "(206) 453-4145", "address": "9724 Aurora Ave N"}, "geometry": {"type": "Point", "coordinates": [-122.3443222, 47.7002563]}}, {"type": "Feature", "properties": {"id": 222586378, "name": "Greenside Recreational Seattle", "category": "cannabis", "tags": ["cannabis"], "sources": ["osm", "overture"], "website": "http://greensiderec.com/locations/greenside-recreational-seattle", "phone": "2065224145", "address": "9724 Aurora Ave N", "hours": "Mo-Su 08:00-23:45"}, "geometry": {"type": "Point", "coordinates": [-122.3442323, 47.7002504]}}, {"type": "Feature", "properties": {"id": "01c280e4-b798-456d-840c-3bdf9a6b9853", "name": "LifeSafer Ignition Interlock", "category": "clothes", "tags": ["clothes"], "sources": ["overture"], "website": "https://www.lifesafer.com/locations/washington/seattle/2884?utm_source=exnet&utm_medium=localseo&utm_campaign=yext", "phone": "2065227766", "address": "10017 Aurora Ave N"}, "geometry": {"type": "Point", "coordinates": [-122.3447342, 47.7020111]}}, {"type": "Feature", "properties": {"id": "baece3d8-97e1-4210-bf47-9ffe0ee60f7e", "name": "Cash America Pawn", "category": "jewelry", "tags": ["jewelry"], "sources": ["overture"], "website": "http://www.cashamerica.com/", "phone": "2069577107", "address": "10526 Aurora Ave N"}, "geometry": {"type": "Point", "coordinates": [-122.344635, 47.7059669]}}, {"type": "Feature", "properties": {"id": "dd6915d8-9032-411b-bd50-72825244409d", "name": "Aimoto S Robert", "category": "supermarket", "tags": ["supermarket"], "sources": ["overture"], "address": "11111 Aurora Ave N"}, "geometry": {"type": "Point", "coordinates": [-122.3456879, 47.7097397]}}, {"type": "Feature", "properties": {"id": "1e9b7a4b-674f-4871-8f44-08836097412e", "name": "Kleen Rite Kleener - Power Vacuum", "category": "doityourself", "tags": ["doityourself", "building", "supply"], "sources": ["overture"], "website": "http://krkpowervac.com", "phone": "(206) 632-0900", "address": "902 N 105th St"}, "geometry": {"type": "Point", "coordinates": [-122.3469162, 47.7051811]}}, {"type": "Feature", "properties": {"id": "0c838b5c-2d55-4691-99e6-e3faa4e3d518", "name": "Techfixzone", "category": "mobile_phone", "tags": ["mobile-phone", "mobile"], "sources": ["overture"], "website": "http://www.techfixzone.com", "phone": "+14256868092", "address": "9801 Aurora Ave N"}, "geometry": {"type": "Point", "coordinates": [-122.3450546, 47.7009773]}}, {"type": "Feature", "properties": {"id": "58a2d53e-f484-426b-9b95-5ce82d7f11ba", "name": "Cheapskates", "category": "tobacco", "tags": ["tobacco"], "sources": ["overture"], "phone": "+12065273455", "address": "9891 Aurora Ave N"}, "geometry": {"type": "Point", "coordinates": [-122.3451233, 47.7010918]}}, {"type": "Feature", "properties": {"id": "4534c3ed-b1bc-418e-8bba-c6aa744ff976", "name": "W.L. May Co.", "category": "hardware", "tags": ["hardware"], "sources": ["overture"], "website": "http://wlmay.com", "phone": "(206) 525-4500", "address": "9801 Aurora Ave N"}, "geometry": {"type": "Point", "coordinates": [-122.3450775, 47.700634]}}, {"type": "Feature", "properties": {"id": "20077677-7dec-41f3-b95a-b3d9e206d39b", "name": "Sensi Sweets", "category": "supermarket", "tags": ["supermarket"], "sources": ["overture"], "website": "sensisweetsedibles.com", "address": "1111 N 98th St"}, "geometry": {"type": "Point", "coordinates": [-122.3437424, 47.700264]}}, {"type": "Feature", "properties": {"id": "dd0cc5ef-1d4e-4674-a21d-a687ec61831e", "name": "Pacific Topsoils, Inc.", "category": "doityourself", "tags": ["doityourself", "building", "supply"], "sources": ["overture"], "website": "https://linktr.ee/pacifictopsoilsinc", "phone": "8008847645", "address": "1212 N 107th St"}, "geometry": {"type": "Point", "coordinates": [-122.3422928, 47.7072563]}}, {"type": "Feature", "properties": {"id": "fd72fd8d-5ee1-40ed-97b8-ca6cebfec05a", "name": "Hot Dog Stop", "category": "supermarket", "tags": ["supermarket"], "sources": ["overture"], "website": "https://hotdogstop.net", "address": "10554 Aurora Ave N"}, "geometry": {"type": "Point", "coordinates": [-122.3443985, 47.7066116]}}, {"type": "Feature", "properties": {"id": 220178535, "name": "Planned Parenthood", "category": "clinic", "tags": ["clinic"], "sources": ["osm"], "website": "https://www.plannedparenthood.org/health-center/washington/seattle/98133/northgate-health-center-3975-91810", "phone": "+1 800 769 0045", "address": "1200 North Northgate Way", "hours": "Tu 09:00-17:00; We 10:00-18:00; Th-Sa 08:30-16:30"}, "geometry": {"type": "Point", "coordinates": [-122.3430406, 47.7052729]}}, {"type": "Feature", "properties": {"id": 5745633022, "name": "Better Hearing Center", "category": "clinic", "tags": ["clinic"], "sources": ["osm"], "website": "https://www.betterhearingwa.com/", "phone": "+1-206-782-1597", "address": "10002 Aurora Avenue North", "hours": "Mo-Fr 09:00-16:00"}, "geometry": {"type": "Point", "coordinates": [-122.344392, 47.7020893]}}, {"type": "Feature", "properties": {"id": 2409358404, "name": "The UPS Store", "category": "post_office", "tags": ["post-office"], "sources": ["osm"], "website": "https://locations.theupsstore.com/wa/seattle/10002-aurora-ave-north", "phone": "+1-206-527-5065", "address": "10002 Aurora Avenue North", "hours": "Mo-Fr 09:00-19:00; Sa 09:00-17:00"}, "geometry": {"type": "Point", "coordinates": [-122.344129, 47.7020853]}}, {"type": "Feature", "properties": {"id": "f426e281-cd90-4daf-a1d3-2f543a0375c6", "name": "Gold's Gym", "category": "fitness_centre", "tags": ["fitness-centre", "gym"], "sources": ["overture"], "website": "http://www.goldsgym.com/seattlewa/", "phone": "2065245543", "address": "9701 Aurora Ave N"}, "geometry": {"type": "Point", "coordinates": [-122.3452988, 47.7000732]}}, {"type": "Feature", "properties": {"id": "36a73767-d8e9-4ece-9f5c-ec47e44ad22d", "name": "Jazzercise", "category": "fitness_centre", "tags": ["fitness-centre", "gym"], "sources": ["overture"], "website": "http://www.jazzercise.com", "phone": "(206) 298-5377", "address": "10303 Aurora Ave N"}, "geometry": {"type": "Point", "coordinates": [-122.3451385, 47.7038422]}}]}