{"type": "FeatureCollection", "features": [{"type": "Feature", "properties": {"id": 47397585, "name": "Kelsey Creek Park", "category": "park", "tags": ["park"], "sources": ["osm"]}, "geometry": {"type": "Point", "coordinates": [-122.1665604, 47.6019326]}}, {"type": "Feature", "properties": {"id": "b6767025-3f82-4c13-9dce-f830b4b27934", "name": "Kelsey Creek Kids Playground", "category": "playground", "tags": ["playground"], "sources": ["overture"], "phone": "+14254527688", "address": "12926 SE 5th Pl"}, "geometry": {"type": "Point", "coordinates": [-122.1661835, 47.6046143]}}]}