{"type": "FeatureCollection", "features": [{"type": "Feature", "properties": {"id": 33833800, "name": "Gold Creek Park", "category": "park", "tags": ["park"], "sources": ["osm"], "address": "16020 148th Avenue Northeast"}, "geometry": {"type": "Point", "coordinates": [-122.1394395, 47.7427213]}}, {"type": "Feature", "properties": {"id": "d0382074-8d86-4303-8af9-c3a250d1349a", "name": "Gold Creek County Park", "category": "park", "tags": ["park"], "sources": ["overture"], "website": "https://campfireseattle.org/venue/gold-creek-county-park/?tribe_venue=gold-creek-county-park&tribe_event_display=past", "phone": "+14258692761", "address": "16020 148th Ave NE"}, "geometry": {"type": "Point", "coordinates": [-122.1394119, 47.7423058]}}]}