{"type": "FeatureCollection", "features": [{"type": "Feature", "properties": {"id": 6125135343, "name": "Subway", "category": "fast_food", "tags": ["fast-food", "sandwich", "takeaway", "restaurant"], "sources": ["osm", "overture"], "website": "https://order.subway.com/en-us/restaurant/28087/menu/?utm_source=yxt-goog&utm_medium=local&utm_term=acq&utm_content=28087&utm_campaign=evergreen-2020&y_source=1_MTQ5MDcxMDYtNzE1LWxvY2F0aW9uLmdvb2dsZV93ZWJzaXRlX292ZXJyaWRl", "phone": "+14252288111", "address": "12660 164th Ave SE", "hours": "Mo-Su 07:00-22:00"}, "geometry": {"type": "Point", "coordinates": [-122.1215067, 47.489059]}}, {"type": "Feature", "properties": {"id": 9054863317, "name": "Kami Teriyaki", "category": "restaurant", "tags": ["restaurant", "asian", "japanese"], "sources": ["osm", "overture"], "website": "http://www.kamiteriyakirentonwa.com", "phone": "+14259171000", "address": "12636 164th Ave SE", "hours": "Mo-Fr 10:30-20:30; Sa 11:30-20:00"}, "geometry": {"type": "Point", "coordinates": [-122.1210405, 47.4894349]}}, {"type": "Feature", "properties": {"id": 4830045485, "name": "Doofer's Bar and Grill", "category": "restaurant", "tags": ["restaurant", "american"], "sources": ["osm"], "website": "https://www.doofersbarandgrill.com", "address": "16430 Southeast 128th Street", "hours": "Mo-Fr 11:00-02:00, Sa 09:00-02:00, Su 09:00-12:00"}, "geometry": {"type": "Point", "coordinates": [-122.1204011, 47.4889136]}}, {"type": "Feature", "properties": {"id": 653590451, "name": "Cedar River Espresso", "category": "cafe", "tags": ["cafe", "coffee-shop", "drive-through"], "sources": ["osm", "overture"], "website": "http://cedarriverespresso.com/", "phone": "+12063130738", "address": "16402 SE 128th St", "hours": "Su 07:00-17:00; Mo-Fr 04:30-18:00; Sa 06:00-18:00"}, "geometry": {"type": "Point", "coordinates": [-122.1214269, 47.4883757]}}, {"type": "Feature", "properties": {"id": 681314696, "name": "Rainier Valley Coffee", "category": "cafe", "tags": ["cafe", "coffee-shop", "drive-through", "coffee"], "sources": ["osm", "overture"], "website": "http://rvccoffee.com", "phone": "+12539872945", "address": "12670 164th Ave SE", "hours": "Su 06:00-17:00; Mo-Fr 04:30-19:00; Sa 05:00-19:00"}, "geometry": {"type": "Point", "coordinates": [-122.1214647, 47.4888236]}}, {"type": "Feature", "properties": {"id": "4ea1fd26-71dd-43dd-a647-7542e000cad7", "name": "Doofers Bar & Grill", "category": "bar", "tags": ["bar", "sports", "bar-and-grill", "american"], "sources": ["overture"], "website": "http://www.doofersbarandgrill.com/", "phone": "+14252286645", "address": "16430 SE 128th St"}, "geometry": {"type": "Point", "coordinates": [-122.120491, 47.4888535]}}, {"type": "Feature", "properties": {"id": "44fba276-2dd6-424e-84de-874e47eb1a54", "name": "Flying pie renton", "category": "restaurant", "tags": ["restaurant", "pizza"], "sources": ["overture"], "website": "http://www.flyingpiepizzeria.com", "phone": "(425) 228-8012", "address": "12642 164th Ave SE"}, "geometry": {"type": "Point", "coordinates": [-122.1217804, 47.4890671]}}, {"type": "Feature", "properties": {"id": 499403818, "name": "Starwood Community Park", "category": "park", "tags": ["park"], "sources": ["osm"]}, "geometry": {"type": "Point", "coordinates": [-122.1254474, 47.4807392]}}, {"type": "Feature", "properties": {"id": 653594016, "name": "76", "category": "convenience", "tags": ["convenience"], "sources": ["osm"], "website": "https://www.76.com/station/U76-COALFIELD-0000835605/", "phone": "+1-425-204-7958", "address": "16402 Southeast 128th Street", "hours": "Mo-Th 05:00-00:00; Fr,Sa 05:00-02:00; Su 06:00-24:00"}, "geometry": {"type": "Point", "coordinates": [-122.1215475, 47.4884946]}}, {"type": "Feature", "properties": {"id": 653592063, "name": "Klickway Athletics", "category": "fitness_centre", "tags": ["fitness-centre", "fitness", "gym"], "sources": ["osm", "overture"], "website": "https://klickwayathletics.com/pages/renton", "phone": "18884001442", "address": "16410 SE 128th St", "hours": "Mo-Th 09:00-21:00; Fr-Su 09:00-19:00; PH off"}, "geometry": {"type": "Point", "coordinates": [-122.1209755, 47.4884318]}}, {"type": "Feature", "properties": {"id": "7b2898df-994e-428b-836a-9413a17e5232", "name": "Hockey Educational Systems", "category": "fitness_centre", "tags": ["fitness-centre", "fitness", "trainer"], "sources": ["overture"], "phone": "+14252548750", "address": "12620 164th Ave SE"}, "geometry": {"type": "Point", "coordinates": [-122.1206665, 47.4896812]}}, {"type": "Feature", "properties": {"id": "efc70bc3-bee3-462b-82ec-c34a529eee7e", "name": "East Highlands Fitness", "category": "fitness_centre", "tags": ["fitness-centre", "gym"], "sources": ["overture"], "website": "http://www.easthighlandsfitness.com/", "phone": "4252270900", "address": "16410 SE 128th St"}, "geometry": {"type": "Point", "coordinates": [-122.1217422, 47.4881439]}}]}