{"type": "FeatureCollection", "features": [{"type": "Feature", "properties": {"id": 649790958, "name": "Salty's", "category": "restaurant", "tags": ["restaurant", "seafood"], "sources": ["osm"], "address": "28201 Redondo Beach Drive South"}, "geometry": {"type": "Point", "coordinates": [-122.3243546, 47.3490598]}}, {"type": "Feature", "properties": {"id": "90c8836d-8114-468b-8adb-70e29514b913", "name": "Salty's at Redondo Beach", "category": "restaurant", "tags": ["restaurant", "seafood", "bar-and-grill", "american"], "sources": ["overture"], "website": "https://www.saltys.com/south-seattle/", "phone": "+12539460636", "address": "28201 Redondo Beach Dr S"}, "geometry": {"type": "Point", "coordinates": [-122.3244247, 47.3490257]}}, {"type": "Feature", "properties": {"id": 10125200747, "name": "Bubbleator", "category": "attraction", "tags": ["attraction"], "sources": ["osm"]}, "geometry": {"type": "Point", "coordinates": [-122.328601, 47.344681]}}, {"type": "Feature", "properties": {"id": 739901553, "name": "The Redondo Arch: A Gateway Between Land and Sea", "category": "artwork", "tags": ["artwork"], "sources": ["osm"]}, "geometry": {"type": "Point", "coordinates": [-122.3245338, 47.3485081]}}, {"type": "Feature", "properties": {"id": "57beef18-e206-4a40-8831-6c11c2d7b8c0", "name": "Seattle World's Fair Bubbleator", "category": "attraction", "tags": ["attraction", "landmark", "historical", "building"], "sources": ["overture"], "address": "28708 Sound View Dr S"}, "geometry": {"type": "Point", "coordinates": [-122.3286057, 47.3446617]}}, {"type": "Feature", "properties": {"id": 25406730, "name": "Wooton Park", "category": "park", "tags": ["park"], "sources": ["osm", "overture"], "website": "http://www.desmoineswa.gov/facilities.aspx?page=list&search=1&cid=2&pagenum=2", "phone": "+12068245700", "address": "28202 9th Ave S"}, "geometry": {"type": "Point", "coordinates": [-122.3226335, 47.348445]}}, {"type": "Feature", "properties": {"id": "aa56edb6-2495-404e-8e2f-836d2f2d7b4b", "name": "Redondo Beach Park", "category": "park", "tags": ["park"], "sources": ["overture"], "website": "http://www.redondo.org/default.asp", "address": "Redondo Beach Park, 28201 Redondo Way S"}, "geometry": {"type": "Point", "coordinates": [-122.3235016, 47.3484612]}}]}