{"type": "FeatureCollection", "features": [{"type": "Feature", "properties": {"id": "95150eac-9b91-4e3f-8a82-b88b915a4e72", "name": "Krispy Krunchy Chicken", "category": "fast_food", "tags": ["fast-food", "fast", "food"], "sources": ["overture"], "website": "https://locations.krispykrunchy.com/wa/snohomish/9125-paradise-lake-rd", "address": "9125 Paradise Lake Rd"}, "geometry": {"type": "Point", "coordinates": [-122.1093597, 47.8027802]}}, {"type": "Feature", "properties": {"id": 1331767404, "name": "Green Bean Java", "category": "cafe", "tags": ["cafe", "coffee-shop", "drive-through"], "sources": ["osm"]}, "geometry": {"type": "Point", "coordinates": [-122.1099139, 47.8017258]}}, {"type": "Feature", "properties": {"id": 4172375094, "name": "ExtraMile", "category": "convenience", "tags": ["convenience"], "sources": ["osm"]}, "geometry": {"type": "Point", "coordinates": [-122.109783, 47.8012423]}}]}