{"type": "FeatureCollection", "features": [{"type": "Feature", "properties": {"id": 3958618050, "name": "BigFoot Java", "category": "cafe", "tags": ["cafe", "coffee-shop"], "sources": ["osm"], "website": "http://www.bigfootjava.com"}, "geometry": {"type": "Point", "coordinates": [-122.1211468, 47.5560459]}}, {"type": "Feature", "properties": {"id": 204081754, "name": "Lewis Creek Park", "category": "park", "tags": ["park"], "sources": ["osm"], "website": "http://www.ci.bellevue.wa.us/lewis_creek_park.htm"}, "geometry": {"type": "Point", "coordinates": [-122.1243715, 47.5523646]}}, {"type": "Feature", "properties": {"id": "d6c30af6-437f-4a81-8bed-10ee88c2e3fc", "name": "Lewis Creek Park", "category": "park", "tags": ["park"], "sources": ["overture"], "website": "http://www.bellevuewa.gov/lewis_creek_park.htm", "phone": "+14254524195", "address": "5808 Lakemont Blvd SE"}, "geometry": {"type": "Point", "coordinates": [-122.1257706, 47.5501595]}}, {"type": "Feature", "properties": {"id": "283ef127-3a97-4511-9be6-ec4eb2141a99", "name": "Lakemont Highlands Park", "category": "playground", "tags": ["playground"], "sources": ["overture"], "website": "http://parkstrails.myparksandrecreation.com/details.aspx?pid=83", "phone": "(425) 452-6885"}, "geometry": {"type": "Point", "coordinates": [-122.1256256, 47.5530205]}}, {"type": "Feature", "properties": {"id": 365883540, "name": "Lakemont Place", "category": "park", "tags": ["park"], "sources": ["osm"]}, "geometry": {"type": "Point", "coordinates": [-122.1226499, 47.5578216]}}, {"type": "Feature", "properties": {"id": 365894519, "name": "Silverleaf Open Space", "category": "park", "tags": ["park"], "sources": ["osm"]}, "geometry": {"type": "Point", "coordinates": [-122.1245545, 47.5585607]}}, {"type": "Feature", "properties": {"id": 365894520, "name": "Silverleaf Park", "category": "park", "tags": ["park"], "sources": ["osm"]}, "geometry": {"type": "Point", "coordinates": [-122.1222573, 47.5584668]}}, {"type": "Feature", "properties": {"id": 365898225, "name": "Lakemont Blvd Open Space", "category": "park", "tags": ["park"], "sources": ["osm"]}, "geometry": {"type": "Point", "coordinates": [-122.1215047, 47.5562239]}}, {"type": "Feature", "properties": {"id": "c8465095-189e-445f-85a6-a9c0470cbb4f", "name": "Key Pharmacy", "category": "pharmacy", "tags": ["pharmacy"], "sources": ["overture"], "website": "http://www.keycompounding.com", "phone": "(425) 429-3926", "address": "5517 Lakemont Blvd SE"}, "geometry": {"type": "Point", "coordinates": [-122.1253357, 47.5545959]}}, {"type": "Feature", "properties": {"id": "bafb1d4d-89d5-49b3-a33a-44c2d88e52ff", "name": "Little Grey Library", "category": "library", "tags": ["library"], "sources": ["overture"], "address": "4848 158th Pl SE"}, "geometry": {"type": "Point", "coordinates": [-122.1290207, 47.5582542]}}]}