{"type": "FeatureCollection", "features": [{"type": "Feature", "properties": {"id": 677179914, "name": "Taco Time", "category": "fast_food", "tags": ["fast-food", "mexican", "indoor-seating", "takeaway", "vegetarian", "fast", "food", "taco"], "sources": ["osm", "overture"], "website": "https://order.tacotimenw.com/menu/burien", "phone": "+12062420171", "address": "15305 8th Ave SW", "hours": "Mo-Su 10:00-22:00"}, "geometry": {"type": "Point", "coordinates": [-122.3450415, 47.4656825]}}, {"type": "Feature", "properties": {"id": 5583694979, "name": "Subway", "category": "fast_food", "tags": ["fast-food", "sandwich", "takeaway", "restaurant"], "sources": ["osm", "overture"], "website": "https://www.subway.com", "phone": "12068484419", "address": "594 SW 152nd St", "hours": "Mo-Fr 07:00-22:00; Sa 08:00-21:30; Su 09:00-20:30"}, "geometry": {"type": "Point", "coordinates": [-122.341683, 47.4669552]}}, {"type": "Feature", "properties": {"id": 677171593, "name": "El Rinconsito", "category": "fast_food", "tags": ["fast-food", "mexican", "takeaway"], "sources": ["osm"], "phone": "+1-206-431-0663", "address": "15101 Ambaum Boulevard Southwest", "hours": "Mo-Th 10:00-24:00, Fr 10:00-24:00, Sa 00:00-03:00, Sa 08:00-24:00, Su 00:00-03:00, Su 08:00-24:00"}, "geometry": {"type": "Point", "coordinates": [-122.3458435, 47.4674415]}}, {"type": "Feature", "properties": {"id": 5583693466, "name": "Humble Vine", "category": "bar", "tags": ["bar", "wine"], "sources": ["osm", "overture"], "website": "http://humblevinewine.com/", "phone": "+12069304752", "address": "824 SW 152nd St", "hours": "Tu-Th 14:00-20:00; Fr-Sa 14:00-21:00"}, "geometry": {"type": "Point", "coordinates": [-122.3456775, 47.4668801]}}, {"type": "Feature", "properties": {"id": 5583693473, "name": "Classic Eats", "category": "restaurant", "tags": ["restaurant", "american", "outdoor-seating", "wheelchair-accessible"], "sources": ["osm", "overture"], "website": "http://www.classic-eats.com/", "phone": "+12062416275", "address": "918 SW 152nd St", "hours": "Mo-Th 11:00-20:00; Fr 11:00-22:00; Sa 09:00-22:00; Su 09:00-20:00"}, "geometry": {"type": "Point", "coordinates": [-122.3464134, 47.4668972]}}, {"type": "Feature", "properties": {"id": 5583693488, "name": "Tin Room", "category": "bar", "tags": ["bar"], "sources": ["osm"], "hours": "Su,Mo 16:00-21:00; Tu-Th 16:00-22:00; Fr,Sa 16:00-23:00"}, "geometry": {"type": "Point", "coordinates": [-122.3468748, 47.4666653]}}, {"type": "Feature", "properties": {"id": 5583693489, "name": "Pigfish Caf\u00e9", "category": "restaurant", "tags": ["restaurant", "sandwich", "american", "comfort-food", "theme"], "sources": ["osm", "overture"], "website": "https://pigfishcafeburien.com/", "phone": "+12062465204", "address": "921 SW 152nd St", "hours": "Mo 11:00-14:30; Tu-Th 11:00-19:30; Fr,Sa 11:00-20:15"}, "geometry": {"type": "Point", "coordinates": [-122.3467695, 47.4666664]}}, {"type": "Feature", "properties": {"id": 5583693491, "name": "Dolce Diletto", "category": "cafe", "tags": ["cafe"], "sources": ["osm"], "address": "917 Southwest 152nd Street", "hours": "Tu-Th 12:00-20:00; Fr,Sa 12:00-21:00; Su 12:00-20:00"}, "geometry": {"type": "Point", "coordinates": [-122.3466605, 47.4666664]}}, {"type": "Feature", "properties": {"id": 5583693493, "name": "913 Spirits", "category": "bar", "tags": ["bar", "wine"], "sources": ["osm", "overture"], "website": "http://www.909coffeeandwine.com/", "phone": "+12062437909", "address": "913 SW 152nd St", "hours": "16:00-21:00"}, "geometry": {"type": "Point", "coordinates": [-122.346455, 47.4666621]}}, {"type": "Feature", "properties": {"id": 5583693494, "name": "909 Coffee & Wine", "category": "bar", "tags": ["bar"], "sources": ["osm"], "address": "909 Southwest 152nd Street", "hours": "Su-Th 16:30-21:00, Fr,Sa 16:30-21:30, Sa,Su 08:30-14:00"}, "geometry": {"type": "Point", "coordinates": [-122.3463658, 47.4666633]}}, {"type": "Feature", "properties": {"id": 5583694643, "name": "Smarty Pants Garage", "category": "restaurant", "tags": ["restaurant", "sandwich", "drinks", "breakfast", "pub", "outdoor-seating", "indoor-seating", "bar-and-grill", "bar", "grill", "american"], "sources": ["osm", "overture"], "website": "http://www.SmartyPantsGarage.com/", "phone": "+12064578181", "address": "626 SW 152nd St", "hours": "Mo-Th 11:00-22:00; Fr 11:00-23:00; Sa 09:00-23:00; Su 09:00-21:00"}, "geometry": {"type": "Point", "coordinates": [-122.343, 47.4671392]}}, {"type": "Feature", "properties": {"id": 5583694655, "name": "The Little Chicken Burger", "category": "restaurant", "tags": ["restaurant", "chicken", "burger", "american"], "sources": ["osm", "overture"], "website": "https://www.thelittlechickenburger.com/", "phone": "+12065961657", "address": "15178 8th Ave SW", "hours": "Mo-Sa 11:00-20:00"}, "geometry": {"type": "Point", "coordinates": [-122.344328, 47.4670951]}}, {"type": "Feature", "properties": {"id": 5583694662, "name": "Tomo Sushi", "category": "restaurant", "tags": ["restaurant", "japanese", "vegan", "sushi"], "sources": ["osm", "overture"], "website": "http://tomosushi.hrpos.heartland.us/menu", "phone": "+12062570426", "address": "623 SW 152nd St", "hours": "Mo off; Tu-Th 16:00-21:00; Fr-Sa 16:00-21:30; Su 16:00-20:30"}, "geometry": {"type": "Point", "coordinates": [-122.3427824, 47.4666891]}}, {"type": "Feature", "properties": {"id": 5583694664, "name": "Halo Grill", "category": "cafe", "tags": ["cafe", "tea"], "sources": ["osm"], "address": "627 Southwest 152nd Street", "hours": "Mo,We-Fr 11:00-20:00; Tu off; Sa 09:00-20:00; Su 09:00-19:00"}, "geometry": {"type": "Point", "coordinates": [-122.342997, 47.4666895]}}, {"type": "Feature", "properties": {"id": 5583694668, "name": "Osteria da Primo Ristorante Italiano & Pizzeria", "category": "restaurant", "tags": ["restaurant", "italian"], "sources": ["osm"], "address": "631 Southwest 152nd Street", "hours": "Tu-Sa 16:00-24:00"}, "geometry": {"type": "Point", "coordinates": [-122.3432578, 47.4666655]}}, {"type": "Feature", "properties": {"id": 5583694669, "name": "Dek Thai Restaurant", "category": "restaurant", "tags": ["restaurant", "thai", "asian"], "sources": ["osm", "overture"], "website": "http://www.dekthaiburien.com", "phone": "+12064329094", "address": "633 SW 152nd St"}, "geometry": {"type": "Point", "coordinates": [-122.3433276, 47.466666]}}, {"type": "Feature", "properties": {"id": 5583694672, "name": "Now Make Me A Sandwich", "category": "restaurant", "tags": ["restaurant", "sandwich", "indoor-seating", "air-conditioned", "american"], "sources": ["osm", "overture"], "website": "http://Nowmakemeasandwich.shop/", "phone": "+12063966011", "address": "641 SW 152nd St", "hours": "Mo-Fr 11:00-19:30; Sa 11:00-17:00; Su off"}, "geometry": {"type": "Point", "coordinates": [-122.3436601, 47.4666623]}}, {"type": "Feature", "properties": {"id": 5583694673, "name": "Marlaina's Mediterranean Kitchen", "category": "restaurant", "tags": ["restaurant", "mediterranean", "indoor-seating", "air-conditioned", "middle-eastern"], "sources": ["osm", "overture"], "website": "http://www.marlainasrestaurant.com/", "phone": "+12065356420", "address": "643 SW 152nd St", "hours": "Tu-Su 16:00-21:00"}, "geometry": {"type": "Point", "coordinates": [-122.3437402, 47.4666606]}}, {"type": "Feature", "properties": {"id": 5583694674, "name": "Centro Neighborhood Kitchen", "category": "restaurant", "tags": ["restaurant", "outdoor-seating", "indoor-seating", "air-conditioned", "mexican", "latin-american"], "sources": ["osm", "overture"], "website": "http://www.centroburien.com/", "phone": "+12064207227", "address": "643 SW 152nd St", "hours": "12:00-20:00"}, "geometry": {"type": "Point", "coordinates": [-122.3438184, 47.4666598]}}, {"type": "Feature", "properties": {"id": 5583694678, "name": "Snack Gyro", "category": "fast_food", "tags": ["fast-food", "mediterranean", "restaurant", "middle-eastern", "halal"], "sources": ["osm", "overture"], "website": "https://snack-gyro.business.site", "phone": "+12063532384", "address": "15217 6th Ave SW", "hours": "Mo-Th, Sa, Su 10:00-21:00; Fr 10:00-13:00, 02:30-21:00"}, "geometry": {"type": "Point", "coordinates": [-122.3420548, 47.4663033]}}, {"type": "Feature", "properties": {"id": 5583694692, "name": "Angelo's Fine Food & Lounge", "category": "restaurant", "tags": ["restaurant", "italian"], "sources": ["osm"], "address": "601 Southwest 153rd Street"}, "geometry": {"type": "Point", "coordinates": [-122.3422091, 47.465724]}}, {"type": "Feature", "properties": {"id": 5583694708, "name": "Firewood", "category": "restaurant", "tags": ["restaurant"], "sources": ["osm"], "address": "15212 6th Avenue Southwest"}, "geometry": {"type": "Point", "coordinates": [-122.3416901, 47.4664837]}}, {"type": "Feature", "properties": {"id": 5583694710, "name": "Casa Mixteca 2 Taqueria", "category": "restaurant", "tags": ["restaurant", "mexican"], "sources": ["osm"], "address": "452 Southwest 153rd Street", "hours": "Mo-Sa 10:30-19:00; Su 10:30-18:00"}, "geometry": {"type": "Point", "coordinates": [-122.3414513, 47.4661347]}}, {"type": "Feature", "properties": {"id": 5658983866, "name": "Tortas Locas", "category": "restaurant", "tags": ["restaurant", "mexican", "takeaway", "latin-american", "taco"], "sources": ["osm", "overture"], "website": "http://www.tortaslocasseattle.com", "phone": "+12062440717", "address": "14912 Ambaum Blvd SW", "hours": "Su-Sa 10:00-22:00"}, "geometry": {"type": "Point", "coordinates": [-122.3460621, 47.4690857]}}, {"type": "Feature", "properties": {"id": 5658983903, "name": "Mu\u00f1eca Kitchen", "category": "restaurant", "tags": ["restaurant"], "sources": ["osm"], "phone": "+12069888786", "address": "15019 Ambaum Boulevard Southwest", "hours": "Mo-Fr 11:00-21:00; Sa-Su 11:00-02:00"}, "geometry": {"type": "Point", "coordinates": [-122.3459816, 47.4680866]}}, {"type": "Feature", "properties": {"id": 5658983905, "name": "Elmer's Bar & Grill", "category": "restaurant", "tags": ["restaurant"], "sources": ["osm"], "address": "15027 Ambaum Boulevard Southwest", "hours": "09:00-02:00"}, "geometry": {"type": "Point", "coordinates": [-122.3458368, 47.4678237]}}, {"type": "Feature", "properties": {"id": 622275933, "name": "Aliberto's Mexican Food", "category": "restaurant", "tags": ["restaurant", "mexican"], "sources": ["osm"], "website": "https://www.taquerialaestacionseattle.com/", "phone": "+1-206-439-3944", "address": "14820 Ambaum Boulevard Southwest", "hours": "24/7"}, "geometry": {"type": "Point", "coordinates": [-122.3463029, 47.4696331]}}, {"type": "Feature", "properties": {"id": 6340783141, "name": "Burien Pizzeria", "category": "restaurant", "tags": ["restaurant", "pizza", "italian"], "sources": ["osm", "overture"], "website": "http://burienpizzeria.com", "phone": "+12062410696", "address": "907 SW 152nd St", "hours": "Mo-Th 17:00-21:00; Fr,Sa 17:00-21:30"}, "geometry": {"type": "Point", "coordinates": [-122.3462393, 47.4666585]}}, {"type": "Feature", "properties": {"id": 6341617607, "name": "Piacere Trattoria", "category": "restaurant", "tags": ["restaurant", "italian", "outdoor-seating", "indoor-seating"], "sources": ["osm"], "address": "653 Southwest 152nd Street"}, "geometry": {"type": "Point", "coordinates": [-122.3439703, 47.4666581]}}, {"type": "Feature", "properties": {"id": 6341617767, "name": "Logan Brewing Company", "category": "pub", "tags": ["pub", "outdoor-seating", "microbrew", "bar", "brewery"], "sources": ["osm", "overture"], "website": "http://www.logan.beer/", "phone": "+12064866569", "address": "510 SW 151st St", "hours": "Mo 12:00-20:00, Tu-We 15:00-21:00, Th 12:00-21:00, Fr-Sa 12:00-22:00, Su 12:00-21:00"}, "geometry": {"type": "Point", "coordinates": [-122.3409856, 47.4678566]}}, {"type": "Feature", "properties": {"id": 10815646413, "name": "Stevie's Famous", "category": "restaurant", "tags": ["restaurant", "pizza"], "sources": ["osm"], "website": "https://steviesfamous.com", "address": "822 Southwest 152nd Street", "hours": "Mo-Th,Su 11:00-20:00; Fr-Sa 11:00-21:00"}, "geometry": {"type": "Point", "coordinates": [-122.3455887, 47.4668798]}}, {"type": "Feature", "properties": {"id": 10816741707, "name": "Bison Creek Pizza", "category": "restaurant", "tags": ["restaurant", "pizza"], "sources": ["osm", "overture"], "website": "http://www.bisoncreekpizza.com/", "phone": "(206) 244-8825", "address": "630 SW 153rd St", "hours": "Mo,Su 11:00-21:00; Tu-Sa 11:00-22:00"}, "geometry": {"type": "Point", "coordinates": [-122.3433544, 47.4661383]}}, {"type": "Feature", "properties": {"id": 14025371401, "name": "Luxe & Lattes", "category": "cafe", "tags": ["cafe"], "sources": ["osm"], "hours": "Mo-Su 07:00-17:00"}, "geometry": {"type": "Point", "coordinates": [-122.3467134, 47.4666631]}}, {"type": "Feature", "properties": {"id": "a5f4c2cc-a2f1-45ba-bb08-b8faf643dd60", "name": "Aliberto's Jr", "category": "restaurant", "tags": ["restaurant", "mexican", "latin-american", "taco"], "sources": ["overture"], "website": "http://www.alibertosjrs.com/", "phone": "+12064393944", "address": "14820 Ambaum Blvd SW"}, "geometry": {"type": "Point", "coordinates": [-122.3463516, 47.4696732]}}, {"type": "Feature", "properties": {"id": 326479624, "name": "Burien Press", "category": "cafe", "tags": ["cafe", "coffee-shop", "outdoor-seating", "indoor-seating", "vegetarian", "vegan", "gluten-free", "air-conditioned", "wifi", "coffee"], "sources": ["osm", "overture"], "website": "http://www.burienpress.com/", "phone": "+12064535412", "address": "423 SW 152nd St", "hours": "Mo-Fr 06:00-18:00; Sa-Su 07:00-18:00"}, "geometry": {"type": "Point", "coordinates": [-122.3402533, 47.4666476]}}, {"type": "Feature", "properties": {"id": 557237640, "name": "The Hobnobeer Tavern", "category": "pub", "tags": ["pub"], "sources": ["osm"], "address": "447 Southwest 153rd Street", "hours": "Mo-Th 12:00-24:00; Fr-Sa 12:00-02:00"}, "geometry": {"type": "Point", "coordinates": [-122.3412113, 47.4656497]}}, {"type": "Feature", "properties": {"id": 557237650, "name": "La Esquina", "category": "restaurant", "tags": ["restaurant", "mexican"], "sources": ["osm", "overture"], "website": "https://laesquinarestaurantburien.com", "phone": "12063279785", "address": "653 SW 153rd St"}, "geometry": {"type": "Point", "coordinates": [-122.3441631, 47.4656697]}}, {"type": "Feature", "properties": {"id": 557237770, "name": "The Point", "category": "pub", "tags": ["pub", "wheelchair-accessible", "fast-food", "fast", "food"], "sources": ["osm", "overture"], "website": "http://thepointburien.com/", "phone": "+12065357455", "address": "435 SW 152nd St", "hours": "Mo-Tu 16:00-22:00; We 16:00-23:00; Th-Fr 16:00-24:00; Sa 10:00-24:00; Su 10:00-22:00"}, "geometry": {"type": "Point", "coordinates": [-122.3407873, 47.4665666]}}, {"type": "Feature", "properties": {"id": 557237831, "name": "Royal Everest Nepalese & Indian Restaurant", "category": "restaurant", "tags": ["restaurant", "indian", "indoor-seating", "vegetarian", "air-conditioned"], "sources": ["osm"], "address": "635 Southwest 152nd Street", "hours": "Mo,We-Su 11:00-21:00; Tu off"}, "geometry": {"type": "Point", "coordinates": [-122.343447, 47.4665367]}}, {"type": "Feature", "properties": {"id": 621265978, "name": "Pho Liu", "category": "restaurant", "tags": ["restaurant", "vietnamese", "wifi", "asian", "noodles"], "sources": ["osm", "overture"], "website": "https://pho-liu.hub.biz", "phone": "+12062441449", "address": "15220 Ambaum Blvd SW", "hours": "Mo-Su 11:00-22:45"}, "geometry": {"type": "Point", "coordinates": [-122.3442712, 47.466093]}}, {"type": "Feature", "properties": {"id": "dc9ff775-37bf-4b04-bcc7-b38a3a1eb435", "name": "Tacos el hass", "category": "restaurant", "tags": ["restaurant", "mexican"], "sources": ["overture"], "phone": "+12064534534", "address": "1440 ambaum blv sw suit E"}, "geometry": {"type": "Point", "coordinates": [-122.3448029, 47.4682465]}}, {"type": "Feature", "properties": {"id": "5049159c-4572-4719-b446-d2f5f7e8c096", "name": "Don Gallopinto Nicaraguan Restaurant", "category": "restaurant", "tags": ["restaurant", "nicaraguan", "latin-american"], "sources": ["overture"], "phone": "+12062440717", "address": "14912 Ambaum Blvd SW"}, "geometry": {"type": "Point", "coordinates": [-122.3460541, 47.4691277]}}, {"type": "Feature", "properties": {"id": "ae8e81ba-50e4-4d03-8fe7-8cb92dd32fa8", "name": "Tequila Sal y Lim\u00f3n", "category": "pub", "tags": ["pub"], "sources": ["overture"]}, "geometry": {"type": "Point", "coordinates": [-122.3461609, 47.4691277]}}, {"type": "Feature", "properties": {"id": "eb6a23d8-0275-4aaa-af9a-68c7bc79e577", "name": "Germaine's Country Kitchen", "category": "restaurant", "tags": ["restaurant", "breakfast-and-brunch", "breakfast", "brunch"], "sources": ["overture"], "website": "http://www.germainescountrykitchen.com", "phone": "(206) 244-3100", "address": "14901 Ambaum Blvd SW"}, "geometry": {"type": "Point", "coordinates": [-122.3466415, 47.4692764]}}, {"type": "Feature", "properties": {"id": "098595d9-159c-43fa-89e9-5b842cc5254f", "name": "Taqueria La Estacion", "category": "restaurant", "tags": ["restaurant", "mexican"], "sources": ["overture"], "website": "http://www.taquerialaestacionseattle.com", "phone": "(206) 439-3944", "address": "14820 Ambaum Blvd SW"}, "geometry": {"type": "Point", "coordinates": [-122.3463058, 47.4696388]}}, {"type": "Feature", "properties": {"id": "69778551-8fd7-473a-85fe-a7e7d11b2e2d", "name": "Caspian Acupuncture", "category": "restaurant", "tags": ["restaurant"], "sources": ["overture"], "website": "https://www.caspianacupuncture.com", "phone": "(206) 494-3360", "address": "652 SW 150th St"}, "geometry": {"type": "Point", "coordinates": [-122.3440933, 47.468811]}}, {"type": "Feature", "properties": {"id": "ccc44851-1f60-4b86-b56e-e2eb46b007a4", "name": "Dream Body Fuel", "category": "restaurant", "tags": ["restaurant"], "sources": ["overture"], "website": "http://www.dreambodyfuel.com", "phone": "(206) 554-9524", "address": "14905 4th Ave SW"}, "geometry": {"type": "Point", "coordinates": [-122.3411102, 47.4695435]}}, {"type": "Feature", "properties": {"id": "4f8062f9-a931-475b-8706-1c76d6513bf3", "name": "Tikal Bakery", "category": "bakery", "tags": ["bakery"], "sources": ["overture"], "website": "http://tikalbakery.com/", "phone": "+12063973821", "address": "15420 Ambaum Blvd SW"}, "geometry": {"type": "Point", "coordinates": [-122.3434982, 47.4642372]}}, {"type": "Feature", "properties": {"id": "98bc3cfc-2851-4752-8ba3-b4b07ef9c355", "name": "Tikal Bakery", "category": "bakery", "tags": ["bakery"], "sources": ["overture"], "phone": "+12065070163", "address": "15021 Ambaum Blvd SW"}, "geometry": {"type": "Point", "coordinates": [-122.3461304, 47.4679489]}}, {"type": "Feature", "properties": {"id": "5459a430-49f3-4c4c-b897-d43b5b0df60b", "name": "El Centenario Mexican Restaurant", "category": "restaurant", "tags": ["restaurant", "mexican", "taco", "texmex"], "sources": ["overture"], "website": "https://elcentenarioburien.com/", "phone": "+12064925212", "address": "630 SW 153rd St"}, "geometry": {"type": "Point", "coordinates": [-122.3432159, 47.466217]}}, {"type": "Feature", "properties": {"id": "4ff5c5a1-8bc2-49f0-b138-3b6d1a947db2", "name": "Angelo's of Burien", "category": "restaurant", "tags": ["restaurant", "italian", "theme"], "sources": ["overture"], "website": "http://www.angelosofburien.com", "phone": "+12062443555", "address": "601 SW 153rd St"}, "geometry": {"type": "Point", "coordinates": [-122.3423462, 47.465744]}}, {"type": "Feature", "properties": {"id": "de78a300-4b93-4193-92a8-6fad7c338a7f", "name": "Mariscos Los Mochis", "category": "restaurant", "tags": ["restaurant", "seafood", "mexican", "latin-american"], "sources": ["overture"], "website": "https://qrmenu.com/menus/mariscos-los-mochis/?menu=1", "phone": "+12063889766", "address": "15223 6th Ave SW"}, "geometry": {"type": "Point", "coordinates": [-122.3421555, 47.4661217]}}, {"type": "Feature", "properties": {"id": "3f5c6bea-426c-4a1b-a1ee-e5c9c1813293", "name": "Bakery Nouveau", "category": "bakery", "tags": ["bakery"], "sources": ["overture"], "website": "http://www.bakerynouveau.com", "phone": "+12067172100", "address": "426 SW 153rd St"}, "geometry": {"type": "Point", "coordinates": [-122.3403168, 47.4661636]}}, {"type": "Feature", "properties": {"id": "d037e930-9735-4866-adcd-856e45be7513", "name": "Hobnobber bar", "category": "bar", "tags": ["bar", "dive"], "sources": ["overture"], "website": "http://www.bocaratonirrigationsprinkler.com", "phone": "+12064339987", "address": "447 SW 153rd St"}, "geometry": {"type": "Point", "coordinates": [-122.341156, 47.465683]}}, {"type": "Feature", "properties": {"id": "0cbd4c83-ad3c-41ea-9bc5-750998348d73", "name": "Taqueria Casa Mixteca", "category": "restaurant", "tags": ["restaurant", "mexican"], "sources": ["overture"], "website": "http://www.casamixteca.net/contact.html", "phone": "(206) 242-2326", "address": "452 SW 153rd St"}, "geometry": {"type": "Point", "coordinates": [-122.3412628, 47.4661522]}}, {"type": "Feature", "properties": {"id": "b9e1c0b8-b38d-4bbf-8b48-975dd1baeed5", "name": "Restaurant mi Pueblito", "category": "restaurant", "tags": ["restaurant", "mexican"], "sources": ["overture"], "website": "https://www.restaurantnotes.com/restaurant-el-tio-burien-washington-32586.htm", "phone": "+12062422326", "address": "452 SW 153rd St"}, "geometry": {"type": "Point", "coordinates": [-122.3414078, 47.4661636]}}, {"type": "Feature", "properties": {"id": "c6eb0398-077e-4f68-b724-c7c46448ad2d", "name": "Casa Mixteca 2- Restaurante Oaxaque\u00f1o", "category": "restaurant", "tags": ["restaurant", "mexican", "latin-american"], "sources": ["overture"], "website": "http://Www.casamixteca.com/", "phone": "+14255782047", "address": "452 SW 153rd St"}, "geometry": {"type": "Point", "coordinates": [-122.341423, 47.4661789]}}, {"type": "Feature", "properties": {"id": "f65e3baa-5414-4a63-9b8c-3206c49aaf20", "name": "Sampalok", "category": "restaurant", "tags": ["restaurant", "filipino"], "sources": ["overture"], "phone": "+12068527747"}, "geometry": {"type": "Point", "coordinates": [-122.3411331, 47.46698]}}, {"type": "Feature", "properties": {"id": "6ae31b26-5b9a-453b-915b-5f53eb18ab37", "name": "Melton's BBQ", "category": "restaurant", "tags": ["restaurant", "barbecue", "southern", "american"], "sources": ["overture"], "website": "http://www.meltonsbbq.com/", "phone": "+13605608020", "address": "427 SW 152nd St"}, "geometry": {"type": "Point", "coordinates": [-122.3404388, 47.4669571]}}, {"type": "Feature", "properties": {"id": "2b8f2347-869f-455c-93af-d6d6594744cf", "name": "Australian Pie Co", "category": "bakery", "tags": ["bakery", "australian"], "sources": ["overture"], "website": "http://www.australianpieco.com/", "phone": "+12062434138", "address": "425 SW 152nd St"}, "geometry": {"type": "Point", "coordinates": [-122.3403778, 47.466732]}}, {"type": "Feature", "properties": {"id": "eb86457e-b7b9-4398-b5b5-444a8d755dbd", "name": "Goodafbakedgoods", "category": "bakery", "tags": ["bakery"], "sources": ["overture"], "website": "http://GoodAFBakedGoods.com/", "phone": "+12064504256", "address": "611 SW 152nd St"}, "geometry": {"type": "Point", "coordinates": [-122.3405151, 47.4668922]}}, {"type": "Feature", "properties": {"id": "db4184d7-bc1b-47d1-b5a1-ddfe1cfe931a", "name": "Bruno, Inc", "category": "restaurant", "tags": ["restaurant"], "sources": ["overture"], "address": "435 SW 152nd St"}, "geometry": {"type": "Point", "coordinates": [-122.3407669, 47.4665642]}}, {"type": "Feature", "properties": {"id": "32e5dc27-887e-478e-af67-f86db10c31ab", "name": "Black Zia Cantina", "category": "restaurant", "tags": ["restaurant", "bar-and-grill", "bar", "grill"], "sources": ["overture"], "website": "https://blackzia.com", "phone": "12064203869", "address": "15212 6th Ave SW"}, "geometry": {"type": "Point", "coordinates": [-122.3416519, 47.4664803]}}, {"type": "Feature", "properties": {"id": "8fe8b253-f091-49a0-b8c2-a3c84e12426a", "name": "Fireside Burien", "category": "pub", "tags": ["pub"], "sources": ["overture"], "website": "https://www.firesideburien.com/?y_source=1_NzA3MjMxNDUtNTU5LWxvY2F0aW9uLndlYnNpdGU%3D", "phone": "+12068298816", "address": "15212 6th Ave SW"}, "geometry": {"type": "Point", "coordinates": [-122.3417206, 47.4665031]}}, {"type": "Feature", "properties": {"id": "e2629dba-4819-4c80-ad27-1822017a1701", "name": "King Wha Restaurant", "category": "restaurant", "tags": ["restaurant", "asian", "pan", "seafood"], "sources": ["overture"], "website": "http://kingwha.com/", "phone": "2062430323", "address": "605 Southwest 152nd Street"}, "geometry": {"type": "Point", "coordinates": [-122.3423157, 47.4666061]}}, {"type": "Feature", "properties": {"id": "e66742c3-009f-4f25-aade-5833243c37aa", "name": "Lucky Chef, Inc", "category": "restaurant", "tags": ["restaurant"], "sources": ["overture"], "address": "623 SW 152nd St"}, "geometry": {"type": "Point", "coordinates": [-122.3427734, 47.4665604]}}, {"type": "Feature", "properties": {"id": "b6f14c4b-c916-4169-abc7-e160bba64de3", "name": "Grand Central Bakery", "category": "bakery", "tags": ["bakery"], "sources": ["overture"], "website": "http://www.grandcentralbakery.com", "phone": "+12064361065", "address": "626 SW 152nd St"}, "geometry": {"type": "Point", "coordinates": [-122.3430252, 47.4669304]}}, {"type": "Feature", "properties": {"id": "ae71eec7-cc5e-48a9-b11c-d0605740e39b", "name": "Brilliant Bird Llc", "category": "restaurant", "tags": ["restaurant"], "sources": ["overture"], "website": "brilliantbirthdays.com", "address": "626 SW 152nd St"}, "geometry": {"type": "Point", "coordinates": [-122.3430557, 47.4670677]}}, {"type": "Feature", "properties": {"id": "e94c57df-26ec-433e-be60-5a1ebbb7e97d", "name": "B-Town Halo Grill", "category": "restaurant", "tags": ["restaurant", "bar-and-grill", "bar", "grill", "american"], "sources": ["overture"], "website": "https://www.btownhalogrill.com/", "phone": "+12064026451", "address": "627 SW 152nd St"}, "geometry": {"type": "Point", "coordinates": [-122.3429794, 47.4667015]}}, {"type": "Feature", "properties": {"id": "fe27366a-e151-465a-88c0-0eb8dbfa37d2", "name": "Paraizo juice bar", "category": "bar", "tags": ["bar"], "sources": ["overture"], "website": "http://www.paraizo.com/", "phone": "+12065562713", "address": "627 SW 152nd St"}, "geometry": {"type": "Point", "coordinates": [-122.3430023, 47.4665489]}}, {"type": "Feature", "properties": {"id": "b97c3f5c-0684-4461-b0ab-ed1f28a05f58", "name": "Osteria da Primo", "category": "restaurant", "tags": ["restaurant", "italian", "european"], "sources": ["overture"], "website": "http://www.osteriadaprimo.com/", "phone": "+12062465561", "address": "631 SW 152nd St"}, "geometry": {"type": "Point", "coordinates": [-122.3432617, 47.4667015]}}, {"type": "Feature", "properties": {"id": "6e0b03f3-e847-445a-958b-89dcb7328501", "name": "Santy\u2019S Eatery", "category": "restaurant", "tags": ["restaurant", "bar-and-grill", "bar", "grill"], "sources": ["overture"], "website": "http://Santyseatery.com/", "phone": "+12068438903", "address": "639 SW 152nd St"}, "geometry": {"type": "Point", "coordinates": [-122.3436127, 47.4666595]}}, {"type": "Feature", "properties": {"id": "a999aa42-659d-4a87-ab1e-27643236b249", "name": "Dersim Trading Llc", "category": "restaurant", "tags": ["restaurant"], "sources": ["overture"], "address": "643 Sw 152nd St Ste B"}, "geometry": {"type": "Point", "coordinates": [-122.3436737, 47.4665413]}}, {"type": "Feature", "properties": {"id": "2733f6ef-b76a-4771-9972-98b459e0f350", "name": "Household Maven, Llc", "category": "restaurant", "tags": ["restaurant"], "sources": ["overture"], "website": "https://www.mavenmeals.com", "address": "641 SW 152nd St"}, "geometry": {"type": "Point", "coordinates": [-122.3436432, 47.46661]}}, {"type": "Feature", "properties": {"id": "9b7f6c64-4094-4c06-8bab-356f997e6eab", "name": "The House Restaurant", "category": "restaurant", "tags": ["restaurant", "american"], "sources": ["overture"], "website": "http://www.colliercatering.com/house", "phone": "(206) 420-3338", "address": "643 SW 152nd St"}, "geometry": {"type": "Point", "coordinates": [-122.3439178, 47.4665298]}}, {"type": "Feature", "properties": {"id": "3eb0edfb-df24-426a-8c46-4d6e7b87fdc9", "name": "Frankie's b-town Bistro", "category": "restaurant", "tags": ["restaurant", "bistro"], "sources": ["overture"], "website": "http://www.frankiesbtownbistro.com", "phone": "(206) 946-1334", "address": "653 SW 152nd St"}, "geometry": {"type": "Point", "coordinates": [-122.3440018, 47.4665565]}}, {"type": "Feature", "properties": {"id": "9ec4c5b0-a658-4365-9b13-17d9aab2241d", "name": "Piacere Trattoria Italiana", "category": "restaurant", "tags": ["restaurant", "italian"], "sources": ["overture"], "website": "https://piaceretrattoria.com/", "phone": "+12069461334", "address": "653 SW 152nd St"}, "geometry": {"type": "Point", "coordinates": [-122.3439255, 47.4666901]}}, {"type": "Feature", "properties": {"id": "b2ed8202-e79b-4d73-90f2-202c6f9d6a47", "name": "Munecas Kitchen & Pupuseria SalvaMex", "category": "restaurant", "tags": ["restaurant", "salvadoran", "honduran", "latin-american"], "sources": ["overture"], "phone": "+12069888786", "address": "15019 Ambaum Blvd SW"}, "geometry": {"type": "Point", "coordinates": [-122.3460007, 47.4680557]}}, {"type": "Feature", "properties": {"id": "c46c56a4-8c49-42d3-916d-b715a53dbb61", "name": "Elmer's Bar and Grill", "category": "restaurant", "tags": ["restaurant", "bar-and-grill", "bar", "grill"], "sources": ["overture"], "website": "http://www.elmersbarandgrill.com", "phone": "+12069007965", "address": "15027 Ambaum Blvd SW"}, "geometry": {"type": "Point", "coordinates": [-122.3459167, 47.4679375]}}, {"type": "Feature", "properties": {"id": "8107afc9-222a-4e8a-bec5-ea3ed8248420", "name": "Taqueria El Rinconsito", "category": "restaurant", "tags": ["restaurant", "mexican", "latin-american"], "sources": ["overture"], "website": "http://www.elrinconsito.com/", "phone": "+12068351990", "address": "401 SW 153rd St"}, "geometry": {"type": "Point", "coordinates": [-122.3455658, 47.4675407]}}, {"type": "Feature", "properties": {"id": "5da45dcc-1755-4421-8c03-1e7c7e5a6c92", "name": "The Mark Restaurant & Bar", "category": "restaurant", "tags": ["restaurant", "american"], "sources": ["overture"], "website": "http://markrestaurant.com", "phone": "(206) 241-6275", "address": "918 SW 152nd St"}, "geometry": {"type": "Point", "coordinates": [-122.3464966, 47.4669495]}}, {"type": "Feature", "properties": {"id": "621557af-d3bf-4223-8a93-ef546277b8f5", "name": "909 Coffee and Wine", "category": "cafe", "tags": ["cafe"], "sources": ["overture"], "website": "http://909coffeeandwine.com", "phone": "+12062437909", "address": "909 SW 152nd St"}, "geometry": {"type": "Point", "coordinates": [-122.3463669, 47.4667282]}}, {"type": "Feature", "properties": {"id": "76bb067a-04a2-4db2-83bd-e3873e75b467", "name": "Treat Cookies", "category": "bakery", "tags": ["bakery"], "sources": ["overture"], "website": "http://treatcookies.com/", "phone": "+12067107526", "address": "825 SW 152nd St"}, "geometry": {"type": "Point", "coordinates": [-122.3456573, 47.4666901]}}, {"type": "Feature", "properties": {"id": "363fcf77-4dee-467b-b7d4-f145c6967d51", "name": "Stevie's Famous Burien", "category": "restaurant", "tags": ["restaurant", "pizza", "american"], "sources": ["overture"], "website": "https://www.steviesfamous.com/", "phone": "+12064142882", "address": "822 SW 152nd St"}, "geometry": {"type": "Point", "coordinates": [-122.3455963, 47.4668846]}}, {"type": "Feature", "properties": {"id": "0a8711cf-758d-4d6d-9ef5-8b9bbdf0d8e3", "name": "Danish Bakery", "category": "bakery", "tags": ["bakery"], "sources": ["overture"], "website": "http://www.danishbakery.com/", "phone": "(206) 242-5111", "address": "825 SW 152nd St"}, "geometry": {"type": "Point", "coordinates": [-122.3456879, 47.46661]}}, {"type": "Feature", "properties": {"id": "aeb2c4df-17b9-4ac7-817a-796b52307e84", "name": "Hoa Liu Restaurant Llc", "category": "restaurant", "tags": ["restaurant"], "sources": ["overture"], "address": "15220 Ambaum Blvd SW"}, "geometry": {"type": "Point", "coordinates": [-122.3442307, 47.4660835]}}, {"type": "Feature", "properties": {"id": "f9864f10-f345-4df3-89a7-dfeb9eadd0d9", "name": "Wah Long Sports Bar", "category": "bar", "tags": ["bar", "sports"], "sources": ["overture"], "website": "https://www.groupon.com/biz/burien-wa/wahlong-palace", "phone": "+12062441449", "address": "15220 Ambaum Blvd SW"}, "geometry": {"type": "Point", "coordinates": [-122.3443069, 47.4660301]}}, {"type": "Feature", "properties": {"id": "8aaa5c68-bdfc-40a5-b9a2-da11c4c89d07", "name": "Taste Of Fiji Indian Cuisine", "category": "restaurant", "tags": ["restaurant"], "sources": ["overture"], "website": "https://tasteoffiji.com", "address": "653 SW 153rd St"}, "geometry": {"type": "Point", "coordinates": [-122.344162, 47.4657288]}}, {"type": "Feature", "properties": {"id": "90b95ff7-5628-4608-9d5a-9f3f1f1cc8a9", "name": "San Fernando Roasted Chicken Burien", "category": "restaurant", "tags": ["restaurant", "peruvian"], "sources": ["overture"], "website": "http://pollos-sanfernando.com", "address": "653 SW 153rd St"}, "geometry": {"type": "Point", "coordinates": [-122.3441238, 47.4657288]}}, {"type": "Feature", "properties": {"id": "2dccc360-d274-4958-868a-6709516bc4c4", "name": "The Tin Room", "category": "restaurant", "tags": ["restaurant", "american"], "sources": ["overture"], "website": "https://lnk.bio/tinroombar", "phone": "12062428040", "address": "923 SW 152nd St"}, "geometry": {"type": "Point", "coordinates": [-122.3468704, 47.4665146]}}, {"type": "Feature", "properties": {"id": 557237638, "name": "Pacific Northwest Railroad Archive", "category": "museum", "tags": ["museum"], "sources": ["osm", "overture"], "website": "http://www.PNRArchive.org/", "phone": "+12064026519", "address": "425 SW 153rd St"}, "geometry": {"type": "Point", "coordinates": [-122.3401757, 47.4656769]}}, {"type": "Feature", "properties": {"id": 620697740, "name": "An Evocation", "category": "artwork", "tags": ["artwork"], "sources": ["osm"], "website": "https://www.sollodstudio.com/"}, "geometry": {"type": "Point", "coordinates": [-122.3402215, 47.4675297]}}, {"type": "Feature", "properties": {"id": 620741905, "name": "Helios Sun Pavilion", "category": "artwork", "tags": ["artwork"], "sources": ["osm"]}, "geometry": {"type": "Point", "coordinates": [-122.3403135, 47.467042]}}, {"type": "Feature", "properties": {"id": 677179937, "name": "Highline Heritage Museum", "category": "museum", "tags": ["museum", "history"], "sources": ["osm", "overture"], "website": "http://highlinemuseum.org/", "phone": "+12064024029", "address": "819 SW 152nd St", "hours": "Th-Su 13:00-17:00"}, "geometry": {"type": "Point", "coordinates": [-122.3454283, 47.466535]}}, {"type": "Feature", "properties": {"id": "fd2f4deb-e163-4d58-8be0-312b4d35d30a", "name": "Kinect", "category": "attraction", "tags": ["attraction", "landmark", "historical", "building"], "sources": ["overture"], "website": "https://www.kinectburien.com/?utm_knock=fb", "phone": "+12062038783", "address": "631 SW 150th St"}, "geometry": {"type": "Point", "coordinates": [-122.3428802, 47.4684982]}}, {"type": "Feature", "properties": {"id": "28eff440-41e6-400d-b98f-43a0a754b910", "name": "The Art Alley", "category": "gallery", "tags": ["gallery", "art"], "sources": ["overture"], "website": "http://www.b-townbeat.com/", "phone": "+12065043511", "address": "433 SW 152nd St"}, "geometry": {"type": "Point", "coordinates": [-122.3413773, 47.4665756]}}, {"type": "Feature", "properties": {"id": "7f3fd29f-bdb8-4d57-a8ea-bc5ee59608e7", "name": "Burien Town Square", "category": "attraction", "tags": ["attraction", "landmark", "historical", "building"], "sources": ["overture"], "website": "http://www.burientownsquare.com", "phone": "+12069010000", "address": "15100 6th Ave SW"}, "geometry": {"type": "Point", "coordinates": [-122.3413925, 47.4675369]}}, {"type": "Feature", "properties": {"id": "6745190a-bc4b-480e-b261-96feae2c8783", "name": "The Maverick", "category": "attraction", "tags": ["attraction", "landmark", "historical", "building"], "sources": ["overture"], "website": "https://www.themaverickburien.com/?utm_source=facebook&utm_medium=social", "phone": "+18883548023", "address": "15045 5th Ave SW"}, "geometry": {"type": "Point", "coordinates": [-122.3409195, 47.4683609]}}, {"type": "Feature", "properties": {"id": "9660a714-be7d-4459-be5b-1fe6f5f867d5", "name": "Royal Arms Apartment", "category": "attraction", "tags": ["attraction", "landmark", "historical", "building"], "sources": ["overture"], "website": "https://royal-arms-apartment.hub.biz/", "phone": "+12062446110", "address": "1050 SW 151st St"}, "geometry": {"type": "Point", "coordinates": [-122.3493042, 47.4678268]}}, {"type": "Feature", "properties": {"id": 166422594, "name": "Lakeview Park", "category": "park", "tags": ["park"], "sources": ["osm", "overture"], "website": "http://burienwa.gov/Facilities/Facility/Details/Lakeview-Park-11", "phone": "+12069883700", "address": "422 SW 160th St"}, "geometry": {"type": "Point", "coordinates": [-122.3409881, 47.4606062]}}, {"type": "Feature", "properties": {"id": 166422597, "name": "Town Square Park", "category": "park", "tags": ["park"], "sources": ["osm", "overture"], "website": "http://www.burienwa.gov/Facilities/Facility/Details/Town-Square-Park-20", "phone": "(206) 988-3700", "address": "5th Ave SW"}, "geometry": {"type": "Point", "coordinates": [-122.340342, 47.4674221]}}, {"type": "Feature", "properties": {"id": 166422598, "name": "Triangle Park", "category": "park", "tags": ["park"], "sources": ["osm"]}, "geometry": {"type": "Point", "coordinates": [-122.3443161, 47.4652319]}}, {"type": "Feature", "properties": {"id": 677178350, "name": "Tot play area", "category": "playground", "tags": ["playground"], "sources": ["osm"]}, "geometry": {"type": "Point", "coordinates": [-122.3404659, 47.460468]}}, {"type": "Feature", "properties": {"id": "8434efeb-4405-4848-99ca-7e37efcb60d4", "name": "Burien Toyota And Chevrolet Dog Park", "category": "park", "tags": ["park", "dog"], "sources": ["overture"], "website": "http://www.b-towndog.com", "phone": "+12069883700", "address": "15800 6th Ave SW"}, "geometry": {"type": "Point", "coordinates": [-122.3416367, 47.461216]}}, {"type": "Feature", "properties": {"id": "557f3c50-8756-4439-bdc6-f8ca74278f01", "name": "Seahurst Park", "category": "park", "tags": ["park"], "sources": ["overture"]}, "geometry": {"type": "Point", "coordinates": [-122.3455582, 47.4683266]}}, {"type": "Feature", "properties": {"id": "21486950-c114-4c95-b4ba-f3e0efc999f2", "name": "Three Bears Lodge", "category": "guest_house", "tags": ["guest-house", "bed", "breakfast"], "sources": ["overture"], "website": "https://www.threebearslodge.net", "phone": "(206) 241-8080", "address": "15111 8th Ave SW Ste 302"}, "geometry": {"type": "Point", "coordinates": [-122.3448639, 47.4674797]}}, {"type": "Feature", "properties": {"id": 557237728, "name": "PetSmart", "category": "pet", "tags": ["pet"], "sources": ["osm", "overture"], "website": "https://www.petsmart.com/stores/us/wa/burien-store2737.html", "phone": "+12065395761", "address": "14903 4th Ave SW Ste 200", "hours": "Mo-Sa 09:00-21:00; Su 10:00-19:00"}, "geometry": {"type": "Point", "coordinates": [-122.3412001, 47.4698992]}}, {"type": "Feature", "properties": {"id": 5583693462, "name": "The Painted Pooch", "category": "pet", "tags": ["pet"], "sources": ["osm"]}, "geometry": {"type": "Point", "coordinates": [-122.3436227, 47.4656999]}}, {"type": "Feature", "properties": {"id": 5583693471, "name": "La Bodegita", "category": "convenience", "tags": ["convenience"], "sources": ["osm"], "hours": "Mo-Su 09:00-21:00"}, "geometry": {"type": "Point", "coordinates": [-122.3460473, 47.466927]}}, {"type": "Feature", "properties": {"id": 5583693475, "name": "Jay Lauris Jeweler", "category": "jewelry", "tags": ["jewelry"], "sources": ["osm"], "hours": "Tu-Sa 11:00-18:00"}, "geometry": {"type": "Point", "coordinates": [-122.3466827, 47.4669302]}}, {"type": "Feature", "properties": {"id": 5583693492, "name": "Lucky U", "category": "clothes", "tags": ["clothes"], "sources": ["osm"], "address": "915 Southwest 152nd Street", "hours": "Tu-Fr 12:00-18:00; Sa 10:00-17:00"}, "geometry": {"type": "Point", "coordinates": [-122.3465898, 47.4666678]}}, {"type": "Feature", "properties": {"id": 5583693495, "name": "Three Trees Books", "category": "books", "tags": ["books"], "sources": ["osm", "overture"], "website": "http://www.threetreesbooks.com/", "phone": "+12064271745", "address": "827 SW 152nd St"}, "geometry": {"type": "Point", "coordinates": [-122.3456881, 47.4666552]}}, {"type": "Feature", "properties": {"id": 5583693497, "name": "Trillium Kids", "category": "clothes", "tags": ["clothes"], "sources": ["osm"], "address": "823 Southwest 152nd Street"}, "geometry": {"type": "Point", "coordinates": [-122.3455721, 47.4666518]}}, {"type": "Feature", "properties": {"id": 5583693501, "name": "Dog Day Out", "category": "pet", "tags": ["pet"], "sources": ["osm"], "address": "15227 Ambaum Boulevard Southwest"}, "geometry": {"type": "Point", "coordinates": [-122.3450164, 47.4660196]}}, {"type": "Feature", "properties": {"id": 5583694654, "name": "Town Square Burien Market", "category": "convenience", "tags": ["convenience", "supermarket"], "sources": ["osm", "overture"], "website": "http://www.burientownsquare.com", "phone": "+12068834165", "address": "660 SW 152nd St", "hours": "Mo-Sa 09:00-21:00; Su 10:00-21:00"}, "geometry": {"type": "Point", "coordinates": [-122.3443039, 47.4669207]}}, {"type": "Feature", "properties": {"id": 5583694663, "name": "The Electric Train Shop", "category": "toys", "tags": ["toys"], "sources": ["osm"], "address": "625 Southwest 152nd Street", "hours": "Tu-Sa 11:00-18:00"}, "geometry": {"type": "Point", "coordinates": [-122.342885, 47.4666891]}}, {"type": "Feature", "properties": {"id": 5583694665, "name": "Howard Marge Boutique", "category": "clothes", "tags": ["clothes", "shoemaker"], "sources": ["osm"], "address": "629 Southwest 152nd Street"}, "geometry": {"type": "Point", "coordinates": [-122.3430647, 47.4666678]}}, {"type": "Feature", "properties": {"id": 5583694702, "name": "Iris & Peony Floral & Home", "category": "florist", "tags": ["florist", "wheelchair-accessible"], "sources": ["osm"], "website": "https://www.irisandpeony.net/", "phone": "+1-206-242-3205", "address": "441 Southwest 152nd Street", "hours": "Su off; Mo-Fr 09:00-16:00; Sa 10:00-16:00; Jan 01 off \"New Year\u2019s Day\"; May Mo[-1] off \"Memorial Day\"; easter off \"Easter\"; Mar 19 off \"Father's Day\"; Jul 04 off \"Independence Day\"; Sep Mo[1] off \"Labor Day\"; Nov Th[4] off \"Thanksgiving\"; Dec 25 off"}, "geometry": {"type": "Point", "coordinates": [-122.3409585, 47.4666963]}}, {"type": "Feature", "properties": {"id": 5583694704, "name": "Citlali", "category": "gift", "tags": ["gift"], "sources": ["osm"], "address": "445 Southwest 152nd Street", "hours": "Tu-Th 10:00-18:00; Fr-Sa 10:00-16:00"}, "geometry": {"type": "Point", "coordinates": [-122.3412232, 47.4666982]}}, {"type": "Feature", "properties": {"id": 5658983871, "name": "Paty Furniture", "category": "furniture", "tags": ["furniture"], "sources": ["osm", "overture"], "website": "https://paty-furniture.com/pages/seattle-furniture-store", "phone": "+12064534228", "address": "14920 Ambaum Blvd SW", "hours": "Su closed; Mo-Sa 10:00-19:00"}, "geometry": {"type": "Point", "coordinates": [-122.345987, 47.4689569]}}, {"type": "Feature", "properties": {"id": 5658983904, "name": "La Venezolana", "category": "clothes", "tags": ["clothes"], "sources": ["osm"], "phone": "+12062503328", "address": "15021 Ambaum Boulevard Southwest", "hours": "Mo-Th 10:00-19:00; Fr,Sa 10:00-20:00"}, "geometry": {"type": "Point", "coordinates": [-122.3459172, 47.4679561]}}, {"type": "Feature", "properties": {"id": 5658983907, "name": "Paws & Relax", "category": "pet", "tags": ["pet"], "sources": ["osm"]}, "geometry": {"type": "Point", "coordinates": [-122.3462954, 47.4674846]}}, {"type": "Feature", "properties": {"id": 5912770954, "name": "Time Tunnel Records", "category": "music", "tags": ["music"], "sources": ["osm"], "website": "http://www.timetunnelrecords.com/", "phone": "+1-206-243-1579", "address": "14911 Ambaum Boulevard Southwest", "hours": "Mo-Th,Sa 12:00-17:00; Fr 12:00-16:00; Su off"}, "geometry": {"type": "Point", "coordinates": [-122.3466141, 47.4691707]}}, {"type": "Feature", "properties": {"id": 6340783286, "name": "The Shoppe Seahurst", "category": "gift", "tags": ["gift"], "sources": ["osm"], "address": "903 Southwest 152nd Street"}, "geometry": {"type": "Point", "coordinates": [-122.346116, 47.4666692]}}, {"type": "Feature", "properties": {"id": 6341617689, "name": "The Heart Gallery", "category": "art", "tags": ["art"], "sources": ["osm"], "address": "627 Southwest 153rd Street"}, "geometry": {"type": "Point", "coordinates": [-122.3430977, 47.4657007]}}, {"type": "Feature", "properties": {"id": 6341618099, "name": "Page 2 Books", "category": "books", "tags": ["books"], "sources": ["osm", "overture"], "website": "http://www.page2books.com", "phone": "+12062487248", "address": "560 SW 152nd St", "hours": "Mo-Fr 10:00-18:00, Sa 10:00-17:00, Su 10:00-16:00"}, "geometry": {"type": "Point", "coordinates": [-122.3413254, 47.4669739]}}, {"type": "Feature", "properties": {"id": 10816741706, "name": "Glass Expressions", "category": "gift", "tags": ["gift"], "sources": ["osm"], "address": "648 Southwest 152nd Street", "hours": "Tu-Sa 12:00-15:00"}, "geometry": {"type": "Point", "coordinates": [-122.3440933, 47.4669452]}}, {"type": "Feature", "properties": {"id": "7e75b1ea-5ac4-42cb-a8ab-52d10a66469e", "name": "Iris & Peony", "category": "florist", "tags": ["florist"], "sources": ["overture"], "website": "https://irisandpeony.net", "phone": "12062423205", "address": "441 SW 152nd St"}, "geometry": {"type": "Point", "coordinates": [-122.3409576, 47.466568]}}, {"type": "Feature", "properties": {"id": 14093597001, "name": "Natural Pet Pantry", "category": "pet", "tags": ["pet"], "sources": ["osm", "overture"], "website": "https://naturalpetpantry.com", "phone": "12062481079", "address": "804 SW 151st St", "hours": "Tu-Sa 11:00-18:00"}, "geometry": {"type": "Point", "coordinates": [-122.344785, 47.4679342]}}, {"type": "Feature", "properties": {"id": "1570a822-bd1d-414e-ae6b-e530f073303e", "name": "Big Lots", "category": "variety_store", "tags": ["variety-store", "discount"], "sources": ["overture"], "website": "local.biglots.com", "phone": "12067011357", "address": "14907 4th Ave SW"}, "geometry": {"type": "Point", "coordinates": [-122.3410492, 47.468914]}}, {"type": "Feature", "properties": {"id": 557237641, "name": "Split Level Modern", "category": "furniture", "tags": ["furniture"], "sources": ["osm", "overture"], "website": "http://splitlevelmodern.com", "phone": "12069284474", "address": "453 SW 153rd St", "hours": "Th-Su 11:00-18:00"}, "geometry": {"type": "Point", "coordinates": [-122.3413977, 47.4656297]}}, {"type": "Feature", "properties": {"id": 557237730, "name": "SaveOn", "category": "department_store", "tags": ["department-store"], "sources": ["osm"], "phone": "+1-253-424-3731", "address": "14907 4th Avenue Southwest", "hours": "10:00-19:00"}, "geometry": {"type": "Point", "coordinates": [-122.3411822, 47.4689411]}}, {"type": "Feature", "properties": {"id": 627306504, "name": "Camp Crockett Dog Day Camp", "category": "pet", "tags": ["pet", "wheelchair-accessible"], "sources": ["osm"], "website": "https://www.campcrockett.com/burien-camp.html", "address": "626 Southwest 154th Street", "hours": "Mo-Fr 06:30-19:00; Sa,Su 07:00-19:00"}, "geometry": {"type": "Point", "coordinates": [-122.3429821, 47.4652602]}}, {"type": "Feature", "properties": {"id": 677180132, "name": "Ronnie's Market", "category": "convenience", "tags": ["convenience", "supermarket"], "sources": ["osm", "overture"], "address": "15321 8th Ave SW"}, "geometry": {"type": "Point", "coordinates": [-122.3449411, 47.465255]}}, {"type": "Feature", "properties": {"id": 1163077651, "name": "Tikal Tienda y Panaderia", "category": "convenience", "tags": ["convenience"], "sources": ["osm"], "phone": "+1-206-767-2432", "address": "15420 Ambaum Boulevard Southwest"}, "geometry": {"type": "Point", "coordinates": [-122.3431812, 47.4642988]}}, {"type": "Feature", "properties": {"id": "542c5db4-b8ab-405c-ab8b-ed6919299450", "name": "The Best Selection", "category": "clothes", "tags": ["clothes"], "sources": ["overture"], "phone": "+12063835991", "address": "14900 Ambaum Blvd SW"}, "geometry": {"type": "Point", "coordinates": [-122.3459702, 47.469326]}}, {"type": "Feature", "properties": {"id": "06338213-5aa8-4fb5-bf24-1b264e94e6d3", "name": "Worth the Weight", "category": "jewelry", "tags": ["jewelry"], "sources": ["overture"], "phone": "+12064745052", "address": "620 SW 149th St #D"}, "geometry": {"type": "Point", "coordinates": [-122.3427277, 47.4697304]}}, {"type": "Feature", "properties": {"id": "24ab06f1-8292-44e7-89f2-ec0d802aa79d", "name": "Qfc-quality Food Centers, Inc.", "category": "supermarket", "tags": ["supermarket"], "sources": ["overture"], "website": "https://www.thekrogerco.com", "phone": "+12062440332", "address": "14905 4th Ave SW"}, "geometry": {"type": "Point", "coordinates": [-122.3408585, 47.4695435]}}, {"type": "Feature", "properties": {"id": "68314c6f-af8f-42c1-acd9-6713fd07e0d4", "name": "Red Wing Shoes", "category": "shoes", "tags": ["shoes", "shoe"], "sources": ["overture"], "website": "http://burien.redwingshoestore.com", "phone": "(206) 246-3322"}, "geometry": {"type": "Point", "coordinates": [-122.3431473, 47.4656296]}}, {"type": "Feature", "properties": {"id": "08511d9c-b95f-4241-b990-fa3a001de3e0", "name": "Gehl Flowers & Gifts", "category": "florist", "tags": ["florist"], "sources": ["overture"], "website": "http://www.irisandpeony.com", "phone": "(206) 242-3205", "address": "SW 152nd St"}, "geometry": {"type": "Point", "coordinates": [-122.3409882, 47.4665833]}}, {"type": "Feature", "properties": {"id": "4596af2f-337f-414d-b79a-5979cad23ba6", "name": "Pickled and Preserved", "category": "deli", "tags": ["deli", "delicatessen"], "sources": ["overture"], "website": "http://pickledpreserved.com", "phone": "(206) 457-4258", "address": "546 SW 152nd St"}, "geometry": {"type": "Point", "coordinates": [-122.3409348, 47.4669685]}}, {"type": "Feature", "properties": {"id": "374d4655-75f9-4d62-ab61-d5a31e3e9460", "name": "A Place For Pets", "category": "pet", "tags": ["pet"], "sources": ["overture"], "website": "lekker209.com", "phone": "2062443502", "address": "431 SW 152nd St"}, "geometry": {"type": "Point", "coordinates": [-122.3406143, 47.4665718]}}, {"type": "Feature", "properties": {"id": "2d86f51b-53ee-4d18-901c-35301f59a683", "name": "ZingFix", "category": "doityourself", "tags": ["doityourself", "home", "improvement"], "sources": ["overture"], "website": "http://www.zingfix.com/", "phone": "+18442767801", "address": "455 SW 152nd St"}, "geometry": {"type": "Point", "coordinates": [-122.3416138, 47.4666748]}}, {"type": "Feature", "properties": {"id": "60ccb7c7-6a37-4820-89bd-1451f8c1b510", "name": "Dry Spell Non-Alcoholic Bottle Shop", "category": "alcohol", "tags": ["alcohol"], "sources": ["overture"], "website": "http://www.dryspellbottleshop.com/", "phone": "+12065952572", "address": "636 SW 152nd St Ste E"}, "geometry": {"type": "Point", "coordinates": [-122.3432541, 47.4669838]}}, {"type": "Feature", "properties": {"id": "0d11ef6e-c5cd-436f-8c70-b4828405a924", "name": "Bumbershoot Books", "category": "books", "tags": ["books"], "sources": ["overture"], "website": "http://www.bumbershoot-books.com", "phone": "(206) 241-2665", "address": "639 SW 152nd St"}, "geometry": {"type": "Point", "coordinates": [-122.3436127, 47.4665565]}}, {"type": "Feature", "properties": {"id": "f6ed074d-dc3f-41aa-a6b2-9f05fbac8c81", "name": "Sitka Living", "category": "furniture", "tags": ["furniture"], "sources": ["overture"], "website": "http://www.sitkaliving.com/", "phone": "+12062484238", "address": "648 SW 152nd St"}, "geometry": {"type": "Point", "coordinates": [-122.3440704, 47.4668465]}}, {"type": "Feature", "properties": {"id": "29e0edfc-53a6-4af8-9f9f-3a116b863a73", "name": "Miller Paint", "category": "hardware", "tags": ["hardware"], "sources": ["overture"], "website": "http://www.millerpaint.com/", "phone": "+12062417000", "address": "636 SW 152nd St"}, "geometry": {"type": "Point", "coordinates": [-122.343544, 47.4672127]}}, {"type": "Feature", "properties": {"id": "c76f7ecb-3092-414c-a5db-47f23ebd8bc6", "name": "Ferrara Jewelers", "category": "jewelry", "tags": ["jewelry"], "sources": ["overture"], "website": "http://ferrarajewelers.com/", "phone": "+12065578391", "address": "15020 Ambaum Blvd SW UNIT D"}, "geometry": {"type": "Point", "coordinates": [-122.3453751, 47.4680481]}}, {"type": "Feature", "properties": {"id": "bf2f89f3-bd8c-4b31-92ad-6ead55e80dbf", "name": "Lakeside Local Foods Llc", "category": "supermarket", "tags": ["supermarket"], "sources": ["overture"], "address": "810 SW 151st St"}, "geometry": {"type": "Point", "coordinates": [-122.3450317, 47.4679947]}}, {"type": "Feature", "properties": {"id": "aecdc532-10e7-47c2-af35-bf8d40b1c10e", "name": "Eat Local", "category": "supermarket", "tags": ["supermarket"], "sources": ["overture"], "website": "http://www.eatlocalonline.com", "phone": "(206) 432-9849", "address": "810 SW 151st St"}, "geometry": {"type": "Point", "coordinates": [-122.344902, 47.4680061]}}, {"type": "Feature", "properties": {"id": "43abbe79-9314-445c-81c4-aed98f21a9f8", "name": "Start Fresh Bakery Deli Natural Market", "category": "supermarket", "tags": ["supermarket"], "sources": ["overture"], "phone": "+12064207383", "address": "816 SW 152nd St"}, "geometry": {"type": "Point", "coordinates": [-122.3455963, 47.4670334]}}, {"type": "Feature", "properties": {"id": "e0db50ef-9c27-4e3d-b7e5-d71b6a14c890", "name": "Jay Lauris Jewelry", "category": "jewelry", "tags": ["jewelry"], "sources": ["overture"], "website": "http://jaylaurisjewelry.placeweb.site", "phone": "(206) 243-9890", "address": "920 SW 152nd St"}, "geometry": {"type": "Point", "coordinates": [-122.3467331, 47.4669037]}}, {"type": "Feature", "properties": {"id": "9e0e6b7a-6593-4bbb-8ea2-210bb4fd52de", "name": "Howard and Marge", "category": "clothes", "tags": ["clothes"], "sources": ["overture"], "website": "http://www.howardandmarge.com", "phone": "(206) 453-5454", "address": "901 SW 152nd St"}, "geometry": {"type": "Point", "coordinates": [-122.3461685, 47.4666328]}}, {"type": "Feature", "properties": {"id": "98c4f808-6f29-44e8-b9e1-ae231d165f03", "name": "Burien Mattress", "category": "furniture", "tags": ["furniture"], "sources": ["overture"], "website": "https://burienmattress.com", "phone": "12066870070", "address": "15415 Ambaum Blvd SW"}, "geometry": {"type": "Point", "coordinates": [-122.3441544, 47.464592]}}, {"type": "Feature", "properties": {"id": "5f21bf88-256a-40e0-80fb-557c864a5c34", "name": "Dan The Sausage Man", "category": "gift", "tags": ["gift", "souvenir"], "sources": ["overture"], "website": "https://www.danthesausageman.com", "phone": "+12062442028", "address": "923 SW 152nd St"}, "geometry": {"type": "Point", "coordinates": [-122.3468704, 47.4665146]}}, {"type": "Feature", "properties": {"id": "f1ed4f76-2ea4-40b4-a41c-5a29033c7ec9", "name": "Shannon Koszyk Collection", "category": "jewelry", "tags": ["jewelry"], "sources": ["overture"], "website": "https://www.shannonkoszyk.com", "phone": "+12069203029", "address": "923 SW 152nd St"}, "geometry": {"type": "Point", "coordinates": [-122.3468704, 47.4665146]}}, {"type": "Feature", "properties": {"id": 5583694676, "name": "KeyBank", "category": "bank", "tags": ["bank", "credit", "union"], "sources": ["osm", "overture"], "website": "https://www.key.com/locations/WA/Burien/BRCH47310005/655-Sw-152nd-St?ppc=cmpyxt", "phone": "+12062419348", "address": "655 SW 152nd St", "hours": "Mo-Th 09:00-17:00; Fr 09:00-18:00; Sa 10:00-13:30"}, "geometry": {"type": "Point", "coordinates": [-122.3441081, 47.4666052]}}, {"type": "Feature", "properties": {"id": 5583694677, "name": "Wells Fargo", "category": "bank", "tags": ["bank", "credit", "union"], "sources": ["osm", "overture"], "website": "http://www.wellsfargo.com", "phone": "+12064336262", "address": "800 Sw 152 Nd St", "hours": "Mo-Fr 09:00-17:00; Sa 09:00-14:00"}, "geometry": {"type": "Point", "coordinates": [-122.3447729, 47.4669525]}}, {"type": "Feature", "properties": {"id": 5583694976, "name": "BECU", "category": "bank", "tags": ["bank"], "sources": ["osm"], "website": "https://www.becu.org/", "phone": "+1-800-233-2328", "address": "508 Southwest 152nd Street", "hours": "Su closed; Mo-Fr 09:00-18:00; Sa 09:00-13:00"}, "geometry": {"type": "Point", "coordinates": [-122.340744, 47.4669751]}}, {"type": "Feature", "properties": {"id": 294862131, "name": "Burien Post Office", "category": "post_office", "tags": ["post-office", "office"], "sources": ["osm", "overture"], "website": "http://burien.postofficehours.us/Washington/BURIEN/609-SW-150TH-ST-98166/", "phone": "+12062488647", "address": "609 SW 150th St"}, "geometry": {"type": "Point", "coordinates": [-122.3423655, 47.4682541]}}, {"type": "Feature", "properties": {"id": "bbf17f75-b674-4198-a262-b68671f9602f", "name": "King County Library System", "category": "library", "tags": ["library"], "sources": ["overture"], "website": "http://kcls.org", "phone": "+12062433490", "address": "14700 6th Ave SW"}, "geometry": {"type": "Point", "coordinates": [-122.342247, 47.4694595]}}, {"type": "Feature", "properties": {"id": "1ace9951-b79e-41d9-9809-0a10716beeef", "name": "United States Postal Service", "category": "post_office", "tags": ["post-office", "office"], "sources": ["overture"], "website": "https://tools.usps.com/find-location.htm?location=1356360", "phone": "+18002758777", "address": "609 SW 150th St"}, "geometry": {"type": "Point", "coordinates": [-122.3424835, 47.4684143]}}, {"type": "Feature", "properties": {"id": 557237731, "name": "LA Fitness", "category": "fitness_centre", "tags": ["fitness-centre", "wifi", "gym"], "sources": ["osm", "overture"], "website": "https://www.lafitness.com/Pages/clubhome.aspx?clubid=1048&&utm_source=facebook&utm_medium=facebooklocations&utm_campaign=maps", "phone": "+12067013446", "address": "14905 4th Ave SW"}, "geometry": {"type": "Point", "coordinates": [-122.3411988, 47.4694597]}}, {"type": "Feature", "properties": {"id": "49e92a86-f87e-47e8-b4a4-d7791c61012f", "name": "Karuna Arts Yoga", "category": "fitness_centre", "tags": ["fitness-centre", "yoga", "studio"], "sources": ["overture"], "website": "http://www.normandyparkyoga.com/", "phone": "(206) 878-9642", "address": "819 SW 152nd St"}, "geometry": {"type": "Point", "coordinates": [-122.3453598, 47.4665985]}}, {"type": "Feature", "properties": {"id": 5583693468, "name": "The Jungle Gym", "category": "fitness_centre", "tags": ["fitness-centre"], "sources": ["osm"], "website": "https://www.junglegymfun.com/", "phone": "+12062483547", "address": "816 Southwest 152nd Street", "hours": "Mo-Th 09:00-19:00; Fr,Sa 09:00-21:00; Su 09:00-18:00"}, "geometry": {"type": "Point", "coordinates": [-122.3452889, 47.4668845]}}, {"type": "Feature", "properties": {"id": 5583694648, "name": "Be Yoga Burien", "category": "fitness_centre", "tags": ["fitness-centre", "yoga", "studio"], "sources": ["osm", "overture"], "website": "http://beyoga.com/", "phone": "+12064578267", "address": "636 SW 152nd St"}, "geometry": {"type": "Point", "coordinates": [-122.3435703, 47.4669516]}}, {"type": "Feature", "properties": {"id": 5583694671, "name": "BodyStrong", "category": "fitness_centre", "tags": ["fitness-centre"], "sources": ["osm"], "address": "639 Southwest 152nd Street"}, "geometry": {"type": "Point", "coordinates": [-122.343575, 47.4666619]}}, {"type": "Feature", "properties": {"id": "f1f6d54d-7cc5-4608-a73f-4203b5aaca83", "name": "Bodystrong", "category": "fitness_centre", "tags": ["fitness-centre", "gym"], "sources": ["overture"], "website": "https://www.trainbodystrong.com/", "phone": "+12067081384", "address": "457 SW 153rd St"}, "geometry": {"type": "Point", "coordinates": [-122.3416519, 47.4656677]}}]}