{"type": "FeatureCollection", "features": [{"type": "Feature", "properties": {"id": 2934750067, "name": "Starbucks", "category": "cafe", "tags": ["cafe", "coffee-shop", "takeaway", "wifi"], "sources": ["osm", "overture"], "website": "https://www.starbucks.com/store-locator/store/1006595/", "phone": "+14256720481", "address": "6208 196th St Sw Lynnwood Crossing"}, "geometry": {"type": "Point", "coordinates": [-122.317442, 47.8208833]}}, {"type": "Feature", "properties": {"id": 3517854174, "name": "Starbucks", "category": "cafe", "tags": ["cafe", "coffee-shop", "takeaway", "coffee"], "sources": ["osm", "overture"], "website": "https://www.starbucks.com/store-locator/store/13763", "phone": "4256709803", "address": "19500 Pacific Highway", "hours": "Mo-Su 06:00-18:00"}, "geometry": {"type": "Point", "coordinates": [-122.3164559, 47.8223945]}}, {"type": "Feature", "properties": {"id": 2934750070, "name": "Qdoba", "category": "fast_food", "tags": ["fast-food", "mexican", "takeaway"], "sources": ["osm"], "website": "https://locations.qdoba.com/us/wa/lynnwood/6208-196th-st-sw.html", "phone": "+1-425-672-2789", "address": "6208 196th Street Southwest", "hours": "10:30-22:00"}, "geometry": {"type": "Point", "coordinates": [-122.317037, 47.8208661]}}, {"type": "Feature", "properties": {"id": 12454303835, "name": "Papa Murphy\u2019s", "category": "fast_food", "tags": ["fast-food", "pizza"], "sources": ["osm"], "hours": "Mo-Su 11:00-20:00"}, "geometry": {"type": "Point", "coordinates": [-122.3165054, 47.8227876]}}, {"type": "Feature", "properties": {"id": 345120822, "name": "Caffe Ladro", "category": "cafe", "tags": ["cafe", "coffee-shop", "coffee"], "sources": ["osm", "overture"], "website": "http://CaffeLadro.com/", "phone": "+14252482050", "address": "6314 196th St SW", "hours": "Mo-Fr 06:00-18:00; Sa-Su 07:00-18:00"}, "geometry": {"type": "Point", "coordinates": [-122.3189597, 47.8209367]}}, {"type": "Feature", "properties": {"id": 2934750078, "name": "Five Guys", "category": "fast_food", "tags": ["fast-food", "burger", "outdoor-seating", "takeaway", "fast", "food", "american"], "sources": ["osm", "overture"], "website": "https://restaurants.fiveguys.com/19620-highway-99", "phone": "+14256709915", "address": "19620 Highway 99 Ste.101", "hours": "11:00-22:00"}, "geometry": {"type": "Point", "coordinates": [-122.3158528, 47.820909]}}, {"type": "Feature", "properties": {"id": 2934750079, "name": "Jersey Mike's Subs", "category": "fast_food", "tags": ["fast-food", "sandwich", "takeaway"], "sources": ["osm"], "website": "https://www.jerseymikes.com/18039/lynnwood-wa", "address": "19620 Pacific Highway", "hours": "10:00-21:00"}, "geometry": {"type": "Point", "coordinates": [-122.3159476, 47.8207898]}}, {"type": "Feature", "properties": {"id": 2934750081, "name": "Best Sushi Teriyaki", "category": "restaurant", "tags": ["restaurant", "sushi"], "sources": ["osm"], "phone": "+1-425-673-7373", "address": "19620 Pacific Highway", "hours": "Mo-Sa 11:00-20:00; Su off"}, "geometry": {"type": "Point", "coordinates": [-122.3160877, 47.8205938]}}, {"type": "Feature", "properties": {"id": 4289585387, "name": "Dough Zone", "category": "restaurant", "tags": ["restaurant", "chinese"], "sources": ["osm"], "address": "19702 Highway 99"}, "geometry": {"type": "Point", "coordinates": [-122.3164371, 47.8201474]}}, {"type": "Feature", "properties": {"id": 5373650336, "name": "Highway Teriyaki", "category": "restaurant", "tags": ["restaurant", "asian", "japanese"], "sources": ["osm", "overture"], "website": "https://www.2go2go.com/lunchspecialtime/lunchspecialcheck.asp?n=4414", "phone": "+14257765187", "address": "19312 60th Ave W"}, "geometry": {"type": "Point", "coordinates": [-122.3164392, 47.8234972]}}, {"type": "Feature", "properties": {"id": 1334310603, "name": "Chick-fil-A", "category": "fast_food", "tags": ["fast-food", "chicken", "indoor-seating", "takeaway", "delivery", "drive-through", "fast", "food", "american"], "sources": ["osm", "overture"], "website": "https://lynnwoodchamber.org/the-best-of-lynnwood/", "phone": "+14253215566", "address": "19615 Hwy 99", "hours": "Mo-Sa 06:30-21:00; Su off"}, "geometry": {"type": "Point", "coordinates": [-122.3150248, 47.820702]}}, {"type": "Feature", "properties": {"id": 13234881684, "name": "\uc7a5\uc548\uc124\ub801\ud0d5JangAn Sullungtang", "category": "restaurant", "tags": ["restaurant", "korean"], "sources": ["osm"], "address": "19520 Hwy 99"}, "geometry": {"type": "Point", "coordinates": [-122.3168552, 47.8216066]}}, {"type": "Feature", "properties": {"id": 13234913842, "name": "Sumo Sushi & Grill AYCE - Lynnwood", "category": "restaurant", "tags": ["restaurant", "sushi"], "sources": ["osm"], "address": "19428 Hwy 99", "hours": "Su-Th 11:00-21:30; Fr-Sa 11:00-22:00"}, "geometry": {"type": "Point", "coordinates": [-122.3148811, 47.8222027]}}, {"type": "Feature", "properties": {"id": 418866395, "name": "Gourmet Latte Espresso Stand", "category": "cafe", "tags": ["cafe", "coffee-shop"], "sources": ["osm"]}, "geometry": {"type": "Point", "coordinates": [-122.3191993, 47.821485]}}, {"type": "Feature", "properties": {"id": 665970960, "name": "New Gangnam", "category": "restaurant", "tags": ["restaurant", "korean"], "sources": ["osm"], "website": "http://www.newgangnam.com"}, "geometry": {"type": "Point", "coordinates": [-122.3132338, 47.8239832]}}, {"type": "Feature", "properties": {"id": "e8833b45-1d46-41b0-9865-381b955d173b", "name": "Pizza Takeout & Delivery", "category": "fast_food", "tags": ["fast-food", "fast", "food"], "sources": ["overture"], "website": "https://locations.papamurphys.com/wa/lynnwood/19410-60th-avenue-west"}, "geometry": {"type": "Point", "coordinates": [-122.3166504, 47.8227386]}}, {"type": "Feature", "properties": {"id": "d3c156ba-20f7-4602-a90a-5f7daaed03bf", "name": "Jersey Mike's", "category": "restaurant", "tags": ["restaurant", "sandwich", "fast-food"], "sources": ["overture"], "website": "https://www.jerseymikes.com/18039/lynnwood-wa", "phone": "+14252457214", "address": "19620 Highway 99"}, "geometry": {"type": "Point", "coordinates": [-122.3161011, 47.8208313]}}, {"type": "Feature", "properties": {"id": "218cec8c-6871-4010-89c5-723b5bed93bf", "name": "Qdoba Mexican Grill", "category": "restaurant", "tags": ["restaurant", "mexican", "taco", "texmex"], "sources": ["overture"], "website": "https://locations.qdoba.com/us/wa/lynnwood/6208-196th-st-sw", "phone": "+14256722789", "address": "6208 196th St SW Lynnwood"}, "geometry": {"type": "Point", "coordinates": [-122.3170319, 47.8208923]}}, {"type": "Feature", "properties": {"id": "36d9fc0d-3095-4407-9e84-37cf29be6c25", "name": "Papa Murphy's | Take 'N' Bake Pizza", "category": "restaurant", "tags": ["restaurant", "pizza"], "sources": ["overture"], "website": "https://locations.papamurphys.com/wa/lynnwood/19410-60th-avenue-west?utm_source=organic&utm_medium=bing&utm_campaign=yext&y_source=1_MTU0Mjk3NzUtNDgzLWxvY2F0aW9uLndlYnNpdGU%3D", "phone": "4256702778", "address": "19410 60th Avenue West, Suite B"}, "geometry": {"type": "Point", "coordinates": [-122.3166504, 47.8227386]}}, {"type": "Feature", "properties": {"id": "75a0f16d-e30b-40dc-a8b7-5cbebfcba89a", "name": "Nothing Bundt Cakes", "category": "bakery", "tags": ["bakery"], "sources": ["overture"], "website": "https://www.nothingbundtcakes.com/cakes?utm_source=facebook&utm_medium=local&utm_campaign=website_link&bakery=488", "phone": "+14254090162", "address": "19620 Hwy 99 Ste 110"}, "geometry": {"type": "Point", "coordinates": [-122.3162689, 47.8205032]}}, {"type": "Feature", "properties": {"id": "bf76d58f-c53b-4f17-ae14-60b6199e0e7a", "name": "Gourmet Latte #1", "category": "cafe", "tags": ["cafe", "coffee"], "sources": ["overture"], "website": "http://www.gourmetlatte.com", "phone": "+14256402247", "address": "6323 196th St SW"}, "geometry": {"type": "Point", "coordinates": [-122.3192139, 47.8213882]}}, {"type": "Feature", "properties": {"id": "b2efa208-a7b1-4214-907f-7294a0e59246", "name": "Hops n Drops", "category": "bar", "tags": ["bar", "barbecue", "burger", "soup"], "sources": ["overture"], "website": "https://hopsndrops.com/", "phone": "4252457901", "address": "19702 Highway 99"}, "geometry": {"type": "Point", "coordinates": [-122.3161163, 47.8201218]}}, {"type": "Feature", "properties": {"id": "13ed261a-c4bd-4131-9f61-27189b60e6bc", "name": "Yrek Management Inc", "category": "restaurant", "tags": ["restaurant"], "sources": ["overture"], "address": "19620 Highway 99 Ste 108"}, "geometry": {"type": "Point", "coordinates": [-122.3160324, 47.8204994]}}, {"type": "Feature", "properties": {"id": "44702afc-fc8f-4e8d-9937-13d9e8c0a907", "name": "Best Sushi and Teriyaki", "category": "restaurant", "tags": ["restaurant", "japanese", "sushi", "asian"], "sources": ["overture"], "phone": "+14256737373", "address": "19620 Hwy 99"}, "geometry": {"type": "Point", "coordinates": [-122.3162537, 47.8205795]}}, {"type": "Feature", "properties": {"id": "d9bbd507-fadd-4993-b86a-9ce2c1096197", "name": "Poke Pekoe", "category": "restaurant", "tags": ["restaurant", "poke", "hawaiian"], "sources": ["overture"], "website": "https://www.pokepekoelynwood.com/?utm_source=bing&utm_medium=websiteurl&utm_campaign=search", "phone": "4255828538", "address": "19520 Highway 99, Ste 100"}, "geometry": {"type": "Point", "coordinates": [-122.3167496, 47.8215599]}}, {"type": "Feature", "properties": {"id": "57909fee-de52-46eb-b10e-751b9a4235d2", "name": "Taka Sushi", "category": "restaurant", "tags": ["restaurant", "sushi"], "sources": ["overture"], "website": "http://mytakasushi.com/index.htm", "phone": "(425) 774-7146", "address": "18904 Highway 99"}, "geometry": {"type": "Point", "coordinates": [-122.3108444, 47.8272591]}}, {"type": "Feature", "properties": {"id": "b7a26ac2-18af-43d0-bcbe-797570a53bbf", "name": "Rinconcito Peruano", "category": "restaurant", "tags": ["restaurant", "peruvian", "latin-american"], "sources": ["overture"], "website": "http://rinconcito-peruano.com", "phone": "+14259675688", "address": "18904 Highway 99"}, "geometry": {"type": "Point", "coordinates": [-122.3110962, 47.827095]}}, {"type": "Feature", "properties": {"id": "5db4efe2-c400-4a30-884d-8f7af53f6faf", "name": "F.O.E 2888", "category": "bar", "tags": ["bar"], "sources": ["overture"], "website": "http://www.foe.com", "phone": "(425) 776-8075", "address": "19223 Highway 99"}, "geometry": {"type": "Point", "coordinates": [-122.3117371, 47.823967]}}, {"type": "Feature", "properties": {"id": "5fd2587a-83a7-47bb-a5c8-5d6c52ddedd2", "name": "Turmeric 'n More -", "category": "restaurant", "tags": ["restaurant", "health-food", "health", "food"], "sources": ["overture"], "website": "http://www.turmericnmore.com", "address": "5903 196th St SW"}, "geometry": {"type": "Point", "coordinates": [-122.3127747, 47.8214531]}}, {"type": "Feature", "properties": {"id": "8d39faa9-4839-40f0-b70b-abd615e09403", "name": "Sura Korean Barbeque & Traditional Food", "category": "restaurant", "tags": ["restaurant", "korean", "barbecue"], "sources": ["overture"], "website": "http://arirangkoreanbbq.com", "phone": "+14257712502", "address": "19226 WA-99"}, "geometry": {"type": "Point", "coordinates": [-122.3132477, 47.8239822]}}, {"type": "Feature", "properties": {"id": "6ce0fd1d-790b-4a73-b73f-8d0543484d85", "name": "New Gangnam BBQ", "category": "restaurant", "tags": ["restaurant", "korean", "barbecue", "asian"], "sources": ["overture"], "website": "http://newgangnam.com/", "phone": "+14257712502", "address": "19226 Hwy 99"}, "geometry": {"type": "Point", "coordinates": [-122.3133087, 47.8239555]}}, {"type": "Feature", "properties": {"id": "adbad08b-8f7e-401f-b1dc-9a400a8439ca", "name": "L&L Hawaiian BBQ", "category": "restaurant", "tags": ["restaurant", "hawaiian"], "sources": ["overture"], "website": "http://hawaiianbarbecue.com/", "phone": "(425) 771-7629", "address": "19709 Highway 99"}, "geometry": {"type": "Point", "coordinates": [-122.3130798, 47.8200645]}}, {"type": "Feature", "properties": {"id": 351006572, "name": "Daleway Park", "category": "park", "tags": ["park"], "sources": ["osm"], "hours": "sunrise-sunset"}, "geometry": {"type": "Point", "coordinates": [-122.3169537, 47.8261717]}}, {"type": "Feature", "properties": {"id": "1f45970d-2756-4a71-bd01-fd96bb13d9cf", "name": "Dale Way Neighborhood Park", "category": "park", "tags": ["park"], "sources": ["overture"], "website": "http://www.ci.lynnwood.wa.us/PlayLynnwood/Parks/North-Lynnwood-Park.htm", "address": "19001 64th Ave W"}, "geometry": {"type": "Point", "coordinates": [-122.3182526, 47.8252029]}}, {"type": "Feature", "properties": {"id": "40837906-796c-4257-b4b4-ca6016774d8b", "name": "Petco", "category": "pet", "tags": ["pet"], "sources": ["overture"], "website": "http://www.petco.com", "phone": "+14256701642", "address": "19500 Highway 99"}, "geometry": {"type": "Point", "coordinates": [-122.3166275, 47.8224487]}}, {"type": "Feature", "properties": {"id": 2102155075, "name": "Half Price Books", "category": "books", "tags": ["books"], "sources": ["osm", "overture"], "website": "https://www.hpb.com/store?storeid=HPB-071&showMap=true&horizontalView=true&isForm=true&y_source=1_MTExNTQwNy01NTktbG9jYXRpb24ud2Vic2l0ZQ%3D%3D", "phone": "+14257768885", "address": "19520 Hwy 99 #103", "hours": "Mo-Su 10:00-20:00"}, "geometry": {"type": "Point", "coordinates": [-122.316561, 47.8217306]}}, {"type": "Feature", "properties": {"id": 2102155082, "name": "Safeway", "category": "supermarket", "tags": ["supermarket"], "sources": ["osm"], "website": "https://local.safeway.com/safeway/wa/lynnwood/19500-hwy-99-suite-110.html", "phone": "+1-425-670-9803", "address": "19500 Highway 99", "hours": "Mo-Fr 05:00-24:00; Sa 05:00-24:00; Su 05:00-24:00"}, "geometry": {"type": "Point", "coordinates": [-122.3165966, 47.8222949]}}, {"type": "Feature", "properties": {"id": 350959502, "name": "PetSmart", "category": "pet", "tags": ["pet"], "sources": ["osm"], "website": "https://www.petsmart.com/stores/us/wa/lynnwood-store0372.html", "phone": "+1-425-672-4422", "address": "18820 Highway 99", "hours": "Mo-Sa 09:00-21:00; Su 10:00-19:00"}, "geometry": {"type": "Point", "coordinates": [-122.3105575, 47.8277898]}}, {"type": "Feature", "properties": {"id": 13921380801, "name": "Hallmark", "category": "gift", "tags": ["gift"], "sources": ["osm"], "hours": "Mo-Sa 10:00-20:00; Su 11:00-18:00"}, "geometry": {"type": "Point", "coordinates": [-122.3165695, 47.8219592]}}, {"type": "Feature", "properties": {"id": "aa3281d3-1440-4271-919a-a322ffe848da", "name": "Rocket", "category": "convenience", "tags": ["convenience"], "sources": ["overture"], "address": "19615 Hwy 99"}, "geometry": {"type": "Point", "coordinates": [-122.3150177, 47.8207054]}}, {"type": "Feature", "properties": {"id": "883ef88c-044c-4e4d-804e-734e7f5caa47", "name": "Balkan Market", "category": "supermarket", "tags": ["supermarket"], "sources": ["overture"], "website": "http://www.balkanmarketltd.com", "phone": "(425) 771-8885", "address": "18904 Highway 99 Ste M"}, "geometry": {"type": "Point", "coordinates": [-122.3107147, 47.8272934]}}, {"type": "Feature", "properties": {"id": 11149179540, "name": "GogoMart International Grocery", "category": "supermarket", "tags": ["supermarket"], "sources": ["osm"], "address": "5911 196th Street Southwest", "hours": "10:00-21:00"}, "geometry": {"type": "Point", "coordinates": [-122.3132975, 47.8214149]}}, {"type": "Feature", "properties": {"id": 13088726409, "name": "T&T", "category": "supermarket", "tags": ["supermarket"], "sources": ["osm"], "address": "6218 196th Street Southwest", "hours": "Mo-Su 09:00-21:00"}, "geometry": {"type": "Point", "coordinates": [-122.3157209, 47.8208753]}}, {"type": "Feature", "properties": {"id": 702308890, "name": "T&T Supermarket", "category": "supermarket", "tags": ["supermarket"], "sources": ["osm"], "phone": "+1-425-648-2648", "address": "19630 Highway 99", "hours": "Mo-Su 09:00-22:00"}, "geometry": {"type": "Point", "coordinates": [-122.3190014, 47.820171]}}, {"type": "Feature", "properties": {"id": 351005940, "name": "Central Welding Supply", "category": "hardware", "tags": ["hardware"], "sources": ["osm"], "website": "https://www.centralwelding.com/lynnwood", "phone": "+1-425-778-2166", "address": "19227 Highway 99"}, "geometry": {"type": "Point", "coordinates": [-122.3119808, 47.8237034]}}, {"type": "Feature", "properties": {"id": "1107d44b-d9cd-4f47-bc7f-3572bc788cab", "name": "Sprouts Farmers Market", "category": "supermarket", "tags": ["supermarket"], "sources": ["overture"], "website": "https://www.sprouts.com", "phone": "+14254121946", "address": "19630 Highway 99"}, "geometry": {"type": "Point", "coordinates": [-122.3189316, 47.8201904]}}, {"type": "Feature", "properties": {"id": "e545af5e-d0a2-4346-ad6b-4c786d0a3385", "name": "Big Lots", "category": "variety_store", "tags": ["variety-store", "discount"], "sources": ["overture"], "website": "local.biglots.com", "phone": "14256728103", "address": "5710 196th St SW"}, "geometry": {"type": "Point", "coordinates": [-122.3105316, 47.8204842]}}, {"type": "Feature", "properties": {"id": 618735903, "name": "Gregg's Lynnwood Cycle", "category": "bicycle", "tags": ["bicycle"], "sources": ["osm"], "website": "https://www.greggscycles.com/", "phone": "+1-425-248-4842", "address": "5810 196th Street Southwest", "hours": "Mo-Su 10:00-18:00"}, "geometry": {"type": "Point", "coordinates": [-122.311493, 47.8208862]}}, {"type": "Feature", "properties": {"id": "473575aa-c99c-43b2-8e43-6cc565d29594", "name": "Furniture World Nw", "category": "furniture", "tags": ["furniture"], "sources": ["overture"], "website": "http://www.furnitureworldnw.com", "phone": "14257446694", "address": "19215 Highway 99"}, "geometry": {"type": "Point", "coordinates": [-122.3115692, 47.824276]}}, {"type": "Feature", "properties": {"id": "ad7cf8e4-6856-47b2-a98a-dd80d2fdc112", "name": "Stoneway Roofing Supply", "category": "doityourself", "tags": ["doityourself", "building", "supply"], "sources": ["overture"], "website": "https://stonewayroofing.com/", "phone": "2066327820", "address": "19020 Highway 99"}, "geometry": {"type": "Point", "coordinates": [-122.3117218, 47.8260155]}}, {"type": "Feature", "properties": {"id": "d7e9b1cb-72ef-4c45-8279-0a58f763b3f9", "name": "Verizon Authorized Retailer \u2013 TCC", "category": "mobile_phone", "tags": ["mobile-phone", "mobile"], "sources": ["overture"], "website": "https://locations.tccrocks.com/wa/lynnwood/19620-hwy-99.html?y_source=1_MzIzMjI4Ni00NDAtbG9jYXRpb24ud2Vic2l0ZQ==", "phone": "(425) 640-0192", "address": "19620 Highway 99 Ste 110"}, "geometry": {"type": "Point", "coordinates": [-122.3160553, 47.8206367]}}, {"type": "Feature", "properties": {"id": "b0687716-5c4d-4145-ba85-de3bc26bc3e0", "name": "Sitec Coatings", "category": "furniture", "tags": ["furniture"], "sources": ["overture"], "phone": "+13608409979", "address": "19410 Highway 99 Ste A-344"}, "geometry": {"type": "Point", "coordinates": [-122.3166275, 47.822773]}}, {"type": "Feature", "properties": {"id": "fd985912-e57f-4ff9-a7c2-73783d3abb97", "name": "PetSmart Dog Training", "category": "pet", "tags": ["pet"], "sources": ["overture"], "website": "https://www.petsmart.com/stores/us/wa/lynnwood-store0372.html", "phone": "+14256724422", "address": "18820 Hwy 99"}, "geometry": {"type": "Point", "coordinates": [-122.3103333, 47.8278275]}}, {"type": "Feature", "properties": {"id": "c0dec25c-1522-42d6-a520-fd1e2bf78121", "name": "African International Grocery", "category": "supermarket", "tags": ["supermarket"], "sources": ["overture"], "phone": "+14256788317", "address": "18904 Highway 99"}, "geometry": {"type": "Point", "coordinates": [-122.3107681, 47.8272896]}}, {"type": "Feature", "properties": {"id": "79deb32d-7509-4b31-97b0-18f4197f8a4a", "name": "Balkan Store", "category": "supermarket", "tags": ["supermarket"], "sources": ["overture"], "website": "http://www.balkanmarketltd.com", "phone": "+14253617071", "address": "18904 Hwy 99"}, "geometry": {"type": "Point", "coordinates": [-122.3108444, 47.8273582]}}, {"type": "Feature", "properties": {"id": "44f65826-d2bf-4842-a2af-626077a53167", "name": "Kabayan Asian Mart & Mailboxes", "category": "convenience", "tags": ["convenience"], "sources": ["overture"], "phone": "+14257783777", "address": "19709 Scriber Lake Rd"}, "geometry": {"type": "Point", "coordinates": [-122.3114319, 47.8201942]}}, {"type": "Feature", "properties": {"id": "3522ef8d-c8f9-4ea9-bdaf-d6df1845871b", "name": "Effortless Repairs Handyman.LLC", "category": "doityourself", "tags": ["doityourself", "home", "improvement"], "sources": ["overture"], "website": "https://effortlessrepairshandyman.com", "phone": "(305) 646-8688"}, "geometry": {"type": "Point", "coordinates": [-122.3125076, 47.8266563]}}, {"type": "Feature", "properties": {"id": "fe8b375e-0e39-4320-93f8-85712e2b2103", "name": "Cuenca Market", "category": "supermarket", "tags": ["supermarket"], "sources": ["overture"], "website": "https://www.instagram.com/cuencamarket25?igsh=MWwzbmltMWY5d2l1eQ%3D%3D", "phone": "+14255503718", "address": "19212 Pacific Hwy Unit 5"}, "geometry": {"type": "Point", "coordinates": [-122.3127289, 47.8243828]}}, {"type": "Feature", "properties": {"id": "9fd62f0e-cd0c-422e-a974-5ed3f28139a6", "name": "GogoMarts - International Grocery", "category": "supermarket", "tags": ["supermarket"], "sources": ["overture"], "website": "http://GogoMarts.com/", "phone": "+14257712277", "address": "5911 196th St SW"}, "geometry": {"type": "Point", "coordinates": [-122.313324, 47.8213348]}}, {"type": "Feature", "properties": {"id": "e2c7a4ad-d269-4534-bb2a-ee62f04a99d9", "name": "Super Wholesale Mart Inc", "category": "supermarket", "tags": ["supermarket"], "sources": ["overture"], "website": "http://superwholesaledistributor.com", "address": "5920 188th St SW"}, "geometry": {"type": "Point", "coordinates": [-122.3134232, 47.82798]}}, {"type": "Feature", "properties": {"id": "bfa5c371-795b-4045-98dd-e95503ef9995", "name": "Gogo Wholesale and Distributor", "category": "clothes", "tags": ["clothes"], "sources": ["overture"], "website": "https://www.gogowholesale.com", "phone": "+14259494002", "address": "5920 188th St SW"}, "geometry": {"type": "Point", "coordinates": [-122.3136139, 47.8279495]}}, {"type": "Feature", "properties": {"id": "dec7d209-1928-4da5-a5f2-71560451cd96", "name": "Safeway", "category": "pharmacy", "tags": ["pharmacy"], "sources": ["overture"], "website": "http://local.safeway.com/wa/lynnwood-1506.html", "phone": "4257753591", "address": "19715 Highway 99"}, "geometry": {"type": "Point", "coordinates": [-122.3161163, 47.8200264]}}, {"type": "Feature", "properties": {"id": 874817688, "name": "CVS Pharmacy", "category": "pharmacy", "tags": ["pharmacy", "drive-through"], "sources": ["osm"], "website": "https://www.cvs.com/store-locator/lynnwood-wa-pharmacies/19507-highway-99-lynnwood-wa-98036/storeid=10450", "address": "19507 Highway 99", "hours": "Mo-Fr 09:00-21:00; Sa 09:00-18:00; Su 10:00-18:00"}, "geometry": {"type": "Point", "coordinates": [-122.313875, 47.8220484]}}, {"type": "Feature", "properties": {"id": 6012240852, "name": "Borish Stanley Inc MD PS", "category": "clinic", "tags": ["clinic"], "sources": ["osm"]}, "geometry": {"type": "Point", "coordinates": [-122.319937, 47.821694]}}, {"type": "Feature", "properties": {"id": 350959504, "name": "Emerald Hills Healthcare Center", "category": "clinic", "tags": ["clinic"], "sources": ["osm"]}, "geometry": {"type": "Point", "coordinates": [-122.3125988, 47.8288809]}}, {"type": "Feature", "properties": {"id": "de9ffd81-8310-4798-bc2f-f847c084952f", "name": "Safeway Pharmacy", "category": "pharmacy", "tags": ["pharmacy"], "sources": ["overture"], "website": "https://local.pharmacy.safeway.com/safeway/wa/lynnwood/19500-hwy-99-suite-110.html", "phone": "4256709723", "address": "19500 Hwy 99 Suite 110"}, "geometry": {"type": "Point", "coordinates": [-122.3169022, 47.8223457]}}, {"type": "Feature", "properties": {"id": "e507a2d6-92b7-4968-bd40-1c4585dc89dd", "name": "Albertsons Pharmacy", "category": "pharmacy", "tags": ["pharmacy"], "sources": ["overture"], "website": "http://www.albertsons.com/pd/stores/WA/Lynnwood/Lynnwood/C3FC73485", "phone": "4256709723", "address": "19500 Highway 99"}, "geometry": {"type": "Point", "coordinates": [-122.3147888, 47.8215561]}}, {"type": "Feature", "properties": {"id": "b81ff06c-6227-4acb-b5c7-e4f84af75f11", "name": "Emerald Hills", "category": "clinic", "tags": ["clinic", "medical"], "sources": ["overture"], "website": "http://www.emeraldhillshealthcare.com", "phone": "(425) 776-5512", "address": "5821 188th St SW"}, "geometry": {"type": "Point", "coordinates": [-122.3124695, 47.8287239]}}, {"type": "Feature", "properties": {"id": "de122009-f98e-4bfd-82d2-f45cdfef4c51", "name": "MinuteClinic at CVS", "category": "clinic", "tags": ["clinic", "walk", "in"], "sources": ["overture"], "website": "https://www.cvs.com/minuteclinic/clinic-locator/wa/lynnwood/10450.html?WT.mc_id=LS_MC_BING_10450", "phone": "4256400646", "address": "19507 Highway 99"}, "geometry": {"type": "Point", "coordinates": [-122.3139648, 47.8219833]}}, {"type": "Feature", "properties": {"id": "d00693c0-d788-43ec-924e-a9fc451d1cfd", "name": "Cvs", "category": "pharmacy", "tags": ["pharmacy"], "sources": ["overture"], "website": "https://www.cvs.com", "phone": "14256400646", "address": "19507 Highway 99"}, "geometry": {"type": "Point", "coordinates": [-122.3138809, 47.8220329]}}, {"type": "Feature", "properties": {"id": 11149179558, "name": "Bank of America", "category": "bank", "tags": ["bank", "credit", "union"], "sources": ["osm", "overture"], "website": "https://locators.bankofamerica.com/wa/lynnwood/financial-centers-lynnwood-8298.html", "phone": "+14257756411", "address": "5727 196th St SW", "hours": "Mo-Fr 09:00-17:00; Sa 10:00-14:00; Su off"}, "geometry": {"type": "Point", "coordinates": [-122.310416, 47.8216653]}}, {"type": "Feature", "properties": {"id": 350946556, "name": "U.S. Bank", "category": "bank", "tags": ["bank"], "sources": ["osm"]}, "geometry": {"type": "Point", "coordinates": [-122.3146635, 47.8227165]}}, {"type": "Feature", "properties": {"id": 3517893641, "name": "The UPS Store", "category": "post_office", "tags": ["post-office"], "sources": ["osm"], "hours": "Mo-Fr 08:00-18:30; Sa 09:00-17:00; Su 10:00-15:00"}, "geometry": {"type": "Point", "coordinates": [-122.3165061, 47.8227266]}}, {"type": "Feature", "properties": {"id": 3517894013, "name": "Chase", "category": "bank", "tags": ["bank"], "sources": ["osm"]}, "geometry": {"type": "Point", "coordinates": [-122.315728, 47.8215442]}}, {"type": "Feature", "properties": {"id": 351005936, "name": "WaFd Bank", "category": "bank", "tags": ["bank", "credit", "union"], "sources": ["osm", "overture"], "website": "https://www.wafdbank.com/locations/washington/lynnwood?utm_source=facebook&utm_medium=yext", "phone": "+14257761121", "address": "5809 196th St SW"}, "geometry": {"type": "Point", "coordinates": [-122.3116349, 47.8215374]}}, {"type": "Feature", "properties": {"id": "0f6efe67-d94e-4d69-bc83-6fbdd635e807", "name": "Washington Federal", "category": "bank", "tags": ["bank", "credit", "union"], "sources": ["overture"], "website": "https://www.washingtonfederal.com/locations/washington/lynnwood/?utm_source=Bing&utm_medium=Listings", "phone": "4257761121", "address": "5809 196th St SW"}, "geometry": {"type": "Point", "coordinates": [-122.3116608, 47.8212204]}}, {"type": "Feature", "properties": {"id": 351005939, "name": "UniBank", "category": "bank", "tags": ["bank", "credit", "union"], "sources": ["osm", "overture"], "website": "http://www.unibankusa.com", "phone": "+14252759700", "address": "19315 Hwy 99"}, "geometry": {"type": "Point", "coordinates": [-122.3123107, 47.8234908]}}, {"type": "Feature", "properties": {"id": 13753158881, "name": "Columbia Bank", "category": "bank", "tags": ["bank", "credit", "union"], "sources": ["osm", "overture"], "website": "https://www.ppbi.com/", "phone": "4257756666", "address": "19520 Highway 99, Ste 102", "hours": "Mo-Fr 09:00-17:00"}, "geometry": {"type": "Point", "coordinates": [-122.316596, 47.8216112]}}, {"type": "Feature", "properties": {"id": 351005937, "name": "Heritage Bank", "category": "bank", "tags": ["bank", "credit", "union"], "sources": ["osm", "overture"], "website": "https://local.heritagebanknw.com/wa/lynnwood/19510-58th-avenue-w", "phone": "+14257755480", "address": "19510 58th Ave W"}, "geometry": {"type": "Point", "coordinates": [-122.3116519, 47.8218915]}}, {"type": "Feature", "properties": {"id": 351005935, "name": "Sound Credit Union", "category": "bank", "tags": ["bank"], "sources": ["osm"], "hours": "Mo-Fr 09:00-18:00; Sa-Su closed"}, "geometry": {"type": "Point", "coordinates": [-122.3125811, 47.8214767]}}, {"type": "Feature", "properties": {"id": 11149179534, "name": "Mountain Pacific Bank", "category": "bank", "tags": ["bank", "credit", "union"], "sources": ["osm", "overture"], "website": "http://www.mountainpacificbank.com", "phone": "+14254935200", "address": "19705 Highway 99"}, "geometry": {"type": "Point", "coordinates": [-122.3155578, 47.8200333]}}, {"type": "Feature", "properties": {"id": "012b9f7f-5455-4230-928c-544f95477fc5", "name": "Pacific Premier Bank", "category": "bank", "tags": ["bank", "credit", "union"], "sources": ["overture"], "website": "https://www.opusbank.com/location/lynnwood", "phone": "4257756666", "address": "19419 Wa-99"}, "geometry": {"type": "Point", "coordinates": [-122.3142929, 47.8221283]}}, {"type": "Feature", "properties": {"id": "08493506-aca7-49a6-96fb-8da8223f5ac2", "name": "Bank of America ATM", "category": "bank", "tags": ["bank", "credit", "union"], "sources": ["overture"], "phone": "8004426680", "address": "19105 Highway 99"}, "geometry": {"type": "Point", "coordinates": [-122.3112564, 47.8256302]}}, {"type": "Feature", "properties": {"id": "c3e18643-5769-4a91-a4c6-0cc40b05c904", "name": "U.S. Bank ATM", "category": "bank", "tags": ["bank", "credit", "union"], "sources": ["overture"], "website": "http://www.usbank.com/locations", "phone": "8008722657", "address": "19500 Highway 99 Ste 110"}, "geometry": {"type": "Point", "coordinates": [-122.3163376, 47.8221931]}}, {"type": "Feature", "properties": {"id": "6846f8dc-4675-4d86-97d8-d78b30fdc38c", "name": "U.S. Bank Branch", "category": "bank", "tags": ["bank", "credit", "union"], "sources": ["overture"], "website": "https://locations.usbank.com/index/washington/lynnwood/james-village-branch.html?utm_source=bing%20places&utm_medium=listing&utm_campaign=visit%20website", "phone": "4257755444", "address": "19420 Highway 99"}, "geometry": {"type": "Point", "coordinates": [-122.3146896, 47.8226929]}}, {"type": "Feature", "properties": {"id": "098dbe51-c1fa-4b34-be9f-8029b8455e2d", "name": "USPS Collection Point", "category": "post_office", "tags": ["post-office", "office"], "sources": ["overture"], "website": "https://tools.usps.com/find-location.htm?location=9803600048", "phone": "+18002758777", "address": "6817 208th St SW"}, "geometry": {"type": "Point", "coordinates": [-122.3156509, 47.820076]}}, {"type": "Feature", "properties": {"id": 13921385202, "name": "The Little Gym", "category": "fitness_centre", "tags": ["fitness-centre"], "sources": ["osm"]}, "geometry": {"type": "Point", "coordinates": [-122.31644, 47.8236339]}}, {"type": "Feature", "properties": {"id": 7447884614, "name": "Bindi Yoga", "category": "fitness_centre", "tags": ["fitness-centre", "yoga", "studio"], "sources": ["osm", "overture"], "website": "http://www.bindiyoga.biz", "phone": "(425) 771-4688", "address": "5903 196th St SW"}, "geometry": {"type": "Point", "coordinates": [-122.3130695, 47.8214166]}}, {"type": "Feature", "properties": {"id": 1286144583, "name": "SuperFit", "category": "fitness_centre", "tags": ["fitness-centre"], "sources": ["osm"], "hours": "24/7"}, "geometry": {"type": "Point", "coordinates": [-122.3166406, 47.8232261]}}, {"type": "Feature", "properties": {"id": "41d57a7c-c888-4033-8a0a-4bd128108758", "name": "SuperFit Ultimate Conditioning Classes & 24-Hour Gym Membership", "category": "fitness_centre", "tags": ["fitness-centre", "gym"], "sources": ["overture"], "website": "http://turnsuperfit.com/", "phone": "+14252311908", "address": "19332 60th Ave W"}, "geometry": {"type": "Point", "coordinates": [-122.316803, 47.8232231]}}, {"type": "Feature", "properties": {"id": "9199a025-89ae-4d78-9896-59bd00b36c1e", "name": "Component Fitness", "category": "fitness_centre", "tags": ["fitness-centre", "fitness", "trainer"], "sources": ["overture"], "phone": "+12068614973", "address": "19332 60th Ave W"}, "geometry": {"type": "Point", "coordinates": [-122.3166199, 47.8231888]}}]}