{"type": "FeatureCollection", "features": [{"type": "Feature", "properties": {"id": 5895487892, "name": "Subway", "category": "fast_food", "tags": ["fast-food", "sandwich", "takeaway", "restaurant"], "sources": ["osm", "overture"], "website": "https://www.subway.com", "phone": "12538383578", "address": "32925 1st Ave S  Ste M", "hours": "Mo-Fr 08:00-21:00; Sa-Su 08:30-21:00"}, "geometry": {"type": "Point", "coordinates": [-122.335575, 47.3069547]}}, {"type": "Feature", "properties": {"id": 12749144533, "name": "One Bite Cafe", "category": "cafe", "tags": ["cafe"], "sources": ["osm"]}, "geometry": {"type": "Point", "coordinates": [-122.3355124, 47.3076939]}}, {"type": "Feature", "properties": {"id": 12749144534, "name": "Pho 7", "category": "restaurant", "tags": ["restaurant", "vietnamese"], "sources": ["osm", "overture"], "website": "https://federalway.eatpho7.com/?utm_source=bing&utm_medium=websiteurl&utm_campaign=search", "phone": "2532355576", "address": "32901 1ST AVE S, J"}, "geometry": {"type": "Point", "coordinates": [-122.3354973, 47.3076317]}}, {"type": "Feature", "properties": {"id": 5895487401, "name": "JP's Tavern", "category": "pub", "tags": ["pub", "brewery", "restaurant", "bar-and-grill", "bar", "grill"], "sources": ["osm", "overture"], "website": "http://www.jpsbars.com/", "phone": "+12535179215", "address": "32925 1st Ave S", "hours": "Mo-Fr 11:00-24:00; Sa-Su 10:00-24:00"}, "geometry": {"type": "Point", "coordinates": [-122.335574, 47.3068823]}}, {"type": "Feature", "properties": {"id": 10628119209, "name": "Pizza Pizazz", "category": "restaurant", "tags": ["restaurant", "pizza"], "sources": ["osm", "overture"], "website": "https://pizazzpizza.com", "phone": "12536616161", "address": "32925 1st Ave S"}, "geometry": {"type": "Point", "coordinates": [-122.3359872, 47.3068595]}}, {"type": "Feature", "properties": {"id": 12749144515, "name": "Sweets & Wine Bar", "category": "bar", "tags": ["bar"], "sources": ["osm"]}, "geometry": {"type": "Point", "coordinates": [-122.3358802, 47.3068572]}}, {"type": "Feature", "properties": {"id": 12749144537, "name": "Nori Sushi", "category": "restaurant", "tags": ["restaurant", "sushi", "japanese", "asian"], "sources": ["osm", "overture"], "website": "http://www.norisushiwa.com/", "phone": "+12535178579", "address": "32911 1st Ave S"}, "geometry": {"type": "Point", "coordinates": [-122.3355418, 47.3074555]}}, {"type": "Feature", "properties": {"id": 12749144539, "name": "Peking Wok", "category": "restaurant", "tags": ["restaurant", "chinese"], "sources": ["osm"]}, "geometry": {"type": "Point", "coordinates": [-122.3355607, 47.3071375]}}, {"type": "Feature", "properties": {"id": "4773fea2-de01-4617-b87d-7c5398f3ddc3", "name": "New Peking Wok", "category": "restaurant", "tags": ["restaurant", "chinese", "asian"], "sources": ["overture"], "website": "http://www.pekingwok.net/", "phone": "+12538382688", "address": "32921 1st Ave S"}, "geometry": {"type": "Point", "coordinates": [-122.3355408, 47.3071404]}}, {"type": "Feature", "properties": {"id": "e47d9704-4b5d-4fc9-bb8f-8e679efbf282", "name": "Philly Cheese Steak & Teriyaki", "category": "restaurant", "tags": ["restaurant", "burger"], "sources": ["overture"], "website": "http://www.fmcookery.com", "phone": "(253) 838-7129", "address": "32925 1st Ave S"}, "geometry": {"type": "Point", "coordinates": [-122.3358536, 47.3068542]}}, {"type": "Feature", "properties": {"id": "caf76261-a612-4d2a-8fe7-8369eba6e4ab", "name": "Lolli's Broiler & Pub", "category": "bar", "tags": ["bar"], "sources": ["overture"], "website": "https://www.lollisbar.com", "phone": "(253) 838-5929", "address": "32925 1st Ave S"}, "geometry": {"type": "Point", "coordinates": [-122.3358688, 47.3069077]}}, {"type": "Feature", "properties": {"id": "8b835c4d-b35b-474a-a0aa-73972367bb4b", "name": "Pretty Young Chef", "category": "bakery", "tags": ["bakery"], "sources": ["overture"], "website": "http://www.pycprettyyoungchef.com/", "phone": "+12536174799", "address": "32925 1st Ave S"}, "geometry": {"type": "Point", "coordinates": [-122.3357315, 47.306942]}}, {"type": "Feature", "properties": {"id": "a42484ca-732a-4e09-be53-e5988a65bcb4", "name": "B&R Espresso Bar", "category": "cafe", "tags": ["cafe", "coffee"], "sources": ["overture"], "website": "http://bandrespressobar.com", "phone": "(253) 242-7349", "address": "32901 1st Ave S Ste K"}, "geometry": {"type": "Point", "coordinates": [-122.3355179, 47.3077049]}}, {"type": "Feature", "properties": {"id": "e2966acf-fbb2-4c25-aa36-783fe603a44f", "name": "Colonial Forest Condominiums", "category": "attraction", "tags": ["attraction", "landmark", "historical", "building"], "sources": ["overture"], "phone": "+12538150393", "address": "32621 1st Pl S"}, "geometry": {"type": "Point", "coordinates": [-122.3338547, 47.3099136]}}, {"type": "Feature", "properties": {"id": "7d59c592-d1b3-41b3-b035-7cea0142de22", "name": "Martin Fine Arts", "category": "gallery", "tags": ["gallery", "art"], "sources": ["overture"], "website": "http://martinfinearts.com/", "phone": "2537538795", "address": "236 S 328th Ln"}, "geometry": {"type": "Point", "coordinates": [-122.3313293, 47.3083954]}}, {"type": "Feature", "properties": {"id": "ac948e50-daf7-4d39-bd44-3a75164c5fd6", "name": "Cove East Apartments", "category": "attraction", "tags": ["attraction", "landmark", "historical", "building"], "sources": ["overture"], "website": "http://coveeast.com/", "phone": "+12539526020", "address": "33030 1st Ave S"}, "geometry": {"type": "Point", "coordinates": [-122.3330994, 47.3044624]}}, {"type": "Feature", "properties": {"id": "f867f976-804a-4eca-a7eb-ec82e7364c77", "name": "Cove Apartment Homes", "category": "attraction", "tags": ["attraction", "landmark", "historical", "building"], "sources": ["overture"], "website": "https://washington.weidner.com/apartments/wa/federal-way/cove-0/index.aspx?rcstdid=MTE%3D-aKFOxiSL8lQ%3D", "phone": "+12534582192", "address": "33131 1st Ave SW"}, "geometry": {"type": "Point", "coordinates": [-122.3341217, 47.3041725]}}, {"type": "Feature", "properties": {"id": "5ea74157-aadf-4f40-90e4-920cf2f7055b", "name": "West Campus Trail", "category": "park", "tags": ["park"], "sources": ["overture"], "website": "http://cityoffederalway.com/page/community-parks-0#Trails", "phone": "+12538356901", "address": "32901 1st Ave S"}, "geometry": {"type": "Point", "coordinates": [-122.3367844, 47.307621]}}, {"type": "Feature", "properties": {"id": 85875753, "name": "7-Eleven", "category": "convenience", "tags": ["convenience"], "sources": ["osm", "overture"], "website": "https://www.7-eleven.com/", "phone": "+12539526092", "address": "32935 First Ave South", "hours": "24/7"}, "geometry": {"type": "Point", "coordinates": [-122.3352492, 47.3065169]}}, {"type": "Feature", "properties": {"id": 12749144536, "name": "Smoke 'n' Things", "category": "tobacco", "tags": ["tobacco"], "sources": ["osm"]}, "geometry": {"type": "Point", "coordinates": [-122.3354981, 47.3075409]}}, {"type": "Feature", "properties": {"id": "ee6a8928-4524-44a3-b1ed-cb188a496d27", "name": "C&C Smoke 'n Things", "category": "tobacco", "tags": ["tobacco"], "sources": ["overture"], "website": "https://eatoutpaylesscoupons.com", "phone": "+12065922376", "address": "32901 1st Ave S H"}, "geometry": {"type": "Point", "coordinates": [-122.3354568, 47.3075294]}}, {"type": "Feature", "properties": {"id": 651476141, "name": "Genesis Spine, Joint and Regenerative Medicine", "category": "clinic", "tags": ["clinic"], "sources": ["osm"], "address": "350 South 333rd Street"}, "geometry": {"type": "Point", "coordinates": [-122.3303038, 47.3033713]}}, {"type": "Feature", "properties": {"id": "e3b4f013-1b71-4ff3-a55b-0c99af74c5e2", "name": "Mary Bridge Children's Outpatient Center - Federal Way", "category": "clinic", "tags": ["clinic", "medical"], "sources": ["overture"], "website": "https://www.marybridge.org/locations/mary-bridge-childrens-outpatient-center-federal-way/?utm_source=pg-bing&utm_medium=organic&utm_campaign=pg-listings", "phone": "2537926630", "address": "505 S 336th St., Suites 200 & 330"}, "geometry": {"type": "Point", "coordinates": [-122.3338623, 47.3062592]}}, {"type": "Feature", "properties": {"id": "d9fcb72b-0efb-4370-b643-a6cfec1ccaaa", "name": "Studio 1", "category": "fitness_centre", "tags": ["fitness-centre", "pilates", "studio"], "sources": ["overture"], "website": "studiooneplus.com", "phone": "+12068773299", "address": "32901 1st Ave S"}, "geometry": {"type": "Point", "coordinates": [-122.3354874, 47.3072777]}}]}