{"type": "FeatureCollection", "features": [{"type": "Feature", "properties": {"id": "e1b2add2-de09-44e9-8ef3-f15b7bbf2f4f", "name": "The As Seen On Tv Store", "category": "restaurant", "tags": ["restaurant"], "sources": ["overture"], "address": "20011 87th Ave SE"}, "geometry": {"type": "Point", "coordinates": [-122.1149979, 47.8153076]}}, {"type": "Feature", "properties": {"id": 93646942, "name": "Maltby Park", "category": "park", "tags": ["park"], "sources": ["osm"]}, "geometry": {"type": "Point", "coordinates": [-122.1115407, 47.8125784]}}, {"type": "Feature", "properties": {"id": "df1e101f-b987-41ad-995b-8ae7de397348", "name": "Maltby Community Park", "category": "park", "tags": ["park"], "sources": ["overture"], "website": "https://themaltbypark.wordpress.com/soccer-fields", "phone": "+13606682112", "address": "20322 Broadway Ave"}, "geometry": {"type": "Point", "coordinates": [-122.1103516, 47.8124275]}}, {"type": "Feature", "properties": {"id": "a68b464d-3df5-4a1b-914b-e0a656ce322f", "name": "Jazzercise", "category": "fitness_centre", "tags": ["fitness-centre", "fitness", "trainer"], "sources": ["overture"], "website": "https://bit.ly/maltbyjazzercise", "phone": "+12062260991", "address": "8711 206th St SE"}, "geometry": {"type": "Point", "coordinates": [-122.1149673, 47.8108673]}}]}