{"type": "FeatureCollection", "features": [{"type": "Feature", "properties": {"id": "53bdee05-8ca4-4c99-b935-808f9f8d4832", "name": "Liquor Laboratory", "category": "bar", "tags": ["bar"], "sources": ["overture"], "website": "https://liquorlaboratory.com/", "phone": "+14254502480", "address": "17275 NE 120th Way"}, "geometry": {"type": "Point", "coordinates": [-122.1104507, 47.707592]}}, {"type": "Feature", "properties": {"id": 154423044, "name": "Prescott Community Park", "category": "park", "tags": ["park"], "sources": ["osm"]}, "geometry": {"type": "Point", "coordinates": [-122.1181671, 47.7082952]}}, {"type": "Feature", "properties": {"id": 154429496, "name": "Northstar Neighborhood Park", "category": "park", "tags": ["park"], "sources": ["osm"], "address": "167th Place Northeast"}, "geometry": {"type": "Point", "coordinates": [-122.1171188, 47.7048995]}}, {"type": "Feature", "properties": {"id": 480784780, "name": "Woodlands Community Park", "category": "park", "tags": ["park"], "sources": ["osm"], "address": "Northeast 120th Street"}, "geometry": {"type": "Point", "coordinates": [-122.1119159, 47.7072398]}}, {"type": "Feature", "properties": {"id": 619880843, "name": "Trailside Community Park", "category": "park", "tags": ["park"], "sources": ["osm"]}, "geometry": {"type": "Point", "coordinates": [-122.110588, 47.7010265]}}, {"type": "Feature", "properties": {"id": 619882508, "name": "Hedgewood East Community Park", "category": "park", "tags": ["park"], "sources": ["osm"]}, "geometry": {"type": "Point", "coordinates": [-122.1183731, 47.7094455]}}, {"type": "Feature", "properties": {"id": 668169603, "name": "Woodlands West Park & Playground", "category": "park", "tags": ["park"], "sources": ["osm"]}, "geometry": {"type": "Point", "coordinates": [-122.1132844, 47.7054354]}}, {"type": "Feature", "properties": {"id": 668175405, "name": "Parkridge at the Woodlands Park", "category": "park", "tags": ["park"], "sources": ["osm"]}, "geometry": {"type": "Point", "coordinates": [-122.1122013, 47.7043515]}}, {"type": "Feature", "properties": {"id": "bbc0f875-77ae-4a77-b9b7-c41b77913ad0", "name": "Mount Rainier National Park", "category": "park", "tags": ["park", "national"], "sources": ["overture"], "website": "http://www.nps.gov/mora/index.htm"}, "geometry": {"type": "Point", "coordinates": [-122.1125793, 47.7057495]}}, {"type": "Feature", "properties": {"id": "97346a80-3b2c-4802-9b05-7c022167e516", "name": "Northeast Redmond Park", "category": "park", "tags": ["park"], "sources": ["overture"], "address": "NE 122nd St"}, "geometry": {"type": "Point", "coordinates": [-122.11763, 47.7095718]}}, {"type": "Feature", "properties": {"id": "1f80b9c3-8242-449f-a14b-fe03e56d815e", "name": "Krishna Collections LLC", "category": "clothes", "tags": ["clothes"], "sources": ["overture"], "website": "https://www.etsy.com/shop/KrishnaCollectionsUS?ref=seller-platform-mcnav", "phone": "+14252417448", "address": "17014 NE 112th Way"}, "geometry": {"type": "Point", "coordinates": [-122.1119232, 47.700882]}}, {"type": "Feature", "properties": {"id": "62752e61-f0d7-498a-9b8f-91c1f5b6d245", "name": "Kkreations", "category": "jewelry", "tags": ["jewelry"], "sources": ["overture"], "website": "https://kkreations.ueniweb.com/", "address": "11653 170th Ct NE"}, "geometry": {"type": "Point", "coordinates": [-122.1137314, 47.7041664]}}]}