{"type": "FeatureCollection", "features": [{"type": "Feature", "properties": {"id": 1120195095, "name": "Ban Hua Sai", "category": "restaurant", "tags": ["restaurant", "asian", "thai"], "sources": ["osm", "overture"], "website": "https://www.banhuasai.com/", "phone": "+12065226001", "address": "9400 Roosevelt Way NE", "hours": "Mo,Tu 16:00-21:00; We,Th 16:00-21:30; Fr,Sa 11:00-14:30,16:00-22:00"}, "geometry": {"type": "Point", "coordinates": [-122.3173709, 47.6968584]}}, {"type": "Feature", "properties": {"id": 2302550697, "name": "Cloud City Coffee", "category": "cafe", "tags": ["cafe", "coffee-shop", "outdoor-seating", "indoor-seating", "wifi", "coffee"], "sources": ["osm", "overture"], "website": "http://www.cloudcitycoffee.com/", "phone": "+12065275552", "address": "8801 Roosevelt Way NE", "hours": "Mo-Su 06:00-16:00"}, "geometry": {"type": "Point", "coordinates": [-122.3180011, 47.6922769]}}, {"type": "Feature", "properties": {"id": 2463977705, "name": "Macrina Bakery & Cafe", "category": "cafe", "tags": ["cafe", "coffee-shop", "outdoor-seating", "indoor-seating", "wifi"], "sources": ["osm"], "website": "https://macrinabakery.com", "phone": "+1-206-906-9980", "address": "8501 Roosevelt Way Northeast", "hours": "Mo-Su 07:00-18:00"}, "geometry": {"type": "Point", "coordinates": [-122.317807, 47.6904691]}}, {"type": "Feature", "properties": {"id": 2463977713, "name": "The Rez", "category": "pub", "tags": ["pub", "outdoor-seating", "indoor-seating"], "sources": ["osm"], "address": "8509 Roosevelt Way Northeast", "hours": "Mo-Sa 12:00-02:00, Su 12:00-24:00"}, "geometry": {"type": "Point", "coordinates": [-122.3177826, 47.6906378]}}, {"type": "Feature", "properties": {"id": 221200286, "name": "Mojito", "category": "restaurant", "tags": ["restaurant", "latin-american", "cuban", "caribbean"], "sources": ["osm", "overture"], "website": "http://mojitoseattle.com", "phone": "+12065253162", "address": "8511 Roosevelt Way NE"}, "geometry": {"type": "Point", "coordinates": [-122.3179587, 47.690805]}}, {"type": "Feature", "properties": {"id": 221200342, "name": "Snappy Dragon", "category": "restaurant", "tags": ["restaurant", "chinese", "indoor-seating", "takeaway", "delivery", "asian"], "sources": ["osm", "overture"], "website": "http://www.snappydragon.com/", "phone": "+12065285575", "address": "8917 Roosevelt Way NE", "hours": "Tu-Sa 11:00-21:00; Su 16:00-21:00"}, "geometry": {"type": "Point", "coordinates": [-122.3178985, 47.693617]}}, {"type": "Feature", "properties": {"id": 221200468, "name": "The Maple", "category": "pub", "tags": ["pub", "outdoor-seating", "indoor-seating"], "sources": ["osm", "overture"], "website": "https://www.themaplepub.com/", "phone": "+12064026135", "address": "8929 Roosevelt Way NE", "hours": "We,Th 16:00-21:00; Fr 12:00-22:00; Sa 10:30-22:00; Su 10:30-21:00"}, "geometry": {"type": "Point", "coordinates": [-122.317879, 47.6939017]}}, {"type": "Feature", "properties": {"id": 221203777, "name": "Blue Saucer Cafe", "category": "cafe", "tags": ["cafe", "coffee-shop", "outdoor-seating", "indoor-seating", "wifi", "american"], "sources": ["osm", "overture"], "website": "http://www.bluesaucer.com", "phone": "+12064534955", "address": "9127 Roosevelt Way NE", "hours": "07:00-16:00"}, "geometry": {"type": "Point", "coordinates": [-122.3179002, 47.6957302]}}, {"type": "Feature", "properties": {"id": "6b0706fa-df9e-4606-abdc-ee46abc023a2", "name": "Macrina Bakery and Caf\u00e9", "category": "cafe", "tags": ["cafe"], "sources": ["overture"], "website": "https://macrinabakery.com/", "phone": "2069069980", "address": "8501 Roosevelt Way NE"}, "geometry": {"type": "Point", "coordinates": [-122.3178558, 47.6905098]}}, {"type": "Feature", "properties": {"id": "66c62e4d-9174-4c26-b04e-737ac27310b8", "name": "Samba Brazilian Restaurant", "category": "restaurant", "tags": ["restaurant", "brazilian"], "sources": ["overture"], "website": "http://www.cafepiccolo.com", "phone": "(206) 957-1333", "address": "9400 Roosevelt Way NE"}, "geometry": {"type": "Point", "coordinates": [-122.3173294, 47.6968651]}}, {"type": "Feature", "properties": {"id": "6eaac87c-5759-42d1-88e8-9a9b40787249", "name": "Cafe Piccolo", "category": "restaurant", "tags": ["restaurant", "italian"], "sources": ["overture"], "website": "http://www.piccoloseattle.com", "phone": "(206) 957-1333", "address": "9400 Roosevelt Way NE"}, "geometry": {"type": "Point", "coordinates": [-122.3173218, 47.6969299]}}, {"type": "Feature", "properties": {"id": "e25401d8-e0ea-4c70-9cc8-b6d59be79206", "name": "Cucina Americana", "category": "restaurant", "tags": ["restaurant", "italian"], "sources": ["overture"], "website": "http://www.americanaseattle.com", "phone": "(206) 957-1333", "address": "9400 Roosevelt Way North East"}, "geometry": {"type": "Point", "coordinates": [-122.3172989, 47.6969185]}}, {"type": "Feature", "properties": {"id": "49c1b30d-e21d-4fcb-9e38-a2cd6824da06", "name": "Reigate Brewery Llc", "category": "restaurant", "tags": ["restaurant"], "sources": ["overture"], "address": "8929 Roosevelt Way NE"}, "geometry": {"type": "Point", "coordinates": [-122.3179245, 47.6938858]}}, {"type": "Feature", "properties": {"id": "23d08ff5-940e-4044-a149-44eb2a868f23", "name": "Apm, Inc", "category": "restaurant", "tags": ["restaurant"], "sources": ["overture"], "address": "8806 Roosevelt Way NE"}, "geometry": {"type": "Point", "coordinates": [-122.3173828, 47.69244]}}, {"type": "Feature", "properties": {"id": "3c9cdea0-e8e4-4d4b-adc6-c0f41925b15c", "name": "Roosevelt Ale House", "category": "pub", "tags": ["pub"], "sources": ["overture"], "website": "http://rooseveltalehouse.com", "phone": "(206) 527-5480", "address": "8824 Roosevelt Way NE"}, "geometry": {"type": "Point", "coordinates": [-122.3174286, 47.6928596]}}, {"type": "Feature", "properties": {"id": "9010ca8a-f15b-4dc0-984a-c9e31776becd", "name": "Reservoir Bar & Grill", "category": "restaurant", "tags": ["restaurant", "bar-and-grill", "bar", "grill"], "sources": ["overture"], "website": "http://m.facebook.com/Reservoir-Bar-Grill-111665005537344/?ref=page_internal&mt_nav=0", "phone": "+12065282107", "address": "8509 Roosevelt Way NE"}, "geometry": {"type": "Point", "coordinates": [-122.317749, 47.6906357]}}, {"type": "Feature", "properties": {"id": "096ea8d2-f4a3-443e-b207-8da904c395ec", "name": "Northwest Puppet Center", "category": "museum", "tags": ["museum"], "sources": ["overture"], "website": "http://www.nwpuppet.org/", "phone": "+12065232579", "address": "9123 15th Ave NE"}, "geometry": {"type": "Point", "coordinates": [-122.3126373, 47.695488]}}, {"type": "Feature", "properties": {"id": "79979366-bdef-4cc6-a955-194e6ff3c320", "name": "Maple Leaf", "category": "attraction", "tags": ["attraction", "landmark", "historical", "building"], "sources": ["overture"], "website": "http://liveatmapleleaf.com/", "phone": "+12062509731", "address": "8829 Roosevelt Way NE"}, "geometry": {"type": "Point", "coordinates": [-122.317894, 47.6929207]}}, {"type": "Feature", "properties": {"id": "0e2334b8-5c9d-4a71-a629-dfc01f5355ed", "name": "Snow Goose Associates Inc", "category": "gallery", "tags": ["gallery", "art"], "sources": ["overture"], "phone": "2065236223", "address": "8806 Roosevelt Way NE"}, "geometry": {"type": "Point", "coordinates": [-122.3173828, 47.69244]}}, {"type": "Feature", "properties": {"id": 290617734, "name": "Maple Leaf Reservoir Park", "category": "park", "tags": ["park", "wheelchair-accessible"], "sources": ["osm"], "website": "https://www.seattle.gov/parks/allparks/maple-leaf-reservoir-park", "address": "1020 Northeast 82nd Street"}, "geometry": {"type": "Point", "coordinates": [-122.3154867, 47.6905726]}}, {"type": "Feature", "properties": {"id": "d408f258-08f1-42e9-b6cb-a2b94f783a30", "name": "Sadako Peace Park", "category": "park", "tags": ["park"], "sources": ["overture"], "website": "http://www.cityofseattle.net/parks/parkspaces/PeacePark.htm", "address": "Roosevelt Way NE & NE 85th St, 8554"}, "geometry": {"type": "Point", "coordinates": [-122.3178329, 47.690506]}}, {"type": "Feature", "properties": {"id": 476148465, "name": "7-Eleven", "category": "convenience", "tags": ["convenience"], "sources": ["osm", "overture"], "website": "https://www.7-eleven.com/", "phone": "+12065240660", "address": "9126 Roosevelt Way NE", "hours": "24/7"}, "geometry": {"type": "Point", "coordinates": [-122.3172262, 47.6956415]}}, {"type": "Feature", "properties": {"id": 39799950, "name": "Maple Leaf Hardware", "category": "doityourself", "tags": ["doityourself", "hardware"], "sources": ["osm", "overture"], "website": "https://mapleleaface.com/", "phone": "+12065223324", "address": "9000 Roosevelt Way NE", "hours": "Mo-Su 09:00-18:00"}, "geometry": {"type": "Point", "coordinates": [-122.3171928, 47.6943326]}}, {"type": "Feature", "properties": {"id": "c8c2fa12-b9ad-43e6-b5d7-e1b18597e2d5", "name": "AW Hoss and Son", "category": "furniture", "tags": ["furniture"], "sources": ["overture"], "website": "http://www.awhossandson.com", "phone": "+12065221229", "address": "9221 Roosevelt Way NE Ste B"}, "geometry": {"type": "Point", "coordinates": [-122.3177414, 47.696434]}}, {"type": "Feature", "properties": {"id": "6a20cf50-615a-4bfa-8657-59bc006c74ab", "name": "Sanford Designs", "category": "jewelry", "tags": ["jewelry"], "sources": ["overture"], "website": "http://sanford-design.com", "phone": "(206) 522-1677", "address": "9224 Roosevelt Way NE"}, "geometry": {"type": "Point", "coordinates": [-122.3171387, 47.6965942]}}, {"type": "Feature", "properties": {"id": "85a7dc87-05f5-4b9d-9a0d-92467ecd9889", "name": "Auto Seattle", "category": "supermarket", "tags": ["supermarket"], "sources": ["overture"], "address": "9630 Roosevelt Way NE"}, "geometry": {"type": "Point", "coordinates": [-122.3171692, 47.6992188]}}, {"type": "Feature", "properties": {"id": "1d49ac52-0e1c-444a-949d-50fd499b4ad6", "name": "Math 'n' Stuff - Puzzles, Toys, And Games", "category": "toys", "tags": ["toys"], "sources": ["overture"], "website": "mathnificent.com", "phone": "12065228891", "address": "8926 Roosevelt Way NE"}, "geometry": {"type": "Point", "coordinates": [-122.3172455, 47.6938057]}}, {"type": "Feature", "properties": {"id": "c5d5a8c0-3cc4-4e0a-8e61-f9c50cf15f31", "name": "Art Tile Co.", "category": "doityourself", "tags": ["doityourself", "building", "supply"], "sources": ["overture"], "website": "http://www.arttileco.net", "address": "8511 Roosevelt Way NE"}, "geometry": {"type": "Point", "coordinates": [-122.317955, 47.6908188]}}, {"type": "Feature", "properties": {"id": "21d5605f-53a4-4a6c-8de7-b9160dcc7fc6", "name": "The Zen Of Healing", "category": "clinic", "tags": ["clinic", "medical"], "sources": ["overture"], "website": "http://www.thezenofhealing.com", "phone": "(206) 696-1121", "address": "4500 9th Ave NE Ste 300"}, "geometry": {"type": "Point", "coordinates": [-122.3171539, 47.6979103]}}, {"type": "Feature", "properties": {"id": 476078107, "name": "The Little Gym", "category": "fitness_centre", "tags": ["fitness-centre", "gymnastics"], "sources": ["osm"], "website": "https://www.thelittlegym.com/SeattleMapleLeafWA/", "phone": "+1-206-524-2623", "address": "8830 Roosevelt Way Northeast"}, "geometry": {"type": "Point", "coordinates": [-122.3173161, 47.6929851]}}, {"type": "Feature", "properties": {"id": "8b731e6d-c711-4cf9-a2d8-f0abe7b1f4fb", "name": "Woven Yoga", "category": "fitness_centre", "tags": ["fitness-centre", "yoga", "studio"], "sources": ["overture"], "website": "https://www.wovenyoga.co/", "phone": "+12064148468", "address": "8815 Roosevelt Way NE"}, "geometry": {"type": "Point", "coordinates": [-122.3179703, 47.6927261]}}]}