{"type": "FeatureCollection", "features": [{"type": "Feature", "properties": {"id": 13948856382, "name": "New Life", "category": "artwork", "tags": ["artwork"], "sources": ["osm"]}, "geometry": {"type": "Point", "coordinates": [-122.1762821, 47.7297917]}}, {"type": "Feature", "properties": {"id": 13948856384, "name": "Circle of Joy", "category": "artwork", "tags": ["artwork"], "sources": ["osm"]}, "geometry": {"type": "Point", "coordinates": [-122.1764233, 47.7296858]}}, {"type": "Feature", "properties": {"id": "4f26daf8-95e7-42f8-befc-9073e2c50711", "name": "Kingsgate Kringle House", "category": "attraction", "tags": ["attraction", "landmark", "historical", "building"], "sources": ["overture"], "website": "https://linktr.ee/kingsgatekringle", "address": "12244 NE 140th St"}, "geometry": {"type": "Point", "coordinates": [-122.1759796, 47.7259636]}}, {"type": "Feature", "properties": {"id": "31d2cb26-e569-4cdf-a2f1-861f80f055f4", "name": "Kingsgate Meadows Apartments", "category": "attraction", "tags": ["attraction", "landmark", "historical", "building"], "sources": ["overture"], "website": "https://kingsgate-meadows-apartments.business.site", "phone": "+14258231033", "address": "12423 NE 143rd St"}, "geometry": {"type": "Point", "coordinates": [-122.1742935, 47.7295227]}}, {"type": "Feature", "properties": {"id": "aac909dc-7cbc-450d-a36b-2d0f2ff28f12", "name": "Compton Meadows", "category": "attraction", "tags": ["attraction", "landmark", "historical", "building"], "sources": ["overture"], "address": "14312 126th Ave NE"}, "geometry": {"type": "Point", "coordinates": [-122.1725464, 47.7298355]}}, {"type": "Feature", "properties": {"id": "38126e85-f4f0-44d6-97f4-c040526fe33e", "name": "Kingsgate Highlands Park", "category": "park", "tags": ["park"], "sources": ["overture"], "address": "NE 142nd Pl"}, "geometry": {"type": "Point", "coordinates": [-122.1798706, 47.7276611]}}, {"type": "Feature", "properties": {"id": 13634974203, "name": "ToDos Bike Garage", "category": "bicycle", "tags": ["bicycle", "second-hand"], "sources": ["osm"], "website": "https://liveablekirkland.org/bike-garage", "phone": "+1-323-926-8054", "address": "14151 123rd Avenue Northeast", "hours": "Su 11:00-14:00"}, "geometry": {"type": "Point", "coordinates": [-122.1762148, 47.7278863]}}, {"type": "Feature", "properties": {"id": 92830940, "name": "Kingsgate Library", "category": "library", "tags": ["library"], "sources": ["osm", "overture"], "website": "http://www.kcls.org/kingsgate", "phone": "+14258217686", "address": "12315 NE 143rd St", "hours": "Tu-We 13:00-20:00; Th-Sa 10:00-17:00"}, "geometry": {"type": "Point", "coordinates": [-122.1763014, 47.7297383]}}]}