{"type": "FeatureCollection", "features": [{"type": "Feature", "properties": {"id": 490751855, "name": "Goodfellow Grove", "category": "garden", "tags": ["garden"], "sources": ["osm"]}, "geometry": {"type": "Point", "coordinates": [-122.2909794, 47.6575525]}}, {"type": "Feature", "properties": {"id": "96d34602-3577-4d4f-b6e0-e1740fba88f2", "name": "Center for Urban Horticulture", "category": "garden", "tags": ["garden", "botanical"], "sources": ["overture"], "website": "http://depts.washington.edu/uwbg/visit/cuh.php", "phone": "+12065438616", "address": "3501 NE 41st St"}, "geometry": {"type": "Point", "coordinates": [-122.2905884, 47.6579056]}}, {"type": "Feature", "properties": {"id": "c5d0578f-fb17-4053-bc6e-e54392c7e439", "name": "UW Botanic Gardens", "category": "garden", "tags": ["garden", "botanical"], "sources": ["overture"], "website": "http://www.uwbotanicgardens.org/", "phone": "+12065438616", "address": "3501 NE 41st St"}, "geometry": {"type": "Point", "coordinates": [-122.2902527, 47.6580086]}}, {"type": "Feature", "properties": {"id": 366028613, "name": "Elisabeth C. Miller Library", "category": "library", "tags": ["library", "wifi"], "sources": ["osm", "overture"], "website": "https://millerlibrary.org/", "phone": "+12065430415", "address": "3501 NE 41st St"}, "geometry": {"type": "Point", "coordinates": [-122.2906731, 47.6580467]}}, {"type": "Feature", "properties": {"id": "4f65f05c-63cf-4513-a16a-e9d1fefb75ef", "name": "University of Washington Libraries", "category": "library", "tags": ["library"], "sources": ["overture"], "website": "http://www.lib.washington.edu/", "address": "Box 352900", "stations": [{"stopCode": 48, "lines": "1,2", "name": "University of Washington Station", "walkingMeters": 719, "walkingSeconds": 537, "band": 10}]}, "geometry": {"type": "Point", "coordinates": [-122.2991104, 47.6536789]}}, {"type": "Feature", "properties": {"id": 155180953, "name": "Dempsey Indoor", "category": "sports_centre", "tags": ["sports-centre", "multi", "fitness-centre", "gym"], "sources": ["osm", "overture"], "website": "http://uw.edu/150", "address": "3800 Montlake Blvd NE", "stations": [{"stopCode": 48, "lines": "1,2", "name": "University of Washington Station", "walkingMeters": 634, "walkingSeconds": 456, "band": 10}]}, "geometry": {"type": "Point", "coordinates": [-122.29939, 47.6515085]}}]}