{"type": "FeatureCollection", "features": [{"type": "Feature", "properties": {"id": 1771065210, "name": "Dubsea Coffee", "category": "cafe", "tags": ["cafe", "coffee", "sandwich", "outdoor-seating", "wifi"], "sources": ["osm", "overture"], "website": "http://www.dubseacoffee.com", "phone": "+12067086806", "address": "9910 8th Ave SW", "hours": "Mo-Fr 07:00-17:00; Sa-Su 07:00-14:00"}, "geometry": {"type": "Point", "coordinates": [-122.3450368, 47.5145786]}}, {"type": "Feature", "properties": {"id": "08478599-1b4e-4c03-bf4a-d1e8cdec3153", "name": "Greenbridge Cafe", "category": "cafe", "tags": ["cafe", "coffee"], "sources": ["overture"], "website": "http://www.greenbridgecafe.com/", "phone": "+12067623447", "address": "9901 8th Ave SW"}, "geometry": {"type": "Point", "coordinates": [-122.3455353, 47.5145149]}}, {"type": "Feature", "properties": {"id": "2906adfb-68ce-469a-ba20-c39a5f20805c", "name": "Nia Apartments", "category": "attraction", "tags": ["attraction", "landmark", "historical", "building"], "sources": ["overture"], "website": "https://www.kch.org", "phone": "+12065293233", "address": "9935 8th Ave SW Unit 312"}, "geometry": {"type": "Point", "coordinates": [-122.3453445, 47.5142517]}}, {"type": "Feature", "properties": {"id": "0ee162b8-a974-4277-9c93-780b6d1700fd", "name": "Seola Crossing Apartments", "category": "attraction", "tags": ["attraction", "landmark", "historical", "building"], "sources": ["overture"], "website": "http://www.quantumms.com/seattle-wa/seola-crossing", "phone": "+12068767028", "address": "9839 8th Ave SW #106"}, "geometry": {"type": "Point", "coordinates": [-122.3453979, 47.5146599]}}, {"type": "Feature", "properties": {"id": 703793733, "name": "White Center Heights Park", "category": "park", "tags": ["park"], "sources": ["osm", "overture"], "website": "http://www.visitwhitecenter.com/biz/white-center-heights-park", "phone": "+12062960100", "address": "10208 7th Ave SW"}, "geometry": {"type": "Point", "coordinates": [-122.3440121, 47.5106783]}}, {"type": "Feature", "properties": {"id": "1dfacc2f-f44b-4775-810a-d35869659f1f", "name": "Mac Fashion House", "category": "clothes", "tags": ["clothes", "womens"], "sources": ["overture"], "website": "http://www.macfashionhouse.com/", "phone": "+12069500595", "address": "9839 8th Ave SW"}, "geometry": {"type": "Point", "coordinates": [-122.3454361, 47.5147362]}}, {"type": "Feature", "properties": {"id": 11198742395, "name": "Planned Parenthood", "category": "clinic", "tags": ["clinic"], "sources": ["osm"], "website": "https://www.plannedparenthood.org/health-center/washington/seattle/98106/white-center-health-center-4161-91810", "phone": "+1 800 769 0045", "address": "9942 8th Avenue Southwest", "hours": "Mo,We,Fr 08:30-16:30; Tu 11:00-19:00; Th 09:00-17:00"}, "geometry": {"type": "Point", "coordinates": [-122.3449786, 47.5139546]}}, {"type": "Feature", "properties": {"id": 652546155, "name": "Greenbridge Library", "category": "library", "tags": ["library"], "sources": ["osm", "overture"], "website": "https://kcls.org/locations/1510/", "phone": "+12067621682", "address": "9720 8th Ave SW", "hours": "Mo-Th 10:00-21:00; Sa 12:00-16:00"}, "geometry": {"type": "Point", "coordinates": [-122.3450498, 47.5159718]}}, {"type": "Feature", "properties": {"id": 4689798079, "name": "Fitness with a Purpose", "category": "fitness_centre", "tags": ["fitness-centre", "yoga", "studio"], "sources": ["osm", "overture"], "website": "http://fitnesswithapurpose.org", "phone": "(206) 763-1018", "address": "9610 8th Ave SW"}, "geometry": {"type": "Point", "coordinates": [-122.3451783, 47.5170979]}}]}