{"type": "FeatureCollection", "features": [{"type": "Feature", "properties": {"id": 9994598081, "name": "Starbucks", "category": "cafe", "tags": ["cafe", "coffee-shop", "takeaway", "wheelchair-accessible", "drive-through", "coffee", "fast-food"], "sources": ["osm", "overture"], "website": "https://www.starbucks.com/store-locator/store/1028807", "phone": "+14256280051", "address": "3181 156th Ave Se", "hours": "Mo-Su 06:00-19:00"}, "geometry": {"type": "Point", "coordinates": [-122.1384569, 47.5766211]}}, {"type": "Feature", "properties": {"id": "034ece7e-1140-4240-a932-bf328c2cfdb9", "name": "Pagliacci Pizza", "category": "restaurant", "tags": ["restaurant", "pizza"], "sources": ["overture"], "website": "https://www.pagliacci.com/", "phone": "4257474619", "address": "15210 SE 37th St"}, "geometry": {"type": "Point", "coordinates": [-122.1373672, 47.5773392]}}, {"type": "Feature", "properties": {"id": "d1cf65fc-e37c-4fba-a324-d95138984afd", "name": "Pizza Hut", "category": "restaurant", "tags": ["restaurant", "pizza"], "sources": ["overture"], "website": "https://locations.pizzahut.com/wa/bellevue/15210-se-37th-st?utm_medium=organic&utm_source=local&utm_campaign=yextpowerlistings&utm_content=website&utm_term=299301", "phone": "4257467800", "address": "15210 SE 37th St"}, "geometry": {"type": "Point", "coordinates": [-122.1373672, 47.5773392]}}, {"type": "Feature", "properties": {"id": 3879068810, "name": "Kuro Sushi", "category": "restaurant", "tags": ["restaurant", "sushi", "wheelchair-accessible", "japanese", "asian"], "sources": ["osm", "overture"], "website": "https://www.kurosushibellevue.com/home/", "phone": "+14255306316", "address": "15100 SE 38th St Ste 305a"}, "geometry": {"type": "Point", "coordinates": [-122.1372275, 47.576682]}}, {"type": "Feature", "properties": {"id": 500211870, "name": "Outback Steakhouse", "category": "restaurant", "tags": ["restaurant", "american", "steak", "wheelchair-accessible", "steakhouse", "australian"], "sources": ["osm", "overture"], "website": "http://www.outback.com", "phone": "+14257464647", "address": "15100 SE 38th St", "hours": "Mo-Th 15:00-21:00; Fr 15:00-22:00; Sa 12:00-22:00; Su 12:00-20:00"}, "geometry": {"type": "Point", "coordinates": [-122.1361939, 47.5767418]}}, {"type": "Feature", "properties": {"id": 500211872, "name": "Hong Noodle", "category": "restaurant", "tags": ["restaurant", "noodles", "asian"], "sources": ["osm", "overture"], "website": "http://hongnoodle.com", "phone": "(425) 746-2567", "address": "15100 SE 38th St"}, "geometry": {"type": "Point", "coordinates": [-122.1386582, 47.5765351]}}, {"type": "Feature", "properties": {"id": "90a94c22-3226-4227-b3bc-234a5ee64f48", "name": "Domino's Pizza", "category": "restaurant", "tags": ["restaurant", "wings", "chicken", "pizza"], "sources": ["overture"], "phone": "4257479766", "address": "15100 SE 38th St #C"}, "geometry": {"type": "Point", "coordinates": [-122.1372833, 47.5761795]}}, {"type": "Feature", "properties": {"id": "84bdb59d-3012-4f66-b34e-427ba8ba3500", "name": "Taqueria Los Tetillas", "category": "restaurant", "tags": ["restaurant", "mexican"], "sources": ["overture"], "website": "https://www.taquerialostetillas.wixsite.com/2016", "phone": "(425) 229-3876", "address": "15220 SE 37th St"}, "geometry": {"type": "Point", "coordinates": [-122.1375504, 47.577858]}}, {"type": "Feature", "properties": {"id": "f89065d9-d692-4e56-ab01-9d85cacf08c9", "name": "El Gordo Taqueria", "category": "fast_food", "tags": ["fast-food", "food", "truck", "mexican", "taco"], "sources": ["overture"], "phone": "+14256796072", "address": "15220 SE 37th St"}, "geometry": {"type": "Point", "coordinates": [-122.1372528, 47.5778008]}}, {"type": "Feature", "properties": {"id": "452dce5d-e976-43c1-96c1-9ad29ccbafa5", "name": "Tamarindos Indian Restaurant Llc", "category": "restaurant", "tags": ["restaurant"], "sources": ["overture"], "address": "15100 Se 38th St Ste 305a"}, "geometry": {"type": "Point", "coordinates": [-122.1366119, 47.5765991]}}, {"type": "Feature", "properties": {"id": "ac435e58-6f93-4945-9ef3-f6456eac12fc", "name": "Ochar Restaurant", "category": "restaurant", "tags": ["restaurant", "thai"], "sources": ["overture"], "website": "http://www.ocharthai.com", "phone": "(425) 644-8300", "address": "15100 SE 38th St Ste 305A"}, "geometry": {"type": "Point", "coordinates": [-122.1374054, 47.5765572]}}, {"type": "Feature", "properties": {"id": "33309d06-5970-4994-ae31-c32172304212", "name": "Bombay House", "category": "restaurant", "tags": ["restaurant", "indian"], "sources": ["overture"], "website": "http://www.bombayhousewa.com", "phone": "(425) 746-2114", "address": "15100 SE 38th St #305A"}, "geometry": {"type": "Point", "coordinates": [-122.1374054, 47.5765572]}}, {"type": "Feature", "properties": {"id": 379944235, "name": "Safeway", "category": "supermarket", "tags": ["supermarket", "wheelchair-accessible", "wifi", "organic"], "sources": ["osm", "overture"], "website": "https://local.safeway.com/safeway/wa/bellevue/15100-se-38th-st.html", "phone": "+14256412783", "address": "15100 SE 38th St", "hours": "Mo-Sa 06:00-24:00"}, "geometry": {"type": "Point", "coordinates": [-122.1381416, 47.5765141]}}, {"type": "Feature", "properties": {"id": "6034f940-cc69-4c99-be5a-ea245c205a9b", "name": "Safeway", "category": "supermarket", "tags": ["supermarket"], "sources": ["overture"], "website": "https://local.safeway.com", "phone": "14256412783", "address": "15100 SE 38th St"}, "geometry": {"type": "Point", "coordinates": [-122.1366119, 47.5765991]}}, {"type": "Feature", "properties": {"id": 384623751, "name": "ExtraMile", "category": "convenience", "tags": ["convenience", "wheelchair-accessible"], "sources": ["osm", "overture"], "website": "https://www.chevronextramile.com/station-finder/15220-se-37th-st-bellevue-wa-98006-1731-id384032", "phone": "4254438855", "address": "15220 SE 37th St"}, "geometry": {"type": "Point", "coordinates": [-122.137112, 47.5778248]}}, {"type": "Feature", "properties": {"id": 3879068809, "name": "DeLaurenti's", "category": "florist", "tags": ["florist"], "sources": ["osm"], "hours": "Mo-Fr 09:00-18:00; Sa 09:00-17:00; Su off"}, "geometry": {"type": "Point", "coordinates": [-122.1373462, 47.5766768]}}, {"type": "Feature", "properties": {"id": "04ad6478-d2dd-463f-9e0a-d0d23c660d16", "name": "Pet Evolution", "category": "pet", "tags": ["pet"], "sources": ["overture"], "website": "https://www.petevolution.com/wa-bellevue/", "phone": "+14255343125", "address": "15100 SE 38th St"}, "geometry": {"type": "Point", "coordinates": [-122.1371841, 47.5765343]}}, {"type": "Feature", "properties": {"id": 379944233, "name": "Jacksons", "category": "convenience", "tags": ["convenience"], "sources": ["osm"], "phone": "+1-425-746-0797", "address": "3670 150th Avenue Southeast", "hours": "24/7"}, "geometry": {"type": "Point", "coordinates": [-122.1396982, 47.5761516]}}, {"type": "Feature", "properties": {"id": "5ffc5f01-9e9d-4ba4-b538-1f9ef7b3b080", "name": "Jacksons Food Stores", "category": "convenience", "tags": ["convenience"], "sources": ["overture"], "website": "http://www.jacksons.com/", "phone": "4257460797", "address": "3670 150th Ave SE"}, "geometry": {"type": "Point", "coordinates": [-122.1396866, 47.5761185]}}, {"type": "Feature", "properties": {"id": "21554463-0fd5-4d75-8ab8-5df222a2501b", "name": "Summerset Senior Living", "category": "department_store", "tags": ["department-store", "department"], "sources": ["overture"], "website": "http://www.summersetseniorliving.agingsafely.com", "phone": "(425) 644-5429", "address": "4150 154th Ave SE # 98006-1752"}, "geometry": {"type": "Point", "coordinates": [-122.1350098, 47.5719528]}}, {"type": "Feature", "properties": {"id": 383728404, "name": "Rite Aid", "category": "pharmacy", "tags": ["pharmacy", "wheelchair-accessible"], "sources": ["osm"], "website": "https://www.riteaid.com/locations/wa/bellevue/15100-se-38th-street.html", "hours": "Mo-Su 07:00-22:00"}, "geometry": {"type": "Point", "coordinates": [-122.1366453, 47.5766025]}}, {"type": "Feature", "properties": {"id": "e164bbc8-57a2-41f2-a681-c854f953a388", "name": "Rite Aid", "category": "pharmacy", "tags": ["pharmacy"], "sources": ["overture"], "website": "https://www.riteaid.com/store-details?storeNumber=5179", "phone": "4257464028", "address": "15100 SE 38th St"}, "geometry": {"type": "Point", "coordinates": [-122.1390152, 47.5759926]}}, {"type": "Feature", "properties": {"id": "00343159-a7b5-409d-9871-b27a2fb67666", "name": "RediClinic Eastgate Plaza", "category": "clinic", "tags": ["clinic", "walk", "in"], "sources": ["overture"], "website": "https://www.rediclinic.com/clinics/washington/bellevue/rediclinic-eastgate-plaza/", "phone": "8334237334", "address": "15100 S. Street, E. 38Th"}, "geometry": {"type": "Point", "coordinates": [-122.1366577, 47.5767937]}}, {"type": "Feature", "properties": {"id": 283923070, "name": "Chase", "category": "bank", "tags": ["bank", "drive-through", "wheelchair-accessible"], "sources": ["osm"], "address": "3712 150th Avenue Southeast", "hours": "Mo-Fr 09:00-17:00; Sa 09:00-13:00; Su off"}, "geometry": {"type": "Point", "coordinates": [-122.139719, 47.5769126]}}, {"type": "Feature", "properties": {"id": 9941357163, "name": "WaFd Bank", "category": "bank", "tags": ["bank", "wheelchair-accessible", "credit", "union"], "sources": ["osm", "overture"], "website": "https://www.wafdbank.com/locations/washington/bellevue/eastgate?utm_source=ExtNet&utm_medium=yext", "phone": "4257477100", "address": "3762 150th Avenue SE", "hours": "Mo-Th 09:00-17:00; Fr 09:00-18:00"}, "geometry": {"type": "Point", "coordinates": [-122.139803, 47.576527]}}, {"type": "Feature", "properties": {"id": "e0bf30cd-5a06-4dd2-b722-ec6fe7e6134e", "name": "U.S. Bank ATM", "category": "bank", "tags": ["bank", "credit", "union"], "sources": ["overture"], "website": "http://www.usbank.com/locations", "phone": "8008722657", "address": "15100 SE 38th St"}, "geometry": {"type": "Point", "coordinates": [-122.1372833, 47.5761795]}}, {"type": "Feature", "properties": {"id": "5f688395-4c96-4091-9102-c563cd8b3576", "name": "Mail plus", "category": "post_office", "tags": ["post-office", "office"], "sources": ["overture"], "website": "http://www.supervalu.com", "phone": "(425) 644-6910", "address": "15100 SE 38th St"}, "geometry": {"type": "Point", "coordinates": [-122.1373367, 47.5765343]}}, {"type": "Feature", "properties": {"id": "b79dea46-a9ae-4e64-90fa-e1a4184528f4", "name": "Get Zen Hot Yoga (eastgate)", "category": "fitness_centre", "tags": ["fitness-centre", "yoga", "studio"], "sources": ["overture"], "phone": "4252291190", "address": "15100 Se 38th St  Ste 302"}, "geometry": {"type": "Point", "coordinates": [-122.1366119, 47.5765991]}}, {"type": "Feature", "properties": {"id": "4bb70577-1b6c-4345-b002-6fca3b3de878", "name": "Snap Fitness", "category": "fitness_centre", "tags": ["fitness-centre", "gym"], "sources": ["overture"], "website": "http://www.snapfitness.com/gyms/bellevue-wa-98006/265", "phone": "4257472567", "address": "15100 SE 38th St"}, "geometry": {"type": "Point", "coordinates": [-122.1372833, 47.5761795]}}, {"type": "Feature", "properties": {"id": "e97f029d-7bbb-41d4-a4ba-5796c1dbc9ac", "name": "Liberty Sports Group", "category": "sports_centre", "tags": ["sports-centre", "sports", "club", "league"], "sources": ["overture"], "website": "http://libertysportsgroup.com", "phone": "(425) 748-3400", "address": "3626 156th Ave SE"}, "geometry": {"type": "Point", "coordinates": [-122.1314316, 47.5767555]}}]}