{"type": "FeatureCollection", "features": [{"type": "Feature", "properties": {"id": 5730670747, "name": "Starbucks", "category": "cafe", "tags": ["cafe", "coffee-shop", "takeaway", "coffee"], "sources": ["osm", "overture"], "website": "https://www.starbucks.com/store-locator/store/16120/safeway-seattle-1965-9262-rainier-ave-s-seattle-wa-981185570-us", "phone": "+1-206-494-1120", "address": "9262 Rainier Ave S", "stations": [{"stopCode": 61, "lines": "1", "name": "Rainier Beach Station", "walkingMeters": 1232, "walkingSeconds": 886, "band": 15}]}, "geometry": {"type": "Point", "coordinates": [-122.267607, 47.520867]}}, {"type": "Feature", "properties": {"id": 228294380, "name": "Starbucks", "category": "cafe", "tags": ["cafe", "coffee-shop", "takeaway", "wifi", "coffee"], "sources": ["osm", "overture"], "website": "https://www.starbucks.com/store-locator/store/1039306/rainier-ave-s-9150-rainier-ave-s-seattle-wa-981185044-us", "phone": "+15643970209", "address": "9150 Rainier Ave S", "hours": "Mo-Tu,Fr-Su 05:00-21:00; We 05:00-16:30; Th 06:00-14:00", "stations": [{"stopCode": 61, "lines": "1", "name": "Rainier Beach Station", "walkingMeters": 998, "walkingSeconds": 717, "band": 15}]}, "geometry": {"type": "Point", "coordinates": [-122.2695492, 47.5211499]}}, {"type": "Feature", "properties": {"id": 228292083, "name": "McDonald's", "category": "fast_food", "tags": ["fast-food", "burger", "takeaway", "drive-through", "wifi", "fast", "food", "american"], "sources": ["osm", "overture"], "website": "https://www.mcdonalds.com/us/en-us/location/wa/seattle/9304-rainier-ave-s/4891.html?cid=RF%3AYXT%3ARoN%3A%3AClicks%3Fcid%3DRF%3AYXT%3AFB%3A%3AClicks", "phone": "+12067256181", "address": "9304 Rainier Ave S", "hours": "06:00-23:00", "stations": [{"stopCode": 61, "lines": "1", "name": "Rainier Beach Station", "walkingMeters": 1343, "walkingSeconds": 966, "band": 15}]}, "geometry": {"type": "Point", "coordinates": [-122.2669303, 47.5202634]}}, {"type": "Feature", "properties": {"id": 2368732094, "name": "Kaffa Coffee & Wine Bar", "category": "cafe", "tags": ["cafe", "coffee-shop", "ethiopian"], "sources": ["osm"], "website": "https://www.kaffacoffee.net/", "address": "8136 Rainier Avenue South"}, "geometry": {"type": "Point", "coordinates": [-122.2697126, 47.5298764]}}, {"type": "Feature", "properties": {"id": 2368732110, "name": "Mama Sambusa Kitchen", "category": "restaurant", "tags": ["restaurant", "somali", "halal", "african"], "sources": ["osm", "overture"], "website": "https://www.mamasambusakitchen.com", "phone": "+12063562911", "address": "8319 Wabash Ave S"}, "geometry": {"type": "Point", "coordinates": [-122.269769, 47.528966]}}, {"type": "Feature", "properties": {"id": 6177394485, "name": "Jude's Old town", "category": "pub", "tags": ["pub", "indoor-seating"], "sources": ["osm"], "hours": "Su-Th 16:00-23:00; Fr,Sa 16:00-24:00"}, "geometry": {"type": "Point", "coordinates": [-122.2613543, 47.5200916]}}, {"type": "Feature", "properties": {"id": 6177466388, "name": "Souvanny's", "category": "bar", "tags": ["bar", "indoor-seating"], "sources": ["osm"], "hours": "Mo-Su 15:00-02:00"}, "geometry": {"type": "Point", "coordinates": [-122.261346, 47.5201473]}}, {"type": "Feature", "properties": {"id": 9723488412, "name": "Umami Kushi", "category": "cafe", "tags": ["cafe", "japanese", "wheelchair-accessible", "restaurant", "asian"], "sources": ["osm", "overture"], "website": "https://umamikushi.square.site", "phone": "+12067231887", "address": "9099 Seward Park Ave S Unit 2"}, "geometry": {"type": "Point", "coordinates": [-122.263325, 47.5204149]}}, {"type": "Feature", "properties": {"id": "dbff7e61-7bbf-4019-8d2e-fdf852db6657", "name": "Jack in the Box", "category": "restaurant", "tags": ["restaurant", "taco", "burger", "fast-food", "mexican"], "sources": ["overture"], "website": "http://www.jackinthebox.com/locations/8406", "phone": "2067257143", "address": "9102 Rainier Ave S", "stations": [{"stopCode": 61, "lines": "1", "name": "Rainier Beach Station", "walkingMeters": 972, "walkingSeconds": 699, "band": 15}]}, "geometry": {"type": "Point", "coordinates": [-122.2697678, 47.5217361]}}, {"type": "Feature", "properties": {"id": 228294383, "name": "California Burrito", "category": "fast_food", "tags": ["fast-food", "mexican", "drive-through"], "sources": ["osm"], "address": "9102 Rainier Avenue South", "hours": "24/7", "stations": [{"stopCode": 61, "lines": "1", "name": "Rainier Beach Station", "walkingMeters": 989, "walkingSeconds": 711, "band": 15}]}, "geometry": {"type": "Point", "coordinates": [-122.2696313, 47.5217471]}}, {"type": "Feature", "properties": {"id": 228294275, "name": "Phat Loi", "category": "restaurant", "tags": ["restaurant", "vietnamese"], "sources": ["osm"], "address": "9050 Rainier Avenue South", "stations": [{"stopCode": 61, "lines": "1", "name": "Rainier Beach Station", "walkingMeters": 935, "walkingSeconds": 672, "band": 15}]}, "geometry": {"type": "Point", "coordinates": [-122.2696916, 47.5220165]}}, {"type": "Feature", "properties": {"id": "ce4c76dd-9d2b-4160-bd3e-2e05db23ecda", "name": "ZENSHI Handcrafted Sushi", "category": "restaurant", "tags": ["restaurant", "sushi", "japanese", "asian"], "sources": ["overture"], "website": "https://www.zenshisushi.com/", "phone": "+12064941120", "address": "9262 Rainier Ave S", "stations": [{"stopCode": 61, "lines": "1", "name": "Rainier Beach Station", "walkingMeters": 1106, "walkingSeconds": 825, "band": 15}]}, "geometry": {"type": "Point", "coordinates": [-122.2683105, 47.5207939]}}, {"type": "Feature", "properties": {"id": "55e751aa-fce9-428e-9d38-d361258835fa", "name": "Rose Cafe & Restaurant", "category": "cafe", "tags": ["cafe", "coffee", "ethiopian", "middle-eastern"], "sources": ["overture"], "website": "http://instagram.com/rosecaferestaurant#", "phone": "+12064186995", "address": "8136 Rainier Ave S"}, "geometry": {"type": "Point", "coordinates": [-122.2697372, 47.5299263]}}, {"type": "Feature", "properties": {"id": "591cd747-a279-4d35-a3ae-e5230fd9722d", "name": "Kaffa Coffee and Wine Bar", "category": "restaurant", "tags": ["restaurant", "ethiopian", "african"], "sources": ["overture"], "website": "http://kaffafoods.com/", "phone": "+12064533558", "address": "8136 Rainier Ave S"}, "geometry": {"type": "Point", "coordinates": [-122.2698593, 47.5298309]}}, {"type": "Feature", "properties": {"id": "2c6d4d57-d413-42ff-ab96-ec3487d59774", "name": "Jude's", "category": "restaurant", "tags": ["restaurant", "cajun-and-creole", "cajun", "creole"], "sources": ["overture"], "website": "http://judesoldtown.com/", "phone": "+12063796629", "address": "9252 57th Ave S"}, "geometry": {"type": "Point", "coordinates": [-122.2612762, 47.5201035]}}, {"type": "Feature", "properties": {"id": "04cb2d9a-ab36-4d43-9e2f-d219546a6df6", "name": "The Hideaway at Cikus (Formerly Souvanny's Tavern)", "category": "restaurant", "tags": ["restaurant", "bar-and-grill", "bar", "grill"], "sources": ["overture"], "website": "https://souvannystavern.wixsite.com/tavern", "phone": "+12068907919", "address": "9501 Rainier Ave S"}, "geometry": {"type": "Point", "coordinates": [-122.2612762, 47.5201454]}}, {"type": "Feature", "properties": {"id": "516fd295-eeff-48a3-8a6a-76e5ff957104", "name": "Souvanny's Tavern", "category": "bar", "tags": ["bar"], "sources": ["overture"], "website": "http://suitebellevue.com", "phone": "(206) 760-2263", "address": "9501 Rainier Ave S"}, "geometry": {"type": "Point", "coordinates": [-122.2613144, 47.5200691]}}, {"type": "Feature", "properties": {"id": "33d116d0-964f-4e10-8063-7636863f66ee", "name": "Cafe Vignole", "category": "restaurant", "tags": ["restaurant", "italian"], "sources": ["overture"], "website": "http://cafevignole.biz/", "phone": "(206) 721-2267", "address": "9252 57th Ave S"}, "geometry": {"type": "Point", "coordinates": [-122.2613678, 47.520031]}}, {"type": "Feature", "properties": {"id": "ce1ea591-bff3-4fde-b21a-c976ad2a7f86", "name": "Taqueria Costa Alegre", "category": "restaurant", "tags": ["restaurant", "mexican"], "sources": ["overture"], "phone": "+12069489068", "address": "5235-5245 S Henderson St", "stations": [{"stopCode": 61, "lines": "1", "name": "Rainier Beach Station", "walkingMeters": 968, "walkingSeconds": 695, "band": 15}]}, "geometry": {"type": "Point", "coordinates": [-122.2675323, 47.5230598]}}, {"type": "Feature", "properties": {"id": "d3a41b4f-8aff-4ea4-be20-df8b081a30f1", "name": "Valley Commons", "category": "attraction", "tags": ["attraction", "landmark", "historical", "building"], "sources": ["overture"], "website": "http://www.mtbakerhousing.org/ValleyCommons", "phone": "+12067230200", "address": "8340 Rainier Ave S", "stations": [{"stopCode": 61, "lines": "1", "name": "Rainier Beach Station", "walkingMeters": 1286, "walkingSeconds": 924, "band": 15}]}, "geometry": {"type": "Point", "coordinates": [-122.2697144, 47.5282555]}}, {"type": "Feature", "properties": {"id": "54bfa4cf-5332-462b-9b8c-f7148eea0bd6", "name": "Spinnaker Bay Condominiums", "category": "attraction", "tags": ["attraction", "landmark", "historical", "building"], "sources": ["overture"], "address": "9500 Rainier Ave S"}, "geometry": {"type": "Point", "coordinates": [-122.2616425, 47.5210152]}}, {"type": "Feature", "properties": {"id": "d3f888c8-4d9c-42e3-98ec-fd03f158f6b6", "name": "Polaris at Rainier Beach", "category": "attraction", "tags": ["attraction", "landmark", "historical", "building"], "sources": ["overture"], "website": "https://www.liveatpolarisatrainierbeach.com/", "phone": "+14254075373", "address": "9400 Rainier Ave S"}, "geometry": {"type": "Point", "coordinates": [-122.2654419, 47.5200119]}}, {"type": "Feature", "properties": {"id": "62524583-d589-4266-8c4b-b104801e7b06", "name": "Lake Washington Apartments", "category": "attraction", "tags": ["attraction", "landmark", "historical", "building"], "sources": ["overture"], "website": "http://www.lakewashingtonapts.com", "phone": "+18666428775", "address": "9061 Seward Park Ave S", "stations": [{"stopCode": 61, "lines": "1", "name": "Rainier Beach Station", "walkingMeters": 1309, "walkingSeconds": 941, "band": 15}]}, "geometry": {"type": "Point", "coordinates": [-122.26577, 47.5217819]}}, {"type": "Feature", "properties": {"id": "da1faa12-855b-4e2d-99bb-bcb96df7b54d", "name": "Parkshore Villa Condominiums", "category": "attraction", "tags": ["attraction", "landmark", "historical", "building"], "sources": ["overture"], "website": "https://www.transformingage.org/parkshore", "phone": "+12067210463", "address": "9030 Seward Park Ave S"}, "geometry": {"type": "Point", "coordinates": [-122.2640228, 47.5221024]}}, {"type": "Feature", "properties": {"id": 50275556, "name": "Pritchard Island Beach", "category": "park", "tags": ["park"], "sources": ["osm"], "website": "https://www.seattle.gov/parks/allparks/pritchard-island-beach"}, "geometry": {"type": "Point", "coordinates": [-122.2629073, 47.5286991]}}, {"type": "Feature", "properties": {"id": "d133790d-9405-494b-b5db-c46021d804f4", "name": "Rainier Beach Playfield", "category": "park", "tags": ["park"], "sources": ["overture"], "website": "http://seattle.gov/parks/park_detail.asp?ID=422", "address": "Rainier Beach Playfield, 8802 Rainier Ave S", "stations": [{"stopCode": 61, "lines": "1", "name": "Rainier Beach Station", "walkingMeters": 1106, "walkingSeconds": 825, "band": 15}]}, "geometry": {"type": "Point", "coordinates": [-122.2682648, 47.5238228]}}, {"type": "Feature", "properties": {"id": 834352188, "name": "Park Drive South Street End", "category": "park", "tags": ["park"], "sources": ["osm"]}, "geometry": {"type": "Point", "coordinates": [-122.2614495, 47.5238996]}}, {"type": "Feature", "properties": {"id": "e8b2c8bb-3d0a-43ff-8fd6-4039a6bc372f", "name": "Be'er Sheva Park", "category": "park", "tags": ["park"], "sources": ["overture"], "website": "http://seattle.gov/parks/park_detail.asp?ID=440", "phone": "+12066844075", "address": "8650 55th Ave S"}, "geometry": {"type": "Point", "coordinates": [-122.2634201, 47.5243912]}}, {"type": "Feature", "properties": {"id": "f8d58272-ab98-4e86-a0f5-455e8f673133", "name": "Metro by T-Mobile", "category": "mobile_phone", "tags": ["mobile-phone", "mobile"], "sources": ["overture"], "website": "http://www.metrobytmobile.com", "phone": "(888) 863-8768", "address": "8738 Rainier Ave S", "stations": [{"stopCode": 61, "lines": "1", "name": "Rainier Beach Station", "walkingMeters": 884, "walkingSeconds": 635, "band": 10}]}, "geometry": {"type": "Point", "coordinates": [-122.2697296, 47.5242043]}}, {"type": "Feature", "properties": {"id": 136571988, "name": "Safeway", "category": "supermarket", "tags": ["supermarket", "wheelchair-accessible", "pharmacy"], "sources": ["osm", "overture"], "website": "https://local.safeway.com/safeway/wa/seattle/9262-rainier-ave-s.html", "phone": "+12064941120", "address": "9262 Rainier Ave S", "hours": "Mo-Su 05:00-23:00", "stations": [{"stopCode": 61, "lines": "1", "name": "Rainier Beach Station", "walkingMeters": 1169, "walkingSeconds": 840, "band": 15}]}, "geometry": {"type": "Point", "coordinates": [-122.2680501, 47.5210139]}}, {"type": "Feature", "properties": {"id": 5730670745, "name": "Dollar Tree", "category": "variety_store", "tags": ["variety-store", "discount"], "sources": ["osm", "overture"], "website": "https://www.dollartree.com/locations/WA/seattle/6400/", "phone": "+12063168972", "address": "9000 Rainier Ave S.", "hours": "Mo-Su 08:00-20:00", "stations": [{"stopCode": 61, "lines": "1", "name": "Rainier Beach Station", "walkingMeters": 931, "walkingSeconds": 669, "band": 15}]}, "geometry": {"type": "Point", "coordinates": [-122.2689942, 47.5226276]}}, {"type": "Feature", "properties": {"id": 2369557543, "name": "Seward Park Market", "category": "convenience", "tags": ["convenience", "supermarket"], "sources": ["osm", "overture"], "phone": "+12064322657", "address": "9436 Rainier Ave S"}, "geometry": {"type": "Point", "coordinates": [-122.2633684, 47.5202815]}}, {"type": "Feature", "properties": {"id": 2446638612, "name": "Toure Apparel", "category": "clothes", "tags": ["clothes"], "sources": ["osm"], "website": "https://toureapparel.square.site", "phone": "+1-206-349-2164", "address": "9000 B Rainier Avenue South", "hours": "Mo-Sa 11:00-19:00; Su off", "stations": [{"stopCode": 61, "lines": "1", "name": "Rainier Beach Station", "walkingMeters": 968, "walkingSeconds": 696, "band": 15}]}, "geometry": {"type": "Point", "coordinates": [-122.2684987, 47.5226287]}}, {"type": "Feature", "properties": {"id": 10096746111, "name": "206 Mini Mart", "category": "convenience", "tags": ["convenience"], "sources": ["osm"], "stations": [{"stopCode": 61, "lines": "1", "name": "Rainier Beach Station", "walkingMeters": 883, "walkingSeconds": 634, "band": 10}]}, "geometry": {"type": "Point", "coordinates": [-122.2697352, 47.5241942]}}, {"type": "Feature", "properties": {"id": 228241863, "name": "Ethio Market", "category": "convenience", "tags": ["convenience"], "sources": ["osm"], "phone": "+1-206-725-8389", "address": "8432 Rainier Avenue South", "hours": "Mo-Sa 09:00-19:00", "stations": [{"stopCode": 61, "lines": "1", "name": "Rainier Beach Station", "walkingMeters": 1150, "walkingSeconds": 827, "band": 15}]}, "geometry": {"type": "Point", "coordinates": [-122.2696282, 47.5270268]}}, {"type": "Feature", "properties": {"id": "3bd73e97-81bc-488f-84f5-91529fd8835b", "name": "Sherwin-Williams", "category": "hardware", "tags": ["hardware"], "sources": ["overture"], "website": "https://www.sherwin-williams.com/store-locator/paint-store/seattle/wa/721507", "phone": "+12067223058", "address": "8824 Rainier Ave S", "stations": [{"stopCode": 61, "lines": "1", "name": "Rainier Beach Station", "walkingMeters": 825, "walkingSeconds": 593, "band": 10}]}, "geometry": {"type": "Point", "coordinates": [-122.2696457, 47.5235977]}}, {"type": "Feature", "properties": {"id": "aeca565a-620d-486a-9199-2e75f265d588", "name": "Payless ShoeSource", "category": "shoes", "tags": ["shoes", "shoe"], "sources": ["overture"], "website": "http://payless.com/", "phone": "2067232169", "address": "8824 Rainier Ave S", "stations": [{"stopCode": 61, "lines": "1", "name": "Rainier Beach Station", "walkingMeters": 828, "walkingSeconds": 595, "band": 10}]}, "geometry": {"type": "Point", "coordinates": [-122.2696381, 47.5236969]}}, {"type": "Feature", "properties": {"id": "e700f12a-2f5c-4ac5-a785-76ef6f2bdda4", "name": "State Liquor Store", "category": "alcohol", "tags": ["alcohol"], "sources": ["overture"], "website": "http://liq.wa.gov", "phone": "(206) 721-4175", "address": "9258 Rainier Ave S", "stations": [{"stopCode": 61, "lines": "1", "name": "Rainier Beach Station", "walkingMeters": 1168, "walkingSeconds": 839, "band": 15}]}, "geometry": {"type": "Point", "coordinates": [-122.2680664, 47.5210037]}}, {"type": "Feature", "properties": {"id": "48f14523-c4a3-4e78-a011-6f0e7135e724", "name": "Rainier Beach Liquor and Wine", "category": "alcohol", "tags": ["alcohol"], "sources": ["overture"], "website": "http://liq.wa.gov", "phone": "+12067258684", "address": "9258 Rainier Ave S", "stations": [{"stopCode": 61, "lines": "1", "name": "Rainier Beach Station", "walkingMeters": 1116, "walkingSeconds": 802, "band": 15}]}, "geometry": {"type": "Point", "coordinates": [-122.2687454, 47.5207748]}}, {"type": "Feature", "properties": {"id": "88616b1a-eefc-474c-96a0-d3b14216e968", "name": "Rainier Beach Metropcs", "category": "mobile_phone", "tags": ["mobile-phone", "mobile"], "sources": ["overture"], "website": "metropcswireless.net", "phone": "+12067250933", "address": "8738 Rainier Ave S", "stations": [{"stopCode": 61, "lines": "1", "name": "Rainier Beach Station", "walkingMeters": 980, "walkingSeconds": 731, "band": 10}]}, "geometry": {"type": "Point", "coordinates": [-122.2697144, 47.5241966]}}, {"type": "Feature", "properties": {"id": "a19a5e73-69b4-4c3b-9441-9861cce9857a", "name": "New Star", "category": "convenience", "tags": ["convenience"], "sources": ["overture"], "phone": "+12067232186", "address": "8600 Rainier Ave S", "stations": [{"stopCode": 61, "lines": "1", "name": "Rainier Beach Station", "walkingMeters": 1101, "walkingSeconds": 822, "band": 15}]}, "geometry": {"type": "Point", "coordinates": [-122.2695694, 47.5261459]}}, {"type": "Feature", "properties": {"id": "db2a138a-7559-48e6-9ba4-2af5fb4d997d", "name": "Sharif Grocery & Halal", "category": "supermarket", "tags": ["supermarket"], "sources": ["overture"], "website": "https://www.sharif-grocery-halal.business.site", "phone": "12067257252", "address": "8334 Rainier Ave S  Ste 101"}, "geometry": {"type": "Point", "coordinates": [-122.269455, 47.5284729]}}, {"type": "Feature", "properties": {"id": "d23059db-09ca-41db-8706-06512e20b52c", "name": "Dabal Mini Market", "category": "convenience", "tags": ["convenience"], "sources": ["overture"], "phone": "+12067622316", "address": "8300 Wabash Ave S"}, "geometry": {"type": "Point", "coordinates": [-122.2696533, 47.5293694]}}, {"type": "Feature", "properties": {"id": "d83998c4-16e0-490a-b4a6-9369793a3cc1", "name": "Hamarwayne Mini Market", "category": "supermarket", "tags": ["supermarket"], "sources": ["overture"], "website": "http://www.rainiervalley-realestate.com", "phone": "(206) 760-9227", "address": "8324 Rainier Ave S"}, "geometry": {"type": "Point", "coordinates": [-122.2696609, 47.5288239]}}, {"type": "Feature", "properties": {"id": "df128f09-912d-49e2-9122-5c78256a2a35", "name": "Rainier Market", "category": "supermarket", "tags": ["supermarket"], "sources": ["overture"], "website": "https://rainer-market.hub.biz/", "phone": "+12065880308", "address": "9436 Rainier Ave S"}, "geometry": {"type": "Point", "coordinates": [-122.2634201, 47.5202789]}}, {"type": "Feature", "properties": {"id": "6b94e4e5-5374-4751-811b-13084b884769", "name": "Rich C Inc", "category": "supermarket", "tags": ["supermarket"], "sources": ["overture"], "address": "9436 Rainier Ave S"}, "geometry": {"type": "Point", "coordinates": [-122.2634354, 47.5202599]}}, {"type": "Feature", "properties": {"id": 2019295589, "name": "Rite Aid", "category": "pharmacy", "tags": ["pharmacy", "convenience"], "sources": ["osm", "overture"], "website": "https://www.riteaid.com/locations/wa/seattle/9000-rainier-avenue-s.html", "phone": "2067601076", "address": "9000 Rainier Avenue S, Ste C", "stations": [{"stopCode": 61, "lines": "1", "name": "Rainier Beach Station", "walkingMeters": 860, "walkingSeconds": 618, "band": 10}]}, "geometry": {"type": "Point", "coordinates": [-122.2693151, 47.5226271]}}, {"type": "Feature", "properties": {"id": "27877e6c-ba60-4435-a6d1-3f8a3331b3bb", "name": "Safeway Pharmacy", "category": "pharmacy", "tags": ["pharmacy"], "sources": ["overture"], "website": "https://local.pharmacy.safeway.com/safeway/wa/seattle/9262-rainier-ave-s.html", "phone": "2064941130", "address": "9262 Rainier Ave S", "stations": [{"stopCode": 61, "lines": "1", "name": "Rainier Beach Station", "walkingMeters": 1107, "walkingSeconds": 826, "band": 15}]}, "geometry": {"type": "Point", "coordinates": [-122.2682419, 47.520977]}}, {"type": "Feature", "properties": {"id": "cd8ff8e6-4999-4392-a68e-2084ee70f5d0", "name": "King Plaza Pharmacy (now Part Of Rite Aid)", "category": "pharmacy", "tags": ["pharmacy"], "sources": ["overture"], "website": "https://www.kppharmacy.com", "phone": "12067215009", "address": "9000 Rainier Ave S  Ste C", "stations": [{"stopCode": 61, "lines": "1", "name": "Rainier Beach Station", "walkingMeters": 1050, "walkingSeconds": 784, "band": 15}]}, "geometry": {"type": "Point", "coordinates": [-122.2686462, 47.5227661]}}, {"type": "Feature", "properties": {"id": "efe9248a-a59c-4658-b0cc-2b98eaf3723d", "name": "US Bank", "category": "bank", "tags": ["bank", "credit", "union"], "sources": ["overture"], "website": "http://www.usbank.com/", "phone": "2067258959", "address": "9262 Rainier Ave S", "stations": [{"stopCode": 61, "lines": "1", "name": "Rainier Beach Station", "walkingMeters": 1167, "walkingSeconds": 839, "band": 15}]}, "geometry": {"type": "Point", "coordinates": [-122.268074, 47.5206985]}}, {"type": "Feature", "properties": {"id": 2137074867, "name": "Planet Fitness", "category": "fitness_centre", "tags": ["fitness-centre", "gym"], "sources": ["osm", "overture"], "website": "https://www.planetfitness.com/gyms/seattle-rainier-beach-wa?utm_medium=organic&utm_source=extnet", "phone": "+12062573655", "address": "9000 Rainier Ave S", "stations": [{"stopCode": 61, "lines": "1", "name": "Rainier Beach Station", "walkingMeters": 997, "walkingSeconds": 716, "band": 15}]}, "geometry": {"type": "Point", "coordinates": [-122.2681174, 47.5226243]}}, {"type": "Feature", "properties": {"id": 9688939317, "name": "Emperado Kajukenbo", "category": "fitness_centre", "tags": ["fitness-centre"], "sources": ["osm"]}, "geometry": {"type": "Point", "coordinates": [-122.2627185, 47.5205604]}}, {"type": "Feature", "properties": {"id": 9723447056, "name": "Lotus Brazilian Jiu Jitsu", "category": "fitness_centre", "tags": ["fitness-centre"], "sources": ["osm"], "website": "https://lotusbjjseattle.com", "phone": "+1-206-395-6849"}, "geometry": {"type": "Point", "coordinates": [-122.2626534, 47.5205125]}}, {"type": "Feature", "properties": {"id": 9723447057, "name": "Credit Boxing Gym", "category": "fitness_centre", "tags": ["fitness-centre"], "sources": ["osm"]}, "geometry": {"type": "Point", "coordinates": [-122.2626905, 47.5205388]}}, {"type": "Feature", "properties": {"id": 228292082, "name": "Rainier Yacht Club", "category": "sports_centre", "tags": ["sports-centre"], "sources": ["osm"], "address": "9094 Seward Park Avenue South"}, "geometry": {"type": "Point", "coordinates": [-122.2629451, 47.520886]}}, {"type": "Feature", "properties": {"id": "f2a81744-e9b8-4bc4-a4d0-1b0539362044", "name": "Emperado Kajukenbo Seattle Academy", "category": "fitness_centre", "tags": ["fitness-centre", "gym"], "sources": ["overture"], "address": "9460 Rainier Ave S"}, "geometry": {"type": "Point", "coordinates": [-122.2625427, 47.5206184]}}]}