{"type": "FeatureCollection", "features": [{"type": "Feature", "properties": {"id": "089f2b58-a4e3-467a-946c-a38d244cd69a", "name": "Subway", "category": "restaurant", "tags": ["restaurant", "sandwich"], "sources": ["overture"], "website": "https://www.subway.com", "phone": "12063615135", "address": "12248 Aurora Ave N  Ste B"}, "geometry": {"type": "Point", "coordinates": [-122.3444824, 47.7192154]}}, {"type": "Feature", "properties": {"id": 1070195857, "name": "Mexican Snack", "category": "fast_food", "tags": ["fast-food", "mexican"], "sources": ["osm"], "address": "12248 Aurora Avenue North"}, "geometry": {"type": "Point", "coordinates": [-122.3443862, 47.7192687]}}, {"type": "Feature", "properties": {"id": 220179294, "name": "El Camion", "category": "restaurant", "tags": ["restaurant", "mexican", "taco"], "sources": ["osm", "overture"], "website": "http://www.elcamionseattle.com", "phone": "+12063672777", "address": "11728 Aurora Ave N", "hours": "Tu-Sa 10:30-21:00; Su,Mo 10:30-20:00"}, "geometry": {"type": "Point", "coordinates": [-122.3439086, 47.7148878]}}, {"type": "Feature", "properties": {"id": 92190418, "name": "Krispy Kreme", "category": "fast_food", "tags": ["fast-food", "donut", "takeaway", "drive-through"], "sources": ["osm"], "address": "12505 Aurora Avenue North"}, "geometry": {"type": "Point", "coordinates": [-122.3455063, 47.7197958]}}, {"type": "Feature", "properties": {"id": 220182109, "name": "Mekong Village", "category": "restaurant", "tags": ["restaurant", "vietnamese", "asian"], "sources": ["osm", "overture"], "website": "http://mekongvillagerestaurant.com", "phone": "+12062571560", "address": "12020 Aurora Ave N"}, "geometry": {"type": "Point", "coordinates": [-122.3443796, 47.7167002]}}, {"type": "Feature", "properties": {"id": "329c2599-afc4-4d4e-a535-81f61a4eadc7", "name": "Anita's Mexican Food", "category": "fast_food", "tags": ["fast-food", "food", "truck"], "sources": ["overture"], "website": "http://www.anitasmexifood.com", "phone": "(206) 364-0144", "address": "12245 Aurora Ave N"}, "geometry": {"type": "Point", "coordinates": [-122.3452988, 47.7188568]}}, {"type": "Feature", "properties": {"id": "cc705022-fec2-4cf2-8335-8d3308384da7", "name": "125th Street Grill", "category": "restaurant", "tags": ["restaurant", "american"], "sources": ["overture"], "website": "https://125thstreetgrill.com", "phone": "12063638950", "address": "12255 Aurora Ave N"}, "geometry": {"type": "Point", "coordinates": [-122.3453217, 47.7193108]}}, {"type": "Feature", "properties": {"id": "a1a34574-c98b-48cd-8ab8-6888f4834135", "name": "Barriga Llena", "category": "restaurant", "tags": ["restaurant", "mexican"], "sources": ["overture"], "phone": "2063179700", "address": "12059 Aurora Ave N"}, "geometry": {"type": "Point", "coordinates": [-122.3455124, 47.7174911]}}, {"type": "Feature", "properties": {"id": "651e91f3-89eb-4a34-a2a2-101b30453292", "name": "Car Mate", "category": "restaurant", "tags": ["restaurant"], "sources": ["overture"], "address": "12001 Aurora Ave N"}, "geometry": {"type": "Point", "coordinates": [-122.3457108, 47.7160263]}}, {"type": "Feature", "properties": {"id": "364ddf57-1f5a-41a7-8d97-a7a6b4718a8e", "name": "Celest Cafe", "category": "restaurant", "tags": ["restaurant", "vegan"], "sources": ["overture"], "website": "http://www.celestcafe.com", "phone": "(206) 370-0036", "address": "1100 N 115th St"}, "geometry": {"type": "Point", "coordinates": [-122.3442612, 47.7125015]}}, {"type": "Feature", "properties": {"id": "b09aa866-9b34-4c94-afa9-9ba28d5a1d84", "name": "La Antigua", "category": "restaurant", "tags": ["restaurant", "mexican"], "sources": ["overture"], "website": "http://laantiguacasamaria.com", "phone": "(206) 420-1158", "address": "1100 N 115th St #101"}, "geometry": {"type": "Point", "coordinates": [-122.3441696, 47.7124786]}}, {"type": "Feature", "properties": {"id": "d4d53656-bf1f-4b69-a42a-7a8f5051c151", "name": "El Antojo Loko", "category": "restaurant", "tags": ["restaurant", "mexican"], "sources": ["overture"], "phone": "+12068888929", "address": "12248 Aurora Ave N Ste B"}, "geometry": {"type": "Point", "coordinates": [-122.3444138, 47.7192612]}}, {"type": "Feature", "properties": {"id": "dc99016a-253e-4be9-8870-4b0b55e0f1e9", "name": "Haller Post", "category": "attraction", "tags": ["attraction", "landmark", "historical", "building"], "sources": ["overture"], "website": "https://www.hallerpostapts.com/?utm_knock=sm", "phone": "+12065586989", "address": "1130 N 115th St"}, "geometry": {"type": "Point", "coordinates": [-122.3429337, 47.7126503]}}, {"type": "Feature", "properties": {"id": "52da919a-7c34-4e43-94ce-0b33aecfabb6", "name": "North Park Villa Apartment Homes", "category": "attraction", "tags": ["attraction", "landmark", "historical", "building"], "sources": ["overture"], "website": "https://www.northparkvilla.com/", "phone": "+12063677717", "address": "1100 N 115th St"}, "geometry": {"type": "Point", "coordinates": [-122.3441849, 47.7123642]}}, {"type": "Feature", "properties": {"id": 220179237, "name": "Nites Inn Motel", "category": "motel", "tags": ["motel"], "sources": ["osm", "overture"], "website": "https://www.nitesinnmotelseattle.us", "phone": "12063652010", "address": "11746 Aurora Ave N"}, "geometry": {"type": "Point", "coordinates": [-122.3443858, 47.7156818]}}, {"type": "Feature", "properties": {"id": "6479fc15-e19d-4227-a4f3-7fb8618b4094", "name": "Seattle Inn Northgate", "category": "motel", "tags": ["motel"], "sources": ["overture"], "website": "http://hillside-motel.com", "phone": "+12063639009", "address": "12035 Aurora Ave N"}, "geometry": {"type": "Point", "coordinates": [-122.3453445, 47.7169952]}}, {"type": "Feature", "properties": {"id": "e2b830cc-064b-4493-bc63-d3a28b663478", "name": "Seal's Motel", "category": "hotel", "tags": ["hotel"], "sources": ["overture"], "website": "http://hillside-motel.com", "phone": "(206) 363-9009", "address": "12035 Aurora Ave N"}, "geometry": {"type": "Point", "coordinates": [-122.3453827, 47.7169037]}}, {"type": "Feature", "properties": {"id": "030b815d-e38e-4dab-b938-1258367d58b0", "name": "Orion Motel", "category": "hotel", "tags": ["hotel"], "sources": ["overture"], "website": "motel-orion.com", "phone": "+12063646095", "address": "12045 Aurora Ave N"}, "geometry": {"type": "Point", "coordinates": [-122.3458633, 47.7172852]}}, {"type": "Feature", "properties": {"id": 1070195837, "name": "76", "category": "convenience", "tags": ["convenience"], "sources": ["osm"], "hours": "07:00-22:00"}, "geometry": {"type": "Point", "coordinates": [-122.3443296, 47.7194084]}}, {"type": "Feature", "properties": {"id": 2293066652, "name": "K-Smoke Mart", "category": "tobacco", "tags": ["tobacco"], "sources": ["osm"], "address": "11726 Aurora Avenue North"}, "geometry": {"type": "Point", "coordinates": [-122.3444458, 47.7149147]}}, {"type": "Feature", "properties": {"id": 2293099907, "name": "Bety Furniture", "category": "furniture", "tags": ["furniture"], "sources": ["osm"], "website": "https://betyfurniture.com/", "phone": "+1-206-592-6423", "address": "12230 Aurora Avenue North", "hours": "Mo-Fr 10:00-19:00; Sa 10:00-18:00; Su off"}, "geometry": {"type": "Point", "coordinates": [-122.3443923, 47.7187805]}}, {"type": "Feature", "properties": {"id": 35965160, "name": "The Home Depot", "category": "doityourself", "tags": ["doityourself", "home", "improvement"], "sources": ["osm", "overture"], "website": "https://www.homedepot.com/l/Bitterlake/WA/Seattle/98133/4706?emt=MSFBPage", "phone": "+12063619600", "address": "11616 Aurora Ave N", "hours": "Mo-Sa 06:00-22:00; Su 07:00-20:00"}, "geometry": {"type": "Point", "coordinates": [-122.3428612, 47.7140468]}}, {"type": "Feature", "properties": {"id": "7275aafe-2122-4bfc-9618-9af2c961b10a", "name": "Seattle Tonics", "category": "cannabis", "tags": ["cannabis", "clinic", "fast-food"], "sources": ["overture"], "website": "http://www.seattletonics.com/bbs/index", "phone": "+12063636000", "address": "12059 Aurora Ave N #8249"}, "geometry": {"type": "Point", "coordinates": [-122.345314, 47.7175446]}}, {"type": "Feature", "properties": {"id": "611d6509-2d5e-436d-8b37-b08c9b137ef1", "name": "Fweedom Cannabis Seattle", "category": "cannabis", "tags": ["cannabis", "clinic"], "sources": ["overture"], "website": "http://www.fweedom.com/", "phone": "+12067349333", "address": "12001 Aurora Ave N #1"}, "geometry": {"type": "Point", "coordinates": [-122.3456497, 47.7161293]}}, {"type": "Feature", "properties": {"id": "a29b2b48-aabe-41a5-b5f0-f713709fcbfe", "name": "Home Services at The Home Depot", "category": "doityourself", "tags": ["doityourself", "building", "supply"], "sources": ["overture"], "website": "https://www.homedepot.com/l/Bitterlake/WA/Seattle/98133/4706/services", "phone": "(360) 602-6933", "address": "11616 Aurora Ave N"}, "geometry": {"type": "Point", "coordinates": [-122.3428497, 47.7141113]}}, {"type": "Feature", "properties": {"id": "af1a12df-62e6-4695-a943-f238dbdc0b6e", "name": "Jewelry Boxshopcom", "category": "jewelry", "tags": ["jewelry"], "sources": ["overture"], "website": "http://www.jewelryboxshop.com", "phone": "(206) 417-7092", "address": "12004 Aurora Ave N"}, "geometry": {"type": "Point", "coordinates": [-122.344368, 47.7162895]}}, {"type": "Feature", "properties": {"id": "a4db75ab-c630-4db8-a9e3-be543fbe6304", "name": "The Solution", "category": "cannabis", "tags": ["cannabis"], "sources": ["overture"], "website": "http://thesolutioncannabis.com", "address": "12230 Aurora Ave N"}, "geometry": {"type": "Point", "coordinates": [-122.344429, 47.7187767]}}, {"type": "Feature", "properties": {"id": "2b235b37-bee1-4db2-b358-34c9dabe5e01", "name": "Crazy Furniture Prices", "category": "cannabis", "tags": ["cannabis"], "sources": ["overture"], "phone": "+12065926423", "address": "12230 Aurora Ave N"}, "geometry": {"type": "Point", "coordinates": [-122.344429, 47.7187767]}}, {"type": "Feature", "properties": {"id": "3f91a658-5759-4abc-ad28-e3efb890df9c", "name": "Bank of America ATM", "category": "bank", "tags": ["bank", "credit", "union"], "sources": ["overture"], "phone": "2064610800", "address": "12505 Aurora Ave N"}, "geometry": {"type": "Point", "coordinates": [-122.3449326, 47.719799]}}]}