{"type": "FeatureCollection", "features": [{"type": "Feature", "properties": {"id": "7513709c-f051-4186-a728-f5a6c27c2c21", "name": "Java Garden", "category": "cafe", "tags": ["cafe", "coffee"], "sources": ["overture"], "phone": "12537359218", "address": "1215 W Valley Hwy N"}, "geometry": {"type": "Point", "coordinates": [-122.2525711, 47.3190842]}}, {"type": "Feature", "properties": {"id": 25795214, "name": "Gaines Park", "category": "park", "tags": ["park"], "sources": ["osm", "overture"], "website": "https://www.auburnwa.gov/city_hall/parks_arts_recreation/parks_trails/gaines", "phone": "+12539313043", "address": "1008 Pike St NW"}, "geometry": {"type": "Point", "coordinates": [-122.2508118, 47.3177391]}}, {"type": "Feature", "properties": {"id": "65c166c1-5a99-4dbc-9347-ba80acde0b2e", "name": "Clarion Inn Auburn", "category": "hotel", "tags": ["hotel"], "sources": ["overture"], "phone": "+12538337171", "address": "916 W St NW"}, "geometry": {"type": "Point", "coordinates": [-122.259819, 47.3164139]}}]}