{"type": "FeatureCollection", "features": [{"type": "Feature", "properties": {"id": 2637693470, "name": "5 Stones Coffee Company", "category": "cafe", "tags": ["cafe", "coffee-shop"], "sources": ["osm"], "website": "https://5stonescoffeeco.com/", "address": "2649 Landerholm Circle Southeast", "hours": "Mo-Su 07:00-17:00"}, "geometry": {"type": "Point", "coordinates": [-122.143641, 47.5858474]}}, {"type": "Feature", "properties": {"id": 11895841050, "name": "Bulldog Bistro", "category": "restaurant", "tags": ["restaurant", "pizza", "salad", "coffee"], "sources": ["osm"], "website": "https://www.bellevuecollege.edu/dining/", "address": "Kelsey Creek Road", "hours": "Mo-Fr 10:00-16:45"}, "geometry": {"type": "Point", "coordinates": [-122.1478482, 47.5882238]}}, {"type": "Feature", "properties": {"id": 258364692, "name": "Champions center", "category": "cafe", "tags": ["cafe", "coffee-shop", "fitness-centre"], "sources": ["osm"], "website": "https://5stonescoffeeco.com/", "address": "2649 148th Avenue Southeast"}, "geometry": {"type": "Point", "coordinates": [-122.1437785, 47.585809]}}, {"type": "Feature", "properties": {"id": "bc01a183-c1b4-4b7d-a90b-9e9c5e1118d3", "name": "Garlic Jim's", "category": "restaurant", "tags": ["restaurant", "pizza"], "sources": ["overture"], "website": "http://www.garlicjims.com/home/", "phone": "(425) 643-8586", "address": "3080 148th Ave SE"}, "geometry": {"type": "Point", "coordinates": [-122.1403427, 47.5820007]}}, {"type": "Feature", "properties": {"id": "dffea726-af7d-421d-b6b0-28a905f47716", "name": "5 Stones Coffee Co", "category": "cafe", "tags": ["cafe", "coffee"], "sources": ["overture"], "website": "http://www.5stonescoffeeco.com", "phone": "+14255028642", "address": "2649 Landerholm Cir SE"}, "geometry": {"type": "Point", "coordinates": [-122.1437225, 47.5858765]}}, {"type": "Feature", "properties": {"id": "437ab80d-4f31-4dcb-8e20-f276b38f7680", "name": "Cypress Coffee Company", "category": "cafe", "tags": ["cafe", "coffee"], "sources": ["overture"], "website": "https://www.cypresscoffeecompany.com", "phone": "14254296167", "address": "3080 148th Ave Se  Ste 113"}, "geometry": {"type": "Point", "coordinates": [-122.1404877, 47.582016]}}, {"type": "Feature", "properties": {"id": "d9d925c5-2a54-4b60-901c-7876b439bf7a", "name": "Forty Ninth Investments Llc", "category": "restaurant", "tags": ["restaurant"], "sources": ["overture"], "address": "3080 148th Ave Se Ste 200"}, "geometry": {"type": "Point", "coordinates": [-122.1404877, 47.582016]}}, {"type": "Feature", "properties": {"id": "385ef693-e9de-4c33-9097-2d7a6b6de3cd", "name": "Gallery Space", "category": "gallery", "tags": ["gallery", "art"], "sources": ["overture"], "website": "http://bellevuecollege.edu/galleryspace", "phone": "+14255642788", "address": "3000 Landerholm Cir SE"}, "geometry": {"type": "Point", "coordinates": [-122.1499634, 47.5834579]}}, {"type": "Feature", "properties": {"id": "0e26ca14-cab2-4fbe-8211-7f9533867776", "name": "Robinswood Park", "category": "park", "tags": ["park"], "sources": ["overture"], "phone": "+14254527850", "address": "2430 148th Ave SE"}, "geometry": {"type": "Point", "coordinates": [-122.1416855, 47.5881958]}}, {"type": "Feature", "properties": {"id": "c071d2e5-50bc-4880-a7d8-7219bb65b05c", "name": "Robinswood Community Park", "category": "park", "tags": ["park"], "sources": ["overture"], "website": "https://www.bellevuewa.gov/robinswood_park.htm", "phone": "+14254526914", "address": "2432 148th Ave SE"}, "geometry": {"type": "Point", "coordinates": [-122.1411133, 47.5874252]}}, {"type": "Feature", "properties": {"id": "1f2db2ba-dd37-49af-b45f-9224416fe4d3", "name": "Silver Cloud Hotel", "category": "hotel", "tags": ["hotel"], "sources": ["overture"], "website": "https://www.silvercloud.com/bellevueeastgate/", "phone": "(425) 957-9100", "address": "14632 SE Eastgate Way"}, "geometry": {"type": "Point", "coordinates": [-122.1438904, 47.5800095]}}, {"type": "Feature", "properties": {"id": 232115192, "name": "Eastgate Hotel", "category": "hotel", "tags": ["hotel", "wifi"], "sources": ["osm"], "website": "https://www.bestwestern.com/en_US/book/hotels-in-bellevue/eastgate-hotel-bw-signature-collection/propertyCode.48197.html", "phone": "+1-425-957-9100", "address": "14632 Southeast Eastgate Way"}, "geometry": {"type": "Point", "coordinates": [-122.1439176, 47.5800818]}}, {"type": "Feature", "properties": {"id": "375f7b72-acb8-448c-86b8-66891150b3d3", "name": "Suncadia", "category": "hotel", "tags": ["hotel"], "sources": ["overture"], "website": "http://www.suncadia.com", "phone": "+14253733580", "address": "3380 146th Pl SE"}, "geometry": {"type": "Point", "coordinates": [-122.1450729, 47.5800362]}}, {"type": "Feature", "properties": {"id": 258364709, "name": "Food Mart", "category": "convenience", "tags": ["convenience"], "sources": ["osm"], "address": "2659 148th Avenue Southeast"}, "geometry": {"type": "Point", "coordinates": [-122.1431357, 47.5862203]}}, {"type": "Feature", "properties": {"id": "2b5f3649-0e8b-4757-aa67-2ef2891665df", "name": "Blue Nile, Inc., HQ", "category": "jewelry", "tags": ["jewelry"], "sources": ["overture"], "website": "https://www.bluenile.com/", "phone": "8002422728", "address": "3380 146th Pl SE Ste 400"}, "geometry": {"type": "Point", "coordinates": [-122.145607, 47.5800591]}}, {"type": "Feature", "properties": {"id": 152833564, "name": "Eastgate Public Health Center", "category": "clinic", "tags": ["clinic", "medical"], "sources": ["osm", "overture"], "website": "http://www.kingcounty.gov/healthservices/health/locations/eastgate.aspx", "phone": "+12064778000", "address": "14350 SE Eastgate Way"}, "geometry": {"type": "Point", "coordinates": [-122.1498082, 47.5812847]}}, {"type": "Feature", "properties": {"id": 152853482, "name": "Bank of America", "category": "bank", "tags": ["bank", "credit", "union"], "sources": ["osm", "overture"], "website": "https://locators.bankofamerica.com/wa/bellevue/financial-centers-bellevue-7476.html", "phone": "+18444018500", "address": "14440 SE Eastgate Way"}, "geometry": {"type": "Point", "coordinates": [-122.1460885, 47.5800645]}}, {"type": "Feature", "properties": {"id": 8816411488, "name": "Bellevue College Library Media Center", "category": "library", "tags": ["library"], "sources": ["osm"], "hours": "Mo-Th 09:00-16:00"}, "geometry": {"type": "Point", "coordinates": [-122.1499519, 47.5837997]}}, {"type": "Feature", "properties": {"id": "9fae7f8b-d85b-472d-a43a-51214174b4ad", "name": "Bellevue College Library", "category": "library", "tags": ["library"], "sources": ["overture"], "website": "http://www.bellevuecollege.edu/lmc/", "phone": "+14255642252", "address": "3000 Landerholm Cir SE"}, "geometry": {"type": "Point", "coordinates": [-122.1491241, 47.5841179]}}, {"type": "Feature", "properties": {"id": 258412013, "name": "G", "category": "fitness_centre", "tags": ["fitness-centre"], "sources": ["osm"], "address": "3000 Landerholm Circle Southeast"}, "geometry": {"type": "Point", "coordinates": [-122.1493459, 47.5867488]}}, {"type": "Feature", "properties": {"id": "1cc4f28a-7bd3-4287-97b8-ce02f0d103ee", "name": "Bellevue College Gym", "category": "fitness_centre", "tags": ["fitness-centre", "gym"], "sources": ["overture"], "website": "https://www.bellevuecollege.edu/pe/fitnesscenter", "address": "2906-2954 Snoqualmie River Rd"}, "geometry": {"type": "Point", "coordinates": [-122.1485367, 47.5872307]}}]}