{"type": "FeatureCollection", "features": [{"type": "Feature", "properties": {"id": 3346323737, "name": "Subway", "category": "fast_food", "tags": ["fast-food", "sandwich", "takeaway", "restaurant"], "sources": ["osm", "overture"], "website": "https://restaurants.subway.com/united-states/wa/kirkland/13501-100th-avenue-ne", "phone": "+14252784713", "address": "13501 100th Avenue NE Suite 90", "hours": "Mo-Fr 08:00-21:30; Sa 09:00-21:30; Su 10:00-21:00"}, "geometry": {"type": "Point", "coordinates": [-122.208335, 47.7213516]}}, {"type": "Feature", "properties": {"id": 3346323729, "name": "Domino's", "category": "fast_food", "tags": ["fast-food", "pizza", "takeaway", "delivery"], "sources": ["osm"], "website": "https://pizza.dominos.com/washington/kirkland/13501-100th-avenue-ne-suite-10", "phone": "+1-425-820-4660", "address": "13501 100th Avenue Northeast", "hours": "Mo-Th 10:30-24:00; Fr-Sa 10:30-01:00; Su 10:30-24:00"}, "geometry": {"type": "Point", "coordinates": [-122.2083218, 47.7208914]}}, {"type": "Feature", "properties": {"id": "dfee9d60-f4ac-4c49-9fc2-74f44881bbc8", "name": "Starbucks", "category": "cafe", "tags": ["cafe", "coffee"], "sources": ["overture"], "website": "https://www.starbucks.com/store-locator/store/8192", "phone": "+14258219224", "address": "10020 NE 137th St"}, "geometry": {"type": "Point", "coordinates": [-122.2062073, 47.7234879]}}, {"type": "Feature", "properties": {"id": 327913642, "name": "McDonald's", "category": "fast_food", "tags": ["fast-food", "burger", "takeaway", "drive-through", "wifi", "fast", "food", "american"], "sources": ["osm", "overture"], "website": "https://www.mcdonalds.com/us/en-us/location/wa/kirkland/13636-100th-ave-ne/5773.html?cid=RF%3AYXT%3ARoN%3A%3AClicks%3Fcid%3DRF%3AYXT%3AFB%3A%3AClicks", "phone": "+14258238731", "address": "13636 100th Ave Ne", "hours": "06:00-23:00"}, "geometry": {"type": "Point", "coordinates": [-122.2073733, 47.7227257]}}, {"type": "Feature", "properties": {"id": 3347248983, "name": "Papa John's", "category": "fast_food", "tags": ["fast-food", "pizza", "takeaway"], "sources": ["osm"], "address": "13520 100th Avenue Northeast"}, "geometry": {"type": "Point", "coordinates": [-122.2063501, 47.7219256]}}, {"type": "Feature", "properties": {"id": 3347248993, "name": "Seoul Bowl", "category": "fast_food", "tags": ["fast-food", "korean"], "sources": ["osm"], "website": "https://www.seoulbowlco.com/", "phone": "+1-425-285-9837", "address": "13706 100th Avenue Northeast"}, "geometry": {"type": "Point", "coordinates": [-122.207203, 47.723596]}}, {"type": "Feature", "properties": {"id": 3346323732, "name": "Great China", "category": "restaurant", "tags": ["restaurant", "chinese"], "sources": ["osm"], "website": "http://www.greatchinawa.com/", "address": "13501 100th Avenue Northeast"}, "geometry": {"type": "Point", "coordinates": [-122.20833, 47.7210545]}}, {"type": "Feature", "properties": {"id": 3346323734, "name": "Rush In Dumplings", "category": "fast_food", "tags": ["fast-food", "russian", "restaurant", "dumplings"], "sources": ["osm", "overture"], "website": "http://rushinalaskandumplings.com", "phone": "(425) 821-5446", "address": "13501 100th Ave NE"}, "geometry": {"type": "Point", "coordinates": [-122.208328, 47.7211623]}}, {"type": "Feature", "properties": {"id": 3346323742, "name": "Gyro World", "category": "restaurant", "tags": ["restaurant", "greek"], "sources": ["osm", "overture"], "website": "http://gyroworldkirkland.com", "phone": "14258145994", "address": "13501 100th Ave NE"}, "geometry": {"type": "Point", "coordinates": [-122.2083397, 47.7215087]}}, {"type": "Feature", "properties": {"id": 3347248987, "name": "Bento's", "category": "restaurant", "tags": ["restaurant"], "sources": ["osm"], "address": "13520 100th Avenue Northeast"}, "geometry": {"type": "Point", "coordinates": [-122.2069604, 47.7219267]}}, {"type": "Feature", "properties": {"id": 3347248991, "name": "La Corona Mexican Restaurant", "category": "restaurant", "tags": ["restaurant", "mexican"], "sources": ["osm"], "phone": "+1-425-820-2709", "address": "13520 100th Avenue Northeast"}, "geometry": {"type": "Point", "coordinates": [-122.2075014, 47.7219321]}}, {"type": "Feature", "properties": {"id": "01d426d9-5791-439e-aba0-b5245967e38a", "name": "Pizza Time", "category": "restaurant", "tags": ["restaurant", "pizza"], "sources": ["overture"], "website": "http://www.pizzatime.com/", "phone": "(425) 820-5100", "address": "10048 NE 137th St"}, "geometry": {"type": "Point", "coordinates": [-122.2055435, 47.7236977]}}, {"type": "Feature", "properties": {"id": 12698014446, "name": "kakigori", "category": "restaurant", "tags": ["restaurant", "dessert"], "sources": ["osm"], "address": "13723 100th Avenue Northeast"}, "geometry": {"type": "Point", "coordinates": [-122.2081111, 47.7237945]}}, {"type": "Feature", "properties": {"id": 327913394, "name": "DQ Grill & Chill", "category": "fast_food", "tags": ["fast-food", "ice-cream", "burger", "takeaway"], "sources": ["osm"], "website": "https://www.dairyqueen.com/locations/wa/kirkland/10004-ne-137th-st/2272", "phone": "+1-425-820-6805", "address": "10004 Northeast 137th Street"}, "geometry": {"type": "Point", "coordinates": [-122.2073106, 47.7232684]}}, {"type": "Feature", "properties": {"id": 327913636, "name": "The Game Neighborhood Bar & Grill", "category": "bar", "tags": ["bar"], "sources": ["osm"], "address": "13510 100th Avenue Northeast"}, "geometry": {"type": "Point", "coordinates": [-122.2071514, 47.7215607]}}, {"type": "Feature", "properties": {"id": "d47deea1-adca-4b44-a352-e4a9219d2472", "name": "Dairy Queen Grill & Chill", "category": "fast_food", "tags": ["fast-food", "fast", "food"], "sources": ["overture"], "website": "https://www.dairyqueen.com/en-us/locations/wa/kirkland/10004-ne-137th-st/2272/?utm_source=organic&utm_campaign=yext%2F&y_source=1_ODk5NTQxMC01NTktbG9jYXRpb24ud2Vic2l0ZQ%3D%3D", "phone": "+14258206805", "address": "10004 NE 137th St"}, "geometry": {"type": "Point", "coordinates": [-122.2073441, 47.7232513]}}, {"type": "Feature", "properties": {"id": "90cafaa0-5798-49fb-aeaa-7cbd3ffd7e2e", "name": "ZENSHI Handcrafted Sushi", "category": "restaurant", "tags": ["restaurant", "sushi", "japanese", "asian"], "sources": ["overture"], "website": "https://www.zenshisushi.com/", "phone": "+14258219224", "address": "10020 NE 137th St"}, "geometry": {"type": "Point", "coordinates": [-122.2063828, 47.7234497]}}, {"type": "Feature", "properties": {"id": "1058c616-273b-4afd-bc44-9fa6484d0714", "name": "Papa Johns Pizza", "category": "restaurant", "tags": ["restaurant", "pizza", "fast-food", "fast", "food"], "sources": ["overture"], "website": "https://www.papajohns.com", "phone": "14258209164", "address": "13520 100th Ave Ne  Ste 100"}, "geometry": {"type": "Point", "coordinates": [-122.2067719, 47.7218552]}}, {"type": "Feature", "properties": {"id": "ccb5860c-b6a1-49a0-a1b1-91cbcd2b2260", "name": "Seoul Bowl Kirkland (juanita)", "category": "restaurant", "tags": ["restaurant", "korean"], "sources": ["overture"], "website": "https://seoulbowlco.com", "phone": "14252859837", "address": "13706 100th Ave NE"}, "geometry": {"type": "Point", "coordinates": [-122.2072372, 47.7235718]}}, {"type": "Feature", "properties": {"id": "0e7ceb1a-4425-4b47-b1a0-d4684b9362f0", "name": "Pho Ready", "category": "restaurant", "tags": ["restaurant"], "sources": ["overture"], "phone": "+14252421295", "address": "13706 100th Ave NE"}, "geometry": {"type": "Point", "coordinates": [-122.2072372, 47.7235718]}}, {"type": "Feature", "properties": {"id": "3816afd0-2731-43e7-a881-3696eac3a924", "name": "La Corona", "category": "restaurant", "tags": ["restaurant", "mexican", "latin-american", "taco"], "sources": ["overture"], "website": "http://www.lacoronamx.com/", "phone": "+14256583733", "address": "13520 100th Ave NE #10"}, "geometry": {"type": "Point", "coordinates": [-122.2074509, 47.7218895]}}, {"type": "Feature", "properties": {"id": "8e9dbb95-4cdb-451b-8938-b1050e71ed8c", "name": "The Game Neighborhood Grill and Bar", "category": "restaurant", "tags": ["restaurant", "american", "bar-and-grill"], "sources": ["overture"], "website": "http://www.thegamegrillandbar.com/", "phone": "+14258218006", "address": "13510 100th Ave NE"}, "geometry": {"type": "Point", "coordinates": [-122.2071762, 47.7216988]}}, {"type": "Feature", "properties": {"id": "090ecb2e-bb9d-4811-a6f9-e6c58797ce27", "name": "The Coffee Stand Kirkland", "category": "cafe", "tags": ["cafe", "coffee"], "sources": ["overture"], "website": "http://thecoffeestandkirkland.com", "phone": "+14258205820", "address": "13510 100th Ave NE"}, "geometry": {"type": "Point", "coordinates": [-122.2072449, 47.7216568]}}, {"type": "Feature", "properties": {"id": "4426282d-c95e-4e31-b9c8-4fb1d54ccd6a", "name": "Management Concepts", "category": "restaurant", "tags": ["restaurant"], "sources": ["overture"], "website": "http://www.mgmt-concepts.biz", "address": "13510 100th Ave NE"}, "geometry": {"type": "Point", "coordinates": [-122.2071991, 47.7215729]}}, {"type": "Feature", "properties": {"id": "692bd342-cbec-47ed-a506-e9ac5c0c8c24", "name": "William E Henkens", "category": "restaurant", "tags": ["restaurant"], "sources": ["overture"], "phone": "+14258218006", "address": "13510 100th Ave NE"}, "geometry": {"type": "Point", "coordinates": [-122.2071991, 47.7215729]}}, {"type": "Feature", "properties": {"id": "75bc0551-5c02-4f44-80df-fdc2c53d4685", "name": "Gourmet Latte #13", "category": "cafe", "tags": ["cafe", "coffee"], "sources": ["overture"], "website": "http://www.gourmetlatte.com", "address": "13270 100th Ave NE"}, "geometry": {"type": "Point", "coordinates": [-122.2074203, 47.7207222]}}, {"type": "Feature", "properties": {"id": "58ad0e70-e979-46ab-b987-4b4560881199", "name": "Great China Restaurant", "category": "restaurant", "tags": ["restaurant", "chinese", "asian"], "sources": ["overture"], "website": "http://www.greatchinawa.com", "phone": "+14258211624", "address": "13501 100th Ave NE"}, "geometry": {"type": "Point", "coordinates": [-122.2082443, 47.7210808]}}, {"type": "Feature", "properties": {"id": "fd286c9d-092e-4e69-b34a-2f70890dc8bb", "name": "Shabana Inc", "category": "restaurant", "tags": ["restaurant"], "sources": ["overture"], "address": "13501 100th Ave NE"}, "geometry": {"type": "Point", "coordinates": [-122.2083054, 47.7211723]}}, {"type": "Feature", "properties": {"id": "4214be3e-3a98-4b9b-beff-6f36d05ff108", "name": "Teriyaki Madness II", "category": "restaurant", "tags": ["restaurant", "asian"], "sources": ["overture"], "website": "http://teriyaki-madness.com", "phone": "(425) 821-5446", "address": "13501 100th Ave NE"}, "geometry": {"type": "Point", "coordinates": [-122.208313, 47.7212029]}}, {"type": "Feature", "properties": {"id": "c8de9b23-a8dd-4b93-bcdb-9e974d193d43", "name": "I Love Bento's", "category": "restaurant", "tags": ["restaurant", "sushi", "japanese"], "sources": ["overture"], "website": "https://www.groupon.com/biz/kirkland-wa/i-love-bentos", "phone": "+14258219325", "address": "13520 100th Ave NE"}, "geometry": {"type": "Point", "coordinates": [-122.2066116, 47.7218781]}}, {"type": "Feature", "properties": {"id": "38261553-20b1-40a9-b76f-2cf05d57663e", "name": "Villa Bonita Apartments", "category": "attraction", "tags": ["attraction", "landmark", "historical", "building"], "sources": ["overture"], "website": "http://www.thevillabonitaapts.com", "phone": "+14258200602", "address": "9823 NE 130th Pl"}, "geometry": {"type": "Point", "coordinates": [-122.2074127, 47.721447]}}, {"type": "Feature", "properties": {"id": "6134d323-e97a-4a7d-a291-64f87c4b5201", "name": "Juanita Hills, Kirkland Wa", "category": "attraction", "tags": ["attraction", "landmark", "historical", "building"], "sources": ["overture"], "address": "9910 NE 137th St"}, "geometry": {"type": "Point", "coordinates": [-122.2091904, 47.7236938]}}, {"type": "Feature", "properties": {"id": "c11eee49-3165-4a7a-af50-874752065256", "name": "Scout", "category": "attraction", "tags": ["attraction", "landmark", "historical", "building"], "sources": ["overture"], "website": "https://www.scoutkirkland.com/", "phone": "+18339431316", "address": "10211 NE 134th Ln"}, "geometry": {"type": "Point", "coordinates": [-122.2041626, 47.7209282]}}, {"type": "Feature", "properties": {"id": 327821122, "name": "7-Eleven", "category": "convenience", "tags": ["convenience"], "sources": ["osm", "overture"], "website": "https://www.7-eleven.com/", "phone": "+14258214458", "address": "13335 100th Ave NE"}, "geometry": {"type": "Point", "coordinates": [-122.208371, 47.7204155]}}, {"type": "Feature", "properties": {"id": "eec19f43-12a5-440b-86a3-ca26cb6955c5", "name": "Just Food For Dogs", "category": "pet", "tags": ["pet"], "sources": ["overture"], "website": "https://justfoodfordogs.com", "phone": "14258200934", "address": "10042 NE 137th St"}, "geometry": {"type": "Point", "coordinates": [-122.2057724, 47.7235832]}}, {"type": "Feature", "properties": {"id": 3347248908, "name": "Petco", "category": "pet", "tags": ["pet"], "sources": ["osm", "overture"], "website": "https://stores.petco.com/wa/kirkland/pet-supplies-kirkland-wa-5207.html", "phone": "+14258200934", "address": "10042 NE 137th St"}, "geometry": {"type": "Point", "coordinates": [-122.205748, 47.7235682]}}, {"type": "Feature", "properties": {"id": 140224479, "name": "Safeway", "category": "supermarket", "tags": ["supermarket"], "sources": ["osm"], "website": "https://local.safeway.com/safeway/wa/kirkland/10020-ne-137th-st.html", "phone": "+1-425-821-9224", "address": "10020 Northeast 137th Street", "hours": "05:00-01:00"}, "geometry": {"type": "Point", "coordinates": [-122.2064268, 47.723568]}}, {"type": "Feature", "properties": {"id": 3347248988, "name": "Smoker's Choice", "category": "tobacco", "tags": ["tobacco"], "sources": ["osm"], "address": "13520 100th Avenue Northeast"}, "geometry": {"type": "Point", "coordinates": [-122.2071184, 47.7219285]}}, {"type": "Feature", "properties": {"id": 4917172081, "name": "Juanita Firs", "category": "convenience", "tags": ["convenience"], "sources": ["osm"]}, "geometry": {"type": "Point", "coordinates": [-122.208326, 47.7234459]}}, {"type": "Feature", "properties": {"id": "da063426-3df9-4a20-aa39-697e8fdcb691", "name": "Chevron", "category": "convenience", "tags": ["convenience"], "sources": ["overture"], "website": "https://www.chevronwithtechron.com/en_us/home/gas-station-near-me.html?/station/13272-100th-Avenue-NE-KIRKLAND-WA-98034-5208-id389709", "address": "13272 100th Avenue NE"}, "geometry": {"type": "Point", "coordinates": [-122.2075119, 47.720974]}}, {"type": "Feature", "properties": {"id": "5ec3ceca-0a31-482d-9743-506d05899117", "name": "Juice Marketing Northwest", "category": "supermarket", "tags": ["supermarket"], "sources": ["overture"], "website": "https://www.juicemarketingnw.com", "phone": "14254852616", "address": "13520 100th Ave Ne  Ste 90"}, "geometry": {"type": "Point", "coordinates": [-122.2067719, 47.7218552]}}, {"type": "Feature", "properties": {"id": "3d7cfd86-4200-4e37-957c-a437c2f62e5a", "name": "Safeway Pharmacy", "category": "pharmacy", "tags": ["pharmacy"], "sources": ["overture"], "website": "https://local.pharmacy.safeway.com/safeway/wa/kirkland/10020-ne-137th-st.html", "phone": "4258210708", "address": "10020 NE 137th St"}, "geometry": {"type": "Point", "coordinates": [-122.206337, 47.7236557]}}, {"type": "Feature", "properties": {"id": "15c6a2bb-22ba-4e0d-b2e1-15ef9deb2075", "name": "WaFd Bank", "category": "bank", "tags": ["bank", "credit", "union"], "sources": ["overture"], "website": "https://www.wafdbank.com/locations/washington/kirkland/juanita", "phone": "+14258236290", "address": "13633 100th Ave NE"}, "geometry": {"type": "Point", "coordinates": [-122.2081833, 47.7228661]}}, {"type": "Feature", "properties": {"id": 8841646783, "name": "Gesa Credit Union", "category": "bank", "tags": ["bank"], "sources": ["osm"], "phone": "+1-888-628-4010", "address": "10020 Northeast 137th Street", "hours": "Mo-Fr 09:00-17:00"}, "geometry": {"type": "Point", "coordinates": [-122.2063516, 47.7233679]}}, {"type": "Feature", "properties": {"id": 9879027568, "name": "USPS", "category": "post_office", "tags": ["post-office"], "sources": ["osm"]}, "geometry": {"type": "Point", "coordinates": [-122.2060762, 47.7224975]}}, {"type": "Feature", "properties": {"id": "fbff248a-8b77-4023-b892-c557d28b69a1", "name": "Bank of America ATM", "category": "bank", "tags": ["bank", "credit", "union"], "sources": ["overture"], "website": "https://locators.bankofamerica.com/wa/kirkland/atm-kirkland-110381.html", "phone": "8444018500", "address": "10042 NE 137th St"}, "geometry": {"type": "Point", "coordinates": [-122.2073822, 47.7237625]}}]}