{"type": "FeatureCollection", "features": [{"type": "Feature", "properties": {"id": 6797710616, "name": "Domino's", "category": "fast_food", "tags": ["fast-food", "pizza", "takeaway"], "sources": ["osm"], "website": "https://pizza.dominos.com/washington/seattle/1800-jackson", "phone": "+1-206-325-3230", "address": "1800 South Jackson Street", "hours": "Mo-Th 10:00-01:00; Fr-Sa 10:00-02:00; Su 10:00-24:00"}, "geometry": {"type": "Point", "coordinates": [-122.3081164, 47.5993668]}}, {"type": "Feature", "properties": {"id": "a28f8ef0-85b9-47f8-bb93-4e5c7e7921e3", "name": "Starbucks", "category": "cafe", "tags": ["cafe", "coffee"], "sources": ["overture"], "phone": "2067260502", "address": "2300 S Jackson St (23rd & Jackson)"}, "geometry": {"type": "Point", "coordinates": [-122.3019867, 47.5992813]}}, {"type": "Feature", "properties": {"id": "311f3bf4-9a65-4364-91c5-fc7f8db493f1", "name": "Taco Del Mar", "category": "restaurant", "tags": ["restaurant", "mexican"], "sources": ["overture"], "website": "http://www.tacodelmar.com", "phone": "(206) 329-8383", "address": "2309 S Jackson St"}, "geometry": {"type": "Point", "coordinates": [-122.3017349, 47.5991325]}}, {"type": "Feature", "properties": {"id": 1437179292, "name": "Moonlight Cafe", "category": "restaurant", "tags": ["restaurant", "vietnamese", "vegetarian", "vegan", "asian"], "sources": ["osm", "overture"], "website": "https://www.moonlightcafeseattle.com/", "phone": "+12064857145", "address": "1919 S Jackson St", "hours": "Mo-Fr 10:00-22:00"}, "geometry": {"type": "Point", "coordinates": [-122.3067239, 47.5989882]}}, {"type": "Feature", "properties": {"id": 2374063395, "name": "Med Mix", "category": "restaurant", "tags": ["restaurant", "mediterranean", "vegetarian", "vegan"], "sources": ["osm"], "website": "https://www.medmixjackson.com/", "phone": "+1-206-325-5642", "address": "2204 South Jackson Street", "hours": "Mo-Fr 11:00-21:00; Sa 15:00-21:00"}, "geometry": {"type": "Point", "coordinates": [-122.302905, 47.5994084]}}, {"type": "Feature", "properties": {"id": 2374097468, "name": "Northwest Tofu", "category": "restaurant", "tags": ["restaurant", "chinese"], "sources": ["osm"], "phone": "+1-206-328-8320", "address": "1911 South Jackson Street"}, "geometry": {"type": "Point", "coordinates": [-122.3070658, 47.5991437]}}, {"type": "Feature", "properties": {"id": 2797867370, "name": "Xing Long", "category": "restaurant", "tags": ["restaurant", "chinese"], "sources": ["osm"], "address": "306 23rd Avenue South"}, "geometry": {"type": "Point", "coordinates": [-122.301648, 47.5999346]}}, {"type": "Feature", "properties": {"id": 2797867470, "name": "East African Imports & Restaurant", "category": "restaurant", "tags": ["restaurant", "ethiopian", "african"], "sources": ["osm", "overture"], "website": "http://www.eastafricanimports.com/", "phone": "+12063227717", "address": "306 23rd Ave S"}, "geometry": {"type": "Point", "coordinates": [-122.3014432, 47.5999303]}}, {"type": "Feature", "properties": {"id": "87bf1647-cb61-4d9c-aa6e-35446a6a2740", "name": "Quiznos", "category": "restaurant", "tags": ["restaurant", "sandwich"], "sources": ["overture"], "website": "http://quiznos.com", "phone": "(206) 323-3535", "address": "411 23rd Ave S"}, "geometry": {"type": "Point", "coordinates": [-122.3024368, 47.5990257]}}, {"type": "Feature", "properties": {"id": 4540146536, "name": "Caf\u00e9 Weekend", "category": "cafe", "tags": ["cafe", "coffee-shop", "wifi", "coffee"], "sources": ["osm", "overture"], "website": "http://cafeweekend.com/", "address": "851 Hiawatha Pl S", "hours": "Mo-Sa 08:00-14:00; Su 09:00-14:00", "stations": [{"stopCode": 54, "lines": "2", "name": "Judkins Park Station", "walkingMeters": 772, "walkingSeconds": 556, "band": 10}]}, "geometry": {"type": "Point", "coordinates": [-122.309515, 47.594645]}}, {"type": "Feature", "properties": {"id": 6797710615, "name": "Wonder Ethiopian Restaurant & Sport Bar", "category": "restaurant", "tags": ["restaurant", "ethiopian"], "sources": ["osm"], "website": "https://www.wondersportbar.com/", "phone": "+1-206-538-0044", "address": "1800 South Jackson Street"}, "geometry": {"type": "Point", "coordinates": [-122.3080024, 47.5993658]}}, {"type": "Feature", "properties": {"id": 8986941507, "name": "Mahder Cafe", "category": "restaurant", "tags": ["restaurant", "ethiopian", "takeaway"], "sources": ["osm"], "phone": "+1-206-475-5034", "address": "2200 South Jackson Street"}, "geometry": {"type": "Point", "coordinates": [-122.303085, 47.5993997]}}, {"type": "Feature", "properties": {"id": 8986941508, "name": "Wally's", "category": "restaurant", "tags": ["restaurant"], "sources": ["osm"], "address": "2218 South Jackson Street"}, "geometry": {"type": "Point", "coordinates": [-122.3024222, 47.5994029]}}, {"type": "Feature", "properties": {"id": 10117794722, "name": "Shewa-Ber Bar & Restaurant", "category": "restaurant", "tags": ["restaurant", "ethiopian"], "sources": ["osm"], "website": "https://www.shewa-ber.com/menu/", "phone": "+1-206-466-2393", "address": "1801 South Jackson Street", "hours": "Th-Tu 11:00-23:00"}, "geometry": {"type": "Point", "coordinates": [-122.3085974, 47.5990718]}}, {"type": "Feature", "properties": {"id": 11582995397, "name": "Simply Soulful Caf\u00e9", "category": "restaurant", "tags": ["restaurant", "american"], "sources": ["osm"], "website": "https://www.simplysoulfulcafe.com", "address": "2321 South Jackson Street"}, "geometry": {"type": "Point", "coordinates": [-122.3013024, 47.598978]}}, {"type": "Feature", "properties": {"id": 11921412168, "name": "23rd Ave Brewery", "category": "pub", "tags": ["pub", "bar", "brewery"], "sources": ["osm", "overture"], "website": "https://23rd-ave-brewery.square.site/", "phone": "+12066792048", "address": "2313 S Jackson St", "hours": "Mo 17:00-21:00; Fr 17:00-21:00; Sa 13:00-21:00; Su 14:00-18:00"}, "geometry": {"type": "Point", "coordinates": [-122.3017913, 47.599127]}}, {"type": "Feature", "properties": {"id": "1e22fe4f-c294-4a4c-b741-fa6f0d1799ca", "name": "Hidmo Eritrean Restaurant", "category": "restaurant", "tags": ["restaurant", "ethiopian"], "sources": ["overture"], "website": "http://hidmo.org", "phone": "(206) 329-1534", "address": "2000 S Jackson St"}, "geometry": {"type": "Point", "coordinates": [-122.3061447, 47.5993652]}}, {"type": "Feature", "properties": {"id": "a5df1b53-9327-41ca-b797-c7c140d88033", "name": "Northwest Tofu Factory", "category": "restaurant", "tags": ["restaurant", "chinese"], "sources": ["overture"], "website": "http://www.agr.wa.gov", "phone": "(206) 328-8320", "address": "1913 S Jackson St"}, "geometry": {"type": "Point", "coordinates": [-122.3070908, 47.5992355]}}, {"type": "Feature", "properties": {"id": "e6640a36-c27b-4671-8ff7-1098a70c3ce5", "name": "Northwest Tofu Inc", "category": "restaurant", "tags": ["restaurant"], "sources": ["overture"], "address": "1911 S Jackson St"}, "geometry": {"type": "Point", "coordinates": [-122.3070679, 47.598999]}}, {"type": "Feature", "properties": {"id": "a5dc094e-2283-4490-a9d7-82250c4dff53", "name": "Wonder Ethiopian Restaurant", "category": "restaurant", "tags": ["restaurant", "ethiopian"], "sources": ["overture"], "website": "http://www.wondersportbar.com/", "phone": "+12065380044", "address": "1800 S Jackson St"}, "geometry": {"type": "Point", "coordinates": [-122.3079987, 47.5993233]}}, {"type": "Feature", "properties": {"id": "5c318bb7-114e-4321-8054-05ab82b05ce8", "name": "Hua Fei Llc", "category": "restaurant", "tags": ["restaurant"], "sources": ["overture"], "address": "1700 S Jackson St"}, "geometry": {"type": "Point", "coordinates": [-122.3095093, 47.5994797]}}, {"type": "Feature", "properties": {"id": "f6e32cb0-7857-41c3-a059-9bdf6e486412", "name": "Lake Chad Cafe, Llc", "category": "restaurant", "tags": ["restaurant"], "sources": ["overture"], "website": "lakechadcafe.com", "address": "1712 S Jackson St"}, "geometry": {"type": "Point", "coordinates": [-122.3095551, 47.5995369]}}, {"type": "Feature", "properties": {"id": "58f60e89-5b16-4fb4-88ef-d78bbeb638c8", "name": "San Fernando Roasted Peruvian Chicken", "category": "restaurant", "tags": ["restaurant", "peruvian", "latin-american", "chicken"], "sources": ["overture"], "website": "http://www.pollossanfernando.com", "phone": "+12063313763", "address": "900 Rainier Ave S", "stations": [{"stopCode": 54, "lines": "2", "name": "Judkins Park Station", "walkingMeters": 710, "walkingSeconds": 511, "band": 10}]}, "geometry": {"type": "Point", "coordinates": [-122.3097534, 47.5940094]}}, {"type": "Feature", "properties": {"id": "de963724-37f6-4525-8eb8-20585074ba27", "name": "Darigold -Main Office", "category": "restaurant", "tags": ["restaurant"], "sources": ["overture"], "website": "http://www.darigold.com/", "phone": "(206) 284-7220", "address": "1130 Rainier Ave S", "stations": [{"stopCode": 54, "lines": "2", "name": "Judkins Park Station", "walkingMeters": 566, "walkingSeconds": 407, "band": 10}]}, "geometry": {"type": "Point", "coordinates": [-122.3091125, 47.5930328]}}, {"type": "Feature", "properties": {"id": "82e2ea36-615f-4611-914e-740c42fd883d", "name": "Franz Bakery", "category": "bakery", "tags": ["bakery"], "sources": ["overture"], "website": "http://franzbakery.com", "phone": "+12063220931", "address": "2006 S Weller St"}, "geometry": {"type": "Point", "coordinates": [-122.3055038, 47.5983162]}}, {"type": "Feature", "properties": {"id": "d0523c7c-ede2-4a68-8451-dd25e57d1f6d", "name": "Gai's Bakery", "category": "bakery", "tags": ["bakery"], "sources": ["overture"], "website": "http://www.usbakery.com", "phone": "(206) 726-7535", "address": "2006 S Weller St"}, "geometry": {"type": "Point", "coordinates": [-122.3054962, 47.598217]}}, {"type": "Feature", "properties": {"id": "3e1f936a-034b-4c28-a0d7-1fdcb11f702a", "name": "Chef Cafe", "category": "restaurant", "tags": ["restaurant", "african"], "sources": ["overture"], "website": "http://www.chefcafe.feedback", "phone": "(206) 568-2681", "address": "2200 S Jackson St"}, "geometry": {"type": "Point", "coordinates": [-122.3030472, 47.5994873]}}, {"type": "Feature", "properties": {"id": "8eacb5b9-db36-4793-a69e-ee73ae6574f9", "name": "From V With Love Cakes", "category": "bakery", "tags": ["bakery"], "sources": ["overture"], "website": "https://www.fromvwithlovecakes.com", "phone": "12062503494", "address": "308 22nd Ave S  Ste 101"}, "geometry": {"type": "Point", "coordinates": [-122.3029785, 47.5998535]}}, {"type": "Feature", "properties": {"id": "370e50ab-2b41-49d4-a7bf-4fe4b8f426fc", "name": "Brown Sugar Baking Company", "category": "bakery", "tags": ["bakery"], "sources": ["overture"], "website": "http://brownsugarbakingcompany.com", "phone": "12065560749", "address": "308 22nd Ave S  Ste 101"}, "geometry": {"type": "Point", "coordinates": [-122.3029785, 47.5998535]}}, {"type": "Feature", "properties": {"id": "765c64e1-7fcd-4f38-86b1-98e68fc25c4c", "name": "MedMix Jackson", "category": "restaurant", "tags": ["restaurant", "mediterranean"], "sources": ["overture"], "website": "http://www.medmixjackson.com", "phone": "+12063255642", "address": "2204 S Jackson St"}, "geometry": {"type": "Point", "coordinates": [-122.3030319, 47.5993462]}}, {"type": "Feature", "properties": {"id": 3731463265, "name": "Sensei", "category": "artwork", "tags": ["artwork"], "sources": ["osm"], "stations": [{"stopCode": 54, "lines": "2", "name": "Judkins Park Station", "walkingMeters": 394, "walkingSeconds": 283, "band": 5}]}, "geometry": {"type": "Point", "coordinates": [-122.3074112, 47.5916186]}}, {"type": "Feature", "properties": {"id": 9590168710, "name": "Winds of Change: We Are Still Here", "category": "artwork", "tags": ["artwork"], "sources": ["osm"]}, "geometry": {"type": "Point", "coordinates": [-122.301087, 47.598555]}}, {"type": "Feature", "properties": {"id": "34529305-e48d-4517-a78a-dc174847a9a2", "name": "Bell Jackson Street Apartments", "category": "attraction", "tags": ["attraction", "landmark", "historical", "building"], "sources": ["overture"], "website": "https://www.BellJacksonStreet.com/", "phone": "+18339552830", "address": "1801 S Jackson St"}, "geometry": {"type": "Point", "coordinates": [-122.3083954, 47.599102]}}, {"type": "Feature", "properties": {"id": "6bc7a06e-c406-4e4e-91b4-4f4fe44e38ee", "name": "Pratt Park Apartments", "category": "attraction", "tags": ["attraction", "landmark", "historical", "building"], "sources": ["overture"], "website": "http://www.legacyatprattpark.com/", "phone": "+18333229373", "address": "1800 S Jackson St"}, "geometry": {"type": "Point", "coordinates": [-122.308403, 47.5996399]}}, {"type": "Feature", "properties": {"id": "88c5e996-1f33-4db2-b5ee-e54dd462415b", "name": "Artspace Hiawatha Lofts", "category": "attraction", "tags": ["attraction", "landmark", "historical", "building"], "sources": ["overture"], "website": "http://Artspace.org/", "phone": "+12066726619", "address": "843 Hiawatha Pl S", "stations": [{"stopCode": 54, "lines": "2", "name": "Judkins Park Station", "walkingMeters": 777, "walkingSeconds": 558, "band": 10}]}, "geometry": {"type": "Point", "coordinates": [-122.3097076, 47.5946198]}}, {"type": "Feature", "properties": {"id": "25fcff66-23a6-4a5e-a526-78e7eca4aefa", "name": "C Art Gallery", "category": "gallery", "tags": ["gallery", "art"], "sources": ["overture"], "website": "http://www.cartgallery.net", "phone": "(206) 322-9374", "address": "855 Hiawatha Pl S", "stations": [{"stopCode": 54, "lines": "2", "name": "Judkins Park Station", "walkingMeters": 767, "walkingSeconds": 552, "band": 10}]}, "geometry": {"type": "Point", "coordinates": [-122.3095551, 47.5945778]}}, {"type": "Feature", "properties": {"id": "e4fb1b43-fa51-4603-9ca9-d900c3540286", "name": "999 Hiawatha", "category": "attraction", "tags": ["attraction", "landmark", "historical", "building"], "sources": ["overture"], "website": "https://www.999hiawatha.com/", "phone": "+18553435223", "address": "999 Hiawatha Pl S", "stations": [{"stopCode": 54, "lines": "2", "name": "Judkins Park Station", "walkingMeters": 581, "walkingSeconds": 418, "band": 10}]}, "geometry": {"type": "Point", "coordinates": [-122.3083267, 47.5931664]}}, {"type": "Feature", "properties": {"id": "865a2590-48bb-4553-90bc-d3cda3c3c76d", "name": "Black Manufacturing Building", "category": "attraction", "tags": ["attraction", "landmark", "historical", "building"], "sources": ["overture"], "website": "https://www.seattle.gov", "address": "1130 Rainier Ave S", "stations": [{"stopCode": 54, "lines": "2", "name": "Judkins Park Station", "walkingMeters": 554, "walkingSeconds": 413, "band": 10}]}, "geometry": {"type": "Point", "coordinates": [-122.3087692, 47.5928307]}}, {"type": "Feature", "properties": {"id": "bf6b7922-de78-4d7b-8246-6d4b88f3c2a3", "name": "The Roost Lofts", "category": "attraction", "tags": ["attraction", "landmark", "historical", "building"], "sources": ["overture"], "website": "http://revelrealtymgmt.com/contact/", "phone": "+12063506053", "address": "901 Hiawatha Pl S", "stations": [{"stopCode": 54, "lines": "2", "name": "Judkins Park Station", "walkingMeters": 744, "walkingSeconds": 535, "band": 10}]}, "geometry": {"type": "Point", "coordinates": [-122.3093796, 47.5942726]}}, {"type": "Feature", "properties": {"id": "b24607aa-2fa7-4902-90a4-2028814bf526", "name": "Welch Plaza", "category": "attraction", "tags": ["attraction", "landmark", "historical", "building"], "sources": ["overture"], "website": "http://www.welchcondos.com", "phone": "+12063200333", "address": "421 23rd Ave S", "stations": [{"stopCode": 54, "lines": "2", "name": "Judkins Park Station", "walkingMeters": 1199, "walkingSeconds": 895, "band": 15}]}, "geometry": {"type": "Point", "coordinates": [-122.30233, 47.5984612]}}, {"type": "Feature", "properties": {"id": "b92290ac-38fc-49b4-a899-212301fb5a5e", "name": "Jackson Apartments", "category": "attraction", "tags": ["attraction", "landmark", "historical", "building"], "sources": ["overture"], "website": "https://www.jacksonseattle.com/", "phone": "+12063097459", "address": "2401 S Jackson St"}, "geometry": {"type": "Point", "coordinates": [-122.3010101, 47.598999]}}, {"type": "Feature", "properties": {"id": 231761355, "name": "Benvenuto Viewpoint", "category": "park", "tags": ["park"], "sources": ["osm"], "website": "https://www.seattle.gov/parks/allparks/benvenuto-viewpoint", "address": "1401 23rd Avenue South", "stations": [{"stopCode": 54, "lines": "2", "name": "Judkins Park Station", "walkingMeters": 97, "walkingSeconds": 70, "band": 5}]}, "geometry": {"type": "Point", "coordinates": [-122.303832, 47.5901257]}}, {"type": "Feature", "properties": {"id": 231761365, "name": "Judge Charles M. Stokes Overlook", "category": "park", "tags": ["park"], "sources": ["osm"], "website": "https://www.seattle.gov/parks/allparks/judge-charles-m-stokes-overlook", "address": "20th Avenue South & South Judkins Street", "stations": [{"stopCode": 54, "lines": "2", "name": "Judkins Park Station", "walkingMeters": 505, "walkingSeconds": 363, "band": 5}]}, "geometry": {"type": "Point", "coordinates": [-122.3071269, 47.5917376]}}, {"type": "Feature", "properties": {"id": "00e25092-d212-4724-8881-04a5528197a6", "name": "Edwin T Pratt Park", "category": "playground", "tags": ["playground"], "sources": ["overture"], "website": "http://seattle.gov/parks/park_detail.asp?ID=390", "phone": "(206) 684-4075", "address": "1800 S Main St"}, "geometry": {"type": "Point", "coordinates": [-122.3098373, 47.5995636]}}, {"type": "Feature", "properties": {"id": "75ef43bc-a030-4e85-91b9-2a526cc73c07", "name": "Sleeping Bulldog Bed & Breakfast", "category": "guest_house", "tags": ["guest-house", "bed", "breakfast"], "sources": ["overture"], "website": "http://sleepingbulldog.com", "phone": "(206) 325-0202", "address": "816 19th Ave S", "stations": [{"stopCode": 54, "lines": "2", "name": "Judkins Park Station", "walkingMeters": 931, "walkingSeconds": 669, "band": 15}]}, "geometry": {"type": "Point", "coordinates": [-122.307045, 47.5953255]}}, {"type": "Feature", "properties": {"id": 2374136147, "name": "Crow's Nest Comics", "category": "books", "tags": ["books"], "sources": ["osm"], "address": "831 Hiawatha Place South", "hours": "\"Temporarily closed during move-in\"", "stations": [{"stopCode": 54, "lines": "2", "name": "Judkins Park Station", "walkingMeters": 824, "walkingSeconds": 593, "band": 10}]}, "geometry": {"type": "Point", "coordinates": [-122.3098111, 47.5950665]}}, {"type": "Feature", "properties": {"id": 2374136274, "name": "The Bikery", "category": "bicycle", "tags": ["bicycle"], "sources": ["osm"], "website": "https://www.thebikery.org/", "address": "855 Hiawatha Place South", "hours": "Sa-Su 12:00-18:00", "stations": [{"stopCode": 54, "lines": "2", "name": "Judkins Park Station", "walkingMeters": 754, "walkingSeconds": 543, "band": 10}]}, "geometry": {"type": "Point", "coordinates": [-122.309389, 47.5945118]}}, {"type": "Feature", "properties": {"id": 5731571423, "name": "Seven Star Mini Mart", "category": "convenience", "tags": ["convenience"], "sources": ["osm", "overture"], "website": "http://sevenstarmi.com/", "phone": "+12063298608", "address": "1917 S Jackson St"}, "geometry": {"type": "Point", "coordinates": [-122.3068746, 47.5989701]}}, {"type": "Feature", "properties": {"id": 10077994563, "name": "Dandelion Bikes", "category": "bicycle", "tags": ["bicycle"], "sources": ["osm"], "website": "https://www.dandelion.bike/", "phone": "+1-206-928-6102", "address": "408 18th Avenue South", "hours": "Tu-Sa 10:00-18:00"}, "geometry": {"type": "Point", "coordinates": [-122.3087815, 47.5988822]}}, {"type": "Feature", "properties": {"id": 228737286, "name": "Parnell's Mini Mart", "category": "convenience", "tags": ["convenience"], "sources": ["osm", "overture"], "website": "https://parnell-s-mini-mart.hub.biz", "phone": "+12063240304", "address": "722 23rd Ave S", "hours": "Mo-Fr 09:00-23:00; Sa-Su 09:00-00:00", "stations": [{"stopCode": 54, "lines": "2", "name": "Judkins Park Station", "walkingMeters": 809, "walkingSeconds": 582, "band": 15}]}, "geometry": {"type": "Point", "coordinates": [-122.3018819, 47.5957761]}}, {"type": "Feature", "properties": {"id": "b9f593d7-fc21-4ce0-826d-714d11e40b5e", "name": "Modern Design Sofas", "category": "furniture", "tags": ["furniture"], "sources": ["overture"], "website": "https://www.moderndesignsofas.com", "phone": "12066528374", "address": "2000 S Jackson St"}, "geometry": {"type": "Point", "coordinates": [-122.3060455, 47.5994225]}}, {"type": "Feature", "properties": {"id": "579a004f-761f-4d23-b485-3f3ea4e842c0", "name": "Golden Carriage Inc", "category": "supermarket", "tags": ["supermarket"], "sources": ["overture"], "address": "1917 S Jackson St"}, "geometry": {"type": "Point", "coordinates": [-122.3067245, 47.5989647]}}, {"type": "Feature", "properties": {"id": "a0a33fb2-000c-4c84-9ab9-30f3e143e20e", "name": "Spice Spc Indian Grocery", "category": "supermarket", "tags": ["supermarket"], "sources": ["overture"], "website": "https://spicespc.com", "phone": "+12068091254", "address": "849 Hiawatha Pl S", "stations": [{"stopCode": 54, "lines": "2", "name": "Judkins Park Station", "walkingMeters": 814, "walkingSeconds": 607, "band": 10}]}, "geometry": {"type": "Point", "coordinates": [-122.3096619, 47.5947266]}}, {"type": "Feature", "properties": {"id": "12235261-f83e-452f-9439-f19ceb1de8c9", "name": "Semai house of Fashion", "category": "clothes", "tags": ["clothes"], "sources": ["overture"], "website": "https://www.semaihouseoffashion.com", "phone": "(206) 325-3316", "address": "2301 S Jackson St"}, "geometry": {"type": "Point", "coordinates": [-122.3019485, 47.5987968]}}, {"type": "Feature", "properties": {"id": "3ff91f3d-12c4-4804-93b9-7b2aac3d6619", "name": "Walgreens", "category": "pharmacy", "tags": ["pharmacy"], "sources": ["overture"], "website": "https://www.walgreens.com", "phone": "+12063296850", "address": "2400 S Jackson St"}, "geometry": {"type": "Point", "coordinates": [-122.3010406, 47.5994301]}}, {"type": "Feature", "properties": {"id": 9561874297, "name": "Seattle Children's Odessa Brown Children's Clinic Central District", "category": "clinic", "tags": ["clinic"], "sources": ["osm"], "website": "https://www.seattlechildrens.org/clinics/odessa-brown/", "address": "1711 South Jackson Street"}, "geometry": {"type": "Point", "coordinates": [-122.3095484, 47.5991078]}}, {"type": "Feature", "properties": {"id": 13481002029, "name": "AIMS Institute", "category": "clinic", "tags": ["clinic"], "sources": ["osm"], "website": "https://www.aimsinstitute.net/", "phone": "+1-206-420-1321", "address": "1136 Poplar Place South", "stations": [{"stopCode": 54, "lines": "2", "name": "Judkins Park Station", "walkingMeters": 869, "walkingSeconds": 625, "band": 10}]}, "geometry": {"type": "Point", "coordinates": [-122.3098898, 47.5921329]}}, {"type": "Feature", "properties": {"id": 2374087335, "name": "Chase", "category": "bank", "tags": ["bank"], "sources": ["osm"], "website": "https://locator.chase.com/wa/seattle/401-23rd-ave-s", "phone": "+1-206-329-1368", "address": "401 23rd Avenue South", "hours": "Mo-Fr 09:00-17:00; Sa 09:00-13:00; Su off"}, "geometry": {"type": "Point", "coordinates": [-122.3024342, 47.599135]}}, {"type": "Feature", "properties": {"id": "f1b73a0d-6dfa-48be-8878-dfacdcb0a2f8", "name": "Chase Bank", "category": "bank", "tags": ["bank", "credit", "union"], "sources": ["overture"], "website": "https://www.chase.com/locator/banking/us/wa/seattle/401-23rd-ave-s?jp_cmp=rb%2FLocalListings%2Faff%2Fbranch%2Fna&y_source=1_MjAzODIxMy00ODMtbG9jYXRpb24ud2Vic2l0ZQ%3D%3D", "phone": "2063291368", "address": "401 23rd Ave S"}, "geometry": {"type": "Point", "coordinates": [-122.3025436, 47.5991287]}}, {"type": "Feature", "properties": {"id": "f58a0515-39f4-4b00-8b67-562e4c45708a", "name": "UPS Drop Box (Outdoor Self-Serve)", "category": "post_office", "tags": ["post-office", "office"], "sources": ["overture"], "website": "http://ups.com", "phone": "(800) 463-3339", "address": "550 16th Ave"}, "geometry": {"type": "Point", "coordinates": [-122.3097458, 47.5994339]}}, {"type": "Feature", "properties": {"id": 11756473374, "name": "F45 Training", "category": "fitness_centre", "tags": ["fitness-centre"], "sources": ["osm"], "address": "1801 South Jackson Street"}, "geometry": {"type": "Point", "coordinates": [-122.3087627, 47.5990715]}}, {"type": "Feature", "properties": {"id": 11756473372, "name": "M Bodied", "category": "fitness_centre", "tags": ["fitness-centre"], "sources": ["osm"], "address": "1800 South Jackson Street"}, "geometry": {"type": "Point", "coordinates": [-122.308309, 47.5993549]}}, {"type": "Feature", "properties": {"id": "53bb7b3d-6ea6-4fa5-89c6-78ba5ba1a555", "name": "MBodied Strength", "category": "fitness_centre", "tags": ["fitness-centre", "fitness", "trainer"], "sources": ["overture"], "website": "http://mbodiedstrength.com/", "phone": "+14253319991", "address": "1800 S Jackson St Ste b"}, "geometry": {"type": "Point", "coordinates": [-122.3083496, 47.5993576]}}, {"type": "Feature", "properties": {"id": "6fe43a73-615f-4248-bdef-0d99c17bd41a", "name": "The Samarya Center", "category": "fitness_centre", "tags": ["fitness-centre", "yoga", "studio"], "sources": ["overture"], "website": "https://www.samaryacenter.org", "address": "1710 S Jackson St  Ste 201"}, "geometry": {"type": "Point", "coordinates": [-122.309761, 47.5995331]}}, {"type": "Feature", "properties": {"id": "cd850dac-862f-4262-abb7-0454116dacef", "name": "My World Dance and Fitness", "category": "fitness_centre", "tags": ["fitness-centre", "gym"], "sources": ["overture"], "website": "http://www.myworld-df.com", "phone": "(206) 861-2500", "address": "849 Hiawatha Pl S", "stations": [{"stopCode": 54, "lines": "2", "name": "Judkins Park Station", "walkingMeters": 778, "walkingSeconds": 559, "band": 10}]}, "geometry": {"type": "Point", "coordinates": [-122.3097076, 47.5946274]}}, {"type": "Feature", "properties": {"id": "2d2a20bf-030b-4602-9393-36ceee32f2c0", "name": "Left Side CrossFit", "category": "fitness_centre", "tags": ["fitness-centre", "gym"], "sources": ["overture"], "website": "http://leftsidecrossfit.com/", "phone": "+17742422779", "address": "438 23rd Ave S", "stations": [{"stopCode": 54, "lines": "2", "name": "Judkins Park Station", "walkingMeters": 1062, "walkingSeconds": 765, "band": 15}]}, "geometry": {"type": "Point", "coordinates": [-122.301918, 47.5981216]}}, {"type": "Feature", "properties": {"id": "effcd483-43b1-47bd-9c28-6a236698d063", "name": "Lux Collective", "category": "fitness_centre", "tags": ["fitness-centre", "pilates", "studio"], "sources": ["overture"], "website": "https://www.luxcollectivefitness.com/", "phone": "2066690110", "address": "417 23rd Ave S", "stations": [{"stopCode": 54, "lines": "2", "name": "Judkins Park Station", "walkingMeters": 1092, "walkingSeconds": 786, "band": 15}]}, "geometry": {"type": "Point", "coordinates": [-122.3025131, 47.5985031]}}]}