{"type": "FeatureCollection", "features": [{"type": "Feature", "properties": {"id": 76743718, "name": "Paramount School Park", "category": "park", "tags": ["park"], "sources": ["osm"], "stations": [{"stopCode": 43, "lines": "1,2", "name": "Shoreline South/148th Station", "walkingMeters": 1108, "walkingSeconds": 796, "band": 15}]}, "geometry": {"type": "Point", "coordinates": [-122.3196549, 47.7402522]}}, {"type": "Feature", "properties": {"id": "597fe8d1-f816-4346-8208-16333a487860", "name": "Paramount Park", "category": "park", "tags": ["park"], "sources": ["overture"], "website": "http://www.underdogseattle.com/location?sport=Kickball", "phone": "+12068012600", "address": "15300 8th Ave NE", "stations": [{"stopCode": 43, "lines": "1,2", "name": "Shoreline South/148th Station", "walkingMeters": 891, "walkingSeconds": 641, "band": 15}]}, "geometry": {"type": "Point", "coordinates": [-122.3198547, 47.7403412]}}]}