{"type": "FeatureCollection", "features": [{"type": "Feature", "properties": {"id": 3696230872, "name": "Domino's", "category": "fast_food", "tags": ["fast-food", "pizza", "takeaway", "delivery"], "sources": ["osm"], "website": "https://pizza.dominos.com/washington/kent/24437-russel-rd-suite-102", "phone": "+1-253-859-7899", "address": "24437 Russell Road South", "hours": "Mo-Th 10:00-00:00; Fr-Sa 10:00-00:00; Su 00:00-01:00, 10:00-00:00"}, "geometry": {"type": "Point", "coordinates": [-122.261789, 47.3811785]}}, {"type": "Feature", "properties": {"id": 3641738333, "name": "Full House Chinese Cuisine", "category": "restaurant", "tags": ["restaurant", "chinese", "takeaway"], "sources": ["osm", "overture"], "website": "http://www.chinastarinkent.com", "phone": "(253) 850-7070", "address": "24437 Russell Rd Ste 120", "hours": "Mo-Th 11:00-22:00; Fr-Sa 11:00-23:00; Su 11:30-22:00"}, "geometry": {"type": "Point", "coordinates": [-122.2623353, 47.3820451]}}, {"type": "Feature", "properties": {"id": 4108809497, "name": "Half Lion Public House", "category": "restaurant", "tags": ["restaurant"], "sources": ["osm"], "website": "https://www.halflion.com/"}, "geometry": {"type": "Point", "coordinates": [-122.262811, 47.3807649]}}, {"type": "Feature", "properties": {"id": 4216604594, "name": "The Harp Bar & Restaurant", "category": "pub", "tags": ["pub", "irish"], "sources": ["osm"], "address": "24437 Russell Road South"}, "geometry": {"type": "Point", "coordinates": [-122.2621151, 47.3818456]}}, {"type": "Feature", "properties": {"id": 48667932, "name": "Sumo Sushi & Grill AYCE", "category": "restaurant", "tags": ["restaurant", "asian", "wifi"], "sources": ["osm"], "website": "https://www.sumoayce.com/", "phone": "+1-253-277-9423", "address": "24525 Russell Road South", "hours": "Su-Th 11:00-21:30; Fr-Sa 11:00-22:00"}, "geometry": {"type": "Point", "coordinates": [-122.2611593, 47.381316]}}, {"type": "Feature", "properties": {"id": "b271f77d-3954-41a6-9ef2-22de9f118163", "name": "Caf\u00e9 Elite", "category": "cafe", "tags": ["cafe"], "sources": ["overture"], "website": "http://www.cafeelite.com/", "phone": "+12532773864", "address": "24530 Russell Rd"}, "geometry": {"type": "Point", "coordinates": [-122.2604752, 47.3813057]}}, {"type": "Feature", "properties": {"id": 638886843, "name": "I Love Tamales", "category": "fast_food", "tags": ["fast-food", "mexican"], "sources": ["osm"], "address": "24530 Russell Road South"}, "geometry": {"type": "Point", "coordinates": [-122.2604496, 47.3813614]}}, {"type": "Feature", "properties": {"id": "9cc94c49-af84-4bf0-9257-261cbc389c91", "name": "The Harp Bar and Restaurant", "category": "restaurant", "tags": ["restaurant", "bar-and-grill", "bar", "grill"], "sources": ["overture"], "website": "http://theharpbarandrestaurant.com/", "phone": "+12532368580", "address": "24437 Russell Rd"}, "geometry": {"type": "Point", "coordinates": [-122.2621765, 47.3819962]}}, {"type": "Feature", "properties": {"id": "5f26a7cc-660a-40f8-8b20-7258155c91ea", "name": "Main Garden", "category": "restaurant", "tags": ["restaurant", "chinese", "asian"], "sources": ["overture"], "website": "https://maingardenchinese.com/", "phone": "+12538507070", "address": "24437 Russell Rd"}, "geometry": {"type": "Point", "coordinates": [-122.2623215, 47.382]}}, {"type": "Feature", "properties": {"id": "bb49707e-98c7-416c-94ce-dcc4b0406567", "name": "Top Garden Inc", "category": "restaurant", "tags": ["restaurant"], "sources": ["overture"], "address": "24437 Russell Rd Ste 120"}, "geometry": {"type": "Point", "coordinates": [-122.2620621, 47.3816299]}}, {"type": "Feature", "properties": {"id": "f808bd4b-5f59-46ed-afa8-fb191e4e81f6", "name": "China Star", "category": "restaurant", "tags": ["restaurant", "chinese"], "sources": ["overture"], "website": "http://www.chinastarinkent.com/", "phone": "(253) 236-0336", "address": "24437 Russell Rd"}, "geometry": {"type": "Point", "coordinates": [-122.2619781, 47.3815804]}}, {"type": "Feature", "properties": {"id": "f35da91a-ffb0-47ab-96b1-90f6c1335629", "name": "Shari's Cafe and Pies", "category": "restaurant", "tags": ["restaurant", "breakfast-and-brunch", "breakfast", "brunch"], "sources": ["overture"], "website": "https://www.sharis.com/cafe-locations/kent", "phone": "2538595774", "address": "24525 Russell Rd"}, "geometry": {"type": "Point", "coordinates": [-122.2611847, 47.3813133]}}, {"type": "Feature", "properties": {"id": "eb79b3ec-c725-4c07-a9ed-71e904c3ffb0", "name": "Riverbend Bar & Grill", "category": "restaurant", "tags": ["restaurant", "bar-and-grill", "bar", "grill"], "sources": ["overture"], "website": "http://www.riverbendgrill.com/", "phone": "+12536563597", "address": "2019 W Meeker St"}, "geometry": {"type": "Point", "coordinates": [-122.2628784, 47.3808174]}}, {"type": "Feature", "properties": {"id": 638871072, "name": "Neely-Soames Historic Homestead", "category": "museum", "tags": ["museum"], "sources": ["osm"], "address": "5311 South 237th Place"}, "geometry": {"type": "Point", "coordinates": [-122.2679311, 47.388819]}}, {"type": "Feature", "properties": {"id": "42d43ac9-9b7b-4b4a-aeb4-d2a915631a31", "name": "Neely Soames Homestead Demonstration Garden", "category": "attraction", "tags": ["attraction", "landmark", "historical", "building"], "sources": ["overture"], "website": "https://www.kentwa.gov/departments/kent-parks/parks-places/parks-trails/neely-soames-homestead", "phone": "+12538565000", "address": "5311 S 237th Pl"}, "geometry": {"type": "Point", "coordinates": [-122.2678909, 47.3889236]}}, {"type": "Feature", "properties": {"id": "3a582696-fce4-4bd7-aeda-318b1151cfeb", "name": "Red Carpet Apartments", "category": "attraction", "tags": ["attraction", "landmark", "historical", "building"], "sources": ["overture"], "website": "http://rcapartments.wixsite.com/redcarpetapartments", "phone": "+12538545880", "address": "24440 Russell Rd"}, "geometry": {"type": "Point", "coordinates": [-122.26091, 47.3818321]}}, {"type": "Feature", "properties": {"id": 501226706, "name": "Eagle View Park", "category": "park", "tags": ["park"], "sources": ["osm", "overture"], "phone": "+12538565120", "address": "53rd Pl S"}, "geometry": {"type": "Point", "coordinates": [-122.2673708, 47.3897467]}}, {"type": "Feature", "properties": {"id": 1000673196, "name": "Hogan Park", "category": "park", "tags": ["park"], "sources": ["osm"], "address": "24400 Russell Road South", "hours": "dawn-dusk"}, "geometry": {"type": "Point", "coordinates": [-122.2602099, 47.3843986]}}, {"type": "Feature", "properties": {"id": 638887095, "name": "Best Western Plaza by the Green", "category": "hotel", "tags": ["hotel", "wifi"], "sources": ["osm"], "website": "https://www.bestwestern.com/en_US/book/hotels-in-kent/best-western-plus-plaza-by-the-green/propertyCode.48106.html", "phone": "+1-253-854-8767", "address": "24415 Russell Road South"}, "geometry": {"type": "Point", "coordinates": [-122.262275, 47.3824514]}}, {"type": "Feature", "properties": {"id": "87f83f67-7826-409f-b93c-769ebfb8b058", "name": "Best Western Plus Plaza By The Green", "category": "hotel", "tags": ["hotel"], "sources": ["overture"], "website": "https://www.bestwestern.com/en_US/book/hotel-rooms.48106.html?iata=00171890&ssob=BLBWI0003G&cid=BLBWI0003G%3Ayext%3Awebsite%3A48106", "phone": "+12538548767", "address": "24415 Russell Rd"}, "geometry": {"type": "Point", "coordinates": [-122.2626419, 47.382412]}}, {"type": "Feature", "properties": {"id": 4218360975, "name": "Riverbend Discount Golf Center", "category": "sports", "tags": ["sports"], "sources": ["osm"]}, "geometry": {"type": "Point", "coordinates": [-122.2612435, 47.3805469]}}]}