{"type": "FeatureCollection", "features": [{"type": "Feature", "properties": {"id": 326680273, "name": "Ivar\u2019s Seafood Bar", "category": "restaurant", "tags": ["restaurant", "seafood", "indoor-seating", "wheelchair-accessible"], "sources": ["osm", "overture"], "website": "https://www.ivars.com/kirkland-seafood-bar", "phone": "+14258275858", "address": "5910 Lake Washington Blvd NE", "hours": "Mo-Su 11:00-21:00"}, "geometry": {"type": "Point", "coordinates": [-122.2060618, 47.6605662]}}, {"type": "Feature", "properties": {"id": "3ac1ea05-52df-4c2a-a7f2-769ed145d0ef", "name": "L'Experience Paris", "category": "restaurant", "tags": ["restaurant", "french", "european"], "sources": ["overture"], "website": "https://www.lexperienceparis.com", "phone": "+12069415328", "address": "1002 Lake St S"}, "geometry": {"type": "Point", "coordinates": [-122.206543, 47.6670074]}}, {"type": "Feature", "properties": {"id": "198773c0-bdd2-44fa-8503-d8851ff8f336", "name": "Kidd Valley", "category": "restaurant", "tags": ["restaurant", "burger"], "sources": ["overture"], "website": "http://kiddvalley.com/", "phone": "(425) 827-5858", "address": "5910 Lake Washington Blvd NE"}, "geometry": {"type": "Point", "coordinates": [-122.2062378, 47.6606598]}}, {"type": "Feature", "properties": {"id": 326680296, "name": "BeachHouse bar + grill", "category": "restaurant", "tags": ["restaurant", "american"], "sources": ["osm"], "website": "https://beachhousekirkland.com/", "phone": "+1-425-968-5587", "address": "6023 Lake Washington Boulevard Northeast", "hours": "Mo-Th 11:00-22:00; Fr 11:00-23:00; Sa 09:00-23:00; Su 09:00-22:00"}, "geometry": {"type": "Point", "coordinates": [-122.2071806, 47.661671]}}, {"type": "Feature", "properties": {"id": "ca2398a6-2c55-4170-8100-55adaea17264", "name": "BeachHouse Bar and Grill", "category": "restaurant", "tags": ["restaurant", "bar-and-grill", "bar", "grill", "seafood", "american"], "sources": ["overture"], "website": "http://www.beachhouserestaurants.com/", "phone": "+14259685587", "address": "6023 Lake Washington Blvd NE"}, "geometry": {"type": "Point", "coordinates": [-122.207016, 47.6616554]}}, {"type": "Feature", "properties": {"id": "7c31a396-adb4-4430-81e2-19fc1d32eb74", "name": "Tacos El Guero", "category": "restaurant", "tags": ["restaurant", "taco", "mexican"], "sources": ["overture"], "website": "https://lakewashington.elbarriotaqueriabar.com/?utm_source=bing&utm_medium=websiteurl&utm_campaign=search", "phone": "2065999216", "address": "6402 Lake Washington Blvd NE"}, "geometry": {"type": "Point", "coordinates": [-122.2066879, 47.6639252]}}, {"type": "Feature", "properties": {"id": 3937055906, "name": "Leap Frogging", "category": "artwork", "tags": ["artwork"], "sources": ["osm"]}, "geometry": {"type": "Point", "coordinates": [-122.2072695, 47.6651047]}}, {"type": "Feature", "properties": {"id": 3937055907, "name": "First Romance Sculpture", "category": "artwork", "tags": ["artwork"], "sources": ["osm"]}, "geometry": {"type": "Point", "coordinates": [-122.2067484, 47.6602136]}}, {"type": "Feature", "properties": {"id": 4787312003, "name": "Spring", "category": "artwork", "tags": ["artwork"], "sources": ["osm"]}, "geometry": {"type": "Point", "coordinates": [-122.2067346, 47.6609832]}}, {"type": "Feature", "properties": {"id": 4787312006, "name": "The Storyteller", "category": "artwork", "tags": ["artwork"], "sources": ["osm"]}, "geometry": {"type": "Point", "coordinates": [-122.2061811, 47.6602324]}}, {"type": "Feature", "properties": {"id": "40386dd8-52fa-40b4-8529-a3bcfa87aa0a", "name": "Shorehouse", "category": "attraction", "tags": ["attraction", "landmark", "historical", "building"], "sources": ["overture"], "address": "6225 Lake Washington Blvd NE"}, "geometry": {"type": "Point", "coordinates": [-122.207634, 47.6629066]}}, {"type": "Feature", "properties": {"id": "a58d5f08-c150-4e10-84c7-099b96044fdd", "name": "Sunset Shores Apartments", "category": "attraction", "tags": ["attraction", "landmark", "historical", "building"], "sources": ["overture"], "website": "http://www.wpapartment.com/sunset_shores.php", "phone": "+14258277727", "address": "10138 NE 64th St"}, "geometry": {"type": "Point", "coordinates": [-122.2055588, 47.6640892]}}, {"type": "Feature", "properties": {"id": "5720e61d-c0cd-4ead-95b6-a17e1e497847", "name": "Pleasant Bay", "category": "attraction", "tags": ["attraction", "landmark", "historical", "building"], "sources": ["overture"], "website": "https://www.pleasantbayapartments.com", "phone": "+14255100449", "address": "6754 Lake Washington Blvd NE"}, "geometry": {"type": "Point", "coordinates": [-122.2056885, 47.6665573]}}, {"type": "Feature", "properties": {"id": 55950324, "name": "Terrace Park", "category": "park", "tags": ["park"], "sources": ["osm", "overture"], "website": "http://www.kirklandwa.gov/depart/parks/Parks_and_Open_Spaces/Online_Parks_Guide/Parks_Pop-up_Main/Parks_and_Community_Services__Terrace_Park.htm", "phone": "+14252424744", "address": "10333 NE 67th St"}, "geometry": {"type": "Point", "coordinates": [-122.2008911, 47.6651417]}}, {"type": "Feature", "properties": {"id": 55950334, "name": "Marsh Park", "category": "park", "tags": ["park"], "sources": ["osm", "overture"], "website": "http://www.kirklandwa.gov/depart/parks/online_parks_guide/parks_pop-up_main/parks_and_community_services__marsh_park.htm", "phone": "+14255873000", "address": "6605 Lake Washington Blvd NE"}, "geometry": {"type": "Point", "coordinates": [-122.207387, 47.665739]}}, {"type": "Feature", "properties": {"id": 159407957, "name": "Houghton Beach Park", "category": "park", "tags": ["park"], "sources": ["osm"]}, "geometry": {"type": "Point", "coordinates": [-122.2068062, 47.660348]}}, {"type": "Feature", "properties": {"id": "fe6927d8-fc58-4662-b422-45e8bc6249d3", "name": "Houghton Beach Park", "category": "park", "tags": ["park"], "sources": ["overture"], "website": "http://parksofkirkland.com/houghton-beach-park", "phone": "+14252697021", "address": "5811 Lake Washington Blvd NE"}, "geometry": {"type": "Point", "coordinates": [-122.2067261, 47.661293]}}, {"type": "Feature", "properties": {"id": 293887783, "name": "Settler's Landing", "category": "park", "tags": ["park"], "sources": ["osm", "overture"], "website": "parksofkirkland.com", "address": "1001 Lake St S"}, "geometry": {"type": "Point", "coordinates": [-122.2073508, 47.6675865]}}, {"type": "Feature", "properties": {"id": "973a56f9-f680-4e84-ade3-ed4702ee29b5", "name": "Doris Cooper Houghton Beach Park", "category": "park", "tags": ["park"], "sources": ["overture"], "phone": "+14255873300", "address": "5811 Lake Washington Blvd NE"}, "geometry": {"type": "Point", "coordinates": [-122.2067719, 47.6601524]}}, {"type": "Feature", "properties": {"id": "a594c0f9-3065-4ea1-a1b0-7e11a714d3dc", "name": "Houghton Park Playground", "category": "playground", "tags": ["playground"], "sources": ["overture"], "website": "https://www.kirklandwa.gov/Government/Departments/Parks-and-Community-Services/Online-Parks-Guide/Houghton-Beach-Park", "phone": "+14255873000", "address": "Doris Cooper Houghton Beach Park, 5811 Lake Washington Blvd NE"}, "geometry": {"type": "Point", "coordinates": [-122.2068253, 47.6604691]}}, {"type": "Feature", "properties": {"id": 3313345371, "name": "Super 24 Food Stores", "category": "convenience", "tags": ["convenience"], "sources": ["osm"], "address": "6402 Lake Washington Boulevard Northeast"}, "geometry": {"type": "Point", "coordinates": [-122.2068122, 47.6639855]}}, {"type": "Feature", "properties": {"id": "b97e71c7-7c5e-4d5c-861a-80413a66006e", "name": "Super 24", "category": "supermarket", "tags": ["supermarket"], "sources": ["overture"], "website": "https://super-24.hub.biz/", "phone": "+14259685481", "address": "6402 Lake Washington Blvd NE"}, "geometry": {"type": "Point", "coordinates": [-122.2068329, 47.6639519]}}, {"type": "Feature", "properties": {"id": 328849713, "name": "Perfect Wave Stand Up Paddle Boards", "category": "sports", "tags": ["sports"], "sources": ["osm"]}, "geometry": {"type": "Point", "coordinates": [-122.2069244, 47.6609895]}}]}