{"type": "FeatureCollection", "features": [{"type": "Feature", "properties": {"id": 1103954941, "name": "Sunrise Cafe", "category": "cafe", "tags": ["cafe"], "sources": ["osm"], "address": "7299 West Lake Sammamish Parkway Northeast", "hours": "Tu-Fr 05:30-13:00; Sa,Su 06:00-13:00", "stations": [{"stopCode": 65, "lines": "2", "name": "Downtown Redmond Station", "walkingMeters": 772, "walkingSeconds": 566, "band": 10}]}, "geometry": {"type": "Point", "coordinates": [-122.1305741, 47.6694091]}}, {"type": "Feature", "properties": {"id": 9287284954, "name": "Bangkok Basil", "category": "restaurant", "tags": ["restaurant", "thai", "air-conditioned", "asian"], "sources": ["osm", "overture"], "website": "http://bangkok-basil.com/", "phone": "+14257029761", "address": "7297 West LK Sammamish Pkwy NE", "hours": "Mo-Fr 11:00-15:00,16:00-20:00; Sa-Su 12:00-20:00", "stations": [{"stopCode": 65, "lines": "2", "name": "Downtown Redmond Station", "walkingMeters": 781, "walkingSeconds": 572, "band": 10}]}, "geometry": {"type": "Point", "coordinates": [-122.1305314, 47.6693476]}}, {"type": "Feature", "properties": {"id": 12994801500, "name": "Sodo Pizza", "category": "fast_food", "tags": ["fast-food", "pizza", "takeaway"], "sources": ["osm"], "website": "https://www.sodo-pizza.com/", "phone": "+1-425-588-0963", "address": "7289 West Lake Sammamish Parkway Northeast", "hours": "Mo-Sa 11:00-19:00", "stations": [{"stopCode": 65, "lines": "2", "name": "Downtown Redmond Station", "walkingMeters": 797, "walkingSeconds": 584, "band": 10}]}, "geometry": {"type": "Point", "coordinates": [-122.1304187, 47.6692119]}}, {"type": "Feature", "properties": {"id": "7ecf5dbc-3ee8-406c-a7bc-784baa0496dd", "name": "Pho Hanoi Llc", "category": "restaurant", "tags": ["restaurant"], "sources": ["overture"], "address": "7297 W Lake Sammamish Pkwy NE", "stations": [{"stopCode": 65, "lines": "2", "name": "Downtown Redmond Station", "walkingMeters": 785, "walkingSeconds": 586, "band": 10}]}, "geometry": {"type": "Point", "coordinates": [-122.1310196, 47.6697426]}}, {"type": "Feature", "properties": {"id": "3768edaa-fddc-414d-98e7-e993647cf5bf", "name": "Celtic Bayou", "category": "pub", "tags": ["pub"], "sources": ["overture"], "website": "http://www.celticbayou.com/", "phone": "(425) 869-5933", "address": "7281 W Lake Sammamish Pkwy NE", "stations": [{"stopCode": 65, "lines": "2", "name": "Downtown Redmond Station", "walkingMeters": 797, "walkingSeconds": 584, "band": 10}]}, "geometry": {"type": "Point", "coordinates": [-122.1301727, 47.6692543]}}, {"type": "Feature", "properties": {"id": "0f1075cb-d07e-4408-a336-4f005b21c10e", "name": "The Meadows Clubhouse", "category": "pub", "tags": ["pub"], "sources": ["overture"], "phone": "+14258819802", "address": "15700 NE 66th Pl"}, "geometry": {"type": "Point", "coordinates": [-122.1304932, 47.6642838]}}, {"type": "Feature", "properties": {"id": "393eda64-5a42-4c22-af47-a76876277a0d", "name": "Olde Redmond Place Apartments", "category": "attraction", "tags": ["attraction", "landmark", "historical", "building"], "sources": ["overture"], "website": "http://www.olderedmondapts.com/", "phone": "+14258834260", "address": "7001 Old Redmond Rd"}, "geometry": {"type": "Point", "coordinates": [-122.1348495, 47.6676788]}}, {"type": "Feature", "properties": {"id": "7857cfac-f909-4c3b-a398-0a18088acb3d", "name": "Skyline Redmond", "category": "attraction", "tags": ["attraction", "landmark", "historical", "building"], "sources": ["overture"], "website": "https://www.skylineredmond.com/?utm_source=facebook", "phone": "+14256009970", "address": "7001 Old Redmond Rd"}, "geometry": {"type": "Point", "coordinates": [-122.1343689, 47.6690483]}}, {"type": "Feature", "properties": {"id": "e2af6195-e5e1-4978-a4fd-f0dfdf2da040", "name": "Marymoor Heights", "category": "attraction", "tags": ["attraction", "landmark", "historical", "building"], "sources": ["overture"], "address": "15662 NE 70th Ct"}, "geometry": {"type": "Point", "coordinates": [-122.1320648, 47.6681404]}}, {"type": "Feature", "properties": {"id": 59871392, "name": "Spiritbrook Park", "category": "park", "tags": ["park"], "sources": ["osm", "overture"], "website": "http://www.redmond.gov/insidecityhall/parksrec/parks/spiritbrook.asp", "phone": "+14255562900", "address": "6500 151st Ave NE", "hours": "dawn-dusk"}, "geometry": {"type": "Point", "coordinates": [-122.1389626, 47.6646904]}}, {"type": "Feature", "properties": {"id": 369791522, "name": "Redmond West Wetlands", "category": "park", "tags": ["park"], "sources": ["osm"], "phone": "+1-425-556-2300", "address": "Northeast 60th Street", "hours": "dawn-dusk"}, "geometry": {"type": "Point", "coordinates": [-122.1376085, 47.6600422]}}, {"type": "Feature", "properties": {"id": "385ffaaf-6242-4783-8028-a96fb8ba59a0", "name": "Spiritbrook Little Free Library #30781", "category": "library", "tags": ["library"], "sources": ["overture"], "website": "https://littlefreelibrary.org/", "address": "15115 NE 67th Pl"}, "geometry": {"type": "Point", "coordinates": [-122.1385117, 47.6656532]}}, {"type": "Feature", "properties": {"id": "e418082f-bde2-4293-b424-ed59371fad2a", "name": "Personal Training Team Inc", "category": "fitness_centre", "tags": ["fitness-centre", "fitness", "trainer"], "sources": ["overture"], "phone": "14258854825", "address": "7275 W Lake Sammamish Pkwy NE", "stations": [{"stopCode": 65, "lines": "2", "name": "Downtown Redmond Station", "walkingMeters": 793, "walkingSeconds": 581, "band": 10}]}, "geometry": {"type": "Point", "coordinates": [-122.1304092, 47.6691399]}}]}