{"type": "FeatureCollection", "features": [{"type": "Feature", "properties": {"id": 857059334, "name": "Terry's Kitchen", "category": "restaurant", "tags": ["restaurant", "comfort-food", "comfort", "food", "american"], "sources": ["osm", "overture"], "website": "https://www.terryskitchenbellevue.com/", "phone": "+14255909545", "address": "5625 119th Ave SE"}, "geometry": {"type": "Point", "coordinates": [-122.1797708, 47.5522789]}}, {"type": "Feature", "properties": {"id": 882590706, "name": "Resonate Brewery + Pizzeria", "category": "restaurant", "tags": ["restaurant", "pizza", "bar", "brewery"], "sources": ["osm", "overture"], "website": "http://resonatebrewery.com", "phone": "+14256443164", "address": "5606 119th Ave SE"}, "geometry": {"type": "Point", "coordinates": [-122.1774829, 47.5521067]}}, {"type": "Feature", "properties": {"id": 882694163, "name": "Teriyaki Town II", "category": "restaurant", "tags": ["restaurant"], "sources": ["osm"], "address": "5806B 119TH AVE SE"}, "geometry": {"type": "Point", "coordinates": [-122.1783627, 47.5512233]}}, {"type": "Feature", "properties": {"id": 5576304381, "name": "Cloud 9", "category": "fast_food", "tags": ["fast-food", "burger", "ice-cream", "outdoor-seating"], "sources": ["osm"]}, "geometry": {"type": "Point", "coordinates": [-122.178738, 47.5518481]}}, {"type": "Feature", "properties": {"id": 74747178, "name": "Cloud Nine Burgers", "category": "restaurant", "tags": ["restaurant", "burger"], "sources": ["osm"], "address": "5630 119th Avenue Southeast"}, "geometry": {"type": "Point", "coordinates": [-122.1787289, 47.5518504]}}, {"type": "Feature", "properties": {"id": "6e526eaa-548b-404d-9644-99219f6c9a9e", "name": "Cloud 9 Burgers", "category": "restaurant", "tags": ["restaurant", "burger", "american"], "sources": ["overture"], "website": "https://www.cloudnineburgers.com/", "phone": "+14257474780", "address": "5630 119th Ave SE"}, "geometry": {"type": "Point", "coordinates": [-122.1789474, 47.551857]}}, {"type": "Feature", "properties": {"id": "2755841c-0d98-4d4a-9bf8-20e3aa21473b", "name": "Dairy Queen", "category": "restaurant", "tags": ["restaurant", "burger"], "sources": ["overture"], "website": "http://www.dairyqueen.com", "phone": "(425) 746-8305", "address": "5630 119th Ave SE"}, "geometry": {"type": "Point", "coordinates": [-122.178772, 47.5518646]}}, {"type": "Feature", "properties": {"id": "e08634a7-4b2f-440d-be82-fc809fe0f225", "name": "On da Hill Billiards", "category": "bar", "tags": ["bar"], "sources": ["overture"], "website": "http://www.ondahillbilliards.com/", "phone": "+12069202181", "address": "5625 119th Ave SE"}, "geometry": {"type": "Point", "coordinates": [-122.1799088, 47.5521202]}}, {"type": "Feature", "properties": {"id": "868de2f8-c516-4b74-a7ec-4b700c17b7d5", "name": "Mustard Seed Grill & Pub", "category": "restaurant", "tags": ["restaurant", "bar-and-grill", "bar", "grill"], "sources": ["overture"], "phone": "14256039001", "address": "5608 119th Ave SE"}, "geometry": {"type": "Point", "coordinates": [-122.1775284, 47.5521126]}}, {"type": "Feature", "properties": {"id": 4794545685, "name": "Rain Catchers", "category": "artwork", "tags": ["artwork"], "sources": ["osm"]}, "geometry": {"type": "Point", "coordinates": [-122.1793434, 47.5514382]}}, {"type": "Feature", "properties": {"id": "82d3bb98-955f-46bf-ba10-ab93d7d00965", "name": "Iron Horse State Park (Cedar Falls Trailhead)", "category": "park", "tags": ["park", "state"], "sources": ["overture"], "website": "http://www.parks.wa.gov", "phone": "(360) 902-8844", "address": "19500 Cedar Falls Road S.E."}, "geometry": {"type": "Point", "coordinates": [-122.1762466, 47.5567741]}}, {"type": "Feature", "properties": {"id": 882814940, "name": "S-Mart Asian Supermarket", "category": "supermarket", "tags": ["supermarket"], "sources": ["osm", "overture"], "phone": "+14256981628", "address": "5629 119th Ave SE", "hours": "Mo-Su 09:00-19:00"}, "geometry": {"type": "Point", "coordinates": [-122.179754, 47.5520472]}}, {"type": "Feature", "properties": {"id": "2a4570ab-8d13-4d95-954d-8f7a2cf11d32", "name": "Plantecor", "category": "furniture", "tags": ["furniture"], "sources": ["overture"], "phone": "4256382165", "address": "11905 SE 56th St"}, "geometry": {"type": "Point", "coordinates": [-122.1786957, 47.552597]}}, {"type": "Feature", "properties": {"id": "faaa1785-1be5-4a8c-85bc-780e7ddabd90", "name": "Dinlo Llc", "category": "supermarket", "tags": ["supermarket"], "sources": ["overture"], "address": "5629 119th Ave SE"}, "geometry": {"type": "Point", "coordinates": [-122.1799469, 47.5520325]}}, {"type": "Feature", "properties": {"id": 882694324, "name": "Newport Hills Mailboxes & Shipping", "category": "post_office", "tags": ["post-office"], "sources": ["osm"], "address": "5806A 119TH AVE SE"}, "geometry": {"type": "Point", "coordinates": [-122.1784593, 47.5512233]}}, {"type": "Feature", "properties": {"id": 5576304380, "name": "Stod's Baseball", "category": "sports_centre", "tags": ["sports-centre", "baseball"], "sources": ["osm"], "address": "5606 119th Avenue Southeast"}, "geometry": {"type": "Point", "coordinates": [-122.1774828, 47.5523206]}}, {"type": "Feature", "properties": {"id": 72101938, "name": "Newport Hills Swim and Tennis Club", "category": "sports_centre", "tags": ["sports-centre", "swimming", "tennis"], "sources": ["osm"], "website": "https://www.nhstc.com/", "address": "5464 119TH AVE SE"}, "geometry": {"type": "Point", "coordinates": [-122.1779652, 47.5536376]}}]}