{"type": "FeatureCollection", "features": [{"type": "Feature", "properties": {"id": "42742742-7e03-4a95-be8e-073d44fe7263", "name": "Rise & Shine Bakery", "category": "bakery", "tags": ["bakery"], "sources": ["overture"], "website": "https://www.riseandshineedmonds.com", "phone": "12065748330", "address": "23030 Highway 99"}, "geometry": {"type": "Point", "coordinates": [-122.3392944, 47.7896461]}}, {"type": "Feature", "properties": {"id": 280235891, "name": "Mathay-Ballinger Park", "category": "park", "tags": ["park"], "sources": ["osm", "overture"], "website": "https://edmondswa.gov/government/departments/parks-recreation-a-cultural-services/edmonds-city-parks/mathay-ballinger-park.html", "phone": "+14257710230", "address": "24100 78th Pl W", "hours": "sunrise-sunset"}, "geometry": {"type": "Point", "coordinates": [-122.3382586, 47.7808984]}}]}