{"type": "FeatureCollection", "features": [{"type": "Feature", "properties": {"id": 3346323724, "name": "Starbucks", "category": "cafe", "tags": ["cafe", "coffee-shop", "takeaway", "coffee"], "sources": ["osm", "overture"], "website": "https://www.starbucks.com/store-locator/store/17399/", "phone": "+14258232016", "address": "13325 100th Ave NE"}, "geometry": {"type": "Point", "coordinates": [-122.208273, 47.7199644]}}, {"type": "Feature", "properties": {"id": "50e7ee4f-49d1-4a20-bd72-7a93d49beda9", "name": "Village Condominiums", "category": "attraction", "tags": ["attraction", "landmark", "historical", "building"], "sources": ["overture"], "phone": "+14258210170", "address": "9907 NE 124th St"}, "geometry": {"type": "Point", "coordinates": [-122.2096558, 47.7105751]}}, {"type": "Feature", "properties": {"id": "4de66f52-c9c2-44a9-95e9-ec15ffe68747", "name": "Hubbard's Crossing", "category": "attraction", "tags": ["attraction", "landmark", "historical", "building"], "sources": ["overture"], "website": "https://www.hubbardscrossing.com/", "phone": "+18559382331", "address": "12520 101st Way NE"}, "geometry": {"type": "Point", "coordinates": [-122.2066193, 47.7128067]}}, {"type": "Feature", "properties": {"id": "96165f71-1eb6-47ed-bf84-7ed247fbd4b5", "name": "Kirkland Springs", "category": "attraction", "tags": ["attraction", "landmark", "historical", "building"], "sources": ["overture"], "address": "12624 100th Ln NE"}, "geometry": {"type": "Point", "coordinates": [-122.2069168, 47.7133904]}}, {"type": "Feature", "properties": {"id": "3e2c2116-9979-4c35-bfad-f05d48f2aa9d", "name": "Hidden River Townhomes", "category": "attraction", "tags": ["attraction", "landmark", "historical", "building"], "sources": ["overture"], "website": "https://www.hiddenrivertownhomes.com/", "phone": "+18442439838", "address": "10013 NE 130th Ln"}, "geometry": {"type": "Point", "coordinates": [-122.206543, 47.7172508]}}, {"type": "Feature", "properties": {"id": 55786155, "name": "Brookhaven Park", "category": "park", "tags": ["park"], "sources": ["osm"]}, "geometry": {"type": "Point", "coordinates": [-122.2084253, 47.7148816]}}, {"type": "Feature", "properties": {"id": 484425923, "name": "North Kirkland Community Center Playground", "category": "playground", "tags": ["playground"], "sources": ["osm"], "address": "12402 103rd Avenue Northeast"}, "geometry": {"type": "Point", "coordinates": [-122.2031927, 47.7116844]}}, {"type": "Feature", "properties": {"id": "6eb168bc-4915-4256-adda-85319eb9bcef", "name": "Brookhaven Community Partnership Park", "category": "park", "tags": ["park"], "sources": ["overture"], "website": "https://www.kirklandwa.gov", "phone": "+14255873300", "address": "9843 NE 128th St"}, "geometry": {"type": "Point", "coordinates": [-122.2084961, 47.71492]}}, {"type": "Feature", "properties": {"id": "3418b7e6-c0d0-4575-806f-75624175f496", "name": "North Kirkland Park", "category": "park", "tags": ["park"], "sources": ["overture"], "phone": "+14255873300", "address": "12424 103rd Ave NE"}, "geometry": {"type": "Point", "coordinates": [-122.2034149, 47.7119026]}}, {"type": "Feature", "properties": {"id": "be2eb9ec-6976-4d02-be3b-4507227c5b6d", "name": "Albertsons", "category": "supermarket", "tags": ["supermarket"], "sources": ["overture"], "website": "http://www.albertsons.com", "phone": "(425) 823-6000", "address": "9826 NE 132nd St"}, "geometry": {"type": "Point", "coordinates": [-122.2090836, 47.7192955]}}, {"type": "Feature", "properties": {"id": "073cf85b-1a54-42cf-9eae-b02aee354d74", "name": "First Choice Grout And Tile", "category": "doityourself", "tags": ["doityourself", "building", "supply"], "sources": ["overture"], "website": "http://firstchoicegrout.com", "phone": "(206) 234-3877", "address": "10022 NE 127th Pl Apt C213"}, "geometry": {"type": "Point", "coordinates": [-122.2064056, 47.7156029]}}, {"type": "Feature", "properties": {"id": 485042186, "name": "Fairfax Hospital", "category": "hospital", "tags": ["hospital"], "sources": ["osm"], "website": "https://www.fairfaxhospital.com/", "phone": "+1-425-821-2000", "address": "10200 Northeast 132nd Street"}, "geometry": {"type": "Point", "coordinates": [-122.2046766, 47.719426]}}, {"type": "Feature", "properties": {"id": 327821105, "name": "U.S. Bank", "category": "bank", "tags": ["bank", "credit", "union"], "sources": ["osm", "overture"], "website": "https://www.usbank.com/locations/washington/kirkland/13233-100th-ave-ne-bank-atm/?utm_source=facebook&utm_medium=organic&utm_campaign=facebook_listing", "phone": "+14258230444", "address": "13233 100th Ave NE"}, "geometry": {"type": "Point", "coordinates": [-122.2081939, 47.7196046]}}, {"type": "Feature", "properties": {"id": "76660678-a596-4f59-ac03-9555ab56c399", "name": "U.S. Bank ATM", "category": "bank", "tags": ["bank", "credit", "union"], "sources": ["overture"], "website": "http://www.usbank.com/locations", "phone": "8008722657", "address": "13233 100th Ave NE"}, "geometry": {"type": "Point", "coordinates": [-122.2077484, 47.7195549]}}, {"type": "Feature", "properties": {"id": 10971393665, "name": "Juanita Aquatics Center", "category": "swimming_pool", "tags": ["swimming-pool", "swimming", "pool"], "sources": ["osm", "overture"], "website": "https://www.waveaquatics.org", "phone": "14259361627", "address": "10601 NE 132nd St"}, "geometry": {"type": "Point", "coordinates": [-122.2002704, 47.7155092]}}, {"type": "Feature", "properties": {"id": 327512008, "name": "Fieldhouse", "category": "sports_centre", "tags": ["sports-centre", "swimming", "basketball"], "sources": ["osm"], "website": "https://www.waveaquatics.org/jac", "address": "10601 Northeast 132nd Street"}, "geometry": {"type": "Point", "coordinates": [-122.2004336, 47.7154957]}}, {"type": "Feature", "properties": {"id": "7167742d-d86a-4d0b-9fe8-69fbc5d2525b", "name": "Juanita Pool", "category": "swimming_pool", "tags": ["swimming-pool", "swimming", "pool"], "sources": ["overture"]}, "geometry": {"type": "Point", "coordinates": [-122.2001419, 47.7155914]}}]}