{"type": "FeatureCollection", "features": [{"type": "Feature", "properties": {"id": 24786783, "name": "Celebration Park", "category": "park", "tags": ["park", "wifi"], "sources": ["osm", "overture"], "website": "http://cityoffederalway.com/page/community-parks-0", "phone": "+12538356960", "address": "1095 South 324th St"}, "geometry": {"type": "Point", "coordinates": [-122.3200857, 47.3079805]}}, {"type": "Feature", "properties": {"id": "c5a370e6-ad2c-476d-bc7b-2bc793569f58", "name": "DiagnosTechs", "category": "clinic", "tags": ["clinic", "medical"], "sources": ["overture"], "website": "https://www.diagnostechs.com/", "phone": "8008783787", "address": "840 S 333rd St"}, "geometry": {"type": "Point", "coordinates": [-122.3248672, 47.3061829]}}, {"type": "Feature", "properties": {"id": 161129598, "name": "Federal Way Community Center", "category": "sports_centre", "tags": ["sports-centre"], "sources": ["osm"], "address": "876 S 333rd St"}, "geometry": {"type": "Point", "coordinates": [-122.3227396, 47.3055741]}}]}