{"type": "FeatureCollection", "features": [{"type": "Feature", "properties": {"id": "57de6f8a-5921-4e27-9ffa-905a29fc7a59", "name": "Concorso Italiano", "category": "restaurant", "tags": ["restaurant"], "sources": ["overture"], "website": "http://www.concorso.com", "phone": "(425) 742-0632", "address": "8318 197th St SW"}, "geometry": {"type": "Point", "coordinates": [-122.3460999, 47.820385]}}, {"type": "Feature", "properties": {"id": 764452620, "name": "Sierra Park", "category": "park", "tags": ["park"], "sources": ["osm", "overture"], "website": "http://www.edmondswa.gov/government/departments/parks-recreation-a-cultural-services/edmonds-city-parks/sierra-park.html", "phone": "+14257710230", "address": "19020 80th Ave W"}, "geometry": {"type": "Point", "coordinates": [-122.3427724, 47.8261347]}}, {"type": "Feature", "properties": {"id": "84350c99-79fe-471b-bb90-d778f3920fc6", "name": "KL Havens", "category": "clothes", "tags": ["clothes", "mens"], "sources": ["overture"], "phone": "4252682745", "address": "19017 83rd Ave W"}, "geometry": {"type": "Point", "coordinates": [-122.3446121, 47.8264427]}}]}