{"type": "FeatureCollection", "features": [{"type": "Feature", "properties": {"id": 3595362525, "name": "Bento Teriyaki", "category": "restaurant", "tags": ["restaurant", "asian", "takeaway", "fusion", "sushi"], "sources": ["osm", "overture"], "website": "http://www.teriyakikent.com/", "phone": "2538524910", "address": "323 Washington Ave S", "hours": "Mo-Sa 10:30-21:00"}, "geometry": {"type": "Point", "coordinates": [-122.2477841, 47.3786285]}}, {"type": "Feature", "properties": {"id": 337343302, "name": "Taco Bell", "category": "fast_food", "tags": ["fast-food", "tex-mex", "takeaway", "drive-through", "fast", "food", "taco", "mexican"], "sources": ["osm", "overture"], "website": "http://www.tacobell.com/", "phone": "+12538595212", "address": "322 Washington Ave South", "hours": "Mo-Th,Su 07:00-01:00; Fr-Sa 07:00-02:00"}, "geometry": {"type": "Point", "coordinates": [-122.2470056, 47.3789749]}}, {"type": "Feature", "properties": {"id": 3595586278, "name": "Bubble Tea and Coffee Cafe", "category": "cafe", "tags": ["cafe"], "sources": ["osm"], "address": "232 Washington Avenue South"}, "geometry": {"type": "Point", "coordinates": [-122.245888, 47.3795894]}}, {"type": "Feature", "properties": {"id": 13271405520, "name": "Appa Sushi", "category": "restaurant", "tags": ["restaurant", "sushi"], "sources": ["osm"]}, "geometry": {"type": "Point", "coordinates": [-122.2478971, 47.3786635]}}, {"type": "Feature", "properties": {"id": "568fd603-cca3-4b23-b8d2-25181bf9c9a4", "name": "HD Hotspurs", "category": "restaurant", "tags": ["restaurant", "barbecue"], "sources": ["overture"], "website": "http://www.hdhotspursbbq.com/", "phone": "(253) 854-5653", "address": "315 Washington Ave S"}, "geometry": {"type": "Point", "coordinates": [-122.2488327, 47.378849]}}, {"type": "Feature", "properties": {"id": "c7aa1290-59e6-409d-a772-4a564f2d4e4b", "name": "The City Hookah Lounge", "category": "bar", "tags": ["bar", "hookah"], "sources": ["overture"], "phone": "2068893350", "address": "306 Washington Ave S"}, "geometry": {"type": "Point", "coordinates": [-122.2459259, 47.3794746]}}, {"type": "Feature", "properties": {"id": "78ade8ca-6d34-4e4a-9e29-a6e55cf72119", "name": "Godfathers Pizza", "category": "restaurant", "tags": ["restaurant", "pizza"], "sources": ["overture"], "website": "http://www.godfathers.com/", "phone": "(253) 850-7500", "address": "328 Washington Ave S"}, "geometry": {"type": "Point", "coordinates": [-122.2460251, 47.3790283]}}, {"type": "Feature", "properties": {"id": "a13d0bbc-cd56-47e3-852e-49316c28dd75", "name": "Mediterranean Bre", "category": "restaurant", "tags": ["restaurant"], "sources": ["overture"], "website": "http://www.eatmb.com", "phone": "(253) 277-7742", "address": "406 Washington Ave S"}, "geometry": {"type": "Point", "coordinates": [-122.2467957, 47.3784904]}}, {"type": "Feature", "properties": {"id": "372248b3-801a-4209-8388-c936f54e1864", "name": "Asian Gardens Buffet", "category": "restaurant", "tags": ["restaurant", "chinese", "buffet", "asian"], "sources": ["overture"], "website": "http://www.asiangardensbuffetkent.com", "phone": "+12538138800", "address": "406 Washington Ave S"}, "geometry": {"type": "Point", "coordinates": [-122.2467804, 47.3784256]}}, {"type": "Feature", "properties": {"id": "15c96a68-aa17-4276-899a-de9dd046517a", "name": "Don Chanos Tienda y Taqueria", "category": "restaurant", "tags": ["restaurant", "mexican", "taco", "latin-american"], "sources": ["overture"], "phone": "+12539813444", "address": "335 Washington Ave S"}, "geometry": {"type": "Point", "coordinates": [-122.2485199, 47.3787308]}}, {"type": "Feature", "properties": {"id": "20dcbba6-5f99-46b2-acd4-f94da77194bd", "name": "Don Chanos Llc", "category": "restaurant", "tags": ["restaurant"], "sources": ["overture"], "address": "335 Washington Ave S"}, "geometry": {"type": "Point", "coordinates": [-122.2478027, 47.3785858]}}, {"type": "Feature", "properties": {"id": "b815da07-a93a-488c-b1de-d130b03f04fa", "name": "Appa Sushi & Bento Teriyaki", "category": "restaurant", "tags": ["restaurant", "sushi", "japanese", "asian"], "sources": ["overture"], "website": "http://teriyakikent.com/", "phone": "+12538524910", "address": "323 Washington Ave S"}, "geometry": {"type": "Point", "coordinates": [-122.2477417, 47.3785782]}}, {"type": "Feature", "properties": {"id": "399af457-5024-47fa-ab7a-c573863f0a29", "name": "Munchie Magic", "category": "restaurant", "tags": ["restaurant"], "sources": ["overture"], "website": "http://www.munchiemagic.com", "phone": "12535203483", "address": "25014 74th Ave S"}, "geometry": {"type": "Point", "coordinates": [-122.2422028, 47.3773193]}}, {"type": "Feature", "properties": {"id": 426933891, "name": "Riverview Park", "category": "park", "tags": ["park"], "sources": ["osm"], "website": "https://www.kentwa.gov/departments/kent-parks/parks-places/parks-trails/riverview-park", "address": "25520 Hawley Road", "hours": "dawn-dusk"}, "geometry": {"type": "Point", "coordinates": [-122.2460845, 47.3725904]}}, {"type": "Feature", "properties": {"id": 652254805, "name": "Baymont by Wyndham Kent", "category": "hotel", "tags": ["hotel", "wifi"], "sources": ["osm"], "phone": "+1-253-520-6670", "address": "25100 74th Avenue South"}, "geometry": {"type": "Point", "coordinates": [-122.2422049, 47.3768197]}}, {"type": "Feature", "properties": {"id": "98c4a9e2-b155-4cc4-ade2-76712ac11cd4", "name": "Red Lion Inn & Suites Kent Seattle", "category": "hotel", "tags": ["hotel"], "sources": ["overture"], "website": "https://www.redlion.com", "phone": "12535206670", "address": "25100 74th Ave S"}, "geometry": {"type": "Point", "coordinates": [-122.2422256, 47.3768158]}}, {"type": "Feature", "properties": {"id": 652254792, "name": "Food Mart", "category": "convenience", "tags": ["convenience"], "sources": ["osm"], "address": "25014 74th Avenue South"}, "geometry": {"type": "Point", "coordinates": [-122.2419781, 47.3772778]}}, {"type": "Feature", "properties": {"id": 5042020925, "name": "Dollar Tree", "category": "variety_store", "tags": ["variety-store", "discount"], "sources": ["osm", "overture"], "website": "https://locations.dollartree.com/wa/kent/310-washington-ave-s", "phone": "+12534804171", "address": "310 Washington Ave S", "hours": "Mo-Sa 09:00-21:00; Su 10:00-20:00"}, "geometry": {"type": "Point", "coordinates": [-122.2461034, 47.3792409]}}, {"type": "Feature", "properties": {"id": 3595586279, "name": "Cricket Wireless", "category": "mobile_phone", "tags": ["mobile-phone"], "sources": ["osm"], "address": "230 Washington Avenue South", "hours": "Mo-Sa 10:00-20:00; Su 10:00-18:00"}, "geometry": {"type": "Point", "coordinates": [-122.245931, 47.3796334]}}, {"type": "Feature", "properties": {"id": 3590888683, "name": "Prince Liquor Store", "category": "alcohol", "tags": ["alcohol"], "sources": ["osm"], "hours": "Mo-We 10:00-22:00; Th-Sa 10:00-23:00; Su 10:00-21:00"}, "geometry": {"type": "Point", "coordinates": [-122.2479902, 47.3786951]}}, {"type": "Feature", "properties": {"id": 3595586283, "name": "Smoke Time +", "category": "tobacco", "tags": ["tobacco"], "sources": ["osm"], "address": "222 Washington Avenue South"}, "geometry": {"type": "Point", "coordinates": [-122.2459405, 47.3798413]}}, {"type": "Feature", "properties": {"id": 3595586285, "name": "Pet Country", "category": "pet", "tags": ["pet"], "sources": ["osm", "overture"], "website": "https://www.petcountrykent.com", "phone": "2538542620", "address": "216 Washington Ave S"}, "geometry": {"type": "Point", "coordinates": [-122.2459409, 47.3799942]}}, {"type": "Feature", "properties": {"id": 3633735525, "name": "Don Chanos Tienda", "category": "supermarket", "tags": ["supermarket"], "sources": ["osm"]}, "geometry": {"type": "Point", "coordinates": [-122.2484749, 47.3786839]}}, {"type": "Feature", "properties": {"id": "93b2ec0b-7e03-4503-ac1a-7ba97a109555", "name": "Walmart", "category": "department_store", "tags": ["department-store", "department"], "sources": ["overture"], "website": "http://www.walmart.com", "phone": "+16512341885", "address": "325 Washington Ave S"}, "geometry": {"type": "Point", "coordinates": [-122.2481537, 47.3785782]}}, {"type": "Feature", "properties": {"id": 505256395, "name": "Williams Concrete Accessories", "category": "hardware", "tags": ["hardware"], "sources": ["osm"], "address": "25232 74th Avenue South"}, "geometry": {"type": "Point", "coordinates": [-122.2422561, 47.3752209]}}, {"type": "Feature", "properties": {"id": "3fb998e7-de49-47d0-8c44-847f1cd60f63", "name": "Cricket Wireless Authorized Retailer", "category": "mobile_phone", "tags": ["mobile-phone", "mobile"], "sources": ["overture"], "website": "https://www.cricketwireless.com/stores/wa/kent/230-washington-ave-s?utm_source=Facebook&utm_medium=Organic_Search&utm_campaign=Yext_Listings", "phone": "+12532369622", "address": "230 Washington Ave S"}, "geometry": {"type": "Point", "coordinates": [-122.2459259, 47.379612]}}, {"type": "Feature", "properties": {"id": "5f42d616-9910-4dd4-b0af-1e6d2ea8626e", "name": "Kmart", "category": "department_store", "tags": ["department-store", "department"], "sources": ["overture"], "website": "https://www.kmart.com/stores/washington/kent/3413.html", "phone": "2538529071", "address": "24800 W Valley Hwy #3413"}, "geometry": {"type": "Point", "coordinates": [-122.2495728, 47.3796234]}}, {"type": "Feature", "properties": {"id": "dea190f4-d321-4911-bc34-54bf16b45a5f", "name": "Coffee Excellence", "category": "supermarket", "tags": ["supermarket"], "sources": ["overture"], "website": "https://www.coffeeexcellence.co.za", "address": "25402 74th Ave S"}, "geometry": {"type": "Point", "coordinates": [-122.2420044, 47.373764]}}, {"type": "Feature", "properties": {"id": "91bf0fad-3cb3-4e4a-9575-81ca1b61e54a", "name": "Sierra Forest Products", "category": "doityourself", "tags": ["doityourself", "building", "supply"], "sources": ["overture"], "website": "http://www.sierrafp.com/", "phone": "2538520070", "address": "25612 74th Ave S"}, "geometry": {"type": "Point", "coordinates": [-122.2418518, 47.3718185]}}, {"type": "Feature", "properties": {"id": "b5b0fad8-478c-41cb-95ef-a4fced58a846", "name": "Royola Pacific of Seattle", "category": "furniture", "tags": ["furniture"], "sources": ["overture"], "website": "http://www.rplusa.com", "phone": "(253) 852-9158", "address": "25515 74th Ave S # S"}, "geometry": {"type": "Point", "coordinates": [-122.2432556, 47.3723526]}}, {"type": "Feature", "properties": {"id": "8e4d0c4f-0156-45a9-9b08-4f85e6f0e0ce", "name": "Smoke Time Plus", "category": "tobacco", "tags": ["tobacco"], "sources": ["overture"], "phone": "12538548989", "address": "222 Washington Ave S"}, "geometry": {"type": "Point", "coordinates": [-122.2459412, 47.3798409]}}, {"type": "Feature", "properties": {"id": "46c070ae-ec39-4e09-8da3-8ce2a3a4a20d", "name": "KENT Selection", "category": "alcohol", "tags": ["alcohol"], "sources": ["overture"], "phone": "+12535204748", "address": "316 Washington Ave S"}, "geometry": {"type": "Point", "coordinates": [-122.2480927, 47.3785896]}}, {"type": "Feature", "properties": {"id": "d16af1e3-8302-4052-ae2f-03d47019713b", "name": "Jaff Refinishing", "category": "doityourself", "tags": ["doityourself", "building", "supply"], "sources": ["overture"], "website": "http://jaffrefinisher.com", "phone": "(253) 324-9001", "address": "325 washington ave south #330"}, "geometry": {"type": "Point", "coordinates": [-122.2481384, 47.378521]}}, {"type": "Feature", "properties": {"id": "06821c16-1a3e-41f8-b385-1ea463930b0a", "name": "American Office Services", "category": "furniture", "tags": ["furniture"], "sources": ["overture"], "website": "http://aosteaminfo.com", "phone": "12532467478", "address": "25315 74th Ave S  Ste 102"}, "geometry": {"type": "Point", "coordinates": [-122.2435379, 47.3747597]}}, {"type": "Feature", "properties": {"id": "4249aaca-68b3-42c5-9d72-de8f07c24d98", "name": "Partner Construction Products", "category": "doityourself", "tags": ["doityourself", "building", "supply"], "sources": ["overture"], "website": "https://partner-products.com/about", "phone": "+12538501144", "address": "25223 74th Ave S"}, "geometry": {"type": "Point", "coordinates": [-122.2432404, 47.3754272]}}, {"type": "Feature", "properties": {"id": "467c84cf-3e5f-43cf-ab68-48975f5ae1ae", "name": "Miracle Method Surface Refinishing", "category": "doityourself", "tags": ["doityourself", "home", "improvement"], "sources": ["overture"], "website": "https://www.miraclemethod.com/seattle?utm_source=Google&utm_medium=GMB&utm_content=MMMS", "phone": "4252436957", "address": "25121 74th Ave S Ste # 101"}, "geometry": {"type": "Point", "coordinates": [-122.2428818, 47.3759651]}}, {"type": "Feature", "properties": {"id": 505256394, "name": "Northwest Kidney Centers", "category": "clinic", "tags": ["clinic"], "sources": ["osm"], "address": "25316 74th Avenue South"}, "geometry": {"type": "Point", "coordinates": [-122.241884, 47.3743235]}}, {"type": "Feature", "properties": {"id": 3595362522, "name": "The UPS Store", "category": "post_office", "tags": ["post-office"], "sources": ["osm"], "phone": "+1-253-854-7377", "address": "325 Washington Avenue South", "hours": "Mo-Fr 08:00-19:00; Sa 09:00-17:00"}, "geometry": {"type": "Point", "coordinates": [-122.247781, 47.3785468]}}, {"type": "Feature", "properties": {"id": "ad2d27f4-9097-4eed-b33a-c8d51d9ffaf4", "name": "LA Fitness", "category": "fitness_centre", "tags": ["fitness-centre", "gym"], "sources": ["overture"], "website": "https://www.lafitness.com/Pages/clubhome.aspx?clubid=524&utm_source=bing&utm_medium=bingmaps&utm_campaign=maps", "phone": "2538597815", "address": "520 Washington Ave S"}, "geometry": {"type": "Point", "coordinates": [-122.2462921, 47.3770447]}}, {"type": "Feature", "properties": {"id": 5914991289, "name": "Aryal's Gymnastics", "category": "fitness_centre", "tags": ["fitness-centre"], "sources": ["osm"]}, "geometry": {"type": "Point", "coordinates": [-122.2416422, 47.3725422]}}]}