{"type": "FeatureCollection", "features": [{"type": "Feature", "properties": {"id": 1726074744, "name": "How To Cook A Wolf - Madison Park", "category": "restaurant", "tags": ["restaurant", "regional"], "sources": ["osm"], "website": "https://www.ethanstowellrestaurants.com/locations/htcaw-mp/", "address": "4200 East Madison Street", "hours": "Mo-Su 16:00-22:00, Sa,Su 10:00-14:00"}, "geometry": {"type": "Point", "coordinates": [-122.2782742, 47.6358827]}}, {"type": "Feature", "properties": {"id": 1726074749, "name": "McGilvra's", "category": "pub", "tags": ["pub", "outdoor-seating"], "sources": ["osm"], "website": "http://www.mcgilvras.com", "address": "4234 East Madison Street", "hours": "Mo-Th 11:00-23:00; Fr 11:00-01:00; Sa 10:00-01:00; Su 10:00-23:00"}, "geometry": {"type": "Point", "coordinates": [-122.2773302, 47.6364484]}}, {"type": "Feature", "properties": {"id": 2328962125, "name": "Cactus - Madison Park", "category": "restaurant", "tags": ["restaurant", "mexican", "bar", "cocktail", "texmex"], "sources": ["osm", "overture"], "website": "http://www.cactusrestaurants.com/", "phone": "+12063244140", "address": "4220 E Madison St", "hours": "Mo-Th 11:00-22:00; Fr 11:00-23:00; Sa 10:00-23:00; Su 10:00-22:00"}, "geometry": {"type": "Point", "coordinates": [-122.2777312, 47.6361701]}}, {"type": "Feature", "properties": {"id": 2328962127, "name": "The Red Onion", "category": "pub", "tags": ["pub"], "sources": ["osm"], "address": "4210 East Madison Street"}, "geometry": {"type": "Point", "coordinates": [-122.2780581, 47.6359569]}}, {"type": "Feature", "properties": {"id": 2328962128, "name": "The Attic", "category": "pub", "tags": ["pub", "bar", "sports", "american", "bar-and-grill"], "sources": ["osm", "overture"], "website": "https://www.theatticmadpark.com/", "phone": "+12062575283", "address": "4226 E Madison St"}, "geometry": {"type": "Point", "coordinates": [-122.2775671, 47.6362868]}}, {"type": "Feature", "properties": {"id": 2328962129, "name": "The Independent", "category": "restaurant", "tags": ["restaurant", "pizza"], "sources": ["osm"], "website": "https://www.theindiepizzeria.com", "phone": "+1-206-860-6110", "address": "4235 East Madison Street", "hours": "Th-Su 15:30-20:00"}, "geometry": {"type": "Point", "coordinates": [-122.2773323, 47.636046]}}, {"type": "Feature", "properties": {"id": 2329620086, "name": "Bamboo Thai Cuisine", "category": "restaurant", "tags": ["restaurant", "thai"], "sources": ["osm", "overture"], "website": "http://www.bamboo-thai.com", "phone": "12063246467", "address": "1841 42nd Ave E", "hours": "Mo-Su 12:00-13:00,16:00-20:30"}, "geometry": {"type": "Point", "coordinates": [-122.2786721, 47.6358478]}}, {"type": "Feature", "properties": {"id": 2329620362, "name": "Madison Kitchen", "category": "restaurant", "tags": ["restaurant", "american"], "sources": ["osm", "overture"], "website": "http://Madison-Kitchen.com/", "phone": "+12065574640", "address": "4122 E Madison St", "hours": "Mo-Su 08:00-15:00"}, "geometry": {"type": "Point", "coordinates": [-122.278868, 47.635405]}}, {"type": "Feature", "properties": {"id": 10718074368, "name": "Sushi Suzuki", "category": "restaurant", "tags": ["restaurant", "sushi", "japanese", "asian"], "sources": ["osm", "overture"], "website": "http://sushisuzuki.com/", "phone": "+12064666621", "address": "4116 E Madison St", "hours": "We-Su 17:00-22:30"}, "geometry": {"type": "Point", "coordinates": [-122.2791656, 47.6354004]}}, {"type": "Feature", "properties": {"id": "2df4241d-5f60-42ec-bdbf-e99a057eafe6", "name": "Cafe Parco", "category": "restaurant", "tags": ["restaurant", "italian"], "sources": ["overture"], "website": "http://cafeparco.com", "phone": "(206) 328-4757", "address": "1807 42nd Ave E"}, "geometry": {"type": "Point", "coordinates": [-122.2787018, 47.6347923]}}, {"type": "Feature", "properties": {"id": "a2e80aed-5deb-48bd-9f91-9f595979de80", "name": "Madison Park Cafe", "category": "cafe", "tags": ["cafe"], "sources": ["overture"], "website": "http://madisonparkcafe.ypguides.net/", "phone": "(206) 324-2626", "address": "1807 42nd Ave E"}, "geometry": {"type": "Point", "coordinates": [-122.2787476, 47.6348343]}}, {"type": "Feature", "properties": {"id": "a8a238d1-15fd-4e17-ba03-19fed6876f9a", "name": "Parlour Wines-Madison Park", "category": "bar", "tags": ["bar"], "sources": ["overture"], "website": "http://parlourwinesmp.com/", "phone": "+12067104632", "address": "1803 42nd Ave E"}, "geometry": {"type": "Point", "coordinates": [-122.2787781, 47.6346359]}}, {"type": "Feature", "properties": {"id": "68953394-4ea1-4281-b5af-8f317e245e30", "name": "Madison Park Bakery", "category": "bakery", "tags": ["bakery"], "sources": ["overture"], "website": "http://www.mpbakery.com/", "phone": "+12063223238", "address": "4214 E Madison St"}, "geometry": {"type": "Point", "coordinates": [-122.2779465, 47.6360321]}}, {"type": "Feature", "properties": {"id": "510ab0df-e98e-4cd4-9f1f-87618b29e161", "name": "Red Onion Tavern", "category": "bar", "tags": ["bar", "american"], "sources": ["overture"], "website": "http://redoniontavernseattle.goodbistros.com", "phone": "+12063231611", "address": "4210 E Madison St"}, "geometry": {"type": "Point", "coordinates": [-122.2780762, 47.6359329]}}, {"type": "Feature", "properties": {"id": "e4a71b9e-4364-4b76-be70-9af943a532f8", "name": "How to Cook a Wolf", "category": "restaurant", "tags": ["restaurant", "italian"], "sources": ["overture"], "website": "https://howtocookawolf.com/", "phone": "+12063098700", "address": "4200 E Madison St"}, "geometry": {"type": "Point", "coordinates": [-122.2783661, 47.6358757]}}, {"type": "Feature", "properties": {"id": "efc709da-1f19-47e0-9e2e-0789e9e37de9", "name": "Thai 1841 Llc", "category": "restaurant", "tags": ["restaurant"], "sources": ["overture"], "address": "1841 42nd Ave E"}, "geometry": {"type": "Point", "coordinates": [-122.2786636, 47.6358185]}}, {"type": "Feature", "properties": {"id": "93e3ee1f-8ee7-41c1-b6f2-39e23c5024fe", "name": "Thai Ginger Madison Park", "category": "restaurant", "tags": ["restaurant", "seafood", "thai"], "sources": ["overture"], "website": "http://thaiginger.com/", "phone": "2063246467", "address": "1841 42nd Ave E"}, "geometry": {"type": "Point", "coordinates": [-122.2787552, 47.6357803]}}, {"type": "Feature", "properties": {"id": "e23eeb37-a26a-47c1-a1be-a785044c7bc4", "name": "Three Dog House Llc", "category": "restaurant", "tags": ["restaurant"], "sources": ["overture"], "address": "4122 E Madison St"}, "geometry": {"type": "Point", "coordinates": [-122.2789612, 47.6354904]}}, {"type": "Feature", "properties": {"id": "013e096f-6cac-44f2-873e-2933b0f2f7b2", "name": "Bistro & Bites", "category": "restaurant", "tags": ["restaurant", "vegan"], "sources": ["overture"], "website": "http://parkplacedeli.com", "phone": "(206) 328-2492", "address": "4122 E Madison St"}, "geometry": {"type": "Point", "coordinates": [-122.2789612, 47.6354179]}}, {"type": "Feature", "properties": {"id": "bb7d3881-7e0c-4fc8-8406-6449586d40a0", "name": "Bing's", "category": "restaurant", "tags": ["restaurant", "american"], "sources": ["overture"], "website": "http://www.bingsseattle.com", "phone": "(206) 323-8623", "address": "4200 E Madison St"}, "geometry": {"type": "Point", "coordinates": [-122.2783432, 47.6357994]}}, {"type": "Feature", "properties": {"id": "805bb737-9903-40e3-9af3-83f21aba37ea", "name": "The Independent Pizzeria", "category": "restaurant", "tags": ["restaurant", "pizza"], "sources": ["overture"], "website": "http://www.theindiepizzeria.com", "phone": "(206) 860-6110", "address": "4235 E Madison St"}, "geometry": {"type": "Point", "coordinates": [-122.2774811, 47.6359329]}}, {"type": "Feature", "properties": {"id": "e354dc4c-503a-40ee-8e58-5517f8e96a86", "name": "McGilvra's Bar and Restaurant", "category": "restaurant", "tags": ["restaurant", "bar-and-grill", "bar", "grill", "american"], "sources": ["overture"], "website": "http://Mcgilvraspub.com/", "phone": "+12063250834", "address": "4234 E Madison St"}, "geometry": {"type": "Point", "coordinates": [-122.2773438, 47.6363831]}}, {"type": "Feature", "properties": {"id": "198e6ff3-71c3-4546-a42b-be5187001aa0", "name": "Madison Park Conservatory", "category": "restaurant", "tags": ["restaurant"], "sources": ["overture"], "website": "http://madisonparkconservatory.com", "phone": "(206) 324-9701", "address": "1927 43rd Ave E"}, "geometry": {"type": "Point", "coordinates": [-122.2773285, 47.6364517]}}, {"type": "Feature", "properties": {"id": "9f8b7e46-71a4-4471-a121-139532e8103c", "name": "BeachHouse bar + grill - Madison Park", "category": "bar", "tags": ["bar", "seafood"], "sources": ["overture"], "website": "http://beachhouserestaurants.com/", "phone": "2062943842", "address": "1927 43rd Ave E"}, "geometry": {"type": "Point", "coordinates": [-122.2774734, 47.6365662]}}, {"type": "Feature", "properties": {"id": 3211770240, "name": "McGilvra's Farm", "category": "artwork", "tags": ["artwork"], "sources": ["osm"]}, "geometry": {"type": "Point", "coordinates": [-122.277917, 47.635467]}}, {"type": "Feature", "properties": {"id": "156daa35-8fbd-488c-a6de-5d52a6dc0785", "name": "Washington Park Tower", "category": "attraction", "tags": ["attraction", "landmark", "historical", "building"], "sources": ["overture"], "website": "http://www.avvanta.com", "phone": "+12065498341", "address": "1620 43rd Ave E Apartment 11c"}, "geometry": {"type": "Point", "coordinates": [-122.2762985, 47.6337662]}}, {"type": "Feature", "properties": {"id": "43fd4903-5dcb-4274-a1da-a8b5353b5234", "name": "Pioneer Association Of The State Of Washington", "category": "museum", "tags": ["museum"], "sources": ["overture"], "website": "https://wapioneers.com", "phone": "12063250888", "address": "1642 43rd Ave E"}, "geometry": {"type": "Point", "coordinates": [-122.2765427, 47.634613]}}, {"type": "Feature", "properties": {"id": 56178459, "name": "Madison Park North Beach", "category": "park", "tags": ["park"], "sources": ["osm", "overture"], "website": "https://www.seattle.gov/parks/allparks/madison-park-north-beach", "phone": "+12066844075", "address": "2300 43rd Ave E"}, "geometry": {"type": "Point", "coordinates": [-122.2767595, 47.6390888]}}, {"type": "Feature", "properties": {"id": 294466964, "name": "East Lee Street End", "category": "park", "tags": ["park"], "sources": ["osm"]}, "geometry": {"type": "Point", "coordinates": [-122.2772069, 47.6309439]}}, {"type": "Feature", "properties": {"id": 6001634577, "name": "Red Wagon", "category": "toys", "tags": ["toys"], "sources": ["osm"]}, "geometry": {"type": "Point", "coordinates": [-122.2777757, 47.6361475]}}, {"type": "Feature", "properties": {"id": 2329620348, "name": "Madison Books", "category": "books", "tags": ["books"], "sources": ["osm", "overture"], "website": "https://madisonbks.com", "phone": "12063253160", "address": "4118 E Madison St", "hours": "10:00-18:00"}, "geometry": {"type": "Point", "coordinates": [-122.2789657, 47.6353257]}}, {"type": "Feature", "properties": {"id": 2329620432, "name": "The Original Childrens Shop", "category": "clothes", "tags": ["clothes", "childrens"], "sources": ["osm", "overture"], "website": "http://www.theoriginalchildrensshop.com/", "phone": "+12063287121", "address": "4216 E Madison St", "hours": "Tu-Fr 10:00-18:00; Sa 10:00-17:00; Su 10:00-16:00"}, "geometry": {"type": "Point", "coordinates": [-122.2778975, 47.6360677]}}, {"type": "Feature", "properties": {"id": 2329620436, "name": "Martha E. Harris", "category": "gift", "tags": ["gift"], "sources": ["osm"], "address": "4218 East Madison Street"}, "geometry": {"type": "Point", "coordinates": [-122.2778206, 47.6361167]}}, {"type": "Feature", "properties": {"id": 2329620495, "name": "Madison Park Jewelers", "category": "jewelry", "tags": ["jewelry"], "sources": ["osm", "overture"], "website": "http://www.madisonparkjewelers.com/", "phone": "+12063251880", "address": "4230 E Madison St", "hours": "Tu-Sa 10:00-17:00"}, "geometry": {"type": "Point", "coordinates": [-122.2774719, 47.6363456]}}, {"type": "Feature", "properties": {"id": 2423615161, "name": "Madison Park Hardware", "category": "hardware", "tags": ["hardware"], "sources": ["osm", "overture"], "website": "https://madisonparkhardware.blogspot.com", "phone": "12063225331", "address": "1837 42nd Ave E", "hours": "Mo-Sa 09:00-18:00"}, "geometry": {"type": "Point", "coordinates": [-122.2786816, 47.6357117]}}, {"type": "Feature", "properties": {"id": 9276448303, "name": "Madison Cellars", "category": "wine", "tags": ["wine"], "sources": ["osm"]}, "geometry": {"type": "Point", "coordinates": [-122.2775311, 47.6359256]}}, {"type": "Feature", "properties": {"id": 11265993000, "name": "Parlour Wines", "category": "wine", "tags": ["wine"], "sources": ["osm"], "address": "1803 42nd Avenue East", "hours": "We,Th 15:00-21:00; Fr,Sa 13:00-21:00; Su 13:00-19:00"}, "geometry": {"type": "Point", "coordinates": [-122.2786904, 47.6347075]}}, {"type": "Feature", "properties": {"id": 224042082, "name": "Bert's Red Apple Market", "category": "supermarket", "tags": ["supermarket"], "sources": ["osm", "overture"], "website": "http://www.bertsredapple.com", "phone": "+12063221330", "address": "1801 41st Ave E", "hours": "07:00-21:00"}, "geometry": {"type": "Point", "coordinates": [-122.2799961, 47.6348325]}}, {"type": "Feature", "properties": {"id": "2fa64547-fc9d-4a9c-bab4-9da0adb4e918", "name": "No Longer There", "category": "toys", "tags": ["toys"], "sources": ["overture"], "website": "https://www.moonjar.com", "address": "1809 42nd Ave E"}, "geometry": {"type": "Point", "coordinates": [-122.2788162, 47.6348724]}}, {"type": "Feature", "properties": {"id": "57a328f0-f9d2-4848-a317-9fde9e137c92", "name": "Red Wagon Toys", "category": "toys", "tags": ["toys"], "sources": ["overture"], "website": "http://www.redwagonmadisonpark.com/", "phone": "+12064535306", "address": "4218 E Madison St"}, "geometry": {"type": "Point", "coordinates": [-122.277771, 47.6360779]}}, {"type": "Feature", "properties": {"id": "275593cf-7983-4b65-8a86-280c14e6408b", "name": "Yankee Peddler", "category": "clothes", "tags": ["clothes", "womens"], "sources": ["overture"], "phone": "+12063244218", "address": "4218 E Madison St"}, "geometry": {"type": "Point", "coordinates": [-122.2778549, 47.6362419]}}, {"type": "Feature", "properties": {"id": 2329620376, "name": "Madison Park Pharmacy & Wellness Center", "category": "pharmacy", "tags": ["pharmacy", "dog-friendly"], "sources": ["osm", "overture"], "website": "http://www.madisonparkpharmacy.com/", "phone": "+12063474644", "address": "4130 E Madison St", "hours": "Mo-Fr 09:00-18:00; Sa 10:00-18:00; Su 11:00-16:00"}, "geometry": {"type": "Point", "coordinates": [-122.27871, 47.6355261]}}, {"type": "Feature", "properties": {"id": 2329620335, "name": "Bank of America", "category": "bank", "tags": ["bank"], "sources": ["osm"], "address": "4112 East Madison Street", "hours": "Mo-Fr 10:00-16:00"}, "geometry": {"type": "Point", "coordinates": [-122.2791382, 47.6352213]}}, {"type": "Feature", "properties": {"id": 9276448302, "name": "KeyBank", "category": "bank", "tags": ["bank"], "sources": ["osm"], "hours": "Mo-Th 09:00-17:00; Fr 09:00-18:00; Sa 10:00-13:30"}, "geometry": {"type": "Point", "coordinates": [-122.2792825, 47.6347012]}}, {"type": "Feature", "properties": {"id": 9276473126, "name": "Park Postal", "category": "post_office", "tags": ["post-office", "office"], "sources": ["osm", "overture"], "website": "http://www.parkpostal.com/", "phone": "+12068607678", "address": "4111 E Madison St #2"}, "geometry": {"type": "Point", "coordinates": [-122.2789013, 47.6348281]}}, {"type": "Feature", "properties": {"id": "02d07e9a-db47-4c1b-a8d1-3638939873c1", "name": "Bank of America Financial Center", "category": "bank", "tags": ["bank", "credit", "union"], "sources": ["overture"], "website": "https://locators.bankofamerica.com/wa/seattle/financial-centers-seattle-8304.html", "phone": "2065854652", "address": "4112 E Madison St"}, "geometry": {"type": "Point", "coordinates": [-122.279068, 47.6351204]}}, {"type": "Feature", "properties": {"id": "bab7328e-0e3c-4515-86ca-76a213a946b9", "name": "Fiske Genealogy Library", "category": "library", "tags": ["library"], "sources": ["overture"], "website": "https://www.fiskelibrary.org", "phone": "12063282716", "address": "1644 43rd Ave E"}, "geometry": {"type": "Point", "coordinates": [-122.2768478, 47.6346397]}}, {"type": "Feature", "properties": {"id": 2329620392, "name": "1 on 1 Fitness", "category": "fitness_centre", "tags": ["fitness-centre", "fitness", "trainer"], "sources": ["osm", "overture"], "website": "https://1on1fitnesswa.com/", "phone": "+12063243010", "address": "4202 E Madison St", "hours": "\"by appointment\""}, "geometry": {"type": "Point", "coordinates": [-122.2781272, 47.6359141]}}, {"type": "Feature", "properties": {"id": 2329620483, "name": "Leitz Pilates", "category": "fitness_centre", "tags": ["fitness-centre"], "sources": ["osm"], "phone": "+1-206-778-7879", "address": "4227 East Madison Street"}, "geometry": {"type": "Point", "coordinates": [-122.2773931, 47.6359461]}}, {"type": "Feature", "properties": {"id": "4ed6adb3-d142-4c1a-a1b7-0a5a85081885", "name": "Fitness Together - Madison Park", "category": "fitness_centre", "tags": ["fitness-centre", "fitness", "trainer"], "sources": ["overture"], "website": "https://fitnesstogether.com/cottonwood-heights", "phone": "+12063243010", "address": "4202 E Madison St"}, "geometry": {"type": "Point", "coordinates": [-122.2780228, 47.6359711]}}]}