{"type": "FeatureCollection", "features": [{"type": "Feature", "properties": {"id": 56073105, "name": "Fruitland Landing", "category": "park", "tags": ["park"], "sources": ["osm"]}, "geometry": {"type": "Point", "coordinates": [-122.209203, 47.5807659]}}, {"type": "Feature", "properties": {"id": 217379633, "name": "Chesterfield Beach Park", "category": "park", "tags": ["park"], "sources": ["osm", "overture"], "website": "http://www.bellevuewa.gov/chesterfield_beach_park.htm", "address": "10001 SE 25th St"}, "geometry": {"type": "Point", "coordinates": [-122.2052695, 47.5880925]}}]}