{"type": "FeatureCollection", "features": [{"type": "Feature", "properties": {"id": 4060374125, "name": "Subway", "category": "fast_food", "tags": ["fast-food", "sandwich", "takeaway", "restaurant"], "sources": ["osm", "overture"], "website": "https://restaurants.subway.com/united-states/wa/kenmore/7016-ne-bothell-way", "phone": "+14252784724", "address": "7016 NE Bothell Way", "hours": "Mo-Fr 07:00-23:00, Sa 08:00-23:00, Su 09:00-23:00"}, "geometry": {"type": "Point", "coordinates": [-122.246482, 47.7580676]}}, {"type": "Feature", "properties": {"id": 4060330476, "name": "Domino's", "category": "fast_food", "tags": ["fast-food", "pizza", "takeaway", "restaurant"], "sources": ["osm", "overture"], "website": "https://www.dominos.com/en/?utm_source=google&utm_medium=loclist&utm_campaign=localmaps", "phone": "+14258060303", "address": "6830 Bothell Way Ne", "hours": "Fr,Sa 10:00-01:00, Su-Th 10:00-24:00"}, "geometry": {"type": "Point", "coordinates": [-122.248498, 47.758436]}}, {"type": "Feature", "properties": {"id": 4060406053, "name": "Toshi's Teriyaki", "category": "restaurant", "tags": ["restaurant", "japanese"], "sources": ["osm", "overture"], "website": "https://toshisgrill.com/toshis-teriyaki-kenmore", "phone": "(425) 483-6318", "address": "6830 NE Bothell Way"}, "geometry": {"type": "Point", "coordinates": [-122.2487449, 47.7585544]}}, {"type": "Feature", "properties": {"id": 403704129, "name": "McDonald's", "category": "fast_food", "tags": ["fast-food", "burger", "takeaway", "drive-through", "wifi", "fast", "food", "american"], "sources": ["osm", "overture"], "website": "https://www.mcdonalds.com/us/en-us/location/wa/bothell/7234-bothell-way/4728.html?cid=RF%3AYXT%3ARoN%3A%3AClicks%3Fcid%3DRF%3AYXT%3AFB%3A%3AClicks", "phone": "+14254855535", "address": "7234 Bothell Way", "hours": "06:00-23:00"}, "geometry": {"type": "Point", "coordinates": [-122.2447353, 47.758021]}}, {"type": "Feature", "properties": {"id": 1954489994, "name": "Fortune Inn", "category": "restaurant", "tags": ["restaurant", "chinese"], "sources": ["osm"], "address": "6825 Northeast 170th Street"}, "geometry": {"type": "Point", "coordinates": [-122.2489464, 47.7514479]}}, {"type": "Feature", "properties": {"id": 4060377507, "name": "Tropical Berry", "category": "cafe", "tags": ["cafe"], "sources": ["osm"], "address": "7018 Bothell Way Northeast"}, "geometry": {"type": "Point", "coordinates": [-122.2461951, 47.7580284]}}, {"type": "Feature", "properties": {"id": 593141106, "name": "Postdoc Brewing", "category": "pub", "tags": ["pub", "outdoor-seating", "microbrew"], "sources": ["osm"], "website": "https://www.postdocbrewing.com/", "phone": "+1-425-949-5295", "address": "7204 Northeast 175th Street", "hours": "Tu-Th 16:00-21:00;Fr 15:00-22:00;Sa 12:00-22:00;Su 12:00-20:00"}, "geometry": {"type": "Point", "coordinates": [-122.2440866, 47.7571425]}}, {"type": "Feature", "properties": {"id": 12564250948, "name": "De La Soil", "category": "restaurant", "tags": ["restaurant"], "sources": ["osm"], "website": "https://www.delasoilrestaurant.com", "address": "7324 Northeast 175th Street"}, "geometry": {"type": "Point", "coordinates": [-122.2424593, 47.7567857]}}, {"type": "Feature", "properties": {"id": 12564250951, "name": "Capital Burgue", "category": "restaurant", "tags": ["restaurant", "burger"], "sources": ["osm"], "phone": "+1-206-887-3217"}, "geometry": {"type": "Point", "coordinates": [-122.2461559, 47.7580213]}}, {"type": "Feature", "properties": {"id": 302173422, "name": "192 Brewing Co.", "category": "pub", "tags": ["pub", "sandwich", "appetizers", "microbrew"], "sources": ["osm"], "website": "https://192brewing.com", "phone": "+1-425-424-2337", "address": "7324 Northeast 175th Street", "hours": "Mo-Th 11:00-22:00; Fr,Sa 11:00-12:00; Su 11:00-21:00"}, "geometry": {"type": "Point", "coordinates": [-122.2420944, 47.7568124]}}, {"type": "Feature", "properties": {"id": 576239969, "name": "Copperworks Distilling Co.", "category": "pub", "tags": ["pub", "american", "distillery"], "sources": ["osm"], "website": "https://copperworksdistilling.com/kenmore", "phone": "+1-425-286-8050", "address": "7324 Northeast 175th Street", "hours": "Su-Mo, We 15:00-20:00; Tu, Th-Sa 15:00-21:00"}, "geometry": {"type": "Point", "coordinates": [-122.2424902, 47.7566951]}}, {"type": "Feature", "properties": {"id": 645106615, "name": "Tab's Bar and Grill", "category": "bar", "tags": ["bar", "outdoor-seating", "brewery", "smoking", "restaurant", "bar-and-grill", "grill"], "sources": ["osm", "overture"], "website": "http://www.tabsbarandgrill.com", "phone": "+14252862943", "address": "7211 NE 181st St"}, "geometry": {"type": "Point", "coordinates": [-122.2441441, 47.7589074]}}, {"type": "Feature", "properties": {"id": 1109878360, "name": "192 Brewing Co. Biergarten", "category": "pub", "tags": ["pub", "outdoor-seating", "indoor-seating"], "sources": ["osm"], "address": "7324 Northeast 175th Street"}, "geometry": {"type": "Point", "coordinates": [-122.2417284, 47.7567674]}}, {"type": "Feature", "properties": {"id": "93ac660b-4a2d-4cca-8c35-80329bb53712", "name": "Starbucks Coffee Company", "category": "cafe", "tags": ["cafe", "coffee"], "sources": ["overture"], "website": "https://www.starbucks.com/store-locator/store/13996", "phone": "+14254872001", "address": "6850 NE Bothell Way"}, "geometry": {"type": "Point", "coordinates": [-122.2474442, 47.7588806]}}, {"type": "Feature", "properties": {"id": "8f7ad469-81a7-48bc-bf80-da2a2b224482", "name": "Little White Bear Corporation", "category": "restaurant", "tags": ["restaurant"], "sources": ["overture"], "address": "6825 NE 170th St"}, "geometry": {"type": "Point", "coordinates": [-122.2489777, 47.7513809]}}, {"type": "Feature", "properties": {"id": "a6535d56-c995-40a4-aa52-3a34a99f9e2a", "name": "Fortune Inn Restaurant", "category": "restaurant", "tags": ["restaurant", "chinese"], "sources": ["overture"], "website": "http://fortuneinnkenmore.com/", "phone": "+14254880220", "address": "6825 NE 170th St"}, "geometry": {"type": "Point", "coordinates": [-122.2491226, 47.7514076]}}, {"type": "Feature", "properties": {"id": "d14a3498-5a20-43bb-b5fc-fc1557d9a9be", "name": "Seatown Sweets", "category": "bakery", "tags": ["bakery"], "sources": ["overture"], "website": "http://www.SeatownSweets.com/", "phone": "+14256059537", "address": "6830 NE Bothell Way Ste A"}, "geometry": {"type": "Point", "coordinates": [-122.2487717, 47.7587662]}}, {"type": "Feature", "properties": {"id": "f6700253-9bfe-4c6d-950d-c60b0d6d8d1f", "name": "Daddy's Donuts", "category": "bakery", "tags": ["bakery"], "sources": ["overture"], "website": "http://www.daddysdonuts.net", "phone": "(206) 496-3670", "address": "7018 NE Bothell Way"}, "geometry": {"type": "Point", "coordinates": [-122.2462311, 47.7583656]}}, {"type": "Feature", "properties": {"id": "d7ed4aba-daba-4772-bbd0-90f02a578545", "name": "Kenmore", "category": "fast_food", "tags": ["fast-food", "fast", "food"], "sources": ["overture"], "website": "https://tacotimenw.com/find-us/kenmore/", "address": "18029 68th Avenue NE Kenmore, WA 98028"}, "geometry": {"type": "Point", "coordinates": [-122.2497482, 47.7590408]}}, {"type": "Feature", "properties": {"id": "cac7ca96-f1d0-4150-b165-c3ef7fbdec1a", "name": "192 Brewing Company / The Lake Trail Taproom", "category": "bar", "tags": ["bar", "brewery"], "sources": ["overture"], "website": "https://192brewing.com", "phone": "14254242337", "address": "7324 Ne 175th St  Ste F"}, "geometry": {"type": "Point", "coordinates": [-122.2420731, 47.7566376]}}, {"type": "Feature", "properties": {"id": "83ace360-74e3-40f9-b69c-1130a9d12fa5", "name": "Kenmore Food Truck Corner", "category": "fast_food", "tags": ["fast-food", "fast", "food"], "sources": ["overture"], "website": "https://postdocbrewing.com/events", "phone": "+14259495295", "address": "7204 NE 175th St"}, "geometry": {"type": "Point", "coordinates": [-122.2441177, 47.7571373]}}, {"type": "Feature", "properties": {"id": 12709181698, "name": "3Cedars", "category": "artwork", "tags": ["artwork"], "sources": ["osm"], "website": "https://www.jenniferdixon.net/#/3cedars/"}, "geometry": {"type": "Point", "coordinates": [-122.2485698, 47.7526588]}}, {"type": "Feature", "properties": {"id": 12716871064, "name": "Community Mural", "category": "artwork", "tags": ["artwork"], "sources": ["osm"]}, "geometry": {"type": "Point", "coordinates": [-122.2435885, 47.7581432]}}, {"type": "Feature", "properties": {"id": 12716871065, "name": "Salmon Scarcity", "category": "artwork", "tags": ["artwork"], "sources": ["osm"]}, "geometry": {"type": "Point", "coordinates": [-122.240552, 47.7551024]}}, {"type": "Feature", "properties": {"id": 12716871066, "name": "Alone we Thrive", "category": "artwork", "tags": ["artwork"], "sources": ["osm"]}, "geometry": {"type": "Point", "coordinates": [-122.2411309, 47.7545131]}}, {"type": "Feature", "properties": {"id": 12716871067, "name": "BirdBlind", "category": "artwork", "tags": ["artwork"], "sources": ["osm"]}, "geometry": {"type": "Point", "coordinates": [-122.240477, 47.7543253]}}, {"type": "Feature", "properties": {"id": 12716871209, "name": "BirdBlind", "category": "artwork", "tags": ["artwork"], "sources": ["osm"]}, "geometry": {"type": "Point", "coordinates": [-122.240134, 47.7554319]}}, {"type": "Feature", "properties": {"id": "c08935e1-e8c2-47e1-a48e-81bc069c61cd", "name": "Vermont Apartment Homes", "category": "attraction", "tags": ["attraction", "landmark", "historical", "building"], "sources": ["overture"], "website": "http://www.vermontapartmenthomes.com/?rcstdid=MTE%3D-aKFOxiSL8lQ%3D", "phone": "+14252564204", "address": "16724 Juanita Dr NE"}, "geometry": {"type": "Point", "coordinates": [-122.2484512, 47.7506523]}}, {"type": "Feature", "properties": {"id": "53d246ce-40bc-4638-a653-bc6f74674222", "name": "Flyway Retail + Living", "category": "attraction", "tags": ["attraction", "landmark", "historical", "building"], "sources": ["overture"], "website": "https://www.flywaykenmore.com/?utm_source=social&utm_medium=display&utm_iq=social", "phone": "+14256005816", "address": "18115 68th Ave NE"}, "geometry": {"type": "Point", "coordinates": [-122.2498703, 47.7597771]}}, {"type": "Feature", "properties": {"id": "685d608d-fec4-4628-8396-46b0060cccec", "name": "Harbour Villa Condominium", "category": "attraction", "tags": ["attraction", "landmark", "historical", "building"], "sources": ["overture"], "address": "7217 NE 175th St"}, "geometry": {"type": "Point", "coordinates": [-122.2444763, 47.7556]}}, {"type": "Feature", "properties": {"id": 158623284, "name": "Rhododendron Park", "category": "park", "tags": ["park"], "sources": ["osm", "overture"], "website": "http://www.kenmorewa.gov/RhododendronPark", "phone": "+14253988900", "address": "6910 NE 170th St"}, "geometry": {"type": "Point", "coordinates": [-122.2485726, 47.7529722]}}, {"type": "Feature", "properties": {"id": "d6ca788b-b502-442f-b3af-7b32c1a4f1ce", "name": "Kemmore Park", "category": "park", "tags": ["park"], "sources": ["overture"], "phone": "+12062962977", "address": "6910 NE 170th St"}, "geometry": {"type": "Point", "coordinates": [-122.2480469, 47.7519417]}}, {"type": "Feature", "properties": {"id": "995f4871-938c-4202-8630-ef75f9e77ef2", "name": "Pierce Park", "category": "park", "tags": ["park"], "sources": ["overture"]}, "geometry": {"type": "Point", "coordinates": [-122.2484207, 47.7522888]}}, {"type": "Feature", "properties": {"id": "6499b619-dc32-45ea-8be7-643c47ef3ac7", "name": "Tl' Awh-ah-dees Park", "category": "park", "tags": ["park"], "sources": ["overture"], "address": "7353 NE 175th St"}, "geometry": {"type": "Point", "coordinates": [-122.2413864, 47.7545853]}}, {"type": "Feature", "properties": {"id": "02a02dfd-eb2d-4ff8-a484-76468ed24b11", "name": "Kenmore Squires Landing", "category": "park", "tags": ["park"], "sources": ["overture"], "website": "http://www.cityofkenmore.com/parks", "address": "7353 NE 175th St"}, "geometry": {"type": "Point", "coordinates": [-122.2415543, 47.7546501]}}, {"type": "Feature", "properties": {"id": "41540718-6982-423e-a3da-c74a8425d0ea", "name": "Kenmore Paddle Park", "category": "park", "tags": ["park"], "sources": ["overture"], "website": "https://www.kenmorewa.gov", "phone": "14253988900", "address": "7515 NE 175th St"}, "geometry": {"type": "Point", "coordinates": [-122.2401886, 47.7544556]}}, {"type": "Feature", "properties": {"id": 135849971, "name": "All The Best Pet Care", "category": "pet", "tags": ["pet"], "sources": ["osm", "overture"], "website": "https://www.allthebestpetcare.com/", "phone": "+14254249744", "address": "6820 NE Bothell Way"}, "geometry": {"type": "Point", "coordinates": [-122.2483304, 47.7591518]}}, {"type": "Feature", "properties": {"id": 2084051215, "name": "Snapdoodle", "category": "toys", "tags": ["toys"], "sources": ["osm"], "website": "https://snapdoodletoys.com/", "phone": "+1-425-408-0021", "address": "4330 NE Bothell Way"}, "geometry": {"type": "Point", "coordinates": [-122.2424423, 47.7574894]}}, {"type": "Feature", "properties": {"id": 135849840, "name": "Safeway", "category": "supermarket", "tags": ["supermarket"], "sources": ["osm", "overture"], "website": "https://local.safeway.com/safeway/wa/kenmore/6850-ne-bothell-way.html", "phone": "+14254872001", "address": "6850 NE Bothell Way", "hours": "Mo-Fr 05:00-24:00; Sa 05:00-24:00; Su 05:00-24:00"}, "geometry": {"type": "Point", "coordinates": [-122.2475603, 47.7592951]}}, {"type": "Feature", "properties": {"id": 4060374126, "name": "Kenmore Smoke Shop", "category": "tobacco", "tags": ["tobacco"], "sources": ["osm"], "address": "7016 Bothell Way Northeast"}, "geometry": {"type": "Point", "coordinates": [-122.2464925, 47.758165]}}, {"type": "Feature", "properties": {"id": 7059158367, "name": "Manhattan Express Grocery", "category": "supermarket", "tags": ["supermarket", "convenience"], "sources": ["osm", "overture"], "website": "http://www.agr.wa.gov", "phone": "+14254871211", "address": "16928 Juanita Dr NE"}, "geometry": {"type": "Point", "coordinates": [-122.2492877, 47.7515284]}}, {"type": "Feature", "properties": {"id": 11585740838, "name": "Whats SUP", "category": "sports", "tags": ["sports"], "sources": ["osm"]}, "geometry": {"type": "Point", "coordinates": [-122.2414754, 47.7564432]}}, {"type": "Feature", "properties": {"id": 645106619, "name": "Town Market", "category": "convenience", "tags": ["convenience", "supermarket"], "sources": ["osm", "overture"], "address": "7000 NE 181st St"}, "geometry": {"type": "Point", "coordinates": [-122.2466994, 47.7597505]}}, {"type": "Feature", "properties": {"id": "669ea8af-9bf1-4879-bd0a-2f1b25c5620a", "name": "Pacific Topsoils, Inc.", "category": "doityourself", "tags": ["doityourself", "building", "supply"], "sources": ["overture"], "website": "https://linktr.ee/pacifictopsoilsinc", "phone": "8008847645", "address": "7500 NE 175th St"}, "geometry": {"type": "Point", "coordinates": [-122.2407761, 47.7563362]}}, {"type": "Feature", "properties": {"id": "aa42a209-6436-4d50-80b3-65ec6f35fcb5", "name": "Ravenna Third Place", "category": "books", "tags": ["books"], "sources": ["overture"], "phone": "+12065252347", "address": "Ravenna Third Pl"}, "geometry": {"type": "Point", "coordinates": [-122.2470016, 47.7528992]}}, {"type": "Feature", "properties": {"id": "1bd63f3b-53a8-494c-beb8-be0aa47cccb4", "name": "Manhattan Express Inc", "category": "supermarket", "tags": ["supermarket"], "sources": ["overture"], "address": "16928 Juanita Dr NE"}, "geometry": {"type": "Point", "coordinates": [-122.2494736, 47.7513885]}}, {"type": "Feature", "properties": {"id": "4dac10a2-f91d-4b4f-a533-c0046a08e5b6", "name": "Michael Homchick Stoneworks", "category": "doityourself", "tags": ["doityourself", "building", "supply"], "sources": ["overture"], "website": "http://www.homchickstoneworks.com/", "phone": "+14254812783", "address": "6834 NE 175th St"}, "geometry": {"type": "Point", "coordinates": [-122.2483292, 47.757618]}}, {"type": "Feature", "properties": {"id": "b94b8b74-0772-41b5-a679-0b76a5882fa1", "name": "Snapdoodle Toys and Games", "category": "toys", "tags": ["toys"], "sources": ["overture"], "website": "https://snapdoodletoys.com", "phone": "+14253005546", "address": "7330 NE Bothell Way"}, "geometry": {"type": "Point", "coordinates": [-122.242424, 47.757431]}}, {"type": "Feature", "properties": {"id": 77949735, "name": "Rite Aid", "category": "pharmacy", "tags": ["pharmacy", "convenience"], "sources": ["osm", "overture"], "website": "https://www.riteaid.com/locations/wa/kenmore/18022-68th-avenue-ne.html", "phone": "4254242320", "address": "18022 68th Ave NE", "hours": "Mo-Fr 08:00-22:00; Sa-Su 09:00-21:00"}, "geometry": {"type": "Point", "coordinates": [-122.2489923, 47.7591681]}}, {"type": "Feature", "properties": {"id": "2540e2b4-fe18-47d5-a88b-0d4806e935fb", "name": "Safeway Pharmacy", "category": "pharmacy", "tags": ["pharmacy"], "sources": ["overture"], "website": "https://local.pharmacy.safeway.com/safeway/wa/kenmore/6850-ne-bothell-way.html", "phone": "4254861661", "address": "6850 NE Bothell Way"}, "geometry": {"type": "Point", "coordinates": [-122.2473831, 47.7591858]}}, {"type": "Feature", "properties": {"id": "af699c88-980e-40ce-b5af-12d8066c7c6c", "name": "Care Plus Medical Center", "category": "clinic", "tags": ["clinic", "medical"], "sources": ["overture"], "phone": "4254868300", "address": "17511 68th Ave NE #C"}, "geometry": {"type": "Point", "coordinates": [-122.249794, 47.7578773]}}, {"type": "Feature", "properties": {"id": 403703478, "name": "Bank of America", "category": "bank", "tags": ["bank"], "sources": ["osm"], "website": "https://locators.bankofamerica.com/wa/kenmore/financial-centers-kenmore-8973.html", "address": "7110 Bothell Way Northeast"}, "geometry": {"type": "Point", "coordinates": [-122.245631, 47.7583667]}}, {"type": "Feature", "properties": {"id": 4060406052, "name": "The UPS Store", "category": "post_office", "tags": ["post-office"], "sources": ["osm"], "address": "6830 Bothell Way Northeast"}, "geometry": {"type": "Point", "coordinates": [-122.248742, 47.7586242]}}, {"type": "Feature", "properties": {"id": 5031404453, "name": "Wells Fargo", "category": "bank", "tags": ["bank"], "sources": ["osm"]}, "geometry": {"type": "Point", "coordinates": [-122.248747, 47.7584845]}}, {"type": "Feature", "properties": {"id": 7059160849, "name": "Mail Access Shipping Center", "category": "post_office", "tags": ["post-office"], "sources": ["osm"], "address": "16924 Juanita Drive Northeast"}, "geometry": {"type": "Point", "coordinates": [-122.2492807, 47.7514705]}}, {"type": "Feature", "properties": {"id": "ea458ff3-f4a9-4c66-8e87-5fc1f701399b", "name": "Wells Fargo Bank", "category": "bank", "tags": ["bank", "credit", "union"], "sources": ["overture"], "website": "https://www.wellsfargo.com/locator/bank/6830__NE__BOTHELL__WAY__STE__F_KENMORE_WA_98028/?utm_campaign=Local_Listings&utm_source=Others&group=Community_Bank&loc=AD58880", "phone": "4259490411", "address": "6830 NE Bothell Way, Ste F"}, "geometry": {"type": "Point", "coordinates": [-122.2486496, 47.7585182]}}, {"type": "Feature", "properties": {"id": "311a3ae4-1ec2-4494-bf33-8739da379b2e", "name": "Bank of America Financial Center", "category": "bank", "tags": ["bank", "credit", "union"], "sources": ["overture"], "website": "https://locators.bankofamerica.com/wa/kenmore/financial-centers-kenmore-8973.html", "phone": "4254857435", "address": "7110 NE Bothell Way"}, "geometry": {"type": "Point", "coordinates": [-122.2456589, 47.7582741]}}, {"type": "Feature", "properties": {"id": 11585740840, "name": "Pilates & Physical Therapy", "category": "fitness_centre", "tags": ["fitness-centre"], "sources": ["osm"]}, "geometry": {"type": "Point", "coordinates": [-122.2425012, 47.7575225]}}, {"type": "Feature", "properties": {"id": "24a32d5e-804d-4a86-94f2-dd5b7ae94675", "name": "Northwest Baseball Academy", "category": "sports_centre", "tags": ["sports-centre", "sports", "club", "league"], "sources": ["overture"], "phone": "14254826922", "address": "6830 Ne Bothell Way  Ste C"}, "geometry": {"type": "Point", "coordinates": [-122.2487106, 47.7585793]}}]}