{"type": "FeatureCollection", "features": [{"type": "Feature", "properties": {"id": 374994347, "name": "Larkspur Landing Bellevue", "category": "hotel", "tags": ["hotel"], "sources": ["osm"], "website": "https://www.larkspurhotels.com/bellevue"}, "geometry": {"type": "Point", "coordinates": [-122.1297751, 47.5753897]}}, {"type": "Feature", "properties": {"id": "9e785bad-ba57-473e-b969-8b9ea65eeffe", "name": "Larkspur Landing Extended Stay Suites Bellevue", "category": "hotel", "tags": ["hotel"], "sources": ["overture"], "website": "http://www.larkspurhotels.com/bellevue/", "phone": "+14253731212", "address": "15805 SE 37th St"}, "geometry": {"type": "Point", "coordinates": [-122.1297226, 47.5754051]}}]}