{"type": "FeatureCollection", "features": [{"type": "Feature", "properties": {"id": "46fe7ba7-3a64-49c6-b71e-caca012fed05", "name": "Taqueria Los Tetillas", "category": "restaurant", "tags": ["restaurant", "mexican", "taco"], "sources": ["overture"], "website": "https://taquerialostetillas.wixsite.com/2016", "phone": "+14252293876", "address": "13555 SE 36th St"}, "geometry": {"type": "Point", "coordinates": [-122.159935, 47.5786324]}}, {"type": "Feature", "properties": {"id": "2d9ba2f7-d938-4c48-a22b-1b2b2541e502", "name": "Supremas Deli", "category": "restaurant", "tags": ["restaurant", "breakfast-and-brunch", "breakfast", "brunch"], "sources": ["overture"], "website": "http://www.supremasdeli.com/", "phone": "2532347931", "address": "13555 SE 36th St"}, "geometry": {"type": "Point", "coordinates": [-122.1593246, 47.5785446]}}, {"type": "Feature", "properties": {"id": "fc099378-0d04-4334-975b-517aafd24351", "name": "Rosario Resort", "category": "hotel", "tags": ["hotel"], "sources": ["overture"], "website": "https://rosarioresort.com/", "phone": "+14256491093", "address": "14205 SE 36th St"}, "geometry": {"type": "Point", "coordinates": [-122.1518936, 47.5796661]}}, {"type": "Feature", "properties": {"id": "784679ad-e712-44a1-b235-fe2c63e3d4c2", "name": "Eagon Usa Corporation", "category": "doityourself", "tags": ["doityourself", "building", "supply"], "sources": ["overture"], "website": "https://www.eagonusa.com", "phone": "13367063366", "address": "14100 Se 36th St  Ste 204"}, "geometry": {"type": "Point", "coordinates": [-122.1518173, 47.5788078]}}, {"type": "Feature", "properties": {"id": "e1d5d9e5-6910-4be2-95b8-a70247dca39d", "name": "RheumCenter", "category": "hospital", "tags": ["hospital"], "sources": ["overture"], "website": "http://www.rheumcenter.com/", "phone": "+14255028772", "address": "14100 SE 36th St."}, "geometry": {"type": "Point", "coordinates": [-122.152092, 47.5787888]}}, {"type": "Feature", "properties": {"id": 392541214, "name": "Edgebrook Club", "category": "sports_centre", "tags": ["sports-centre"], "sources": ["osm"], "website": "https://www.edgebrookclub.org/"}, "geometry": {"type": "Point", "coordinates": [-122.1598649, 47.5722137]}}, {"type": "Feature", "properties": {"id": "1244f93e-3859-44f6-8b24-5b8f4252e535", "name": "Tyee Community Gym", "category": "fitness_centre", "tags": ["fitness-centre", "gym"], "sources": ["overture"], "website": "https://www.bellevuewa.gov/tyee_community_gym.mhtm", "phone": "+14254526914", "address": "13630 SE Allen Rd."}, "geometry": {"type": "Point", "coordinates": [-122.1591034, 47.5741844]}}]}