{"type": "FeatureCollection", "features": [{"type": "Feature", "properties": {"id": "bb1eed95-04d6-4e6f-a10a-ea2652d2e517", "name": "The Ridgedale", "category": "attraction", "tags": ["attraction", "landmark", "historical", "building"], "sources": ["overture"], "website": "https://www.theridgedale-bellevue.com/", "phone": "+14257475444", "address": "14111 SE 6th St"}, "geometry": {"type": "Point", "coordinates": [-122.1519089, 47.6043205]}}, {"type": "Feature", "properties": {"id": "8fbec00e-47df-4d84-ba83-c5b5f3815bc2", "name": "Riverstone Condominiums", "category": "attraction", "tags": ["attraction", "landmark", "historical", "building"], "sources": ["overture"], "phone": "+14255629527", "address": "514 142nd Ave SE"}, "geometry": {"type": "Point", "coordinates": [-122.1505737, 47.604763]}}, {"type": "Feature", "properties": {"id": "82521ec7-3bb9-45ee-a435-c211d5046d2c", "name": "The Port Apartments", "category": "attraction", "tags": ["attraction", "landmark", "historical", "building"], "sources": ["overture"], "website": "https://www.rentcafe.com/apartments/wa/bellevue/the-port-apartments/index.aspx", "phone": "+14257474083", "address": "14205 SE 4th St"}, "geometry": {"type": "Point", "coordinates": [-122.1501236, 47.6057281]}}]}