{"type": "FeatureCollection", "features": [{"type": "Feature", "properties": {"id": 12763177776, "name": "Paparepas Venezuelan Food", "category": "restaurant", "tags": ["restaurant", "venezuelan"], "sources": ["osm"], "website": "https://www.paparepas.com", "phone": "+1-425-572-6390", "address": "17034 116th Avenue Southeast", "hours": "Mo-Th 11:00-22:00; Fr-Sa 11:00-24:00; Su 11:00-22:00"}, "geometry": {"type": "Point", "coordinates": [-122.1857558, 47.4504196]}}, {"type": "Feature", "properties": {"id": 12763177774, "name": "32\u00b0 Below", "category": "ice_cream", "tags": ["ice-cream"], "sources": ["osm"], "address": "17054 116th Avenue Southeast", "hours": "Mo-Th,Su 14:00-20:00; Fr-Sa 14:00-21:00"}, "geometry": {"type": "Point", "coordinates": [-122.1850244, 47.4500409]}}, {"type": "Feature", "properties": {"id": 12763177781, "name": "Shaah & Sheeko Somalian Restaurant", "category": "restaurant", "tags": ["restaurant"], "sources": ["osm"], "address": "16928 Southeast 171st Lane"}, "geometry": {"type": "Point", "coordinates": [-122.1847639, 47.4507288]}}, {"type": "Feature", "properties": {"id": "c99b5c0d-3c37-4094-a268-985782b0cb2c", "name": "Paparepas Venezuelan Food (Renton)", "category": "restaurant", "tags": ["restaurant", "venezuelan", "latin-american"], "sources": ["overture"], "website": "http://paparepas.com/", "phone": "+14255726390", "address": "17034 116th Ave SE"}, "geometry": {"type": "Point", "coordinates": [-122.1857986, 47.4504089]}}, {"type": "Feature", "properties": {"id": 470079406, "name": "CVAC Baseball Field", "category": "park", "tags": ["park"], "sources": ["osm"]}, "geometry": {"type": "Point", "coordinates": [-122.1853768, 47.4518366]}}, {"type": "Feature", "properties": {"id": 640781375, "name": "7-Eleven", "category": "convenience", "tags": ["convenience"], "sources": ["osm", "overture"], "website": "https://www.7-eleven.com/", "phone": "+14252718264", "address": "11505 SE 168th St"}, "geometry": {"type": "Point", "coordinates": [-122.186566, 47.4519465]}}, {"type": "Feature", "properties": {"id": "1e5640f6-8754-40c3-aa74-7a608b48f873", "name": "Pantel Tactical", "category": "clothes", "tags": ["clothes"], "sources": ["overture"], "website": "http://www.panteltactical.com/", "phone": "+14252824186", "address": "16926 116th Ave SE"}, "geometry": {"type": "Point", "coordinates": [-122.1849594, 47.4508858]}}, {"type": "Feature", "properties": {"id": 12763177775, "name": "Crown Yoga", "category": "fitness_centre", "tags": ["fitness-centre", "yoga"], "sources": ["osm"], "address": "17056 116th Avenue Southeast"}, "geometry": {"type": "Point", "coordinates": [-122.184928, 47.4500977]}}]}