{"type": "FeatureCollection", "features": [{"type": "Feature", "properties": {"id": "fff3e573-3806-45ac-8b1b-ee75321ac01a", "name": "Big E Ales", "category": "pub", "tags": ["pub"], "sources": ["overture"], "website": "http://bigeales.com/", "phone": "4256727051", "address": "5030 208th St SW Ste A"}, "geometry": {"type": "Point", "coordinates": [-122.302124, 47.810173]}}, {"type": "Feature", "properties": {"id": "1bd41f78-dd01-4c0a-96b0-0f465040c382", "name": "Renaissance Townhomes", "category": "attraction", "tags": ["attraction", "landmark", "historical", "building"], "sources": ["overture"], "address": "5700 198th St SW"}, "geometry": {"type": "Point", "coordinates": [-122.3097382, 47.8191566]}}, {"type": "Feature", "properties": {"id": "9d56de67-2adc-49bb-9948-2d2ff2d1990d", "name": "Islandia Condominiums Association", "category": "attraction", "tags": ["attraction", "landmark", "historical", "building"], "sources": ["overture"], "website": "https://islandia-condominiums-association.hub.biz/", "phone": "+14256972903", "address": "5620 200th St SW", "stations": [{"stopCode": 40, "lines": "1,2", "name": "Lynnwood City Center Station", "walkingMeters": 1394, "walkingSeconds": 1001, "band": 15}]}, "geometry": {"type": "Point", "coordinates": [-122.3088303, 47.8165245]}}, {"type": "Feature", "properties": {"id": "cacfd2c1-a473-4e11-831d-4700895678b5", "name": "Beaver Cove Apartments", "category": "attraction", "tags": ["attraction", "landmark", "historical", "building"], "sources": ["overture"], "website": "http://williamsinvest.com", "phone": "+14257780244", "address": "19800 50th Ave W", "stations": [{"stopCode": 40, "lines": "1,2", "name": "Lynnwood City Center Station", "walkingMeters": 863, "walkingSeconds": 620, "band": 10}]}, "geometry": {"type": "Point", "coordinates": [-122.3014832, 47.8185883]}}, {"type": "Feature", "properties": {"id": "58979fde-a558-4953-8955-8f0259f7c6c5", "name": "Scriber Lake Park", "category": "park", "tags": ["park"], "sources": ["overture"], "website": "http://www.ci.lynnwood.wa.us/Content/Community.aspx?id=410", "address": "5322 198th St SW", "stations": [{"stopCode": 40, "lines": "1,2", "name": "Lynnwood City Center Station", "walkingMeters": 1245, "walkingSeconds": 897, "band": 15}]}, "geometry": {"type": "Point", "coordinates": [-122.3049164, 47.8193932]}}, {"type": "Feature", "properties": {"id": 1129513360, "name": "Sprague's Pond Mini Park", "category": "park", "tags": ["park"], "sources": ["osm", "overture"], "website": "http://www.lynnwoodwa.gov/PlayLynnwood/Parks/Sprague-s-Pond-Mini-Park.htm", "phone": "+14256705595", "address": "5200 200th St SW", "hours": "sunrise-sunset", "stations": [{"stopCode": 40, "lines": "1,2", "name": "Lynnwood City Center Station", "walkingMeters": 946, "walkingSeconds": 680, "band": 10}]}, "geometry": {"type": "Point", "coordinates": [-122.3031112, 47.8167533]}}, {"type": "Feature", "properties": {"id": "821f5e63-c239-4a29-95b4-8560f4edb722", "name": "Mini Park", "category": "playground", "tags": ["playground"], "sources": ["overture"], "website": "http://www.ci.lynnwood.wa.us/PlayLynnwood/Parks/Maple-Mini-Park.htm", "address": "5200 200th St.SW", "stations": [{"stopCode": 40, "lines": "1,2", "name": "Lynnwood City Center Station", "walkingMeters": 895, "walkingSeconds": 643, "band": 10}]}, "geometry": {"type": "Point", "coordinates": [-122.3033981, 47.8172188]}}, {"type": "Feature", "properties": {"id": "6d748c89-d9da-46fb-8eb9-5b69b45d28e2", "name": "SRS Building Products", "category": "doityourself", "tags": ["doityourself", "building", "supply"], "sources": ["overture"], "website": "https://www.srsdistribution.com/en/markets/our-brands/STEVE/", "phone": "2066327820", "address": "20621 52nd Ave W", "stations": [{"stopCode": 40, "lines": "1,2", "name": "Lynnwood City Center Station", "walkingMeters": 1242, "walkingSeconds": 892, "band": 15}]}, "geometry": {"type": "Point", "coordinates": [-122.3032074, 47.8117714]}}, {"type": "Feature", "properties": {"id": "9706fd14-f84b-4b86-8dea-7246b15c34b3", "name": "SRS Distribution", "category": "doityourself", "tags": ["doityourself", "building", "supply"], "sources": ["overture"], "website": "https://www.srsdistribution.com/en/markets/our-brands/srs-building-products/srs-building-products---lynnwood", "phone": "(206) 632-7820", "address": "20621 52nd Ave W"}, "geometry": {"type": "Point", "coordinates": [-122.3021011, 47.8117599]}}, {"type": "Feature", "properties": {"id": "589f2ee3-87e7-41c4-9ef2-5d2db6d816d5", "name": "Wald Imports", "category": "florist", "tags": ["florist"], "sources": ["overture"], "website": "https://www.waldimports.com/", "phone": "8004262822", "address": "19910 50th Ave W Ste 200", "stations": [{"stopCode": 40, "lines": "1,2", "name": "Lynnwood City Center Station", "walkingMeters": 747, "walkingSeconds": 537, "band": 10}]}, "geometry": {"type": "Point", "coordinates": [-122.3005066, 47.8180962]}}, {"type": "Feature", "properties": {"id": "5e9b0d57-1ee6-42bd-82bf-aabeb4e064cf", "name": "Kaiser Permanente Lynnwood Medical Center", "category": "clinic", "tags": ["clinic", "medical"], "sources": ["overture"], "website": "https://wa.kaiserpermanente.org/html/public/locations/lynnwood", "phone": "+14256726400", "address": "20200 54th Ave W", "stations": [{"stopCode": 40, "lines": "1,2", "name": "Lynnwood City Center Station", "walkingMeters": 1308, "walkingSeconds": 940, "band": 15}]}, "geometry": {"type": "Point", "coordinates": [-122.3071289, 47.8159256]}}, {"type": "Feature", "properties": {"id": "b129ee17-8f74-4ee4-8a56-cde1c6e99182", "name": "Lynnwood Medical Center", "category": "clinic", "tags": ["clinic", "medical"], "sources": ["overture"], "website": "https://healthy.kaiserpermanente.org/washington/facilities/lynnwood-medical-center-338977", "address": "20200 54th Ave W", "stations": [{"stopCode": 40, "lines": "1,2", "name": "Lynnwood City Center Station", "walkingMeters": 1083, "walkingSeconds": 808, "band": 15}]}, "geometry": {"type": "Point", "coordinates": [-122.305954, 47.8158226]}}, {"type": "Feature", "properties": {"id": "0b406437-f2d5-4e1e-bc71-a881a4ef1608", "name": "Seiu Healthcare NW", "category": "hospital", "tags": ["hospital"], "sources": ["overture"], "phone": "+14255829195", "address": "20225 Cedar Valley Rd", "stations": [{"stopCode": 40, "lines": "1,2", "name": "Lynnwood City Center Station", "walkingMeters": 702, "walkingSeconds": 524, "band": 15}]}, "geometry": {"type": "Point", "coordinates": [-122.3019714, 47.814949]}}]}