{"type": "FeatureCollection", "features": [{"type": "Feature", "properties": {"id": 13157576421, "name": "Julie's Cafe", "category": "cafe", "tags": ["cafe", "coffee-shop", "breakfast", "sandwich", "outdoor-seating"], "sources": ["osm"], "address": "1600 Lind Avenue Southwest"}, "geometry": {"type": "Point", "coordinates": [-122.221327, 47.4648705]}}, {"type": "Feature", "properties": {"id": "700a5ea6-beaa-418b-90b6-c25c834439c8", "name": "Papaya At The Landing", "category": "restaurant", "tags": ["restaurant"], "sources": ["overture"], "website": "http://www.papayamagic.com", "phone": "(425) 917-1417", "address": "827 N 10th Pl"}, "geometry": {"type": "Point", "coordinates": [-122.2279816, 47.4697647]}}, {"type": "Feature", "properties": {"id": "1ef80f1c-98e0-4751-b074-090d4a01d1e8", "name": "Julie's Landmark Cafe", "category": "cafe", "tags": ["cafe", "breakfast-and-brunch"], "sources": ["overture"], "website": "http://julieslandmarkcafe.placeweb.site", "phone": "+14252278140", "address": "1600 Lind Ave SW"}, "geometry": {"type": "Point", "coordinates": [-122.221489, 47.4648705]}}, {"type": "Feature", "properties": {"id": "062aedf6-f0cb-4e51-9de2-f461115cba52", "name": "Landmark Building", "category": "attraction", "tags": ["attraction", "landmark", "historical", "building"], "sources": ["overture"], "website": "http://blinknetwork.com", "phone": "+14252278140", "address": "1601 E Valley Rd"}, "geometry": {"type": "Point", "coordinates": [-122.2201996, 47.4647179]}}, {"type": "Feature", "properties": {"id": 654885073, "name": "Sonesta Select Seattle Renton Suites", "category": "hotel", "tags": ["hotel", "wifi"], "sources": ["osm", "overture"], "website": "http://www.marriott.com/hotels/travel/seasr-springhill-suites-seattle-south-renton/", "phone": "+14252264100", "address": "200 SW 19th St"}, "geometry": {"type": "Point", "coordinates": [-122.2210319, 47.4632246]}}, {"type": "Feature", "properties": {"id": 654885077, "name": "TownPlace Suites - Seattle South/Renton", "category": "hotel", "tags": ["hotel", "wifi"], "sources": ["osm"], "website": "http://www.marriott.com/hotels/hotel-reviews/seatr-towneplace-suites-seattle-south-renton/#", "phone": "+1-425-917-2000", "address": "300 Southwest 19th Street"}, "geometry": {"type": "Point", "coordinates": [-122.2210955, 47.4642184]}}, {"type": "Feature", "properties": {"id": "ba2c2ba3-6210-40b8-8dc7-532ae3aa9db4", "name": "TownePlace Suites by Marriott Seattle South/Renton", "category": "hotel", "tags": ["hotel", "resort"], "sources": ["overture"], "website": "https://www.marriott.com/hotels/travel/seatr-towneplace-suites-seattle-south-renton", "phone": "4259172000", "address": "300 SW 19th St"}, "geometry": {"type": "Point", "coordinates": [-122.2211227, 47.4644928]}}, {"type": "Feature", "properties": {"id": 654897345, "name": "Bryant's Tractor & Mower", "category": "doityourself", "tags": ["doityourself"], "sources": ["osm"], "address": "501 Southwest 12th Street"}, "geometry": {"type": "Point", "coordinates": [-122.2238697, 47.4684065]}}, {"type": "Feature", "properties": {"id": "dce870e7-2942-4bb7-8f3b-31ad1ab04716", "name": "Tma Global", "category": "supermarket", "tags": ["supermarket"], "sources": ["overture"], "phone": "12065040573", "address": "801 Sw 16th St  Ste 115"}, "geometry": {"type": "Point", "coordinates": [-122.2299042, 47.4648933]}}, {"type": "Feature", "properties": {"id": "509c6290-5b6c-4dc5-ab73-a6edb1c50a55", "name": "Pan Abode Cedar Homes Inc.", "category": "doityourself", "tags": ["doityourself", "building", "supply"], "sources": ["overture"], "website": "http://www.panabodehomes.com/", "phone": "4252558260", "address": "1100 Maple Ave SW"}, "geometry": {"type": "Point", "coordinates": [-122.221283, 47.4699097]}}, {"type": "Feature", "properties": {"id": "c214ec64-ab9b-416e-a4c6-55a8b9dc0b37", "name": "Gordon & Associates", "category": "hardware", "tags": ["hardware"], "sources": ["overture"], "website": "https://gordonandassoc.com/", "phone": "+14252285555", "address": "1401 Maple Ave SW"}, "geometry": {"type": "Point", "coordinates": [-122.2217941, 47.4672928]}}, {"type": "Feature", "properties": {"id": 13983894279, "name": "UW Medicine Laboratory Medicine & Pathology", "category": "clinic", "tags": ["clinic"], "sources": ["osm"]}, "geometry": {"type": "Point", "coordinates": [-122.2247441, 47.4652879]}}, {"type": "Feature", "properties": {"id": "ffd01202-fe91-4ea9-ade9-688484da3e3e", "name": "Providence Health System-Washington Region", "category": "hospital", "tags": ["hospital"], "sources": ["overture"], "website": "http://www2.providence.org", "phone": "+14256873700", "address": "2201 Lind Ave SW"}, "geometry": {"type": "Point", "coordinates": [-122.2251053, 47.4613876]}}, {"type": "Feature", "properties": {"id": "3ac88670-64b4-4d0d-89ae-acfaf17d37fb", "name": "Pacific Medical Centers - Renton", "category": "clinic", "tags": ["clinic", "medical"], "sources": ["overture"], "website": "https://www.pacificmedicalcenters.org/where-we-are/renton/?ls=location&y_source=1_Mzg3OTEwMzMtNDgzLWxvY2F0aW9uLndlYnNpdGU%3D", "phone": "4252273700", "address": "1801 Lind Ave SW, Building D"}, "geometry": {"type": "Point", "coordinates": [-122.2249603, 47.4631119]}}, {"type": "Feature", "properties": {"id": "7f5f2308-158a-4b53-8c2c-d6f71511303b", "name": "Facey Medical Foundation", "category": "clinic", "tags": ["clinic", "medical"], "sources": ["overture"], "website": "https://washington.providence.org/", "phone": "+14255253985", "address": "1801 Lind Ave SW"}, "geometry": {"type": "Point", "coordinates": [-122.2256851, 47.4634323]}}, {"type": "Feature", "properties": {"id": "eb23c75b-9d42-455b-8a24-346464e4ce56", "name": "Renton West Veterinary Hospital", "category": "clinic", "tags": ["clinic", "medical"], "sources": ["overture"], "website": "https://rentonwestvet.com/?utm_source=bing&utm_medium=organic&utm_campaign=renton_west&utm_content=bingplaces", "phone": "4252263360", "address": "607 SW Grady Way Ste 100"}, "geometry": {"type": "Point", "coordinates": [-122.2258453, 47.4691048]}}, {"type": "Feature", "properties": {"id": "09babfa2-997c-467f-9093-111170c7c8e4", "name": "Rainier Clinical Research Center", "category": "clinic", "tags": ["clinic", "medical"], "sources": ["overture"], "website": "https://www.rainier-research.com", "phone": "+14252511720", "address": "723 SW 10th St"}, "geometry": {"type": "Point", "coordinates": [-122.2268448, 47.4696999]}}]}