{"type": "FeatureCollection", "features": [{"type": "Feature", "properties": {"id": 9797248617, "name": "Shodai\u2019s Teriyaki", "category": "restaurant", "tags": ["restaurant"], "sources": ["osm"]}, "geometry": {"type": "Point", "coordinates": [-122.2963726, 47.6122183]}}, {"type": "Feature", "properties": {"id": 12863044902, "name": "El Gran Taco Central District", "category": "fast_food", "tags": ["fast-food", "mexican"], "sources": ["osm"], "website": "https://elgrantacoseattle.com/", "address": "1112 Martin Luther King Junior Way", "hours": "Mo-Sa 11:00-20:00"}, "geometry": {"type": "Point", "coordinates": [-122.2958758, 47.6120181]}}, {"type": "Feature", "properties": {"id": "5a776e2f-c63d-44b6-a219-f2b31978e44e", "name": "Thai U Up", "category": "restaurant", "tags": ["restaurant", "thai"], "sources": ["overture"], "website": "http://thaiuup.com", "phone": "(206) 792-6190", "address": "1126 Martin Luther King Jr Way"}, "geometry": {"type": "Point", "coordinates": [-122.2954254, 47.6123772]}}, {"type": "Feature", "properties": {"id": "90fbb315-48a8-4a0a-bc38-93376e8f5ddb", "name": "Shodai Teriyaki", "category": "restaurant", "tags": ["restaurant", "asian", "fusion"], "sources": ["overture"], "phone": "12063255151", "address": "1123 Martin Luther King Jr Way"}, "geometry": {"type": "Point", "coordinates": [-122.2965088, 47.6122971]}}, {"type": "Feature", "properties": {"id": 3211770173, "name": "The Peaceable Kingdom", "category": "artwork", "tags": ["artwork"], "sources": ["osm"], "address": "1134 33rd Avenue"}, "geometry": {"type": "Point", "coordinates": [-122.290217, 47.612783]}}, {"type": "Feature", "properties": {"id": 183946101, "name": "Sandbox", "category": "playground", "tags": ["playground"], "sources": ["osm"]}, "geometry": {"type": "Point", "coordinates": [-122.2933004, 47.6190174]}}, {"type": "Feature", "properties": {"id": 52969833, "name": "Harrison Ridge Greenbelt", "category": "park", "tags": ["park"], "sources": ["osm", "overture"], "website": "http://seattle.gov/parks/park_detail.asp?id=356", "phone": "+12066844075", "address": "138 32nd Ave E"}, "geometry": {"type": "Point", "coordinates": [-122.2907165, 47.6196145]}}, {"type": "Feature", "properties": {"id": 60007122, "name": "Plum Tree Park", "category": "park", "tags": ["park"], "sources": ["osm", "overture"], "website": "http://www.seattle.gov/parks/park_detail.asp?ID=387", "phone": "+12066844075", "address": "1717 26th Ave"}, "geometry": {"type": "Point", "coordinates": [-122.2990774, 47.6170604]}}, {"type": "Feature", "properties": {"id": 60713727, "name": "William Grose Park", "category": "park", "tags": ["park"], "sources": ["osm", "overture"], "website": "http://seattle.gov/parks/park_detail.asp?id=385", "phone": "+12066844075", "address": "1814 30th Ave"}, "geometry": {"type": "Point", "coordinates": [-122.2929652, 47.618006]}}, {"type": "Feature", "properties": {"id": "bfd30691-9f04-4138-86f0-1f192d873386", "name": "Madison Valley Stormwater Storage Facility", "category": "park", "tags": ["park"], "sources": ["overture"], "address": "30th Ave E"}, "geometry": {"type": "Point", "coordinates": [-122.293251, 47.6193924]}}, {"type": "Feature", "properties": {"id": 224205595, "name": "Grocery Outlet", "category": "supermarket", "tags": ["supermarket", "wheelchair-accessible"], "sources": ["osm", "overture"], "website": "https://www.groceryoutlet.com/circulars/storeid/176", "phone": "+12063021005", "address": "1126 Martin Luther King Jr Way", "hours": "Mo-Su 08:00-22:00"}, "geometry": {"type": "Point", "coordinates": [-122.2955094, 47.6123463]}}, {"type": "Feature", "properties": {"id": 13433550484, "name": "Zara Jo Beauty Supply", "category": "cosmetics", "tags": ["cosmetics"], "sources": ["osm"], "website": "https://www.zarajobeautysupply.com/", "phone": "+1-253-319-2536", "address": "1143 Martin Luther King Junior Way", "hours": "Tu-Sa 10:00-20:00; Su 11:00-18:00"}, "geometry": {"type": "Point", "coordinates": [-122.2964094, 47.6126155]}}, {"type": "Feature", "properties": {"id": 37058523, "name": "The Seattle Public Library - Madrona-Sally Goldmark Branch", "category": "library", "tags": ["library", "air-conditioned", "wifi"], "sources": ["osm"], "website": "https://www.spl.org/hours-and-locations/madrona-sally-goldmark-branch", "phone": "+1-206-684-4705", "address": "1134 33rd Avenue", "hours": "Mo-Tu 13:00-20:00; We-Th, Sa 11:00-18:00; Su 13:00-17:00"}, "geometry": {"type": "Point", "coordinates": [-122.2900297, 47.6126847]}}, {"type": "Feature", "properties": {"id": "69150b86-560d-4ba4-9d85-fa3bcd2fac63", "name": "Madrona-Sally Goldmark Branch", "category": "library", "tags": ["library"], "sources": ["overture"], "website": "http://www.spl.org/locations/madrona-sally-goldmark-branch", "phone": "+12066844705", "address": "1134 33rd Ave"}, "geometry": {"type": "Point", "coordinates": [-122.290184, 47.612709]}}, {"type": "Feature", "properties": {"id": 2330280114, "name": "Seattle Movement Project", "category": "fitness_centre", "tags": ["fitness-centre", "fitness", "trainer"], "sources": ["osm", "overture"], "phone": "12536914992", "address": "1104 33rd Ave"}, "geometry": {"type": "Point", "coordinates": [-122.2902189, 47.611858]}}, {"type": "Feature", "properties": {"id": 6023025386, "name": "Central Firness", "category": "fitness_centre", "tags": ["fitness-centre"], "sources": ["osm"], "phone": "+1-425-518-2781", "address": "2717 East Union Street"}, "geometry": {"type": "Point", "coordinates": [-122.2967045, 47.612793]}}, {"type": "Feature", "properties": {"id": 8140538479, "name": "Cappy's Boxing Gym", "category": "fitness_centre", "tags": ["fitness-centre", "boxing"], "sources": ["osm"], "website": "https://www.cappysgym.com/", "phone": "+1-206-322-6410", "address": "2719 East Union Street"}, "geometry": {"type": "Point", "coordinates": [-122.2964091, 47.6125843]}}, {"type": "Feature", "properties": {"id": "c259529c-e6ac-4699-a4a9-78d4e8caacee", "name": "Zeal Fitness", "category": "fitness_centre", "tags": ["fitness-centre", "fitness", "trainer"], "sources": ["overture"], "phone": "4255182781", "address": "1141 Martin Luther King Jr Way"}, "geometry": {"type": "Point", "coordinates": [-122.2965164, 47.6125565]}}]}