{"type": "FeatureCollection", "features": [{"type": "Feature", "properties": {"id": "0120df32-1492-4a0b-b10f-2622a7a5aa49", "name": "McDonald's", "category": "restaurant", "tags": ["restaurant", "burger", "fast-food"], "sources": ["overture"], "website": "https://www.mcdonalds.com/us/en-us/location/wa/federal-way/1900-s-314th-st/29462.html?cid=RF:YXT:RoN::Clicks", "phone": "2539451027", "address": "1900 S 314th St", "stations": [{"stopCode": 68, "lines": "1", "name": "Federal Way Downtown Station", "walkingMeters": 854, "walkingSeconds": 614, "band": 15}]}, "geometry": {"type": "Point", "coordinates": [-122.3091736, 47.3212395]}}, {"type": "Feature", "properties": {"id": 13283875901, "name": "Halgatteok Korean Rice Cake", "category": "restaurant", "tags": ["restaurant", "korean"], "sources": ["osm"], "address": "2148 South 314th Street", "hours": "Mo-Th 11:00-20:30; Su 13:00-20:00; Fr-Sa 11:00-21:00", "stations": [{"stopCode": 68, "lines": "1", "name": "Federal Way Downtown Station", "walkingMeters": 916, "walkingSeconds": 661, "band": 15}]}, "geometry": {"type": "Point", "coordinates": [-122.3056593, 47.3211102]}}, {"type": "Feature", "properties": {"id": "76f8fe32-d8f3-46cf-82c8-7cd641bac043", "name": "Pabla Punjabi Palace", "category": "restaurant", "tags": ["restaurant", "indian"], "sources": ["overture"], "website": "http://www.pablaindiancuisine.com/", "phone": "+12067695559", "address": "2020 S 314th St", "stations": [{"stopCode": 68, "lines": "1", "name": "Federal Way Downtown Station", "walkingMeters": 792, "walkingSeconds": 572, "band": 10}]}, "geometry": {"type": "Point", "coordinates": [-122.3076477, 47.321022]}}, {"type": "Feature", "properties": {"id": "bfe951d4-2b8a-4383-a893-345c7766d233", "name": "Mandu-Ya", "category": "restaurant", "tags": ["restaurant", "diner", "asian"], "sources": ["overture"], "website": "http://manduya.square.site/", "phone": "+12064293435", "address": "2148 S 314th St", "stations": [{"stopCode": 68, "lines": "1", "name": "Federal Way Downtown Station", "walkingMeters": 914, "walkingSeconds": 660, "band": 15}]}, "geometry": {"type": "Point", "coordinates": [-122.305687, 47.321125]}}, {"type": "Feature", "properties": {"id": "8b12caa4-39bd-4463-8b17-8def382390a8", "name": "Paul's Burger and Teriyaki", "category": "restaurant", "tags": ["restaurant", "japanese"], "sources": ["overture"], "website": "https://paul-s-burger-and-teriyaki.hub.biz", "phone": "(253) 941-2618", "address": "2148 S 314th St", "stations": [{"stopCode": 68, "lines": "1", "name": "Federal Way Downtown Station", "walkingMeters": 943, "walkingSeconds": 680, "band": 15}]}, "geometry": {"type": "Point", "coordinates": [-122.3053055, 47.3210411]}}, {"type": "Feature", "properties": {"id": "00d28cd5-1796-4125-978c-7c24026834be", "name": "Halgatteok Korean Rice Cake || Korean Street Food", "category": "restaurant", "tags": ["restaurant", "korean", "asian"], "sources": ["overture"], "phone": "+12064293435", "address": "2148 S 314th St", "stations": [{"stopCode": 68, "lines": "1", "name": "Federal Way Downtown Station", "walkingMeters": 892, "walkingSeconds": 666, "band": 15}]}, "geometry": {"type": "Point", "coordinates": [-122.3051224, 47.3210411]}}, {"type": "Feature", "properties": {"id": 10069680664, "name": "Clock Tower Bell", "category": "attraction", "tags": ["attraction"], "sources": ["osm"]}, "geometry": {"type": "Point", "coordinates": [-122.3003767, 47.3218978]}}, {"type": "Feature", "properties": {"id": 648075476, "name": "Heritage Center of Federal Way", "category": "museum", "tags": ["museum"], "sources": ["osm"], "website": "https://www.federalwayhistory.org/", "phone": "+1-253-945-7842", "address": "2645 South 312th Street"}, "geometry": {"type": "Point", "coordinates": [-122.3004598, 47.32197]}}, {"type": "Feature", "properties": {"id": "b443525b-ed43-408a-ab8d-780912473775", "name": "Southwynd Apartments", "category": "attraction", "tags": ["attraction", "landmark", "historical", "building"], "sources": ["overture"], "phone": "+13162104937", "address": "1821 S 310th St", "stations": [{"stopCode": 68, "lines": "1", "name": "Federal Way Downtown Station", "walkingMeters": 985, "walkingSeconds": 735, "band": 15}]}, "geometry": {"type": "Point", "coordinates": [-122.3099899, 47.3236732]}}, {"type": "Feature", "properties": {"id": "8afe3ab9-2122-4bf2-b7ce-5c4c1ee90b9c", "name": "Greystone Apartments", "category": "attraction", "tags": ["attraction", "landmark", "historical", "building"], "sources": ["overture"], "website": "http://www.thegreystoneapts.com", "phone": "+12539411464", "address": "31010 18th Ave S", "stations": [{"stopCode": 68, "lines": "1", "name": "Federal Way Downtown Station", "walkingMeters": 960, "walkingSeconds": 716, "band": 15}]}, "geometry": {"type": "Point", "coordinates": [-122.3099136, 47.3234863]}}, {"type": "Feature", "properties": {"id": "09528ac9-5247-44d2-90bb-5628a82b07bc", "name": "Brier Woods Apartments", "category": "attraction", "tags": ["attraction", "landmark", "historical", "building"], "sources": ["overture"], "website": "http://home.securityproperties.com/brierwoods", "phone": "+12538396622", "address": "31224 Pete von Reichbauer Way S", "stations": [{"stopCode": 68, "lines": "1", "name": "Federal Way Downtown Station", "walkingMeters": 884, "walkingSeconds": 638, "band": 15}]}, "geometry": {"type": "Point", "coordinates": [-122.3073273, 47.3217392]}}, {"type": "Feature", "properties": {"id": 161413708, "name": "Steel Lake Park", "category": "park", "tags": ["park"], "sources": ["osm", "overture"], "website": "http://www.cityseekr.com/seattle/tourist-attractions-sightseeing/poi-steel-lake-park-906994.html", "phone": "+12538356964", "address": "2410 S 312th St"}, "geometry": {"type": "Point", "coordinates": [-122.3001771, 47.3229642]}}, {"type": "Feature", "properties": {"id": 161413720, "name": "Family Funland", "category": "playground", "tags": ["playground"], "sources": ["osm"]}, "geometry": {"type": "Point", "coordinates": [-122.3011312, 47.3250415]}}, {"type": "Feature", "properties": {"id": "212b92d8-569c-4743-891d-1038195d2e03", "name": "Steel Lake Park & Family Funland", "category": "park", "tags": ["park"], "sources": ["overture"], "website": "http://cityoffederalway.com/page/community-parks-0", "phone": "(253) 835-6901", "address": "2410 S 312th St"}, "geometry": {"type": "Point", "coordinates": [-122.3014526, 47.3239899]}}, {"type": "Feature", "properties": {"id": 1756938414, "name": "West Coast Sports Cards", "category": "toys", "tags": ["toys", "gift"], "sources": ["osm", "overture"], "website": "https://linktr.ee/west_coast_sports_cards", "phone": "+12539411757", "address": "2008 S 314th St", "stations": [{"stopCode": 68, "lines": "1", "name": "Federal Way Downtown Station", "walkingMeters": 773, "walkingSeconds": 558, "band": 10}]}, "geometry": {"type": "Point", "coordinates": [-122.3076679, 47.3207361]}}, {"type": "Feature", "properties": {"id": "73cd85b8-68b9-4903-845c-6670f6c2e35d", "name": "Red Wing Shoes", "category": "shoes", "tags": ["shoes", "shoe"], "sources": ["overture"], "website": "https://stores.redwingshoes.com/federal-way-wa", "phone": "+12539410755", "address": "2016 S 314th St", "stations": [{"stopCode": 68, "lines": "1", "name": "Federal Way Downtown Station", "walkingMeters": 778, "walkingSeconds": 562, "band": 10}]}, "geometry": {"type": "Point", "coordinates": [-122.3074875, 47.3208427]}}, {"type": "Feature", "properties": {"id": "07017708-1321-4752-b447-67e7ff0b97e2", "name": "Quick-tag", "category": "pet", "tags": ["pet"], "sources": ["overture"], "website": "http://www.quick-tag.com", "phone": "12539419974", "address": "1900 S 314th St", "stations": [{"stopCode": 68, "lines": "1", "name": "Federal Way Downtown Station", "walkingMeters": 655, "walkingSeconds": 489, "band": 15}]}, "geometry": {"type": "Point", "coordinates": [-122.3095474, 47.3212166]}}, {"type": "Feature", "properties": {"id": "b4e6e2b9-8567-4f5c-b6c8-01796e463cde", "name": "Verizon Wireless", "category": "mobile_phone", "tags": ["mobile-phone", "mobile"], "sources": ["overture"], "phone": "2539419974", "address": "1900 S 314th St", "stations": [{"stopCode": 68, "lines": "1", "name": "Federal Way Downtown Station", "walkingMeters": 890, "walkingSeconds": 640, "band": 15}]}, "geometry": {"type": "Point", "coordinates": [-122.3096695, 47.3211823]}}, {"type": "Feature", "properties": {"id": "689c9cc9-0985-45e1-b72c-efcc61c21d9d", "name": "Cheap Boutique Inc", "category": "clothes", "tags": ["clothes", "womens"], "sources": ["overture"], "phone": "2539458226", "address": "2104 S 314th St", "stations": [{"stopCode": 68, "lines": "1", "name": "Federal Way Downtown Station", "walkingMeters": 755, "walkingSeconds": 563, "band": 15}]}, "geometry": {"type": "Point", "coordinates": [-122.3071823, 47.3210754]}}, {"type": "Feature", "properties": {"id": "5f87c8e6-6d49-4e3e-b71d-321f16c45dcf", "name": "Tuesday Morning", "category": "department_store", "tags": ["department-store", "department"], "sources": ["overture"], "website": "https://www.tuesdaymorning.com", "phone": "+12539414892", "address": "2200 S 314th St", "stations": [{"stopCode": 68, "lines": "1", "name": "Federal Way Downtown Station", "walkingMeters": 936, "walkingSeconds": 699, "band": 15}]}, "geometry": {"type": "Point", "coordinates": [-122.3044891, 47.321003]}}, {"type": "Feature", "properties": {"id": "4ecd9b89-8a86-417f-8b84-aca5724ee9d4", "name": "Walmart Pharmacy", "category": "pharmacy", "tags": ["pharmacy"], "sources": ["overture"], "website": "https://www.walmart.com", "phone": "12539413555", "address": "1900 S 314th St", "stations": [{"stopCode": 68, "lines": "1", "name": "Federal Way Downtown Station", "walkingMeters": 864, "walkingSeconds": 621, "band": 15}]}, "geometry": {"type": "Point", "coordinates": [-122.3095474, 47.3212166]}}, {"type": "Feature", "properties": {"id": 1756938411, "name": "24 Hour Fitness", "category": "fitness_centre", "tags": ["fitness-centre"], "sources": ["osm"], "stations": [{"stopCode": 68, "lines": "1", "name": "Federal Way Downtown Station", "walkingMeters": 985, "walkingSeconds": 710, "band": 15}]}, "geometry": {"type": "Point", "coordinates": [-122.3046051, 47.3210014]}}, {"type": "Feature", "properties": {"id": "efb822b2-3afa-40a4-8bbc-80efcbee97de", "name": "24 Hour Fitness", "category": "fitness_centre", "tags": ["fitness-centre", "gym"], "sources": ["overture"], "website": "http://www.24hourfitness.com/FindClubDetail.do?clubid=406&cm_mmc=Bing-_-Local-_-clubpage-_-406", "phone": "2538395588", "address": "2130 S 314th St", "stations": [{"stopCode": 68, "lines": "1", "name": "Federal Way Downtown Station", "walkingMeters": 794, "walkingSeconds": 571, "band": 15}]}, "geometry": {"type": "Point", "coordinates": [-122.3065186, 47.3202896]}}, {"type": "Feature", "properties": {"id": 6084951987, "name": "Elev8 Yoga", "category": "fitness_centre", "tags": ["fitness-centre", "yoga"], "sources": ["osm"], "website": "https://www.elev8hotyoga.com/", "phone": "+1-206-651-7353", "address": "2000 South 314th Street", "stations": [{"stopCode": 68, "lines": "1", "name": "Federal Way Downtown Station", "walkingMeters": 700, "walkingSeconds": 506, "band": 10}]}, "geometry": {"type": "Point", "coordinates": [-122.3077524, 47.3204093]}}, {"type": "Feature", "properties": {"id": "f1696331-932e-4d1c-b63c-faa70eb9a534", "name": "Elev8 Hot Yoga", "category": "fitness_centre", "tags": ["fitness-centre", "yoga", "studio"], "sources": ["overture"], "website": "http://www.Elev8hotyoga.com/", "phone": "+12066517353", "address": "2000 S 314th St", "stations": [{"stopCode": 68, "lines": "1", "name": "Federal Way Downtown Station", "walkingMeters": 744, "walkingSeconds": 537, "band": 10}]}, "geometry": {"type": "Point", "coordinates": [-122.3075867, 47.3204727]}}]}