{"type": "FeatureCollection", "features": [{"type": "Feature", "properties": {"id": 648526969, "name": "Bigfoot Java", "category": "cafe", "tags": ["cafe", "takeaway", "drive-through", "coffee"], "sources": ["osm", "overture"], "website": "https://bigfootjava.com/locations/west-valley-bigfoot-java/", "phone": "+12538337583", "address": "3618 W Valley Hwy N", "hours": "24/7"}, "geometry": {"type": "Point", "coordinates": [-122.2492107, 47.3402697]}}, {"type": "Feature", "properties": {"id": "30254361-8bd9-4140-a33e-0ba9317244ca", "name": "Poverty Bay Coffee Roasters", "category": "cafe", "tags": ["cafe", "coffee"], "sources": ["overture"], "website": "http://www.povertybay.com/", "phone": "+12533339275", "address": "3702 W Valley Hwy N"}, "geometry": {"type": "Point", "coordinates": [-122.2483826, 47.3414726]}}, {"type": "Feature", "properties": {"id": "3dbf5f90-3399-4e4c-9b53-3c277d5efaa6", "name": "Auburn Park", "category": "park", "tags": ["park"], "sources": ["overture"], "phone": "+12537354930", "address": "3703 I St NW"}, "geometry": {"type": "Point", "coordinates": [-122.2424011, 47.3409386]}}, {"type": "Feature", "properties": {"id": "477b49a1-d805-409c-a43f-e44086a4cde7", "name": "Staples Business Advantage - Workplace Studio", "category": "department_store", "tags": ["department-store", "department"], "sources": ["overture"], "website": "http://www.staples.com/", "phone": "+12535186935", "address": "4510 Frontage Rd NW"}, "geometry": {"type": "Point", "coordinates": [-122.2432632, 47.349144]}}, {"type": "Feature", "properties": {"id": "6b37a673-b522-404b-84b8-83bc73606109", "name": "Magnabilities", "category": "jewelry", "tags": ["jewelry"], "sources": ["overture"], "website": "https://www.magnabilities.com", "phone": "+12532998811", "address": "3902 W Valley Hwy N Ste 502"}, "geometry": {"type": "Point", "coordinates": [-122.2491837, 47.3428688]}}, {"type": "Feature", "properties": {"id": "e4725cb5-1cbd-4114-9762-3628baa4d338", "name": "Seattle Murphy Bed / Enj Cabinets", "category": "furniture", "tags": ["furniture"], "sources": ["overture"], "website": "https://seattlemurphybed.com", "phone": "+12538640150", "address": "3902 W Valley Hwy N Ste 414"}, "geometry": {"type": "Point", "coordinates": [-122.2491837, 47.3428688]}}, {"type": "Feature", "properties": {"id": "906b173e-a606-470d-b624-9ebfcb0409e2", "name": "Tangra Trading Llc", "category": "supermarket", "tags": ["supermarket"], "sources": ["overture"], "address": "3902 W Valley Hwy N Ste 410"}, "geometry": {"type": "Point", "coordinates": [-122.2491837, 47.3428688]}}, {"type": "Feature", "properties": {"id": "89b04461-5299-4edd-8da5-99062cc19c0e", "name": "West Hill Deli", "category": "deli", "tags": ["deli", "delicatessen", "filipino", "american"], "sources": ["overture"], "website": "https://www.westhilldeli.com/", "phone": "+12539298632", "address": "3615 W Valley Hwy N #103"}, "geometry": {"type": "Point", "coordinates": [-122.249939, 47.3401222]}}]}