{"type": "FeatureCollection", "features": [{"type": "Feature", "properties": {"id": "8bb8c678-6c7e-4589-aa2f-f633ea993910", "name": "Starbucks", "category": "cafe", "tags": ["cafe", "coffee"], "sources": ["overture"], "phone": "4252669370", "address": "4300 NE 4th St Safeway-Renton Highla Nds # 14"}, "geometry": {"type": "Point", "coordinates": [-122.1614151, 47.490303]}}, {"type": "Feature", "properties": {"id": "82588cb5-851d-496d-aa2b-602cd22f525f", "name": "Mari Ruiz", "category": "restaurant", "tags": ["restaurant"], "sources": ["overture"]}, "geometry": {"type": "Point", "coordinates": [-122.1662674, 47.4942093]}}, {"type": "Feature", "properties": {"id": 451973416, "name": "Kiwanis Park", "category": "park", "tags": ["park"], "sources": ["osm", "overture"], "website": "https://rentonwa.gov/city_hall/parks_and_recreation/parks_and_trails/find_a_park_or_trail/kiwanis_park", "phone": "+14254306400", "address": "815 Union Ave NE"}, "geometry": {"type": "Point", "coordinates": [-122.1660542, 47.4966555]}}, {"type": "Feature", "properties": {"id": 499403882, "name": "Vineyards Neighborhood Park", "category": "park", "tags": ["park"], "sources": ["osm"]}, "geometry": {"type": "Point", "coordinates": [-122.1629252, 47.4919565]}}, {"type": "Feature", "properties": {"id": "c287576f-18e7-421e-8a6a-ff4f15ddc2a9", "name": "Wells Fargo Bank", "category": "bank", "tags": ["bank", "credit", "union"], "sources": ["overture"], "website": "https://www.wellsfargo.com/locator/bank/4300__NE__4TH__ST_RENTON_WA_98059/", "phone": "4252261410", "address": "4300 NE 4th St"}, "geometry": {"type": "Point", "coordinates": [-122.1613693, 47.4900436]}}]}