{"type": "FeatureCollection", "features": [{"type": "Feature", "properties": {"id": "c0a1ff99-3c17-4952-ab1a-54c2803c2b3a", "name": "Mintra Thai Cuisine", "category": "restaurant", "tags": ["restaurant", "thai"], "sources": ["overture"], "website": "http://www.mintrathaicuisine.com/", "phone": "+14252267148", "address": "17168 161st Ave SE"}, "geometry": {"type": "Point", "coordinates": [-122.1245804, 47.4482384]}}, {"type": "Feature", "properties": {"id": "8ee47a4a-4ae9-4c92-b7ba-8a3909c3b2e4", "name": "Wild Yeast Sourdough Pizza", "category": "restaurant", "tags": ["restaurant", "pizza", "chicken"], "sources": ["overture"], "phone": "+12069478462"}, "geometry": {"type": "Point", "coordinates": [-122.1288071, 47.4489708]}}]}