{"type": "FeatureCollection", "features": [{"type": "Feature", "properties": {"id": 1383843759, "name": "Straight Shot", "category": "artwork", "tags": ["artwork"], "sources": ["osm"]}, "geometry": {"type": "Point", "coordinates": [-122.2546103, 47.6832777]}}, {"type": "Feature", "properties": {"id": 2491505938, "name": "Compass Rose", "category": "artwork", "tags": ["artwork"], "sources": ["osm"], "address": "7600 Sand Point Way Northeast"}, "geometry": {"type": "Point", "coordinates": [-122.2583716, 47.6816683]}}, {"type": "Feature", "properties": {"id": "98df268b-302c-43ae-9d93-128898f8f6a0", "name": "World Flight Monument", "category": "gallery", "tags": ["gallery", "art"], "sources": ["overture"], "website": "http://www.seattle.gov/arts/", "phone": "(206) 684-7171", "address": "7600 Sand Point Way NE"}, "geometry": {"type": "Point", "coordinates": [-122.255394, 47.6864281]}}, {"type": "Feature", "properties": {"id": 343111021, "name": "Berth Haven", "category": "artwork", "tags": ["artwork"], "sources": ["osm"]}, "geometry": {"type": "Point", "coordinates": [-122.2520381, 47.6868683]}}, {"type": "Feature", "properties": {"id": 343111024, "name": "Knoll for NOAA", "category": "artwork", "tags": ["artwork"], "sources": ["osm"]}, "geometry": {"type": "Point", "coordinates": [-122.2587836, 47.6868504]}}, {"type": "Feature", "properties": {"id": 161565255, "name": "Junior League of Seattle Playground", "category": "playground", "tags": ["playground"], "sources": ["osm"]}, "geometry": {"type": "Point", "coordinates": [-122.258192, 47.6818334]}}, {"type": "Feature", "properties": {"id": 396331302, "name": "Magnuson Community Garden", "category": "garden", "tags": ["garden"], "sources": ["osm"], "website": "https://www.seattle.gov/magnusongarden/", "address": "7400 Sand Point Way Northeast"}, "geometry": {"type": "Point", "coordinates": [-122.258617, 47.682871]}}, {"type": "Feature", "properties": {"id": "ecb36dba-51dc-490a-a89a-3eab03d77d41", "name": "Magnuson Park Off Leash Dog Beach", "category": "park", "tags": ["park", "dog"], "sources": ["overture"], "website": "http://www.seattle.gov/parks/offleash_detail.asp?id=398", "phone": "+12066844075"}, "geometry": {"type": "Point", "coordinates": [-122.2564011, 47.6828957]}}, {"type": "Feature", "properties": {"id": "5bee5fbc-3e1d-4c9b-94f2-deb1df3aa776", "name": "Magnuson Park Off-Leash Dog Park", "category": "park", "tags": ["park", "dog"], "sources": ["overture"], "phone": "(206) 684-4946", "address": "6000 NE 74th St"}, "geometry": {"type": "Point", "coordinates": [-122.2542648, 47.685997]}}]}