{"type": "FeatureCollection", "features": [{"type": "Feature", "properties": {"id": 12365382456, "name": "Starbucks", "category": "cafe", "tags": ["cafe", "coffee-shop", "outdoor-seating", "takeaway", "wifi"], "sources": ["osm"], "phone": "+1-206-320-3041", "hours": "Mo-Fr 05:00-18:00; Sa-Su 06:30-16:00"}, "geometry": {"type": "Point", "coordinates": [-122.3098832, 47.6072247]}}, {"type": "Feature", "properties": {"id": "3723a7d7-e1a3-4a60-b1d0-5a80658afefc", "name": "Starbucks", "category": "cafe", "tags": ["cafe", "coffee"], "sources": ["overture"], "website": "https://www.starbucks.com/store-locator/store/7327", "phone": "2063203041", "address": "550 17th Ave"}, "geometry": {"type": "Point", "coordinates": [-122.3097763, 47.606411]}}, {"type": "Feature", "properties": {"id": 1999381696, "name": "Broadcast Coffee", "category": "cafe", "tags": ["cafe", "outdoor-seating", "indoor-seating", "vegetarian", "dog-friendly", "coffee", "tea", "air-conditioned", "wifi"], "sources": ["osm", "overture"], "website": "http://broadcastcoffee.com/", "phone": "+12063220807", "address": "1918 E Yesler Wy", "hours": "Mo-Fr 07:00-15:00; Sa,Su 08:00-14:00"}, "geometry": {"type": "Point", "coordinates": [-122.306579, 47.6017892]}}, {"type": "Feature", "properties": {"id": 2375322841, "name": "Soulful Dishes", "category": "restaurant", "tags": ["restaurant", "american"], "sources": ["osm"], "address": "1800 East Yesler Way"}, "geometry": {"type": "Point", "coordinates": [-122.3087429, 47.6018074]}}, {"type": "Feature", "properties": {"id": 53803234, "name": "Ezell's Chicken", "category": "fast_food", "tags": ["fast-food", "chicken", "takeaway"], "sources": ["osm"], "website": "https://www.ezellschicken.com/", "phone": "+1-206-324-4141", "address": "501 23rd Avenue", "hours": "Mo-Fr 10:00-21:00; Sa-Su 10:00-22:00"}, "geometry": {"type": "Point", "coordinates": [-122.3030153, 47.606319]}}, {"type": "Feature", "properties": {"id": "4d65aa26-87ca-4032-90aa-ed0a34ef4b38", "name": "Ezell's Famous Chicken", "category": "restaurant", "tags": ["restaurant", "chicken", "comfort-food", "american"], "sources": ["overture"], "website": "http://www.ezellschicken.com", "phone": "+12063244141", "address": "501 23rd Ave"}, "geometry": {"type": "Point", "coordinates": [-122.3030014, 47.6063614]}}, {"type": "Feature", "properties": {"id": "3047a744-4cb8-462e-b38a-c4b13211056a", "name": "Papa Murphy's Take 'N' Bake Pizza", "category": "restaurant", "tags": ["restaurant", "pizza"], "sources": ["overture"], "phone": "2063257272", "address": "306 23rd Ave S"}, "geometry": {"type": "Point", "coordinates": [-122.302002, 47.6000938]}}, {"type": "Feature", "properties": {"id": "79cbffbf-92e9-4a8e-9543-8bb837c5daa0", "name": "Jacksons Catfish Corner", "category": "restaurant", "tags": ["restaurant", "seafood"], "sources": ["overture"], "website": "https://www.seattlemet.com/eat-and-drink/best-new-restaurants-in-seattle-2021", "phone": "+12067993798", "address": "1800 E Yesler Wy"}, "geometry": {"type": "Point", "coordinates": [-122.3087692, 47.6018257]}}, {"type": "Feature", "properties": {"id": "cf5718a5-483b-443e-879b-133af81a7252", "name": "Grean House Cafe", "category": "restaurant", "tags": ["restaurant"], "sources": ["overture"], "website": "http://www.cleangreensfarm.com", "phone": "(206) 324-6886", "address": "123 21st Ave"}, "geometry": {"type": "Point", "coordinates": [-122.3054886, 47.6023865]}}, {"type": "Feature", "properties": {"id": "e1d020ab-401e-41ac-944b-3041ac14c856", "name": "Dur Dur Cafe Tea", "category": "restaurant", "tags": ["restaurant", "african"], "sources": ["overture"], "website": "https://www.groupon.com/biz/seattle/dur-dur-cafe", "phone": "+12066571636", "address": "2212 E Cherry St"}, "geometry": {"type": "Point", "coordinates": [-122.3031311, 47.6081352]}}, {"type": "Feature", "properties": {"id": "e9bf38ee-5474-4626-af00-bd624c2bdfa0", "name": "Good Neighbor Cafe", "category": "cafe", "tags": ["cafe", "coffee"], "sources": ["overture"], "phone": "2063287002", "address": "166 19th Ave"}, "geometry": {"type": "Point", "coordinates": [-122.3074493, 47.6032104]}}, {"type": "Feature", "properties": {"id": "ca6ed18b-1d06-4f1d-bdbf-e4ce7d9b917f", "name": "FishBox", "category": "restaurant", "tags": ["restaurant", "fish-and-chips", "fish", "chips", "seafood", "american"], "sources": ["overture"], "website": "https://www.fishboxseattle.com/", "phone": "+12067712510", "address": "172 20th Ave"}, "geometry": {"type": "Point", "coordinates": [-122.3059769, 47.6032982]}}, {"type": "Feature", "properties": {"id": "b9f3b136-881c-4c01-99bb-eef80f2ad30c", "name": "Magic Dragon Chinese Eatery", "category": "restaurant", "tags": ["restaurant", "chinese"], "sources": ["overture"], "website": "http://www.magicdragonrestaurant.com", "phone": "(206) 329-7011", "address": "306 23rd Ave S #102"}, "geometry": {"type": "Point", "coordinates": [-122.3018951, 47.6000862]}}, {"type": "Feature", "properties": {"id": "64db3607-5f78-4688-a976-32aa18eb25d4", "name": "Red Lobster, Federal Way", "category": "restaurant", "tags": ["restaurant", "seafood"], "sources": ["overture"], "website": "http://www.redlobster.com/"}, "geometry": {"type": "Point", "coordinates": [-122.3016815, 47.6000595]}}, {"type": "Feature", "properties": {"id": 3211770106, "name": "My Testimony in Stone", "category": "artwork", "tags": ["artwork"], "sources": ["osm"], "address": "2101 East Yesler Way"}, "geometry": {"type": "Point", "coordinates": [-122.3044505, 47.6014846]}}, {"type": "Feature", "properties": {"id": 3211770107, "name": "Tree Bench", "category": "artwork", "tags": ["artwork"], "sources": ["osm"], "address": "1800 South Main Street"}, "geometry": {"type": "Point", "coordinates": [-122.3071146, 47.6014485]}}, {"type": "Feature", "properties": {"id": 3211770109, "name": "Children of the Sea", "category": "artwork", "tags": ["artwork"], "sources": ["osm"], "address": "2300 East Yesler Way"}, "geometry": {"type": "Point", "coordinates": [-122.302048, 47.6019197]}}, {"type": "Feature", "properties": {"id": 3211770111, "name": "Renouveau", "category": "artwork", "tags": ["artwork"], "sources": ["osm"]}, "geometry": {"type": "Point", "coordinates": [-122.301767, 47.601833]}}, {"type": "Feature", "properties": {"id": 3211770112, "name": "Soul Pole", "category": "artwork", "tags": ["artwork"], "sources": ["osm"]}, "geometry": {"type": "Point", "coordinates": [-122.302183, 47.60185]}}, {"type": "Feature", "properties": {"id": 3211770160, "name": "Shango Throne", "category": "artwork", "tags": ["artwork"], "sources": ["osm"]}, "geometry": {"type": "Point", "coordinates": [-122.30215, 47.607683]}}, {"type": "Feature", "properties": {"id": 3211770161, "name": "Oshun Throne", "category": "artwork", "tags": ["artwork"], "sources": ["osm"]}, "geometry": {"type": "Point", "coordinates": [-122.302383, 47.60775]}}, {"type": "Feature", "properties": {"id": 3211770162, "name": "Proverbs and Icons", "category": "artwork", "tags": ["artwork"], "sources": ["osm"]}, "geometry": {"type": "Point", "coordinates": [-122.302267, 47.6079]}}, {"type": "Feature", "properties": {"id": 3211770164, "name": "Kuba Grille", "category": "artwork", "tags": ["artwork"], "sources": ["osm"]}, "geometry": {"type": "Point", "coordinates": [-122.3022728, 47.6077976]}}, {"type": "Feature", "properties": {"id": 9777576785, "name": "The People's Wall", "category": "artwork", "tags": ["artwork"], "sources": ["osm"]}, "geometry": {"type": "Point", "coordinates": [-122.3064976, 47.6033717]}}, {"type": "Feature", "properties": {"id": "b387f751-2426-4db6-bd37-e41ff579b8d6", "name": "Tutta Lou Press", "category": "gallery", "tags": ["gallery", "art"], "sources": ["overture"], "website": "http://www.tuttalou.com", "phone": "(206) 801-0498", "address": "2370 East Cherry Street"}, "geometry": {"type": "Point", "coordinates": [-122.3018341, 47.6081238]}}, {"type": "Feature", "properties": {"id": "8c90493d-3f30-437b-9634-efaa465e2c15", "name": "Spruce Park Apartments", "category": "attraction", "tags": ["attraction", "landmark", "historical", "building"], "sources": ["overture"], "website": "https://ccsww.org/get-help/housing/permanent-housing/village-spirit-center", "phone": "+12063220450", "address": "155 21st Ave"}, "geometry": {"type": "Point", "coordinates": [-122.305191, 47.6028824]}}, {"type": "Feature", "properties": {"id": "0871b491-3cba-48ae-8547-cbb63be5a6a8", "name": "Centralspace", "category": "attraction", "tags": ["attraction", "landmark", "historical", "building"], "sources": ["overture"], "phone": "+12067017733", "address": "705 24th Ave"}, "geometry": {"type": "Point", "coordinates": [-122.3020325, 47.6081085]}}, {"type": "Feature", "properties": {"id": "2a1157f6-2507-4aad-8b59-b134be87a975", "name": "Old Fire Station #23", "category": "attraction", "tags": ["attraction", "landmark", "historical", "building"], "sources": ["overture"], "website": "https://www.seattle.gov", "address": "722 18th Ave"}, "geometry": {"type": "Point", "coordinates": [-122.3085327, 47.6087723]}}, {"type": "Feature", "properties": {"id": "39f2020e-cbdc-4b8e-ac94-0b80f06fbebf", "name": "Sisters Of Providence Hospital Building", "category": "attraction", "tags": ["attraction", "landmark", "historical", "building"], "sources": ["overture"], "website": "https://www.seattle.gov", "address": "528 17th Ave"}, "geometry": {"type": "Point", "coordinates": [-122.3095245, 47.6070061]}}, {"type": "Feature", "properties": {"id": "488e9035-0bc6-423b-aaff-78a6a5311487", "name": "Clairemont Apartments", "category": "attraction", "tags": ["attraction", "landmark", "historical", "building"], "sources": ["overture"], "website": "http://www.cadencere.com/property/clairemont-apartments", "phone": "+12063852334", "address": "2014 E Yesler Wy"}, "geometry": {"type": "Point", "coordinates": [-122.3059921, 47.6018066]}}, {"type": "Feature", "properties": {"id": "3450269d-c65b-4ac7-9d7f-26d6abf049c2", "name": "Bryant Manor North", "category": "attraction", "tags": ["attraction", "landmark", "historical", "building"], "sources": ["overture"], "website": "https://www.liveatbryantmanor.com", "phone": "+15642131451", "address": "1801 E Yesler Wy"}, "geometry": {"type": "Point", "coordinates": [-122.3082123, 47.6014175]}}, {"type": "Feature", "properties": {"id": "790785a5-16be-4bd0-bc3f-5948dd213718", "name": "Main Street Condominium", "category": "attraction", "tags": ["attraction", "landmark", "historical", "building"], "sources": ["overture"], "website": "http://www.cada.org/", "phone": "+12068611750", "address": "303 23rd Ave S"}, "geometry": {"type": "Point", "coordinates": [-122.3023529, 47.6000137]}}, {"type": "Feature", "properties": {"id": 25807866, "name": "Pratt Park", "category": "park", "tags": ["park"], "sources": ["osm", "overture"], "website": "http://www.seattle.gov/parks/park_detail.asp?id=390", "phone": "+12066844075", "address": "201 20th Ave S"}, "geometry": {"type": "Point", "coordinates": [-122.307676, 47.6008341]}}, {"type": "Feature", "properties": {"id": 52128533, "name": "Firehouse Mini Park", "category": "park", "tags": ["park"], "sources": ["osm", "overture"], "website": "http://seattle.gov/parks/park_detail.asp?id=351", "phone": "+12066844075", "address": "712 18th Ave"}, "geometry": {"type": "Point", "coordinates": [-122.3085026, 47.6084441]}}, {"type": "Feature", "properties": {"id": 52201954, "name": "Garfield Playfield", "category": "park", "tags": ["park"], "sources": ["osm"], "website": "https://www.seattle.gov/parks/allparks/garfield-playfield"}, "geometry": {"type": "Point", "coordinates": [-122.301325, 47.6071669]}}, {"type": "Feature", "properties": {"id": 66649039, "name": "Spruce Street Mini Park", "category": "park", "tags": ["park"], "sources": ["osm", "overture"], "website": "http://www.seattle.gov/parks/park_detail.asp?id=3117", "phone": "+12066844075", "address": "160 21st Ave"}, "geometry": {"type": "Point", "coordinates": [-122.3046388, 47.6031134]}}, {"type": "Feature", "properties": {"id": 161084248, "name": "Dr. Blanche Lavizzo Park", "category": "park", "tags": ["park"], "sources": ["osm", "overture"], "website": "http://www.seattle.gov/parks/park_detail.asp?ID=395", "phone": "+12066844075", "address": "2050 S Jackson St"}, "geometry": {"type": "Point", "coordinates": [-122.3040147, 47.6003102]}}, {"type": "Feature", "properties": {"id": 1286931367, "name": "Nova Farm", "category": "garden", "tags": ["garden"], "sources": ["osm"]}, "geometry": {"type": "Point", "coordinates": [-122.3004921, 47.6082648]}}, {"type": "Feature", "properties": {"id": 53802856, "name": "ampm", "category": "convenience", "tags": ["convenience"], "sources": ["osm", "overture"], "website": "https://www.ampm.com/", "phone": "+12068602171", "address": "665 23rd Ave"}, "geometry": {"type": "Point", "coordinates": [-122.3032727, 47.6078278]}}, {"type": "Feature", "properties": {"id": 13556661177, "name": "Yesler Market", "category": "convenience", "tags": ["convenience"], "sources": ["osm"]}, "geometry": {"type": "Point", "coordinates": [-122.3073322, 47.6018355]}}, {"type": "Feature", "properties": {"id": "beed0268-6ca3-4bfe-a099-a5bf75c621a3", "name": "Flowers Just-4-U Florals-Gifts", "category": "florist", "tags": ["florist"], "sources": ["overture"], "website": "http://seattleflowersjust4u.net/", "phone": "2063241440", "address": "701 23rd Ave"}, "geometry": {"type": "Point", "coordinates": [-122.3029556, 47.6081276]}}, {"type": "Feature", "properties": {"id": "876f0bdb-c378-4f52-8a8d-a41acbdbea78", "name": "Yesler Grocery", "category": "supermarket", "tags": ["supermarket"], "sources": ["overture"], "website": "http://ethiopiangrocery.com", "phone": "+12067098084", "address": "1902 E Yesler Wy Unit 19"}, "geometry": {"type": "Point", "coordinates": [-122.3074799, 47.6018562]}}, {"type": "Feature", "properties": {"id": "f34b8965-7ab3-4c0d-a5b7-b72c1eb6bd6f", "name": "Lokay Inc", "category": "supermarket", "tags": ["supermarket"], "sources": ["overture"], "phone": "2063246461", "address": "1800 E Yesler Way"}, "geometry": {"type": "Point", "coordinates": [-122.3086624, 47.6018448]}}, {"type": "Feature", "properties": {"id": "169f3ac2-0df4-408c-aed5-b0f89e3a18d4", "name": "Wgm Jeweler", "category": "jewelry", "tags": ["jewelry"], "sources": ["overture"], "phone": "+12063299904", "address": "301 23rd Ave S"}, "geometry": {"type": "Point", "coordinates": [-122.3025589, 47.6000252]}}, {"type": "Feature", "properties": {"id": "ef40127e-d8a1-44c7-a950-4d010ff5a4ef", "name": "Supreme Being Jewels", "category": "jewelry", "tags": ["jewelry"], "sources": ["overture"], "website": "https://ueni.com/en-us/business/seattle-98144/jewellery-store/supreme-being-jewels", "phone": "4405066306", "address": "140 23rd Ave S"}, "geometry": {"type": "Point", "coordinates": [-122.3018341, 47.6006889]}}, {"type": "Feature", "properties": {"id": 228735290, "name": "Central Area Health Care Center", "category": "clinic", "tags": ["clinic"], "sources": ["osm"], "address": "2101 East Yesler Way"}, "geometry": {"type": "Point", "coordinates": [-122.3044057, 47.6013033]}}, {"type": "Feature", "properties": {"id": "3cff312b-b63a-443b-9556-c7e6b280a461", "name": "Swedish Medical Center", "category": "hospital", "tags": ["hospital"], "sources": ["overture"], "website": "http://www.swedish.org", "phone": "(206) 320-2000", "address": "550 17th Ave"}, "geometry": {"type": "Point", "coordinates": [-122.3099442, 47.6074295]}}, {"type": "Feature", "properties": {"id": "9bfd27d9-defa-47fb-8776-6effb1ba68d8", "name": "Swedish James Tower", "category": "hospital", "tags": ["hospital"], "sources": ["overture"], "website": "http://www.swedish.org", "phone": "(206) 320-2000", "address": "528 17th Ave"}, "geometry": {"type": "Point", "coordinates": [-122.3092117, 47.6070175]}}, {"type": "Feature", "properties": {"id": "adc0f779-f6dd-4e3c-9b62-d0c0328c595b", "name": "One Medical Seniors: Central District", "category": "clinic", "tags": ["clinic", "medical"], "sources": ["overture"], "website": "https://onemedical.com/locations/sea/central-district/?utm_source=Bing&utm_medium=organic&utm_campaign=Yext&utm_content=practice_listing&y_source=1_MTU0MjQ5NDAtNDgzLWxvY2F0aW9uLndlYnNpdGU%3D", "phone": "8884056396", "address": "306 23rd Ave S, Ste 200"}, "geometry": {"type": "Point", "coordinates": [-122.3015976, 47.6000519]}}, {"type": "Feature", "properties": {"id": 37058244, "name": "The Seattle Public Library - Douglass-Truth Branch", "category": "library", "tags": ["library", "air-conditioned", "wifi"], "sources": ["osm"], "website": "https://www.spl.org/hours-and-locations/douglass-truth-branch", "phone": "+1-206-684-4704", "address": "2300 East Yesler Way", "hours": "Tu-Th 10:00-20:00; Fr-Mo 10:00-18:00"}, "geometry": {"type": "Point", "coordinates": [-122.3016706, 47.6019184]}}, {"type": "Feature", "properties": {"id": "5b3da313-d061-4d1e-8d97-abb1e6c6d1b7", "name": "Douglass-Truth Branch", "category": "library", "tags": ["library"], "sources": ["overture"], "website": "http://www.spl.org/locations/douglass-truth-branch", "phone": "+12066844704", "address": "2300 E Yesler Wy"}, "geometry": {"type": "Point", "coordinates": [-122.3016968, 47.6018677]}}, {"type": "Feature", "properties": {"id": 52201947, "name": "Medgar Evers Pool", "category": "sports_centre", "tags": ["sports-centre", "swimming", "wheelchair-accessible", "swimming-pool", "pool"], "sources": ["osm", "overture"], "website": "http://www.seattle.gov/parks/find/pools/evers-pool", "phone": "+12066844766", "address": "500 23rd Ave"}, "geometry": {"type": "Point", "coordinates": [-122.3023664, 47.6065875]}}, {"type": "Feature", "properties": {"id": "ea50da15-bc49-4281-bc37-baaf0b846129", "name": "Smart Running", "category": "fitness_centre", "tags": ["fitness-centre", "fitness", "trainer"], "sources": ["overture"], "website": "https://www.smartrunning.com", "phone": "+12068505840", "address": "400 23rd Ave"}, "geometry": {"type": "Point", "coordinates": [-122.3018494, 47.6052856]}}]}