{"type": "FeatureCollection", "features": [{"type": "Feature", "properties": {"id": 476081433, "name": "Flying Squirrel Pizza", "category": "restaurant", "tags": ["restaurant", "pizza"], "sources": ["osm", "overture"], "website": "https://flyingsquirrelpizza.com", "phone": "+12065246345", "address": "8310 5th Ave NE"}, "geometry": {"type": "Point", "coordinates": [-122.3228006, 47.6892671]}}, {"type": "Feature", "properties": {"id": 12817549714, "name": "Emerald City Smoothie", "category": "cafe", "tags": ["cafe"], "sources": ["osm"], "hours": "Mo-Su 09:00-20:00", "stations": [{"stopCode": 46, "lines": "1,2", "name": "Roosevelt Station", "walkingMeters": 1052, "walkingSeconds": 757, "band": 15}]}, "geometry": {"type": "Point", "coordinates": [-122.3253849, 47.6812012]}}, {"type": "Feature", "properties": {"id": 2315238693, "name": "Gao Lhao", "category": "restaurant", "tags": ["restaurant", "chinese"], "sources": ["osm"], "website": "https://gaolhao.com/", "address": "7102 Woodlawn Avenue Northeast", "hours": "Mo-Su 11:30-22:00", "stations": [{"stopCode": 46, "lines": "1,2", "name": "Roosevelt Station", "walkingMeters": 899, "walkingSeconds": 646, "band": 10}]}, "geometry": {"type": "Point", "coordinates": [-122.324439, 47.680102]}}, {"type": "Feature", "properties": {"id": 2463138717, "name": "Mykonos Greek Grill", "category": "restaurant", "tags": ["restaurant", "greek", "mediterranean", "european"], "sources": ["osm", "overture"], "website": "http://mykonosgreekgrill.food90.com/", "phone": "+12065238929", "address": "310 NE 72nd St", "hours": "Tu-Su 11:00-21:00", "stations": [{"stopCode": 46, "lines": "1,2", "name": "Roosevelt Station", "walkingMeters": 1002, "walkingSeconds": 721, "band": 15}]}, "geometry": {"type": "Point", "coordinates": [-122.3252926, 47.6805121]}}, {"type": "Feature", "properties": {"id": 2463139500, "name": "Easy Pace Brewing", "category": "pub", "tags": ["pub", "microbrew"], "sources": ["osm"], "website": "https://easypacebrewing.com/", "address": "7110 East Green Lake Drive North", "stations": [{"stopCode": 46, "lines": "1,2", "name": "Roosevelt Station", "walkingMeters": 984, "walkingSeconds": 708, "band": 15}]}, "geometry": {"type": "Point", "coordinates": [-122.325554, 47.680189]}}, {"type": "Feature", "properties": {"id": 2463139502, "name": "Little Red Hen", "category": "bar", "tags": ["bar", "restaurant", "bar-and-grill", "grill"], "sources": ["osm", "overture"], "website": "http://www.littleredhen.com/", "phone": "+12065221168", "address": "7115 Woodlawn Ave NE", "hours": "Mo 16:00-00:30, Tu 16:00-24:00, We 15:00-01:30, Th 16:00-01:30, Fr 16:00-02:00, Sa 15:00-02:00, Su 15:00-24:00", "stations": [{"stopCode": 46, "lines": "1,2", "name": "Roosevelt Station", "walkingMeters": 934, "walkingSeconds": 672, "band": 15}]}, "geometry": {"type": "Point", "coordinates": [-122.324803, 47.6802354]}}, {"type": "Feature", "properties": {"id": 2463139504, "name": "Pacha Collective", "category": "cafe", "tags": ["cafe"], "sources": ["osm"], "website": "https://www.pacha-collective.com/", "phone": "+1-206-888-8068", "address": "7119 Woodlawn Avenue Northeast", "hours": "Mo-Sa 07:00-21:00; Su 07:00-17:00", "stations": [{"stopCode": 46, "lines": "1,2", "name": "Roosevelt Station", "walkingMeters": 946, "walkingSeconds": 680, "band": 15}]}, "geometry": {"type": "Point", "coordinates": [-122.3248304, 47.6803423]}}, {"type": "Feature", "properties": {"id": 2463139507, "name": "The Atlantic Crossing", "category": "pub", "tags": ["pub"], "sources": ["osm", "overture"], "website": "https://www.theatlanticcrossing.com/", "phone": "+12067296266", "address": "7200 Woodlawn Ave NE", "hours": "Mo-Th 11:30-23:00, Fr 11:30-24:00, Sa 08:30-24:00, Su 08:30-23:00", "stations": [{"stopCode": 46, "lines": "1,2", "name": "Roosevelt Station", "walkingMeters": 964, "walkingSeconds": 693, "band": 15}]}, "geometry": {"type": "Point", "coordinates": [-122.3245931, 47.6806719]}}, {"type": "Feature", "properties": {"id": 2463139523, "name": "Revolutions Coffee", "category": "cafe", "tags": ["cafe", "coffee-shop", "coffee"], "sources": ["osm", "overture"], "website": "http://www.revolutionscoffee.com/", "phone": "+12065239090", "address": "7208 East Green Lake Dr N", "hours": "Mo-Fr 06:00-20:00; Sa-Su 07:00-20:00", "stations": [{"stopCode": 46, "lines": "1,2", "name": "Roosevelt Station", "walkingMeters": 1036, "walkingSeconds": 745, "band": 15}]}, "geometry": {"type": "Point", "coordinates": [-122.3258459, 47.680628]}}, {"type": "Feature", "properties": {"id": 2463139526, "name": "Rosita's Mexican Grill", "category": "restaurant", "tags": ["restaurant", "mexican", "has-bar"], "sources": ["osm"], "website": "https://www.rositasrestaurant.com/", "phone": "+1-206-523-3031", "address": "7210 Woodlawn Avenue Northeast", "hours": "Mo-Th 15:00-20:30; Fr,Sa 11:30-21:30; Su 16:00-20:30", "stations": [{"stopCode": 46, "lines": "1,2", "name": "Roosevelt Station", "walkingMeters": 981, "walkingSeconds": 706, "band": 15}]}, "geometry": {"type": "Point", "coordinates": [-122.3246992, 47.6808177]}}, {"type": "Feature", "properties": {"id": 2463139528, "name": "The Kitchen", "category": "restaurant", "tags": ["restaurant"], "sources": ["osm"], "address": "7214 Woodlawn Avenue Northeast", "stations": [{"stopCode": 46, "lines": "1,2", "name": "Roosevelt Station", "walkingMeters": 1001, "walkingSeconds": 720, "band": 15}]}, "geometry": {"type": "Point", "coordinates": [-122.3248217, 47.6809727]}}, {"type": "Feature", "properties": {"id": 2995134990, "name": "Toast Mi", "category": "restaurant", "tags": ["restaurant", "vietnamese"], "sources": ["osm"], "website": "https://www.toastmi.com/seattle-green-lake", "address": "7130 Woodlawn Avenue Northeast", "hours": "Su-Sa 11:00-19:00", "stations": [{"stopCode": 46, "lines": "1,2", "name": "Roosevelt Station", "walkingMeters": 917, "walkingSeconds": 659, "band": 10}]}, "geometry": {"type": "Point", "coordinates": [-122.324486, 47.6802556]}}, {"type": "Feature", "properties": {"id": 4218064604, "name": "Kitanda", "category": "cafe", "tags": ["cafe", "coffee-shop", "takeaway", "coffee", "brazilian"], "sources": ["osm", "overture"], "website": "http://www.kitanda.com/", "phone": "+14258204381", "address": "428 NE 71st St", "hours": "Mo-Fr 07:00-20:00; Sa 07:00-20:00; Su 08:00-19:00", "stations": [{"stopCode": 46, "lines": "1,2", "name": "Roosevelt Station", "walkingMeters": 864, "walkingSeconds": 621, "band": 10}]}, "geometry": {"type": "Point", "coordinates": [-122.3237247, 47.6802358]}}, {"type": "Feature", "properties": {"id": 4396951017, "name": "Greenlake Boathouse Cafe", "category": "cafe", "tags": ["cafe", "coffee-shop", "wheelchair-accessible", "convenience"], "sources": ["osm"], "website": "https://greenlakeboathouse.com/", "phone": "+1-206-527-0171", "hours": "Mo-Su 08:00-20:00", "stations": [{"stopCode": 46, "lines": "1,2", "name": "Roosevelt Station", "walkingMeters": 1363, "walkingSeconds": 980, "band": 15}]}, "geometry": {"type": "Point", "coordinates": [-122.328808, 47.6814429]}}, {"type": "Feature", "properties": {"id": "a0cdbc1a-b36b-494e-ab5e-4c066444f7ff", "name": "The Sweetside", "category": "bakery", "tags": ["bakery"], "sources": ["overture"], "website": "https://www.thesweetsideseattle.com", "phone": "12065472253", "address": "8310 5th Ave NE"}, "geometry": {"type": "Point", "coordinates": [-122.3227844, 47.6892738]}}, {"type": "Feature", "properties": {"id": "63368ec0-b129-4ae4-b10d-da5f773ba6e1", "name": "72nd Street Cafe", "category": "cafe", "tags": ["cafe", "coffee"], "sources": ["overture"], "website": "http://72ndstreetcafe.com", "phone": "(206) 523-5623", "address": "308 NE 72nd St", "stations": [{"stopCode": 46, "lines": "1,2", "name": "Roosevelt Station", "walkingMeters": 1053, "walkingSeconds": 757, "band": 15}]}, "geometry": {"type": "Point", "coordinates": [-122.3254852, 47.6805496]}}, {"type": "Feature", "properties": {"id": "6675c161-4ed1-49dc-9566-393afab21868", "name": "Greenlake Bar & Grill", "category": "restaurant", "tags": ["restaurant", "bar-and-grill", "bar", "grill", "american"], "sources": ["overture"], "website": "https://neighborhoodgrills.com/", "phone": "+12067296179", "address": "7200 East Green Lake Dr N", "stations": [{"stopCode": 46, "lines": "1,2", "name": "Roosevelt Station", "walkingMeters": 1011, "walkingSeconds": 727, "band": 15}]}, "geometry": {"type": "Point", "coordinates": [-122.3256989, 47.6804085]}}, {"type": "Feature", "properties": {"id": "f759b18d-2ae9-49f0-86dd-8ba227081c3b", "name": "Neighborhood Grills Catering", "category": "restaurant", "tags": ["restaurant", "american"], "sources": ["overture"], "website": "http://www.greenlakebarandgrill.com/", "phone": "+12065086462", "address": "7200 E Green Lake Dr N", "stations": [{"stopCode": 46, "lines": "1,2", "name": "Roosevelt Station", "walkingMeters": 1016, "walkingSeconds": 731, "band": 15}]}, "geometry": {"type": "Point", "coordinates": [-122.3257141, 47.680481]}}, {"type": "Feature", "properties": {"id": "626d99b2-ef23-41f2-9e99-6435f65fa95f", "name": "Allegra Pizza and Pasta", "category": "restaurant", "tags": ["restaurant", "pizza"], "sources": ["overture"], "website": "http://www.allegrapizzaandpasta.com", "phone": "(206) 816-3333", "address": "7208 E Green Lake Dr N", "stations": [{"stopCode": 46, "lines": "1,2", "name": "Roosevelt Station", "walkingMeters": 1057, "walkingSeconds": 760, "band": 15}]}, "geometry": {"type": "Point", "coordinates": [-122.3258133, 47.6806908]}}, {"type": "Feature", "properties": {"id": "69d71e20-7779-4344-875a-4a9286ff7096", "name": "Amante", "category": "restaurant", "tags": ["restaurant", "pizza"], "sources": ["overture"], "website": "http://greenlake.amantepizzaandpasta.com", "phone": "(206) 816-3333", "address": "7208 E Green Lake Dr N", "stations": [{"stopCode": 46, "lines": "1,2", "name": "Roosevelt Station", "walkingMeters": 1034, "walkingSeconds": 744, "band": 15}]}, "geometry": {"type": "Point", "coordinates": [-122.3258057, 47.6806107]}}, {"type": "Feature", "properties": {"id": "85b09523-b9ce-4ae8-8d43-458652bf323b", "name": "Shelter Lounge", "category": "bar", "tags": ["bar", "cocktail"], "sources": ["overture"], "website": "http://theshelterlounge.com", "phone": "(206) 420-7452", "address": "7110 E Green Lake Dr N", "stations": [{"stopCode": 46, "lines": "1,2", "name": "Roosevelt Station", "walkingMeters": 997, "walkingSeconds": 717, "band": 15}]}, "geometry": {"type": "Point", "coordinates": [-122.3256226, 47.6802711]}}, {"type": "Feature", "properties": {"id": "a2aeea34-d435-4097-8ae8-67f494a78511", "name": "Rosita's Mexican Restaurant", "category": "restaurant", "tags": ["restaurant", "mexican", "latin-american", "taco"], "sources": ["overture"], "website": "http://www.rositasrestaurant.com/", "phone": "+12065233031", "address": "7210 Woodlawn Ave NE", "stations": [{"stopCode": 46, "lines": "1,2", "name": "Roosevelt Station", "walkingMeters": 982, "walkingSeconds": 706, "band": 15}]}, "geometry": {"type": "Point", "coordinates": [-122.3247833, 47.6808014]}}, {"type": "Feature", "properties": {"id": "c27e57cd-1cfc-4214-8db0-eb4288119b5b", "name": "Da Long Y\u00ec Hot Pot \u5927\u9f99\u71da\u706b\u9505", "category": "restaurant", "tags": ["restaurant", "soup"], "sources": ["overture"], "website": "http://seattledalongyi.com/", "phone": "2068808979", "address": "7119 Woodlawn Ave NE", "stations": [{"stopCode": 46, "lines": "1,2", "name": "Roosevelt Station", "walkingMeters": 1018, "walkingSeconds": 760, "band": 15}]}, "geometry": {"type": "Point", "coordinates": [-122.3248215, 47.6803474]}}, {"type": "Feature", "properties": {"id": "e109a058-c4cd-461a-8fae-13fe57ac81d8", "name": "Caf\u00e9 Momo", "category": "restaurant", "tags": ["restaurant", "noodles"], "sources": ["overture"], "website": "http://www.cafemomogreenlake.com", "phone": "(206) 985-6900", "address": "7119 Woodlawn Ave NE", "stations": [{"stopCode": 46, "lines": "1,2", "name": "Roosevelt Station", "walkingMeters": 948, "walkingSeconds": 682, "band": 15}]}, "geometry": {"type": "Point", "coordinates": [-122.3248138, 47.6803589]}}, {"type": "Feature", "properties": {"id": "4094502e-2297-45fd-befb-a8b7f7a825b7", "name": "Eight Row", "category": "restaurant", "tags": ["restaurant"], "sources": ["overture"], "website": "http://www.eightrow.com", "phone": "12062943178", "address": "7102 Woodlawn Ave NE", "stations": [{"stopCode": 46, "lines": "1,2", "name": "Roosevelt Station", "walkingMeters": 852, "walkingSeconds": 613, "band": 10}]}, "geometry": {"type": "Point", "coordinates": [-122.3243561, 47.6801071]}}, {"type": "Feature", "properties": {"id": "c4e4a741-a876-4e5a-9597-cd4582546f27", "name": "Toast Mi Green Lake", "category": "restaurant", "tags": ["restaurant", "vietnamese", "asian"], "sources": ["overture"], "website": "https://www.toastmi.com/", "phone": "+12064025546", "address": "7130 Woodlawn Ave NE", "stations": [{"stopCode": 46, "lines": "1,2", "name": "Roosevelt Station", "walkingMeters": 915, "walkingSeconds": 658, "band": 10}]}, "geometry": {"type": "Point", "coordinates": [-122.3245468, 47.6802444]}}, {"type": "Feature", "properties": {"id": "3c053841-4320-4e10-8295-b957bf8313b3", "name": "Gao Lhao Bangkok Noodle Shop", "category": "restaurant", "tags": ["restaurant", "chinese", "asian", "noodles"], "sources": ["overture"], "website": "http://www.gaolhao.com/", "phone": "+12067102170", "address": "7102 Woodlawn Ave NE", "stations": [{"stopCode": 46, "lines": "1,2", "name": "Roosevelt Station", "walkingMeters": 917, "walkingSeconds": 660, "band": 10}]}, "geometry": {"type": "Point", "coordinates": [-122.3244019, 47.6800919]}}, {"type": "Feature", "properties": {"id": "a9ee6816-5ea1-4c94-a572-535ad097cec0", "name": "Lucia Italian Restaurant", "category": "restaurant", "tags": ["restaurant", "italian"], "sources": ["overture"], "website": "http://iheartlucia.com", "phone": "(206) 258-4523", "address": "7102 Woodlawn Ave NE", "stations": [{"stopCode": 46, "lines": "1,2", "name": "Roosevelt Station", "walkingMeters": 865, "walkingSeconds": 622, "band": 10}]}, "geometry": {"type": "Point", "coordinates": [-122.3243256, 47.6800003]}}, {"type": "Feature", "properties": {"id": "5b300a74-0f84-48c9-9dae-555cf98333f6", "name": "Whats For Lunch", "category": "restaurant", "tags": ["restaurant"], "sources": ["overture"], "address": "559 NE 80th St"}, "geometry": {"type": "Point", "coordinates": [-122.3204193, 47.6866074]}}, {"type": "Feature", "properties": {"id": "9666dc72-c821-4051-84c2-3105a610be17", "name": "Women's Business Incubator", "category": "restaurant", "tags": ["restaurant"], "sources": ["overture"], "address": "111 NE 80th St"}, "geometry": {"type": "Point", "coordinates": [-122.3279419, 47.6864357]}}, {"type": "Feature", "properties": {"id": 3211770304, "name": "Portal", "category": "artwork", "tags": ["artwork"], "sources": ["osm"], "address": "7201 East Green Lake Drive North", "stations": [{"stopCode": 46, "lines": "1,2", "name": "Roosevelt Station", "walkingMeters": 1233, "walkingSeconds": 886, "band": 15}]}, "geometry": {"type": "Point", "coordinates": [-122.3285022, 47.6802977]}}, {"type": "Feature", "properties": {"id": 3211770305, "name": "Seven Figures", "category": "artwork", "tags": ["artwork"], "sources": ["osm"], "stations": [{"stopCode": 46, "lines": "1,2", "name": "Roosevelt Station", "walkingMeters": 1214, "walkingSeconds": 873, "band": 15}]}, "geometry": {"type": "Point", "coordinates": [-122.3281, 47.680417]}}, {"type": "Feature", "properties": {"id": 4936326284, "name": "Green Lake Shade Plaza Arch", "category": "artwork", "tags": ["artwork", "wheelchair-accessible"], "sources": ["osm"], "stations": [{"stopCode": 46, "lines": "1,2", "name": "Roosevelt Station", "walkingMeters": 1178, "walkingSeconds": 847, "band": 15}]}, "geometry": {"type": "Point", "coordinates": [-122.3278102, 47.6802337]}}, {"type": "Feature", "properties": {"id": 8409709901, "name": "Rainbow Point", "category": "viewpoint", "tags": ["viewpoint", "park"], "sources": ["osm", "overture"], "website": "http://seattle.gov/parks/park_detail.asp?ID=4045", "phone": "+12066844075", "address": "631 NE Banner Pl", "stations": [{"stopCode": 46, "lines": "1,2", "name": "Roosevelt Station", "walkingMeters": 1103, "walkingSeconds": 798, "band": 15}]}, "geometry": {"type": "Point", "coordinates": [-122.3205062, 47.6825377]}}, {"type": "Feature", "properties": {"id": "2e6ba157-3410-4637-bc5b-aea8464e7caf", "name": "Fine Impressions Gallery", "category": "gallery", "tags": ["gallery", "art"], "sources": ["overture"], "website": "http://www.fineimpressionsgallery.com/", "phone": "+12067845270", "address": "8300 5th Ave NE"}, "geometry": {"type": "Point", "coordinates": [-122.322876, 47.6890984]}}, {"type": "Feature", "properties": {"id": 1123136939, "name": "Janice Benson Memorial Bible Garden", "category": "garden", "tags": ["garden"], "sources": ["osm"], "stations": [{"stopCode": 46, "lines": "1,2", "name": "Roosevelt Station", "walkingMeters": 1236, "walkingSeconds": 889, "band": 15}]}, "geometry": {"type": "Point", "coordinates": [-122.3269112, 47.6825054]}}, {"type": "Feature", "properties": {"id": "be8c9da2-fcf3-48c3-95d0-5f6bf6600960", "name": "Banner Way Triangles", "category": "park", "tags": ["park"], "sources": ["overture"], "address": "7604 and 7802 Banner Way NE"}, "geometry": {"type": "Point", "coordinates": [-122.321846, 47.6844254]}}, {"type": "Feature", "properties": {"id": "6b91802c-35e5-4954-824e-7fabd85cf141", "name": "Greenlake Running Trail", "category": "park", "tags": ["park"], "sources": ["overture"], "website": "http://www.seattle.gov/parks/park_detail.asp?ID=307", "address": "7201 E Green Lake Dr N", "stations": [{"stopCode": 46, "lines": "1,2", "name": "Roosevelt Station", "walkingMeters": 1121, "walkingSeconds": 837, "band": 15}]}, "geometry": {"type": "Point", "coordinates": [-122.3260727, 47.6803284]}}, {"type": "Feature", "properties": {"id": 3008090337, "name": "PCC Community Market", "category": "supermarket", "tags": ["supermarket", "wheelchair-accessible"], "sources": ["osm"], "website": "https://www.pccmarkets.com/stores/greenlake-village/", "address": "450 Northeast 71st Street", "hours": "Mo-Su 06:00-23:00", "stations": [{"stopCode": 46, "lines": "1,2", "name": "Roosevelt Station", "walkingMeters": 856, "walkingSeconds": 616, "band": 10}]}, "geometry": {"type": "Point", "coordinates": [-122.3235175, 47.6803721]}}, {"type": "Feature", "properties": {"id": 3708905821, "name": "Super Jock 'n Jill", "category": "shoes", "tags": ["shoes"], "sources": ["osm"], "website": "https://www.superjocknjill.com/", "address": "7210 East Green Lake Drive North", "hours": "Mo-Fr 10:00-19:00; Sa 10:00-18:00; Su 10:00-17:00", "stations": [{"stopCode": 46, "lines": "1,2", "name": "Roosevelt Station", "walkingMeters": 1044, "walkingSeconds": 751, "band": 15}]}, "geometry": {"type": "Point", "coordinates": [-122.3258941, 47.6806895]}}, {"type": "Feature", "properties": {"id": "2b258dde-f34a-47f7-8f1c-505589bc364a", "name": "Puget Consumer's Co-op", "category": "supermarket", "tags": ["supermarket"], "sources": ["overture"], "address": "450 NE 71st St", "stations": [{"stopCode": 46, "lines": "1,2", "name": "Roosevelt Station", "walkingMeters": 898, "walkingSeconds": 670, "band": 10}]}, "geometry": {"type": "Point", "coordinates": [-122.3234253, 47.6802635]}}, {"type": "Feature", "properties": {"id": "7111e02a-652b-4f08-aed9-76d81e7fd66e", "name": "UBuildIt - Seattle", "category": "doityourself", "tags": ["doityourself", "building", "supply"], "sources": ["overture"], "website": "https://ubuilditseattle.com", "phone": "(206) 405-4417", "address": "7301 Woodlawn Ave NE", "stations": [{"stopCode": 46, "lines": "1,2", "name": "Roosevelt Station", "walkingMeters": 1062, "walkingSeconds": 764, "band": 15}]}, "geometry": {"type": "Point", "coordinates": [-122.325531, 47.6811829]}}, {"type": "Feature", "properties": {"id": "c46c8ec5-5f0a-48a8-84ff-9ee9e121198f", "name": "HomeStyling Design", "category": "doityourself", "tags": ["doityourself", "home", "improvement"], "sources": ["overture"], "website": "https://homestylingdesign.com/", "phone": "+12067299304", "address": "7301 Woodlawn Ave NE", "stations": [{"stopCode": 46, "lines": "1,2", "name": "Roosevelt Station", "walkingMeters": 1127, "walkingSeconds": 841, "band": 15}]}, "geometry": {"type": "Point", "coordinates": [-122.325386, 47.6811409]}}, {"type": "Feature", "properties": {"id": "679b5e7a-d5be-4e25-8785-c2c267302522", "name": "Oiselle Headquarters", "category": "clothes", "tags": ["clothes", "womens"], "sources": ["overture"], "website": "http://www.oiselle.com", "phone": "+12065231091", "address": "7109 Woodlawn Ave NE Ste 201", "stations": [{"stopCode": 46, "lines": "1,2", "name": "Roosevelt Station", "walkingMeters": 927, "walkingSeconds": 667, "band": 15}]}, "geometry": {"type": "Point", "coordinates": [-122.324791, 47.680172]}}, {"type": "Feature", "properties": {"id": "a385154d-cf97-4965-9e8a-60fab4a13bdb", "name": "Pcc Community Markets - Green Lake Village Co-op", "category": "supermarket", "tags": ["supermarket"], "sources": ["overture"], "website": "https://www.pccmarkets.com", "phone": "12067295075", "address": "450 NE 71st St", "stations": [{"stopCode": 46, "lines": "1,2", "name": "Roosevelt Station", "walkingMeters": 898, "walkingSeconds": 670, "band": 10}]}, "geometry": {"type": "Point", "coordinates": [-122.3234253, 47.6802635]}}, {"type": "Feature", "properties": {"id": "9076f533-8c73-4a32-9ba2-957eb454fa14", "name": "Mockingbird Books", "category": "books", "tags": ["books"], "sources": ["overture"], "website": "http://www.mockingbirdbooksgl.com/", "phone": "(206) 518-5886", "address": "7220 Woodlawn Ave NE", "stations": [{"stopCode": 46, "lines": "1,2", "name": "Roosevelt Station", "walkingMeters": 1014, "walkingSeconds": 729, "band": 15}]}, "geometry": {"type": "Point", "coordinates": [-122.3248672, 47.6810913]}}, {"type": "Feature", "properties": {"id": "625da83d-3906-4140-a0a2-20886a9c8053", "name": "A Ruff Life Pet Care", "category": "pet", "tags": ["pet"], "sources": ["overture"], "website": "http://www.arufflifepetcare.com", "phone": "(206) 902-7253", "address": "516 NE 79th St"}, "geometry": {"type": "Point", "coordinates": [-122.3218231, 47.6862297]}}, {"type": "Feature", "properties": {"id": "66f25478-327c-447d-adfd-ecbbae0ae0bc", "name": "Divine Design", "category": "doityourself", "tags": ["doityourself", "building", "supply"], "sources": ["overture"], "website": "http://seattleprofessionalpainters.com", "phone": "(206) 227-0785", "address": "7506 Sunnyside Ave N"}, "geometry": {"type": "Point", "coordinates": [-122.3290558, 47.6833916]}}, {"type": "Feature", "properties": {"id": "d4c6ec38-ddc3-4496-bfe6-04d54c94349e", "name": "HomeStreet Bank", "category": "bank", "tags": ["bank", "credit", "union"], "sources": ["overture"], "website": "http://www.homestreet.com/", "phone": "2062947200", "address": "417 NE 72nd St", "stations": [{"stopCode": 46, "lines": "1,2", "name": "Roosevelt Station", "walkingMeters": 940, "walkingSeconds": 676, "band": 10}]}, "geometry": {"type": "Point", "coordinates": [-122.3240128, 47.6806412]}}, {"type": "Feature", "properties": {"id": 34148956, "name": "The Seattle Public Library - Green Lake Branch", "category": "library", "tags": ["library", "wheelchair-accessible", "air-conditioned", "wifi"], "sources": ["osm"], "website": "https://www.spl.org/hours-and-locations/green-lake-branch", "phone": "+1-206-684-7547", "address": "7364 East Green Lake Drive North", "hours": "Tu,We 12:00-20:00; Th,Sa-Mo 10:00-18:00", "stations": [{"stopCode": 46, "lines": "1,2", "name": "Roosevelt Station", "walkingMeters": 1160, "walkingSeconds": 834, "band": 15}]}, "geometry": {"type": "Point", "coordinates": [-122.3266653, 47.6815022]}}, {"type": "Feature", "properties": {"id": "40ae4c94-f689-4a27-99b4-02419a5846ab", "name": "Seattle Public Library", "category": "library", "tags": ["library"], "sources": ["overture"], "website": "http://www.spl.org/locations/green-lake-branch", "phone": "(206) 684-7547", "address": "7364 E Green Lake Dr N", "stations": [{"stopCode": 46, "lines": "1,2", "name": "Roosevelt Station", "walkingMeters": 1138, "walkingSeconds": 818, "band": 15}]}, "geometry": {"type": "Point", "coordinates": [-122.3267136, 47.6813202]}}, {"type": "Feature", "properties": {"id": "b22932c4-eed2-4e21-b241-e0b9cba7537a", "name": "Green Lake Branch", "category": "library", "tags": ["library"], "sources": ["overture"], "website": "http://www.spl.org/locations/green-lake-branch", "phone": "+12066847547", "address": "7364 E Green Lake Dr N", "stations": [{"stopCode": 46, "lines": "1,2", "name": "Roosevelt Station", "walkingMeters": 1159, "walkingSeconds": 834, "band": 15}]}, "geometry": {"type": "Point", "coordinates": [-122.3267593, 47.6814346]}}, {"type": "Feature", "properties": {"id": 2315238714, "name": "Pranify Yoga", "category": "fitness_centre", "tags": ["fitness-centre", "yoga"], "sources": ["osm"], "website": "https://pranifyyoga.com/seattle", "phone": "+1-206-402-6772", "address": "7110 Woodlawn Avenue Northeast", "hours": "Mo-Fr 05:30-21:00; Sa 08:00-13:00; Su 08:00-20:30", "stations": [{"stopCode": 46, "lines": "1,2", "name": "Roosevelt Station", "walkingMeters": 879, "walkingSeconds": 632, "band": 10}]}, "geometry": {"type": "Point", "coordinates": [-122.323934, 47.68024]}}, {"type": "Feature", "properties": {"id": 2463139515, "name": "GreenLake Fitness", "category": "fitness_centre", "tags": ["fitness-centre", "gym"], "sources": ["osm", "overture"], "website": "http://www.greenlakefitness.com", "phone": "+12065247000", "address": "7203 Woodlawn Ave NE", "hours": "Mo-Fr 05:00-22:00; Sa,Su 07:00-19:00", "stations": [{"stopCode": 46, "lines": "1,2", "name": "Roosevelt Station", "walkingMeters": 978, "walkingSeconds": 703, "band": 15}]}, "geometry": {"type": "Point", "coordinates": [-122.3249468, 47.6806191]}}, {"type": "Feature", "properties": {"id": "85a189c4-dfae-4c0f-b726-08e06154dc15", "name": "Cascade Run Club Seattle", "category": "sports_centre", "tags": ["sports-centre", "sports", "club", "league"], "sources": ["overture"], "website": "https://cascaderunclub.com/locations/cascade-run-club-seattle", "phone": "12067995253", "address": "7210 E Green Lake Dr N", "stations": [{"stopCode": 46, "lines": "1,2", "name": "Roosevelt Station", "walkingMeters": 1127, "walkingSeconds": 841, "band": 15}]}, "geometry": {"type": "Point", "coordinates": [-122.3258438, 47.6806793]}}, {"type": "Feature", "properties": {"id": "a5555285-45af-4455-a528-dad9fa6b9adf", "name": "Mcw Health And Fitness", "category": "fitness_centre", "tags": ["fitness-centre", "fitness", "trainer"], "sources": ["overture"], "website": "http://mcwfit.com", "phone": "+12062499462", "address": "319 NE 72nd St", "stations": [{"stopCode": 46, "lines": "1,2", "name": "Roosevelt Station", "walkingMeters": 972, "walkingSeconds": 699, "band": 15}]}, "geometry": {"type": "Point", "coordinates": [-122.3254089, 47.6802673]}}, {"type": "Feature", "properties": {"id": "fe29aa13-abd7-4b09-ae6d-ce927b9f428c", "name": "American Athlete", "category": "fitness_centre", "tags": ["fitness-centre", "gym"], "sources": ["overture"], "phone": "2065247000", "address": "7203 Woodlawn Ave NE", "stations": [{"stopCode": 46, "lines": "1,2", "name": "Roosevelt Station", "walkingMeters": 978, "walkingSeconds": 704, "band": 15}]}, "geometry": {"type": "Point", "coordinates": [-122.3249969, 47.6805954]}}, {"type": "Feature", "properties": {"id": "c652f032-f4bc-4b87-ba3c-da4555f07eb4", "name": "Body By Impulse", "category": "fitness_centre", "tags": ["fitness-centre", "fitness", "trainer"], "sources": ["overture"], "website": "http://bodybyimpulse.com", "phone": "+12068505809", "address": "7200 Woodlawn Ave NE", "stations": [{"stopCode": 46, "lines": "1,2", "name": "Roosevelt Station", "walkingMeters": 1019, "walkingSeconds": 760, "band": 15}]}, "geometry": {"type": "Point", "coordinates": [-122.3245163, 47.6806755]}}, {"type": "Feature", "properties": {"id": "f2515e4d-0c78-419d-a74a-87be91a5042c", "name": "Guru Gayatri Yoga And Meditation Center", "category": "fitness_centre", "tags": ["fitness-centre", "yoga", "studio"], "sources": ["overture"], "website": "https://gurugayatri.org", "phone": "+12064189767", "address": "7200 Woodlawn Ave NE", "stations": [{"stopCode": 46, "lines": "1,2", "name": "Roosevelt Station", "walkingMeters": 1019, "walkingSeconds": 760, "band": 15}]}, "geometry": {"type": "Point", "coordinates": [-122.3245163, 47.6806755]}}, {"type": "Feature", "properties": {"id": "56cd0b95-d128-4611-b6fa-882ea9dced6e", "name": "Yogalife", "category": "fitness_centre", "tags": ["fitness-centre", "gym"], "sources": ["overture"], "website": "http://www.yogalife.com/", "phone": "2065290581", "address": "7200 Woodlawn Ave NE", "stations": [{"stopCode": 46, "lines": "1,2", "name": "Roosevelt Station", "walkingMeters": 972, "walkingSeconds": 699, "band": 15}]}, "geometry": {"type": "Point", "coordinates": [-122.3244934, 47.6806908]}}, {"type": "Feature", "properties": {"id": "d5235c82-f85b-4c94-b915-a34ff428aced", "name": "Modo Yoga", "category": "fitness_centre", "tags": ["fitness-centre", "yoga", "studio"], "sources": ["overture"], "website": "http://seattle.modoyoga.com", "phone": "(206) 402-6772", "address": "7110 Woodlawn Ave NE", "stations": [{"stopCode": 46, "lines": "1,2", "name": "Roosevelt Station", "walkingMeters": 847, "walkingSeconds": 609, "band": 10}]}, "geometry": {"type": "Point", "coordinates": [-122.3240128, 47.680088]}}, {"type": "Feature", "properties": {"id": "7088f799-9d21-4ea0-916f-70ee59b6185c", "name": "Halea Yoga", "category": "fitness_centre", "tags": ["fitness-centre", "yoga", "studio"], "sources": ["overture"], "website": "http://haleayoga.com/", "phone": "+12064026772", "address": "7110 Woodlawn Ave NE", "stations": [{"stopCode": 46, "lines": "1,2", "name": "Roosevelt Station", "walkingMeters": 852, "walkingSeconds": 613, "band": 10}]}, "geometry": {"type": "Point", "coordinates": [-122.3238754, 47.6801224]}}, {"type": "Feature", "properties": {"id": "0c7b29d6-6566-4e38-ad5e-8ce3e88542b2", "name": "Always Running Personal Conditioning Center", "category": "fitness_centre", "tags": ["fitness-centre", "fitness", "trainer"], "sources": ["overture"], "website": "https://alwaysrunning.com", "phone": "+12064238181", "address": "7203 5th Ave NE", "stations": [{"stopCode": 46, "lines": "1,2", "name": "Roosevelt Station", "walkingMeters": 945, "walkingSeconds": 705, "band": 10}]}, "geometry": {"type": "Point", "coordinates": [-122.3230667, 47.681057]}}, {"type": "Feature", "properties": {"id": "971df846-bfe5-47f9-9302-f147c6425925", "name": "The Pilates Hub", "category": "fitness_centre", "tags": ["fitness-centre", "pilates", "studio"], "sources": ["overture"], "website": "https://www.pilateshubseattle.com", "phone": "+12062575480", "address": "407 NE 73rd St Unit A", "stations": [{"stopCode": 46, "lines": "1,2", "name": "Roosevelt Station", "walkingMeters": 1045, "walkingSeconds": 751, "band": 15}]}, "geometry": {"type": "Point", "coordinates": [-122.3245087, 47.6812782]}}, {"type": "Feature", "properties": {"id": "4e299caf-02b4-4f0c-9af9-3cc981c53a0a", "name": "Evans Pool", "category": "swimming_pool", "tags": ["swimming-pool", "swimming", "pool"], "sources": ["overture"], "website": "http://www.seattle.gov/parks/Aquatics/Evanspool.htm", "phone": "+12066844961", "address": "7201 East Green Lake Dr N", "stations": [{"stopCode": 46, "lines": "1,2", "name": "Roosevelt Station", "walkingMeters": 1263, "walkingSeconds": 908, "band": 15}]}, "geometry": {"type": "Point", "coordinates": [-122.3287201, 47.6804733]}}, {"type": "Feature", "properties": {"id": "e81e3c49-4832-4cb9-a24f-ccf0f1d7a88d", "name": "Deep Blue Yoga", "category": "fitness_centre", "tags": ["fitness-centre", "yoga", "studio"], "sources": ["overture"], "website": "http://www.deepblueyoga.com/", "phone": "+12066053737", "address": "7351 East Green Lake Dr N", "stations": [{"stopCode": 46, "lines": "1,2", "name": "Roosevelt Station", "walkingMeters": 1328, "walkingSeconds": 955, "band": 15}]}, "geometry": {"type": "Point", "coordinates": [-122.3288116, 47.6812897]}}]}