{"type": "FeatureCollection", "features": [{"type": "Feature", "properties": {"id": 403696843, "name": "Taco Time", "category": "fast_food", "tags": ["fast-food", "mexican", "takeaway", "drive-through", "vegetarian", "fast", "food", "taco"], "sources": ["osm", "overture"], "website": "http://www.tacotimenw.com/Find-Us/Location-Details?lat=47.7590414&long=-122.2497452&startpoint&venueId=29&locationid=29", "phone": "+14254864472", "address": "18029 68th Ave NE", "hours": "Mo-Su 10:00-22:00"}, "geometry": {"type": "Point", "coordinates": [-122.2500655, 47.759225]}}, {"type": "Feature", "properties": {"id": 403702778, "name": "Pagliacci Pizza", "category": "fast_food", "tags": ["fast-food", "pizza", "restaurant", "italian"], "sources": ["osm", "overture"], "website": "http://www.pagliacci.com/", "phone": "+12067261717", "address": "6504 NE Bothell Way", "hours": "Su-Th 11:00-23:00; Fr-Sa 11:00-00:00"}, "geometry": {"type": "Point", "coordinates": [-122.2533637, 47.7589347]}}, {"type": "Feature", "properties": {"id": 637714825, "name": "Jimmy John's", "category": "fast_food", "tags": ["fast-food", "sandwich", "takeaway", "restaurant"], "sources": ["osm", "overture"], "website": "https://locations.jimmyjohns.com/wa/kenmore/sandwiches-3212.html", "phone": "+14254209793", "address": "6702 Bothell Way Ne"}, "geometry": {"type": "Point", "coordinates": [-122.2515599, 47.7587978]}}, {"type": "Feature", "properties": {"id": 6397196588, "name": "Ichiban Teryaki", "category": "restaurant", "tags": ["restaurant"], "sources": ["osm"]}, "geometry": {"type": "Point", "coordinates": [-122.252413, 47.7598938]}}, {"type": "Feature", "properties": {"id": 6450146505, "name": "Diva Espresso", "category": "cafe", "tags": ["cafe", "coffee"], "sources": ["osm", "overture"], "website": "https://www.divaespresso.com", "phone": "+14252194959", "address": "6728 NE 181st St", "hours": "Mo-Sa 06:00-18:00; Su 07:00-18:00"}, "geometry": {"type": "Point", "coordinates": [-122.2500175, 47.7597086]}}, {"type": "Feature", "properties": {"id": 7055956959, "name": "Stoup", "category": "pub", "tags": ["pub", "microbrew"], "sources": ["osm"], "website": "https://www.stoupbrewing.com/kenmore/", "address": "6704 Northeast 181st Street", "hours": "Su-Th 12:00-21:00; Fr-Sa 12:00-22:00"}, "geometry": {"type": "Point", "coordinates": [-122.2509477, 47.7597816]}}, {"type": "Feature", "properties": {"id": 7055994706, "name": "Pho House Deli", "category": "restaurant", "tags": ["restaurant", "vietnamese"], "sources": ["osm", "overture"], "phone": "14258928141", "address": "6233 NE Bothell Way"}, "geometry": {"type": "Point", "coordinates": [-122.2587937, 47.7582244]}}, {"type": "Feature", "properties": {"id": 7176508163, "name": "Toma Sushi", "category": "restaurant", "tags": ["restaurant", "sushi"], "sources": ["osm"], "website": "https://www.tomasushi.com", "phone": "+1-425-486-9441", "address": "6512 Northeast Bothell Way", "hours": "Mo-Th 11:30-21:00; Fr 11:30-20:00; Sa-Su 12:00-21:00"}, "geometry": {"type": "Point", "coordinates": [-122.2529756, 47.7589886]}}, {"type": "Feature", "properties": {"id": 403701033, "name": "Kidd Valley", "category": "fast_food", "tags": ["fast-food", "burger", "restaurant", "american"], "sources": ["osm", "overture"], "website": "http://kiddvalley.com/", "phone": "+14254855514", "address": "6434 NE Bothell Way"}, "geometry": {"type": "Point", "coordinates": [-122.2549578, 47.7589686]}}, {"type": "Feature", "properties": {"id": 393311111, "name": "North Shore Pub", "category": "bar", "tags": ["bar", "wheelchair-accessible", "smoking", "sports"], "sources": ["osm", "overture"], "website": "https://northshorepub.godaddysites.com/", "phone": "+14254837311", "address": "18017 68th Ave NE"}, "geometry": {"type": "Point", "coordinates": [-122.250144, 47.7590014]}}, {"type": "Feature", "properties": {"id": 1366117353, "name": "Dolce Vita Espresso", "category": "cafe", "tags": ["cafe", "coffee-shop", "coffee"], "sources": ["osm", "overture"], "website": "http://www.dolcevitaespresso.net", "address": "6524 NE 181st St"}, "geometry": {"type": "Point", "coordinates": [-122.2519745, 47.7596846]}}, {"type": "Feature", "properties": {"id": "62f0f826-e01a-4ba3-a78c-28921f8b41e9", "name": "Stoup Brewing Kenmore", "category": "bar", "tags": ["bar", "brewery", "bar-and-grill"], "sources": ["overture"], "website": "https://www.stoupbrewing.com/kenmore/", "phone": "+14252986516", "address": "6704 NE 181st St"}, "geometry": {"type": "Point", "coordinates": [-122.2508774, 47.7596436]}}, {"type": "Feature", "properties": {"id": "f54dcdc7-a8b9-4feb-9641-3053bd902a11", "name": "Ichiban Teriyaki", "category": "restaurant", "tags": ["restaurant", "japanese", "asian"], "sources": ["overture"], "website": "https://ichiban-teriyaki-wa.hub.biz", "phone": "+14254817585", "address": "6524 NE 181st St"}, "geometry": {"type": "Point", "coordinates": [-122.2522964, 47.7597961]}}, {"type": "Feature", "properties": {"id": "f2baddbe-080e-4155-b737-1b14b736a950", "name": "Tai Ho", "category": "restaurant", "tags": ["restaurant", "chinese"], "sources": ["overture"], "website": "http://www.taihorestaurant.com", "phone": "(425) 485-4020", "address": "6312 NE Bothell Way"}, "geometry": {"type": "Point", "coordinates": [-122.2574768, 47.7587166]}}, {"type": "Feature", "properties": {"id": 6397196586, "name": "Maser\u2019s Grooming and Pet Boutique", "category": "pet", "tags": ["pet"], "sources": ["osm", "overture"], "website": "http://www.masers.com/", "phone": "+14254851500", "address": "6515 NE 181st St"}, "geometry": {"type": "Point", "coordinates": [-122.2529874, 47.7593709]}}, {"type": "Feature", "properties": {"id": 11585740834, "name": "Theorem Cannabis", "category": "cannabis", "tags": ["cannabis", "clinic"], "sources": ["osm", "overture"], "website": "http://www.theoremcannabis.com/", "phone": "+14254066797", "address": "6251 NE Bothell Way"}, "geometry": {"type": "Point", "coordinates": [-122.2581956, 47.7583124]}}, {"type": "Feature", "properties": {"id": "86c10b6f-b8fa-4b28-b73e-098b38a1faba", "name": "Sherwin-Williams", "category": "doityourself", "tags": ["doityourself", "building", "supply"], "sources": ["overture"], "website": "https://www.sherwin-williams.com/store-locator/paint-store/kenmore/wa/708099", "phone": "+14254873558", "address": "6410 NE Bothell Way"}, "geometry": {"type": "Point", "coordinates": [-122.2560196, 47.7589188]}}, {"type": "Feature", "properties": {"id": "281003e7-a9e0-4d64-9bf9-05996ae77916", "name": "CalPortland", "category": "doityourself", "tags": ["doityourself", "building", "supply"], "sources": ["overture"], "website": "http://www.calportland.com/locations/washington/kenmore-rm-plant-aggregate-yard/", "phone": "8007500123", "address": "6423 NE 175th St Ste A"}, "geometry": {"type": "Point", "coordinates": [-122.2550125, 47.7575111]}}, {"type": "Feature", "properties": {"id": "6bcb3920-9c66-45a6-9880-4b47a5b55149", "name": "Micro Homebrew", "category": "alcohol", "tags": ["alcohol"], "sources": ["overture"], "website": "http://www.MicroHomebrew.com/", "phone": "+14258928425", "address": "17511 68th Ave NE"}, "geometry": {"type": "Point", "coordinates": [-122.2502289, 47.7579117]}}, {"type": "Feature", "properties": {"id": 403701035, "name": "Ostrom's Drug & Gift", "category": "pharmacy", "tags": ["pharmacy"], "sources": ["osm", "overture"], "website": "http://www.ostroms.com/", "phone": "+14254867711", "address": "6414 NE Bothell Way"}, "geometry": {"type": "Point", "coordinates": [-122.2555504, 47.7590378]}}, {"type": "Feature", "properties": {"id": 356551349, "name": "Kenmore Post Office", "category": "post_office", "tags": ["post-office"], "sources": ["osm"], "website": "https://tools.usps.com/locations/details/1440385", "phone": "+1-425-482-9755", "address": "6700 Northeast 181st Street", "hours": "Mo-Fr 09:00-13:00,14:00-17:00"}, "geometry": {"type": "Point", "coordinates": [-122.251669, 47.7599775]}}, {"type": "Feature", "properties": {"id": 403702926, "name": "U.S. Bank", "category": "bank", "tags": ["bank"], "sources": ["osm"], "address": "6460 Bothell Way Northeast"}, "geometry": {"type": "Point", "coordinates": [-122.2543496, 47.7590127]}}, {"type": "Feature", "properties": {"id": 403697146, "name": "Chase", "category": "bank", "tags": ["bank"], "sources": ["osm"], "website": "https://locator.chase.com/wa/kenmore/6701-ne-181st-st", "phone": "+1-425-486-1286", "address": "6701 Northeast 181st Street", "hours": "Mo-Fr 09:00-17:00; Sa 09:00-13:00; Su closed"}, "geometry": {"type": "Point", "coordinates": [-122.2510932, 47.7593412]}}, {"type": "Feature", "properties": {"id": 556374479, "name": "Kenmore Library", "category": "library", "tags": ["library"], "sources": ["osm", "overture"], "website": "https://kcls.org/locations/1519/", "phone": "+14254868747", "address": "6531 NE 181st St", "hours": "Mo-Th 10:00-21:00; Fr 10:00-18:00; Sa 10:00-17:00"}, "geometry": {"type": "Point", "coordinates": [-122.2523207, 47.7593547]}}, {"type": "Feature", "properties": {"id": "e459cbe5-ffb5-437a-a164-52f6640276e2", "name": "United States Postal Service", "category": "post_office", "tags": ["post-office", "office"], "sources": ["overture"], "website": "http://www.usps.com", "phone": "+18002758777", "address": "6700 NE 181st St"}, "geometry": {"type": "Point", "coordinates": [-122.2515793, 47.759964]}}, {"type": "Feature", "properties": {"id": "ee7dde17-b6db-4a16-a794-f1e1cc1ad845", "name": "Chase Bank", "category": "bank", "tags": ["bank", "credit", "union"], "sources": ["overture"], "website": "https://www.chase.com/locator/banking/us/wa/kenmore/6701-ne-181st-st?jp_cmp=rb%2FLocalListings%2Faff%2Fbranch%2Fna&y_source=1_MjAzOTk0NC00ODMtbG9jYXRpb24ud2Vic2l0ZQ%3D%3D", "phone": "4254861286", "address": "6701 NE 181st St"}, "geometry": {"type": "Point", "coordinates": [-122.2511063, 47.7593346]}}, {"type": "Feature", "properties": {"id": "143436a5-eaad-4423-98d6-2650afcf7a53", "name": "LakeView Yoga", "category": "fitness_centre", "tags": ["fitness-centre", "yoga", "studio"], "sources": ["overture"], "website": "http://www.lakeviewyoga.com", "phone": "(425) 481-7020", "address": "6251 NE Bothell Way"}, "geometry": {"type": "Point", "coordinates": [-122.2582169, 47.758255]}}]}