{"type": "FeatureCollection", "features": [{"type": "Feature", "properties": {"id": 652996097, "name": "Best Cafe & Teriyaki", "category": "restaurant", "tags": ["restaurant", "teriyaki"], "sources": ["osm"], "address": "10990 East Marginal Way South"}, "geometry": {"type": "Point", "coordinates": [-122.2893255, 47.5042643]}}, {"type": "Feature", "properties": {"id": "3e18df73-8867-41b9-815e-518f93c1c460", "name": "EDANDLIZ European Bakehouse LLC", "category": "bakery", "tags": ["bakery", "european"], "sources": ["overture"], "website": "http://edandliz.com/", "phone": "+14254999584", "address": "10836 E Marginal Wy S"}, "geometry": {"type": "Point", "coordinates": [-122.2892532, 47.5050087]}}, {"type": "Feature", "properties": {"id": "fd68ef8f-154d-49af-b46b-6b6572031f00", "name": "The Great American Bagel", "category": "bakery", "tags": ["bakery", "bagel"], "sources": ["overture"], "website": "https://www.greatamericanbagel.com", "phone": "+12067634300", "address": "10836 E Marginal Way S"}, "geometry": {"type": "Point", "coordinates": [-122.2896042, 47.5051804]}}, {"type": "Feature", "properties": {"id": 155090538, "name": "Duwamish Hill Preserve", "category": "park", "tags": ["park"], "sources": ["osm"], "address": "3800 South 115th Street"}, "geometry": {"type": "Point", "coordinates": [-122.2856132, 47.5016957]}}, {"type": "Feature", "properties": {"id": 391097882, "name": "Duwamish Garden", "category": "park", "tags": ["park"], "sources": ["osm"]}, "geometry": {"type": "Point", "coordinates": [-122.2896369, 47.5012124]}}, {"type": "Feature", "properties": {"id": "1ec5b275-a125-4cae-9625-a70749f23552", "name": "Duwamish Gardens Park", "category": "park", "tags": ["park"], "sources": ["overture"], "website": "www.Tukwilawa.gov", "address": "Duwamish Trail"}, "geometry": {"type": "Point", "coordinates": [-122.2888489, 47.5013161]}}, {"type": "Feature", "properties": {"id": "40856f98-6858-4f24-bc7b-3579e60686ad", "name": "Mutual Materials", "category": "doityourself", "tags": ["doityourself", "building", "supply"], "sources": ["overture"], "website": "https://www.mutualmaterials.com/branches/south-seattle/", "phone": "+14254522400", "address": "4302 S 104th Pl"}, "geometry": {"type": "Point", "coordinates": [-122.2817841, 47.5092316]}}, {"type": "Feature", "properties": {"id": "8c53468f-5b83-45a6-ab0b-05f58299b462", "name": "Catalyst Workplace Activation", "category": "furniture", "tags": ["furniture"], "sources": ["overture"], "website": "http://www.catalystactivation.com", "phone": "2067628818", "address": "10848 E Marginal Way S"}, "geometry": {"type": "Point", "coordinates": [-122.2892609, 47.5046463]}}, {"type": "Feature", "properties": {"id": "d42d2dc1-4ac4-4459-bbde-32640f385ae9", "name": "Spiked Specialty Foods", "category": "supermarket", "tags": ["supermarket"], "sources": ["overture"], "address": "10836 E Marginal Way S"}, "geometry": {"type": "Point", "coordinates": [-122.2896042, 47.5051804]}}, {"type": "Feature", "properties": {"id": "4c4bb24b-962f-473c-956f-40ebbc1e9816", "name": "Lindal Cedar Homes", "category": "furniture", "tags": ["furniture"], "sources": ["overture"], "website": "http://www.lindal.com", "phone": "(206) 725-0900", "address": "4300 S 104th Pl"}, "geometry": {"type": "Point", "coordinates": [-122.2820129, 47.5097771]}}]}