{"type": "FeatureCollection", "features": [{"type": "Feature", "properties": {"id": 2349883332, "name": "Hudson", "category": "restaurant", "tags": ["restaurant", "american", "outdoor-seating", "indoor-seating", "wheelchair-accessible", "southern"], "sources": ["osm", "overture"], "website": "http://www.HudsonSeattle.com/", "phone": "+12067674777", "address": "5000 E Marginal Wy S", "hours": "Mo-Fr 07:00-23:00; Sa 08:00-23:00; Su 08:00-15:00"}, "geometry": {"type": "Point", "coordinates": [-122.33857, 47.5572665]}}, {"type": "Feature", "properties": {"id": 5964867740, "name": "Essential Baking Cafe", "category": "restaurant", "tags": ["restaurant", "bakery"], "sources": ["osm"], "address": "5601 1st Avenue South"}, "geometry": {"type": "Point", "coordinates": [-122.334534, 47.5521924]}}, {"type": "Feature", "properties": {"id": 1547963035, "name": "LadyBug Espresso", "category": "cafe", "tags": ["cafe", "coffee-shop", "takeaway", "coffee"], "sources": ["osm", "overture"], "website": "http://ladybugbikiniespresso.com", "address": "5400 E Marginal Wy S"}, "geometry": {"type": "Point", "coordinates": [-122.3369394, 47.5540547]}}, {"type": "Feature", "properties": {"id": 231286750, "name": "Blind Raven BBQ & Catering", "category": "restaurant", "tags": ["restaurant", "barbecue"], "sources": ["osm"], "address": "5602 1st Avenue South"}, "geometry": {"type": "Point", "coordinates": [-122.3338989, 47.5526007]}}, {"type": "Feature", "properties": {"id": 231286814, "name": "Slim's Last Chance", "category": "bar", "tags": ["bar", "restaurant", "bar-and-grill", "grill", "comfort-food"], "sources": ["osm", "overture"], "website": "http://www.slimslastchance.com", "phone": "+12067627900", "address": "5606 1st Ave S"}, "geometry": {"type": "Point", "coordinates": [-122.3338997, 47.5524903]}}, {"type": "Feature", "properties": {"id": "dea3cae5-a03a-4ee6-92f6-33bc77411ee1", "name": "The Essential Baking Company", "category": "bakery", "tags": ["bakery"], "sources": ["overture"], "website": "https://essentialbaking.com", "phone": "12065453804", "address": "5601 1st Ave S"}, "geometry": {"type": "Point", "coordinates": [-122.3352661, 47.5522842]}}, {"type": "Feature", "properties": {"id": "8971a2a2-7cf7-41aa-99fa-f6f74ed6c19c", "name": "La Marzocco", "category": "cafe", "tags": ["cafe", "coffee"], "sources": ["overture"], "website": "http://lamarzoccousa.com", "phone": "+12067069105", "address": "5601 1st Ave S"}, "geometry": {"type": "Point", "coordinates": [-122.3349686, 47.5523224]}}, {"type": "Feature", "properties": {"id": "9e9c95e6-a91e-4486-931c-15f61ec2d1b2", "name": "Pig Iron Bar-B-Q", "category": "restaurant", "tags": ["restaurant", "barbecue", "burger"], "sources": ["overture"], "website": "http://www.pigironbbq.net/", "phone": "2067681009", "address": "5602 1st Ave S"}, "geometry": {"type": "Point", "coordinates": [-122.3339386, 47.5526276]}}, {"type": "Feature", "properties": {"id": "fe709656-f7fe-4863-baa8-04c16bb0120a", "name": "Parisian Star Desserts", "category": "restaurant", "tags": ["restaurant"], "sources": ["overture"], "phone": "2065453804", "address": "5601 1st Ave S"}, "geometry": {"type": "Point", "coordinates": [-122.3342361, 47.5523262]}}, {"type": "Feature", "properties": {"id": "c475cf0f-d910-457f-a631-435de6c00369", "name": "Essential Baking Company", "category": "restaurant", "tags": ["restaurant"], "sources": ["overture"], "phone": "2065453804", "address": "5601 1st Ave S"}, "geometry": {"type": "Point", "coordinates": [-122.3342361, 47.5523262]}}, {"type": "Feature", "properties": {"id": "bccc1148-6e59-448f-b559-5db0dd2c6682", "name": "Franke Coffee Systems", "category": "cafe", "tags": ["cafe", "coffee"], "sources": ["overture"], "website": "http://www.franke.com", "phone": "(206) 784-9563", "address": "5601 1st Ave S"}, "geometry": {"type": "Point", "coordinates": [-122.334816, 47.5523949]}}, {"type": "Feature", "properties": {"id": "eb968d47-1916-4870-9ee9-7a7d5bdf66e7", "name": "Essential Bakery Georgetown Cafe", "category": "bakery", "tags": ["bakery"], "sources": ["overture"], "website": "https://essentialbaking.com/", "phone": "+12065456773", "address": "5601 1st Ave S"}, "geometry": {"type": "Point", "coordinates": [-122.3344727, 47.5523262]}}, {"type": "Feature", "properties": {"id": "107abc52-0624-4222-b83d-71d958fdd0d0", "name": "Ingallina's Box Lunch", "category": "restaurant", "tags": ["restaurant", "sandwich"], "sources": ["overture"], "website": "http://www.ingallina.net/", "phone": "2067669400", "address": "135 S Lucile St"}, "geometry": {"type": "Point", "coordinates": [-122.333519, 47.5534248]}}, {"type": "Feature", "properties": {"id": "310e2509-38f9-4d45-a382-d48090b1999c", "name": "Lifelong Meal Production Center", "category": "fast_food", "tags": ["fast-food", "fast", "food"], "sources": ["overture"], "address": "210 S Lucile St"}, "geometry": {"type": "Point", "coordinates": [-122.3317719, 47.5535736]}}, {"type": "Feature", "properties": {"id": "ea5a7c9a-33f9-4697-8a65-143b47f5380c", "name": "Alki Bakery", "category": "cafe", "tags": ["cafe", "coffee"], "sources": ["overture"], "website": "http://www.alkibakery.com/", "phone": "(206) 762-5700", "address": "5700 1st Ave S"}, "geometry": {"type": "Point", "coordinates": [-122.3340836, 47.5518379]}}, {"type": "Feature", "properties": {"id": "7c9c6364-d0bd-4adb-9c89-bb11e3861de9", "name": "LightArt", "category": "gallery", "tags": ["gallery", "art"], "sources": ["overture"], "website": "http://www.lightart.com/contact/", "phone": "+12065242223", "address": "4770 Ohio Ave S Ste B"}, "geometry": {"type": "Point", "coordinates": [-122.3376465, 47.5583725]}}, {"type": "Feature", "properties": {"id": "f4dbff7e-9f5e-4db4-be5a-9abfb881e496", "name": "Picture Source Northwest Corporate Headquarters", "category": "gallery", "tags": ["gallery", "art"], "sources": ["overture"], "website": "https://www.picture-source.com", "phone": "12067632556", "address": "220 S Brandon St"}, "geometry": {"type": "Point", "coordinates": [-122.3311234, 47.5543671]}}, {"type": "Feature", "properties": {"id": "5b8edffa-01d9-4912-ba85-d011af896410", "name": "House of Sorcery", "category": "gallery", "tags": ["gallery", "art"], "sources": ["overture"], "phone": "+12064575290", "address": "5706 2nd Ave S"}, "geometry": {"type": "Point", "coordinates": [-122.3321533, 47.5513229]}}, {"type": "Feature", "properties": {"id": "c1438d0d-a612-4444-b0be-53e61100e9f1", "name": "La Hacienda Motel", "category": "motel", "tags": ["motel"], "sources": ["overture"], "website": "http://www.la-hacienda-motel.hotels-in-seattle.net/en/", "phone": "+12067622460", "address": "5414 1st Ave S"}, "geometry": {"type": "Point", "coordinates": [-122.3337936, 47.5535164]}}, {"type": "Feature", "properties": {"id": "2c627c75-6462-45be-bfe5-bfce175bc3b7", "name": "Urban Hardwoods", "category": "furniture", "tags": ["furniture"], "sources": ["overture"], "website": "urbanhardwoods.com", "phone": "12064438099", "address": "4755 Colorado Ave S  Ste C"}, "geometry": {"type": "Point", "coordinates": [-122.3373413, 47.5594101]}}, {"type": "Feature", "properties": {"id": 2396883514, "name": "Baker\u00e9\u00e9", "category": "cannabis", "tags": ["cannabis"], "sources": ["osm"], "website": "https://thebakereeseattle.com/georgetown-south-seattle-dispensary/", "address": "74 South Lucile Street"}, "geometry": {"type": "Point", "coordinates": [-122.335683, 47.5535838]}}, {"type": "Feature", "properties": {"id": "897b3847-1ca8-4cd5-870f-b25db1fc03a1", "name": "Blue Nile", "category": "jewelry", "tags": ["jewelry"], "sources": ["overture"], "website": "http://www.bluenile.com", "phone": "+12063367958", "address": "5907 4th Ave S"}, "geometry": {"type": "Point", "coordinates": [-122.3302231, 47.5501709]}}, {"type": "Feature", "properties": {"id": 5559450625, "name": "Mallory Safety & Supply", "category": "hardware", "tags": ["hardware"], "sources": ["osm"], "website": "https://www.mallory.com/Seattle", "phone": "+1-360-690-8200", "address": "5510 East Marginal Way South"}, "geometry": {"type": "Point", "coordinates": [-122.3363253, 47.5530518]}}, {"type": "Feature", "properties": {"id": 5559459424, "name": "Seattle Granite", "category": "hardware", "tags": ["hardware"], "sources": ["osm"]}, "geometry": {"type": "Point", "coordinates": [-122.3376613, 47.5599733]}}, {"type": "Feature", "properties": {"id": 5964867738, "name": "Little Deli Mart", "category": "convenience", "tags": ["convenience", "deli", "delicatessen"], "sources": ["osm", "overture"], "website": "http://agr.wa.gov", "phone": "+12067625775", "address": "5622 1st Ave S"}, "geometry": {"type": "Point", "coordinates": [-122.3338697, 47.5522023]}}, {"type": "Feature", "properties": {"id": "d97be8e3-b7b1-4f5c-a419-18d1dd9b2410", "name": "Armoire", "category": "clothes", "tags": ["clothes", "womens"], "sources": ["overture"], "website": "armoire.style", "phone": "14257282458", "address": "4786 1st Ave S  Ste 105"}, "geometry": {"type": "Point", "coordinates": [-122.3332901, 47.5589104]}}, {"type": "Feature", "properties": {"id": "874692b1-03d4-420c-938b-f62c7217f770", "name": "TomboyX", "category": "clothes", "tags": ["clothes"], "sources": ["overture"], "website": "http://www.tomboyx.com/", "phone": "+14582060850", "address": "1910 1st Ave S"}, "geometry": {"type": "Point", "coordinates": [-122.3373718, 47.5566826]}}, {"type": "Feature", "properties": {"id": "102fad48-6eb4-4d97-af55-6631079a50c8", "name": "Acme Construction Supply", "category": "doityourself", "tags": ["doityourself", "building", "supply"], "sources": ["overture"], "website": "http://www.acmetool.com/seattle", "phone": "2064641480", "address": "4747 1st Ave S"}, "geometry": {"type": "Point", "coordinates": [-122.3347931, 47.5591583]}}, {"type": "Feature", "properties": {"id": "dbf54fca-24cd-47f6-9b09-4c00f8c15d14", "name": "Kaufer's Religious Supplies", "category": "gift", "tags": ["gift"], "sources": ["overture"], "website": "http://www.kaufersonline.com", "phone": "(800) 426-3320", "address": "5201 4th Ave S"}, "geometry": {"type": "Point", "coordinates": [-122.330101, 47.5553856]}}, {"type": "Feature", "properties": {"id": "45f89585-0526-43c5-ac28-c14c1031b5eb", "name": "Georgetown Collection", "category": "gift", "tags": ["gift"], "sources": ["overture"], "website": "http://www.georgetownsamples.com", "phone": "(206) 762-9300", "address": "206 S Brandon St"}, "geometry": {"type": "Point", "coordinates": [-122.3317795, 47.5543633]}}, {"type": "Feature", "properties": {"id": "d7e958ba-7cac-41f5-9dec-767db2113b79", "name": "Luxurysar", "category": "clothes", "tags": ["clothes", "womens"], "sources": ["overture"], "website": "https://www.luxurysar.com/", "phone": "+17163367108", "address": "114 S Brandon St"}, "geometry": {"type": "Point", "coordinates": [-122.3334427, 47.5543137]}}, {"type": "Feature", "properties": {"id": "124ce0f5-a675-40d0-8922-9f3983df6da3", "name": "Masons Supply Co", "category": "doityourself", "tags": ["doityourself", "building", "supply"], "sources": ["overture"], "phone": "12067674645", "address": "5210 1st Ave S"}, "geometry": {"type": "Point", "coordinates": [-122.3335342, 47.5552292]}}, {"type": "Feature", "properties": {"id": "80c032e5-b956-4dcb-bb88-ea4792011c97", "name": "Paleo Baking Company, Llc", "category": "supermarket", "tags": ["supermarket"], "sources": ["overture"], "website": "www.paleobakingcompany.com", "address": "5201 1st Ave S"}, "geometry": {"type": "Point", "coordinates": [-122.3347931, 47.5552444]}}, {"type": "Feature", "properties": {"id": "bdc806d9-bb00-4d8b-a28a-9f523423599e", "name": "Georgetown Metal Works, LLC", "category": "doityourself", "tags": ["doityourself", "building", "supply"], "sources": ["overture"], "website": "http://georgetownmetalworks.com", "phone": "(206) 762-0607", "address": "5210 Utah Ave S"}, "geometry": {"type": "Point", "coordinates": [-122.3351593, 47.5555611]}}, {"type": "Feature", "properties": {"id": "1d5b7442-1695-4450-9ede-ae689175b545", "name": "United Western Supply Company", "category": "doityourself", "tags": ["doityourself", "building", "supply"], "sources": ["overture"], "website": "https://www.unitedwesternsupply.net", "phone": "+12067679880", "address": "5245 E Marginal Way S"}, "geometry": {"type": "Point", "coordinates": [-122.3378677, 47.5545692]}}, {"type": "Feature", "properties": {"id": "94e9f0e2-a7f7-4721-ab99-158eedfbbb78", "name": "The Baker\u00e9\u00e9 - Georgetown", "category": "cannabis", "tags": ["cannabis"], "sources": ["overture"], "website": "thebakereeseattle.com", "phone": "12066590574", "address": "74 S Lucile St"}, "geometry": {"type": "Point", "coordinates": [-122.3356247, 47.5536461]}}, {"type": "Feature", "properties": {"id": "2ccbdc3d-a5a9-4374-987c-a257b3bfdc43", "name": "The Daily Coffee & Tea Co.", "category": "supermarket", "tags": ["supermarket"], "sources": ["overture"], "address": "5400 E Marginal Way S"}, "geometry": {"type": "Point", "coordinates": [-122.3365479, 47.5539513]}}, {"type": "Feature", "properties": {"id": "ec5d7819-b2ad-44a7-889c-8be08dc728b7", "name": "Vinatronics", "category": "clothes", "tags": ["clothes"], "sources": ["overture"], "website": "http://www.vinatronics.com", "phone": "(206) 762-7407", "address": "5685 Utah Ave S"}, "geometry": {"type": "Point", "coordinates": [-122.3357391, 47.5528717]}}, {"type": "Feature", "properties": {"id": "5c0352f7-b130-44bd-b3b3-34533fa600c2", "name": "Berg Evans Chain Co.", "category": "doityourself", "tags": ["doityourself", "home", "improvement"], "sources": ["overture"], "website": "http://www.bergevans.com", "phone": "(206) 763-2634", "address": "217 S Findlay St"}, "geometry": {"type": "Point", "coordinates": [-122.3314819, 47.5524483]}}, {"type": "Feature", "properties": {"id": "a04655c3-255b-42f5-8fdd-88e74e5bf6a4", "name": "Cloudlift Cellars", "category": "wine", "tags": ["wine", "winery"], "sources": ["overture"], "website": "http://cloudlift.net/", "phone": "+12067347453", "address": "312 S Lucile St"}, "geometry": {"type": "Point", "coordinates": [-122.330513, 47.5535049]}}, {"type": "Feature", "properties": {"id": "6f324b85-7602-40ba-aeca-95dd725b7136", "name": "Thomas Stangeland Artist", "category": "furniture", "tags": ["furniture"], "sources": ["overture"], "website": "http://artistcraftsman.net", "phone": "(206) 622-2004", "address": "312 S Lucile St"}, "geometry": {"type": "Point", "coordinates": [-122.3305359, 47.5536804]}}, {"type": "Feature", "properties": {"id": "3ee5e003-c224-4bcd-8c57-83b7ce5147a5", "name": "Century Hardware", "category": "hardware", "tags": ["hardware"], "sources": ["overture"], "website": "http://www.centuryhdw.com/", "phone": "+12067677801", "address": "5700 3rd Ave S"}, "geometry": {"type": "Point", "coordinates": [-122.330574, 47.551754]}}, {"type": "Feature", "properties": {"id": "44122c5b-0f3e-4da4-8896-3232862d2f41", "name": "Accent Table Lighting Co", "category": "supermarket", "tags": ["supermarket"], "sources": ["overture"], "address": "214 S Mead St"}, "geometry": {"type": "Point", "coordinates": [-122.3314667, 47.5512772]}}, {"type": "Feature", "properties": {"id": "c95515b8-f57e-49ee-b7fb-03262af31e93", "name": "Rom Lee Designs", "category": "furniture", "tags": ["furniture"], "sources": ["overture"], "website": "http://www.romleedesigns.com", "phone": "(206) 382-3378", "address": "218 S Mead St"}, "geometry": {"type": "Point", "coordinates": [-122.3315506, 47.5513268]}}, {"type": "Feature", "properties": {"id": "3548dec2-cb0a-469e-a037-e68255cbfa0c", "name": "The Plant Connection", "category": "florist", "tags": ["florist"], "sources": ["overture"], "website": "https://theplant-connection.com", "phone": "(206) 938-3884", "address": "218 S Mead St"}, "geometry": {"type": "Point", "coordinates": [-122.3315506, 47.5513268]}}, {"type": "Feature", "properties": {"id": "3c88bf13-6baf-48ca-8c88-6b6a46516f67", "name": "Lamar Hookah Wholesale and Retail", "category": "tobacco", "tags": ["tobacco"], "sources": ["overture"], "website": "http://WWW.lamarhookah.com/", "phone": "+12533912384", "address": "212 S Mead St"}, "geometry": {"type": "Point", "coordinates": [-122.3316727, 47.5511818]}}, {"type": "Feature", "properties": {"id": "99c2ca42-6e68-4abf-912f-c8407e4e4114", "name": "Air Tec", "category": "doityourself", "tags": ["doityourself", "building", "supply"], "sources": ["overture"], "website": "http://www.airtecco.com", "phone": "(206) 763-9911", "address": "85 S Orcas St"}, "geometry": {"type": "Point", "coordinates": [-122.335083, 47.5515442]}}, {"type": "Feature", "properties": {"id": "82e800cb-2a41-4847-92c4-4c2ff48c8e30", "name": "Syncor International Corporation", "category": "pharmacy", "tags": ["pharmacy"], "sources": ["overture"], "website": "https://www.harddancenation.com", "phone": "(206) 762-1135", "address": "5030 1st Ave S"}, "geometry": {"type": "Point", "coordinates": [-122.333374, 47.5567436]}}, {"type": "Feature", "properties": {"id": "8b1e8e61-791a-4614-ae32-2f99142e91f6", "name": "South Lucile Street VA Clinic", "category": "clinic", "tags": ["clinic", "walk", "in"], "sources": ["overture"], "website": "https://www.va.gov/puget-sound-health-care/locations/south-lucile-street-va-clinic/", "address": "305 South Lucile Street, Suite 103"}, "geometry": {"type": "Point", "coordinates": [-122.330658, 47.5533791]}}, {"type": "Feature", "properties": {"id": "602bd60d-de32-4417-9fae-cd16624aae7d", "name": "AmericanWest Bank", "category": "bank", "tags": ["bank", "credit", "union"], "sources": ["overture"], "website": "https://www.awbank.net/", "phone": "2067681088", "address": "5701 1st Ave S"}, "geometry": {"type": "Point", "coordinates": [-122.3345184, 47.5514183]}}, {"type": "Feature", "properties": {"id": "7ab4a9d4-3c29-4dfd-8907-4264cea445e4", "name": "Hive Financial", "category": "bank", "tags": ["bank", "credit", "union"], "sources": ["overture"], "website": "https://www.hivefinancialgroup.com/", "phone": "2067634350", "address": "227 S Orcas St"}, "geometry": {"type": "Point", "coordinates": [-122.3312988, 47.5516815]}}]}