{"type": "FeatureCollection", "features": [{"type": "Feature", "properties": {"id": 4972916778, "name": "Jet City Pizza", "category": "fast_food", "tags": ["fast-food", "pizza", "restaurant", "italian"], "sources": ["osm", "overture"], "website": "http://www.jetcitypizza.com/", "phone": "+12065252225", "address": "7500 25th Ave NE", "hours": "Su-Th 11:00-21:00; Fr-Sa 11:00-22:00"}, "geometry": {"type": "Point", "coordinates": [-122.3003532, 47.6832828]}}, {"type": "Feature", "properties": {"id": 8490849009, "name": "#WeGotThisSeattle", "category": "artwork", "tags": ["artwork"], "sources": ["osm"]}, "geometry": {"type": "Point", "coordinates": [-122.30291, 47.6886609]}}, {"type": "Feature", "properties": {"id": 8522832815, "name": "Picardo Venus", "category": "artwork", "tags": ["artwork"], "sources": ["osm"]}, "geometry": {"type": "Point", "coordinates": [-122.3001049, 47.6879756]}}, {"type": "Feature", "properties": {"id": 905247337, "name": "Rock Garden", "category": "garden", "tags": ["garden"], "sources": ["osm"]}, "geometry": {"type": "Point", "coordinates": [-122.3002844, 47.6844513]}}, {"type": "Feature", "properties": {"id": "9c5cbeb3-8dfd-4ab3-a46f-cf91b810e657", "name": "Dahl Park", "category": "playground", "tags": ["playground"], "sources": ["overture"], "website": "http://www.seattle.gov/parks/find/parks/dahl-playfield"}, "geometry": {"type": "Point", "coordinates": [-122.3000717, 47.6847725]}}, {"type": "Feature", "properties": {"id": 223055442, "name": "7-Eleven", "category": "convenience", "tags": ["convenience", "delivery", "wheelchair-accessible"], "sources": ["osm", "overture"], "website": "https://www.7-eleven.com/", "phone": "+12065222711", "address": "8250 Lake City Way NE", "hours": "24/7"}, "geometry": {"type": "Point", "coordinates": [-122.3096153, 47.6889605]}}, {"type": "Feature", "properties": {"id": 220966481, "name": "Food Mart", "category": "convenience", "tags": ["convenience"], "sources": ["osm"], "address": "2501 Northeast 75th Street"}, "geometry": {"type": "Point", "coordinates": [-122.3002821, 47.6827516]}}, {"type": "Feature", "properties": {"id": "9ed83895-70ea-436f-bc52-cc5b6181957f", "name": "Vishal Enterprises Inc", "category": "supermarket", "tags": ["supermarket"], "sources": ["overture"], "address": "8250 Lake City Way NE"}, "geometry": {"type": "Point", "coordinates": [-122.3096237, 47.688961]}}, {"type": "Feature", "properties": {"id": "bd2ea8bb-338d-44a1-af03-daa926814be4", "name": "University Liquor and Convenience Store", "category": "convenience", "tags": ["convenience"], "sources": ["overture"], "website": "http://www.annascabinet.com", "phone": "(206) 525-5303", "address": "7500 25th Ave NE"}, "geometry": {"type": "Point", "coordinates": [-122.3005295, 47.6833496]}}]}