{"type": "FeatureCollection", "features": [{"type": "Feature", "properties": {"id": 1728576394, "name": "Subway", "category": "fast_food", "tags": ["fast-food", "sandwich", "takeaway", "restaurant"], "sources": ["osm", "overture"], "website": "https://restaurants.subway.com/united-states/wa/mercer-island/7679-se-27th", "phone": "+12069069344", "address": "7679 SE 27th Suite 9", "hours": "Mo-Fr 07:00-22:00; Sa 08:00-21:00; Su 09:00-21:00", "stations": [{"stopCode": 55, "lines": "2", "name": "Mercer Island Station", "walkingMeters": 403, "walkingSeconds": 290, "band": 5}]}, "geometry": {"type": "Point", "coordinates": [-122.2356083, 47.5864438]}}, {"type": "Feature", "properties": {"id": 1726831680, "name": "Starbucks", "category": "cafe", "tags": ["cafe", "coffee-shop", "takeaway"], "sources": ["osm"], "website": "https://www.starbucks.com/store-locator/store/12517/se-27th-76th-mercer-island-7620-se-27th-st-mercer-island-wa-980402805-us", "phone": "+1-206-275-3115", "address": "7620 Southeast 27th Street", "hours": "Mo-Sa 05:00-21:00; Su 05:30-20:00", "stations": [{"stopCode": 55, "lines": "2", "name": "Mercer Island Station", "walkingMeters": 524, "walkingSeconds": 377, "band": 10}]}, "geometry": {"type": "Point", "coordinates": [-122.2369048, 47.5870799]}}, {"type": "Feature", "properties": {"id": "efe6c945-9a4b-4ec6-ac2d-0e6ed70cc25c", "name": "Starbucks", "category": "cafe", "tags": ["cafe", "coffee"], "sources": ["overture"], "website": "https://www.starbucks.com/store-locator/store/12364/", "phone": "+12065582128", "address": "7695 SE 27th St", "stations": [{"stopCode": 55, "lines": "2", "name": "Mercer Island Station", "walkingMeters": 376, "walkingSeconds": 270, "band": 5}]}, "geometry": {"type": "Point", "coordinates": [-122.2352524, 47.5863953]}}, {"type": "Feature", "properties": {"id": 12768712042, "name": "Qdoba", "category": "fast_food", "tags": ["fast-food", "mexican", "takeaway"], "sources": ["osm"], "stations": [{"stopCode": 55, "lines": "2", "name": "Mercer Island Station", "walkingMeters": 370, "walkingSeconds": 266, "band": 5}]}, "geometry": {"type": "Point", "coordinates": [-122.2356628, 47.5868844]}}, {"type": "Feature", "properties": {"id": 1728576391, "name": "McDonald's", "category": "fast_food", "tags": ["fast-food", "burger", "takeaway", "drive-through", "wifi", "fast", "food", "american"], "sources": ["osm", "overture"], "website": "https://www.mcdonalds.com/us/en-us/location/wa/mercer-island/2807-78th-st-se/11027.html?cid=RF%3AYXT%3ARoN%3A%3AClicks%3Fcid%3DRF%3AYXT%3AFB%3A%3AClicks", "phone": "+12062329175", "address": "2807 78th St Se", "hours": "Mo-Th 05:00-23:00; Fr,Sa 06:00-23:00; Su 06:00-23:00", "stations": [{"stopCode": 55, "lines": "2", "name": "Mercer Island Station", "walkingMeters": 579, "walkingSeconds": 416, "band": 10}]}, "geometry": {"type": "Point", "coordinates": [-122.2345236, 47.5853864]}}, {"type": "Feature", "properties": {"id": 853014530, "name": "Pagliacci Pizza", "category": "fast_food", "tags": ["fast-food", "pizza", "restaurant", "italian"], "sources": ["osm", "overture"], "website": "http://www.pagliacci.com/", "phone": "+12067261717", "address": "3077 78th Ave SE", "hours": "Su-Th 11:00-23:00; Fr-Sa 11:00-00:00", "stations": [{"stopCode": 55, "lines": "2", "name": "Mercer Island Station", "walkingMeters": 892, "walkingSeconds": 642, "band": 15}]}, "geometry": {"type": "Point", "coordinates": [-122.233915, 47.5819945]}}, {"type": "Feature", "properties": {"id": 1728576388, "name": "Sano Cafe", "category": "restaurant", "tags": ["restaurant", "juice", "smoothie", "salad", "cafe"], "sources": ["osm", "overture"], "website": "https://www.thesanocafe.com/", "phone": "+12064201663", "address": "7605 SE 27th St #111", "stations": [{"stopCode": 55, "lines": "2", "name": "Mercer Island Station", "walkingMeters": 459, "walkingSeconds": 330, "band": 10}]}, "geometry": {"type": "Point", "coordinates": [-122.2366848, 47.5865745]}}, {"type": "Feature", "properties": {"id": 11205376540, "name": "Mioposto", "category": "restaurant", "tags": ["restaurant", "pizza", "outdoor-seating", "italian"], "sources": ["osm", "overture"], "website": "http://www.miopostopizza.com/", "phone": "+12065882743", "address": "2601 76th Ave SE", "stations": [{"stopCode": 55, "lines": "2", "name": "Mercer Island Station", "walkingMeters": 568, "walkingSeconds": 409, "band": 10}]}, "geometry": {"type": "Point", "coordinates": [-122.2380441, 47.5869106]}}, {"type": "Feature", "properties": {"id": 6854420958, "name": "Einstein Bros. Bagels", "category": "fast_food", "tags": ["fast-food", "bagel", "indoor-seating", "takeaway", "wheelchair-accessible", "vegetarian", "wifi", "bakery", "breakfast-and-brunch"], "sources": ["osm", "overture"], "website": "https://locations.einsteinbros.com/us/wa/mercer-island/7808-se-28th-st?y_source=1_OTA1MDA5NC01NTktbG9jYXRpb24ud2Vic2l0ZQ%3D%3D", "phone": "+12062328539", "address": "7808 SE 28th St", "hours": "Mo-Fr 06:00-15:00; Sa,Su 07:00-15:00", "stations": [{"stopCode": 55, "lines": "2", "name": "Mercer Island Station", "walkingMeters": 440, "walkingSeconds": 317, "band": 5}]}, "geometry": {"type": "Point", "coordinates": [-122.2329413, 47.5856123]}}, {"type": "Feature", "properties": {"id": "01b90184-0e6d-4e94-b34a-4e3c5c178d9d", "name": "Vivienne's Bistro", "category": "restaurant", "tags": ["restaurant", "asian", "fusion"], "sources": ["overture"], "website": "https://www.viviennesbistro.com", "phone": "+12068299508", "address": "2441 76th Ave SE", "stations": [{"stopCode": 55, "lines": "2", "name": "Mercer Island Station", "walkingMeters": 538, "walkingSeconds": 387, "band": 10}]}, "geometry": {"type": "Point", "coordinates": [-122.2381058, 47.5876999]}}, {"type": "Feature", "properties": {"id": 6747240389, "name": "Homegrown", "category": "cafe", "tags": ["cafe", "sandwich", "restaurant", "american", "health-food"], "sources": ["osm", "overture"], "website": "http://www.eathomegrown.com/", "phone": "+12067743656", "address": "3016 78th Ave SE", "hours": "Mo-Su 07:00-20:00", "stations": [{"stopCode": 55, "lines": "2", "name": "Mercer Island Station", "walkingMeters": 700, "walkingSeconds": 503, "band": 10}]}, "geometry": {"type": "Point", "coordinates": [-122.2327611, 47.583434]}}, {"type": "Feature", "properties": {"id": 5092250969, "name": "Pogacha", "category": "restaurant", "tags": ["restaurant", "italian"], "sources": ["osm"], "address": "2707 78th Avenue Southeast", "hours": "Tu-Fr 11:00-21:00; Sa,Su 09:00-21:00", "stations": [{"stopCode": 55, "lines": "2", "name": "Mercer Island Station", "walkingMeters": 500, "walkingSeconds": 360, "band": 5}]}, "geometry": {"type": "Point", "coordinates": [-122.2340642, 47.586207]}}, {"type": "Feature", "properties": {"id": 5092250970, "name": "Sushi Joa", "category": "restaurant", "tags": ["restaurant", "japanese"], "sources": ["osm"], "website": "https://www.sushijoa.com", "address": "2717 78th Avenue Southeast", "hours": "Mo-Th 11:30-21:00; Fr 11:30-21:30; Sa 11:30-21:00", "stations": [{"stopCode": 55, "lines": "2", "name": "Mercer Island Station", "walkingMeters": 494, "walkingSeconds": 355, "band": 5}]}, "geometry": {"type": "Point", "coordinates": [-122.234064, 47.5861481]}}, {"type": "Feature", "properties": {"id": "d9802e0e-6ff0-49d1-b618-176c544ee954", "name": "I Love Pho", "category": "restaurant", "tags": ["restaurant"], "sources": ["overture"], "website": "https://ilovepho.com", "address": "7605 Se 27th St Ste 112", "stations": [{"stopCode": 55, "lines": "2", "name": "Mercer Island Station", "walkingMeters": 520, "walkingSeconds": 374, "band": 10}]}, "geometry": {"type": "Point", "coordinates": [-122.2369537, 47.586483]}}, {"type": "Feature", "properties": {"id": 5736980221, "name": "Barrels Wine Bar", "category": "bar", "tags": ["bar", "wine"], "sources": ["osm", "overture"], "website": "https://barrelswinebar.com/", "phone": "+12062680588", "address": "7605 SE 27th St", "hours": "Tu-Fr 15:00-21:00; Sa 14:00-19:00", "stations": [{"stopCode": 55, "lines": "2", "name": "Mercer Island Station", "walkingMeters": 477, "walkingSeconds": 343, "band": 10}]}, "geometry": {"type": "Point", "coordinates": [-122.236897, 47.586572]}}, {"type": "Feature", "properties": {"id": 5755271073, "name": "Anise Thai Cuisine", "category": "restaurant", "tags": ["restaurant", "thai", "asian", "fusion"], "sources": ["osm", "overture"], "website": "http://anisethaicuisine.com/", "phone": "2062362255", "address": "7691 SE 27th St", "stations": [{"stopCode": 55, "lines": "2", "name": "Mercer Island Station", "walkingMeters": 382, "walkingSeconds": 275, "band": 5}]}, "geometry": {"type": "Point", "coordinates": [-122.2353367, 47.586441]}}, {"type": "Feature", "properties": {"id": 5755271082, "name": "Gourmet Teriyaki", "category": "restaurant", "tags": ["restaurant", "teriyaki", "japanese", "asian"], "sources": ["osm", "overture"], "website": "http://ordergourmetteriyaki.com", "phone": "+12062320580", "address": "7671 SE 27th St", "stations": [{"stopCode": 55, "lines": "2", "name": "Mercer Island Station", "walkingMeters": 417, "walkingSeconds": 300, "band": 5}]}, "geometry": {"type": "Point", "coordinates": [-122.2357946, 47.5864256]}}, {"type": "Feature", "properties": {"id": 5755276793, "name": "Valhalla Sandwiches", "category": "restaurant", "tags": ["restaurant", "sandwich"], "sources": ["osm"], "stations": [{"stopCode": 55, "lines": "2", "name": "Mercer Island Station", "walkingMeters": 346, "walkingSeconds": 249, "band": 5}]}, "geometry": {"type": "Point", "coordinates": [-122.234456, 47.5868964]}}, {"type": "Feature", "properties": {"id": 6056281493, "name": "L\u2019Experience Paris", "category": "cafe", "tags": ["cafe", "french", "wheelchair-accessible", "restaurant", "european"], "sources": ["osm", "overture"], "website": "https://www.lexperienceparis.com/", "phone": "+14253405931", "address": "3020 78th Ave SE", "stations": [{"stopCode": 55, "lines": "2", "name": "Mercer Island Station", "walkingMeters": 720, "walkingSeconds": 518, "band": 10}]}, "geometry": {"type": "Point", "coordinates": [-122.2327738, 47.5832528]}}, {"type": "Feature", "properties": {"id": 10160503810, "name": "Pon Proem Thai", "category": "restaurant", "tags": ["restaurant", "thai"], "sources": ["osm"], "address": "3039 78th Avenue Southeast", "stations": [{"stopCode": 55, "lines": "2", "name": "Mercer Island Station", "walkingMeters": 904, "walkingSeconds": 651, "band": 10}]}, "geometry": {"type": "Point", "coordinates": [-122.2346883, 47.5824438]}}, {"type": "Feature", "properties": {"id": 10160503812, "name": "Island\u2019s Pho & Teriyaki", "category": "restaurant", "tags": ["restaurant", "pho", "teriyaki"], "sources": ["osm"], "address": "3033 78th Avenue Southeast", "stations": [{"stopCode": 55, "lines": "2", "name": "Mercer Island Station", "walkingMeters": 897, "walkingSeconds": 646, "band": 10}]}, "geometry": {"type": "Point", "coordinates": [-122.2346907, 47.5825696]}}, {"type": "Feature", "properties": {"id": 12768712041, "name": "Allister", "category": "restaurant", "tags": ["restaurant"], "sources": ["osm", "overture"], "website": "https://www.allister-mi.com", "address": "7650 SE 27th St", "stations": [{"stopCode": 55, "lines": "2", "name": "Mercer Island Station", "walkingMeters": 396, "walkingSeconds": 285, "band": 5}]}, "geometry": {"type": "Point", "coordinates": [-122.2360053, 47.5868713]}}, {"type": "Feature", "properties": {"id": 13314905108, "name": "Hub Boba", "category": "cafe", "tags": ["cafe", "bubble-tea"], "sources": ["osm"], "address": "2900 78th Avenue Southeast", "stations": [{"stopCode": 55, "lines": "2", "name": "Mercer Island Station", "walkingMeters": 641, "walkingSeconds": 462, "band": 10}]}, "geometry": {"type": "Point", "coordinates": [-122.2333386, 47.5843746]}}, {"type": "Feature", "properties": {"id": 13507807575, "name": "Las Bugambilias Food Truck", "category": "fast_food", "tags": ["fast-food", "mexican"], "sources": ["osm"], "website": "https://www.yelp.com/biz/las-bugambilias-mercer-island-2", "phone": "+1-425-351-0980", "address": "7655 Sunset Highway", "stations": [{"stopCode": 55, "lines": "2", "name": "Mercer Island Station", "walkingMeters": 272, "walkingSeconds": 196, "band": 5}]}, "geometry": {"type": "Point", "coordinates": [-122.2356843, 47.5879455]}}, {"type": "Feature", "properties": {"id": 13507808734, "name": "Shawn's Cafe and Bakery", "category": "cafe", "tags": ["cafe"], "sources": ["osm", "overture"], "website": "http://shawnscafeandbakery.com/", "phone": "+12062323221", "address": "7420 SE 24th St", "stations": [{"stopCode": 55, "lines": "2", "name": "Mercer Island Station", "walkingMeters": 598, "walkingSeconds": 430, "band": 10}]}, "geometry": {"type": "Point", "coordinates": [-122.2394722, 47.5893815]}}, {"type": "Feature", "properties": {"id": 732012109, "name": "Hap's Burgers & Taps", "category": "restaurant", "tags": ["restaurant", "burger"], "sources": ["osm"], "website": "https://www.hapsburgers.com/", "phone": "+1-360-544-2447", "address": "2411 76th Avenue Southeast", "hours": "Mo-Sa 10:30-20:00; Su 10:30-19:00", "stations": [{"stopCode": 55, "lines": "2", "name": "Mercer Island Station", "walkingMeters": 540, "walkingSeconds": 388, "band": 10}]}, "geometry": {"type": "Point", "coordinates": [-122.2381622, 47.5885721]}}, {"type": "Feature", "properties": {"id": "126572a8-c1ce-4cc5-ae2e-a32a2c814dc1", "name": "Qdoba Mexican Grill", "category": "restaurant", "tags": ["restaurant", "mexican", "taco", "texmex"], "sources": ["overture"], "website": "https://locations.qdoba.com/us/wa/mercer-island/7650-se-27th-st", "phone": "+12062300072", "address": "7650 SE 27th St", "stations": [{"stopCode": 55, "lines": "2", "name": "Mercer Island Station", "walkingMeters": 381, "walkingSeconds": 274, "band": 5}]}, "geometry": {"type": "Point", "coordinates": [-122.2358017, 47.5868034]}}, {"type": "Feature", "properties": {"id": "e8c9e3f7-f148-4ade-8cdc-3840fe847a52", "name": "Homegrown Partners Llc", "category": "restaurant", "tags": ["restaurant"], "sources": ["overture"], "website": "https://www.eathomegrown.com", "address": "7834 Se 32nd St Ste 101", "stations": [{"stopCode": 55, "lines": "2", "name": "Mercer Island Station", "walkingMeters": 885, "walkingSeconds": 660, "band": 10}]}, "geometry": {"type": "Point", "coordinates": [-122.2320251, 47.5821304]}}, {"type": "Feature", "properties": {"id": "bcd4f7de-c983-433e-a9da-fefbe88c5f96", "name": "ASA Mercer Island", "category": "bar", "tags": ["bar", "cocktail"], "sources": ["overture"], "website": "https://www.asamercerisland.com/", "phone": "+13233091632", "address": "2690 76th Ave SE #101", "stations": [{"stopCode": 55, "lines": "2", "name": "Mercer Island Station", "walkingMeters": 449, "walkingSeconds": 335, "band": 10}]}, "geometry": {"type": "Point", "coordinates": [-122.2374039, 47.5868912]}}, {"type": "Feature", "properties": {"id": "e1165cef-de79-4f22-b572-0ae3e7b35efd", "name": "Islander", "category": "pub", "tags": ["pub", "mexican"], "sources": ["overture"], "website": "http://www.the-islander.com/", "phone": "2062326676", "address": "2441 76th Ave SE Ste 150", "stations": [{"stopCode": 55, "lines": "2", "name": "Mercer Island Station", "walkingMeters": 543, "walkingSeconds": 390, "band": 10}]}, "geometry": {"type": "Point", "coordinates": [-122.2378998, 47.5880127]}}, {"type": "Feature", "properties": {"id": "3f9cec8d-106e-436e-9754-b3161761fae0", "name": "Island Crust Cafe", "category": "cafe", "tags": ["cafe", "kosher", "pizza", "vegetarian"], "sources": ["overture"], "website": "https://www.islandcrustcafemenu.com/?utm_source=organic_bing&utm_medium=bing_pw", "phone": "2062327878", "address": "7525 SE 24th St 7525", "stations": [{"stopCode": 55, "lines": "2", "name": "Mercer Island Station", "walkingMeters": 585, "walkingSeconds": 420, "band": 10}]}, "geometry": {"type": "Point", "coordinates": [-122.2386932, 47.5886917]}}, {"type": "Feature", "properties": {"id": "ca43a76d-4eda-4826-9d58-5c9ecb9de64c", "name": "Hap's Burgers and Taps", "category": "restaurant", "tags": ["restaurant", "burger", "bar-and-grill", "american"], "sources": ["overture"], "website": "http://www.hapsburgers.com/", "phone": "+12063710525", "address": "2411 76th Ave SE", "stations": [{"stopCode": 55, "lines": "2", "name": "Mercer Island Station", "walkingMeters": 487, "walkingSeconds": 363, "band": 10}]}, "geometry": {"type": "Point", "coordinates": [-122.2381439, 47.5888138]}}, {"type": "Feature", "properties": {"id": "f7038201-ec63-483c-8a27-f0a453651584", "name": "ChaCha Bakery", "category": "bakery", "tags": ["bakery"], "sources": ["overture"], "phone": "+12068028501", "address": "7858 SE 28th St", "stations": [{"stopCode": 55, "lines": "2", "name": "Mercer Island Station", "walkingMeters": 408, "walkingSeconds": 294, "band": 5}]}, "geometry": {"type": "Point", "coordinates": [-122.2325439, 47.5856934]}}, {"type": "Feature", "properties": {"id": "7a6a4741-b163-4e70-8d94-c3b82a8285c3", "name": "Just Poke Mercer Island", "category": "restaurant", "tags": ["restaurant", "poke", "seafood", "health-food"], "sources": ["overture"], "website": "https://justpoke.com/locations/mercerisland/", "phone": "+12064661057", "address": "2758 78th Ave SE", "stations": [{"stopCode": 55, "lines": "2", "name": "Mercer Island Station", "walkingMeters": 428, "walkingSeconds": 308, "band": 5}]}, "geometry": {"type": "Point", "coordinates": [-122.2334824, 47.5860519]}}, {"type": "Feature", "properties": {"id": "c4e4aeb2-61bf-455f-89ec-cd1725c28837", "name": "La F\u00eate P\u00e2tisserie Fran\u00e7aise", "category": "bakery", "tags": ["bakery", "french"], "sources": ["overture"], "website": "http://www.lafetepatisserie.com/", "phone": "+12062570640", "address": "7605 SE 27th St", "stations": [{"stopCode": 55, "lines": "2", "name": "Mercer Island Station", "walkingMeters": 408, "walkingSeconds": 304, "band": 10}]}, "geometry": {"type": "Point", "coordinates": [-122.2366257, 47.5865517]}}, {"type": "Feature", "properties": {"id": "36fc4534-902b-42e7-972c-bef4e81f043e", "name": "Dalhousie Square, mercer island", "category": "restaurant", "tags": ["restaurant", "indian"], "sources": ["overture"], "website": "http://dalhousiesquare.com", "phone": "(206) 397-4142", "address": "7505 SE 27th St", "stations": [{"stopCode": 55, "lines": "2", "name": "Mercer Island Station", "walkingMeters": 520, "walkingSeconds": 374, "band": 10}]}, "geometry": {"type": "Point", "coordinates": [-122.2370071, 47.5864944]}}, {"type": "Feature", "properties": {"id": "d1f24ef1-de72-4b15-81cd-1120c68a3163", "name": "Sano Bar Llc", "category": "restaurant", "tags": ["restaurant"], "sources": ["overture"], "address": "7605 Se 27th St Ste 111", "stations": [{"stopCode": 55, "lines": "2", "name": "Mercer Island Station", "walkingMeters": 439, "walkingSeconds": 328, "band": 10}]}, "geometry": {"type": "Point", "coordinates": [-122.2369537, 47.586483]}}, {"type": "Feature", "properties": {"id": "19a0493d-1f81-495e-98fc-81cce410266f", "name": "Roberto's", "category": "restaurant", "tags": ["restaurant", "pizza"], "sources": ["overture"], "website": "http://robertosmi.com", "phone": "(206) 232-7383", "address": "7605 SE 27th St", "stations": [{"stopCode": 55, "lines": "2", "name": "Mercer Island Station", "walkingMeters": 514, "walkingSeconds": 370, "band": 10}]}, "geometry": {"type": "Point", "coordinates": [-122.2369308, 47.5865364]}}, {"type": "Feature", "properties": {"id": "6be580dd-056f-44b9-ab3b-77d22688e2e0", "name": "FaveKitchens - Mercer Island", "category": "restaurant", "tags": ["restaurant"], "sources": ["overture"], "website": "https://favekitchens.com/", "phone": "2064073699", "address": "2630 77th Ave SE Ste 112", "stations": [{"stopCode": 55, "lines": "2", "name": "Mercer Island Station", "walkingMeters": 342, "walkingSeconds": 246, "band": 5}]}, "geometry": {"type": "Point", "coordinates": [-122.2345123, 47.586834]}}, {"type": "Feature", "properties": {"id": "b3726ba1-5aff-4d36-8582-701a62b22cb6", "name": "Bennett's Bistro", "category": "restaurant", "tags": ["restaurant"], "sources": ["overture"], "website": "https://www.bennettbaybistro.com", "address": "7650 SE 27th St", "stations": [{"stopCode": 55, "lines": "2", "name": "Mercer Island Station", "walkingMeters": 255, "walkingSeconds": 190, "band": 5}]}, "geometry": {"type": "Point", "coordinates": [-122.2353516, 47.5871696]}}, {"type": "Feature", "properties": {"id": "aaac972d-13a7-4a22-9528-25448a4c5eba", "name": "ISLAND BROILER bar-grill-noodlehouse", "category": "restaurant", "tags": ["restaurant", "barbecue", "burger"], "sources": ["overture"], "website": "http://www.islandbroiler.com/", "phone": "2062320781", "address": "2707 78th Ave SE", "stations": [{"stopCode": 55, "lines": "2", "name": "Mercer Island Station", "walkingMeters": 391, "walkingSeconds": 281, "band": 5}]}, "geometry": {"type": "Point", "coordinates": [-122.2336884, 47.5865173]}}, {"type": "Feature", "properties": {"id": "1957b621-ba76-4cd1-8370-0b5c850deabc", "name": "Mo's Pizza & Wine Dive", "category": "restaurant", "tags": ["restaurant", "italian"], "sources": ["overture"], "website": "http://eatmopizza.com", "phone": "(206) 236-6000", "stations": [{"stopCode": 55, "lines": "2", "name": "Mercer Island Station", "walkingMeters": 381, "walkingSeconds": 274, "band": 5}]}, "geometry": {"type": "Point", "coordinates": [-122.2340012, 47.5868149]}}, {"type": "Feature", "properties": {"id": "1b167f1e-c2ac-4f98-bb55-320126586b89", "name": "Pogacha Restaurant", "category": "restaurant", "tags": ["restaurant"], "sources": ["overture"], "phone": "14254555670", "address": "2707 78th Ave SE", "stations": [{"stopCode": 55, "lines": "2", "name": "Mercer Island Station", "walkingMeters": 299, "walkingSeconds": 223, "band": 5}]}, "geometry": {"type": "Point", "coordinates": [-122.234108, 47.586216]}}, {"type": "Feature", "properties": {"id": "26333514-4d1f-454f-ac05-5d6fb33056c0", "name": "Sushi Joa Restaurant", "category": "restaurant", "tags": ["restaurant", "sushi", "japanese", "asian"], "sources": ["overture"], "website": "http://sushijoa.com/", "phone": "+12062304120", "address": "2717 78th Ave SE", "stations": [{"stopCode": 55, "lines": "2", "name": "Mercer Island Station", "walkingMeters": 491, "walkingSeconds": 354, "band": 5}]}, "geometry": {"type": "Point", "coordinates": [-122.2340317, 47.5861282]}}, {"type": "Feature", "properties": {"id": "afd7f836-5f61-47cc-b8f5-897c7187a92c", "name": "Sj Restaurant Group, Inc", "category": "restaurant", "tags": ["restaurant"], "sources": ["overture"], "address": "2717 78th Ave SE", "stations": [{"stopCode": 55, "lines": "2", "name": "Mercer Island Station", "walkingMeters": 312, "walkingSeconds": 233, "band": 5}]}, "geometry": {"type": "Point", "coordinates": [-122.2341843, 47.5861397]}}, {"type": "Feature", "properties": {"id": "764c01c6-aa73-46db-ae8c-6437c06bb2fb", "name": "Seven Stars Restaurant", "category": "restaurant", "tags": ["restaurant", "chinese"], "sources": ["overture"], "website": "http://www.sevenstarmi.com", "phone": "(206) 275-0028", "address": "2775 78th Ave SE", "stations": [{"stopCode": 55, "lines": "2", "name": "Mercer Island Station", "walkingMeters": 486, "walkingSeconds": 350, "band": 10}]}, "geometry": {"type": "Point", "coordinates": [-122.2340012, 47.5857353]}}, {"type": "Feature", "properties": {"id": "4480a6f1-cf36-4a3d-8531-fc83ca225d74", "name": "Seven Stars", "category": "restaurant", "tags": ["restaurant", "chinese"], "sources": ["overture"], "website": "http://sevenstarmi.com", "phone": "(206) 230-8665", "address": "2885 78th Ave SE", "stations": [{"stopCode": 55, "lines": "2", "name": "Mercer Island Station", "walkingMeters": 609, "walkingSeconds": 438, "band": 10}]}, "geometry": {"type": "Point", "coordinates": [-122.2340698, 47.5846138]}}, {"type": "Feature", "properties": {"id": "db5c6dc5-10d7-472b-a4e7-ac383340a403", "name": "Old Timer & Cook", "category": "restaurant", "tags": ["restaurant"], "sources": ["overture"], "website": "https://www.oldtimercook.com", "phone": "14258307295", "address": "2885 78th Ave SE", "stations": [{"stopCode": 55, "lines": "2", "name": "Mercer Island Station", "walkingMeters": 597, "walkingSeconds": 430, "band": 10}]}, "geometry": {"type": "Point", "coordinates": [-122.2341919, 47.5845985]}}, {"type": "Feature", "properties": {"id": "c32fac74-553e-49d0-bd15-73d65d89eac7", "name": "Tiger Garden", "category": "restaurant", "tags": ["restaurant", "dim-sum", "dim", "sum"], "sources": ["overture"], "website": "https://tigergardentogo.com/", "phone": "2062308665", "address": "2885 78th Ave SE", "stations": [{"stopCode": 55, "lines": "2", "name": "Mercer Island Station", "walkingMeters": 524, "walkingSeconds": 391, "band": 10}]}, "geometry": {"type": "Point", "coordinates": [-122.2340164, 47.58461]}}, {"type": "Feature", "properties": {"id": "8bca9a05-2159-467e-9107-813a48295338", "name": "Happy Boil Seafood House", "category": "restaurant", "tags": ["restaurant", "seafood"], "sources": ["overture"], "website": "https://www.happyboilseafoodhouse.com/", "phone": "2062308665", "address": "2885 78th Ave SE Ste 101", "stations": [{"stopCode": 55, "lines": "2", "name": "Mercer Island Station", "walkingMeters": 597, "walkingSeconds": 430, "band": 10}]}, "geometry": {"type": "Point", "coordinates": [-122.2337112, 47.5846558]}}, {"type": "Feature", "properties": {"id": "2afd67b2-3577-4555-b905-e61595e96c86", "name": "Pon Proem Thai Restaurant", "category": "restaurant", "tags": ["restaurant", "thai"], "sources": ["overture"], "website": "https://ponproemthai.com", "phone": "12062368424", "address": "3039 78th Ave SE", "stations": [{"stopCode": 55, "lines": "2", "name": "Mercer Island Station", "walkingMeters": 818, "walkingSeconds": 589, "band": 15}]}, "geometry": {"type": "Point", "coordinates": [-122.2347412, 47.5821762]}}, {"type": "Feature", "properties": {"id": "d7de9c82-46eb-412a-b71c-094cd7eb0204", "name": "The Crawlspace Gastropub", "category": "restaurant", "tags": ["restaurant", "asian"], "sources": ["overture"], "website": "https://www.votethepnw.com/CrawlspaceGastropub", "phone": "+12062571012", "address": "3041 78th Ave SE", "stations": [{"stopCode": 55, "lines": "2", "name": "Mercer Island Station", "walkingMeters": 908, "walkingSeconds": 654, "band": 10}]}, "geometry": {"type": "Point", "coordinates": [-122.2346878, 47.5824051]}}, {"type": "Feature", "properties": {"id": "22ca75f5-833c-41c5-bfd0-14750cdd7699", "name": "Island's Pho and Teriyaki", "category": "restaurant", "tags": ["restaurant", "vietnamese", "asian", "noodles"], "sources": ["overture"], "website": "http://Islandphoteriyaki.com/", "phone": "+12063078735", "address": "3033 78th Ave SE", "stations": [{"stopCode": 55, "lines": "2", "name": "Mercer Island Station", "walkingMeters": 886, "walkingSeconds": 638, "band": 10}]}, "geometry": {"type": "Point", "coordinates": [-122.2344208, 47.5825958]}}, {"type": "Feature", "properties": {"id": "131355f0-13c0-4c8f-baff-e5d585ac44df", "name": "Tully's Coffee Drive Thru", "category": "cafe", "tags": ["cafe", "coffee"], "sources": ["overture"], "website": "http://www.tullyscoffeeshops.com", "phone": "(206) 232-2032", "address": "3077 78th Ave SE", "stations": [{"stopCode": 55, "lines": "2", "name": "Mercer Island Station", "walkingMeters": 892, "walkingSeconds": 642, "band": 15}]}, "geometry": {"type": "Point", "coordinates": [-122.2338791, 47.5820084]}}, {"type": "Feature", "properties": {"id": "12ec7a4d-cc55-4c52-a8af-3b51fc7ed0a6", "name": "Convivial Cafe", "category": "restaurant", "tags": ["restaurant"], "sources": ["overture"], "website": "grassbarber.net", "phone": "12062321624", "address": "3020 78th Ave SE", "stations": [{"stopCode": 55, "lines": "2", "name": "Mercer Island Station", "walkingMeters": 723, "walkingSeconds": 540, "band": 10}]}, "geometry": {"type": "Point", "coordinates": [-122.2326431, 47.5832138]}}, {"type": "Feature", "properties": {"id": "dc81ffa8-b56a-4330-ae52-77d96988cd22", "name": "Cepae corner on Mercer Island", "category": "bar", "tags": ["bar", "wine"], "sources": ["overture"], "website": "http://www.cepae.com/", "phone": "2062321623", "address": "3020 78th Ave SE", "stations": [{"stopCode": 55, "lines": "2", "name": "Mercer Island Station", "walkingMeters": 716, "walkingSeconds": 515, "band": 10}]}, "geometry": {"type": "Point", "coordinates": [-122.2326202, 47.5832863]}}, {"type": "Feature", "properties": {"id": "5e3a279c-675c-48c9-8e68-0fd48ec68ff1", "name": "Baitong on Wheels - Mercer Island", "category": "fast_food", "tags": ["fast-food", "food", "truck"], "sources": ["overture"], "website": "http://www.baitongonwheels.com/", "phone": "2067715550", "address": "2900 78th Ave SE", "stations": [{"stopCode": 55, "lines": "2", "name": "Mercer Island Station", "walkingMeters": 642, "walkingSeconds": 463, "band": 10}]}, "geometry": {"type": "Point", "coordinates": [-122.2333221, 47.5843887]}}, {"type": "Feature", "properties": {"id": "9f20e3ea-58cb-47c6-9c3c-5c020ec14ed3", "name": "World Wrapps N W Inc", "category": "restaurant", "tags": ["restaurant"], "sources": ["overture"], "address": "3023 80th Ave SE", "stations": [{"stopCode": 55, "lines": "2", "name": "Mercer Island Station", "walkingMeters": 756, "walkingSeconds": 564, "band": 10}]}, "geometry": {"type": "Point", "coordinates": [-122.2321014, 47.5830231]}}, {"type": "Feature", "properties": {"id": 4911807057, "name": "Gateway", "category": "artwork", "tags": ["artwork"], "sources": ["osm"], "stations": [{"stopCode": 55, "lines": "2", "name": "Mercer Island Station", "walkingMeters": 166, "walkingSeconds": 119, "band": 5}]}, "geometry": {"type": "Point", "coordinates": [-122.2348144, 47.5881192]}}, {"type": "Feature", "properties": {"id": 4911802723, "name": "Boy and the Alligator", "category": "artwork", "tags": ["artwork"], "sources": ["osm"], "stations": [{"stopCode": 55, "lines": "2", "name": "Mercer Island Station", "walkingMeters": 518, "walkingSeconds": 372, "band": 10}]}, "geometry": {"type": "Point", "coordinates": [-122.2338638, 47.5854329]}}, {"type": "Feature", "properties": {"id": 4911802724, "name": "Figures With Basket (a.k.a. The Farmers)", "category": "artwork", "tags": ["artwork"], "sources": ["osm"], "stations": [{"stopCode": 55, "lines": "2", "name": "Mercer Island Station", "walkingMeters": 498, "walkingSeconds": 358, "band": 10}]}, "geometry": {"type": "Point", "coordinates": [-122.2334787, 47.5853941]}}, {"type": "Feature", "properties": {"id": 4911802725, "name": "Growing Up", "category": "artwork", "tags": ["artwork"], "sources": ["osm"], "stations": [{"stopCode": 55, "lines": "2", "name": "Mercer Island Station", "walkingMeters": 478, "walkingSeconds": 344, "band": 10}]}, "geometry": {"type": "Point", "coordinates": [-122.2334903, 47.5856016]}}, {"type": "Feature", "properties": {"id": 4912170960, "name": "Primavera II", "category": "artwork", "tags": ["artwork"], "sources": ["osm"], "stations": [{"stopCode": 55, "lines": "2", "name": "Mercer Island Station", "walkingMeters": 194, "walkingSeconds": 140, "band": 5}]}, "geometry": {"type": "Point", "coordinates": [-122.2320746, 47.5869496]}}, {"type": "Feature", "properties": {"id": 4912174919, "name": "Reclining Woman", "category": "artwork", "tags": ["artwork"], "sources": ["osm"], "stations": [{"stopCode": 55, "lines": "2", "name": "Mercer Island Station", "walkingMeters": 969, "walkingSeconds": 697, "band": 15}]}, "geometry": {"type": "Point", "coordinates": [-122.2341685, 47.5813615]}}, {"type": "Feature", "properties": {"id": 4912191324, "name": "Rescue", "category": "artwork", "tags": ["artwork"], "sources": ["osm"], "stations": [{"stopCode": 55, "lines": "2", "name": "Mercer Island Station", "walkingMeters": 843, "walkingSeconds": 607, "band": 10}]}, "geometry": {"type": "Point", "coordinates": [-122.2332426, 47.5827297]}}, {"type": "Feature", "properties": {"id": 4912193813, "name": "Rising Times", "category": "artwork", "tags": ["artwork"], "sources": ["osm"], "stations": [{"stopCode": 55, "lines": "2", "name": "Mercer Island Station", "walkingMeters": 557, "walkingSeconds": 401, "band": 10}]}, "geometry": {"type": "Point", "coordinates": [-122.2377505, 47.5873666]}}, {"type": "Feature", "properties": {"id": 4919858655, "name": "Bench", "category": "artwork", "tags": ["artwork"], "sources": ["osm"], "stations": [{"stopCode": 55, "lines": "2", "name": "Mercer Island Station", "walkingMeters": 314, "walkingSeconds": 226, "band": 5}]}, "geometry": {"type": "Point", "coordinates": [-122.2336821, 47.5875041]}}, {"type": "Feature", "properties": {"id": 4919858656, "name": "Chaise Lounge", "category": "artwork", "tags": ["artwork"], "sources": ["osm"], "stations": [{"stopCode": 55, "lines": "2", "name": "Mercer Island Station", "walkingMeters": 314, "walkingSeconds": 225, "band": 5}]}, "geometry": {"type": "Point", "coordinates": [-122.2337636, 47.5875086]}}, {"type": "Feature", "properties": {"id": 4919858657, "name": "Island Poles", "category": "artwork", "tags": ["artwork"], "sources": ["osm"], "stations": [{"stopCode": 55, "lines": "2", "name": "Mercer Island Station", "walkingMeters": 239, "walkingSeconds": 172, "band": 5}]}, "geometry": {"type": "Point", "coordinates": [-122.2327839, 47.5872175]}}, {"type": "Feature", "properties": {"id": 4919882089, "name": "Woman Spirit", "category": "artwork", "tags": ["artwork"], "sources": ["osm"], "stations": [{"stopCode": 55, "lines": "2", "name": "Mercer Island Station", "walkingMeters": 1161, "walkingSeconds": 841, "band": 15}]}, "geometry": {"type": "Point", "coordinates": [-122.2350223, 47.5800473]}}, {"type": "Feature", "properties": {"id": 5010303309, "name": "Duet", "category": "artwork", "tags": ["artwork"], "sources": ["osm"], "stations": [{"stopCode": 55, "lines": "2", "name": "Mercer Island Station", "walkingMeters": 1024, "walkingSeconds": 737, "band": 15}]}, "geometry": {"type": "Point", "coordinates": [-122.2350867, 47.5806775]}}, {"type": "Feature", "properties": {"id": 7070197992, "name": "Cyclemates", "category": "artwork", "tags": ["artwork"], "sources": ["osm"], "stations": [{"stopCode": 55, "lines": "2", "name": "Mercer Island Station", "walkingMeters": 394, "walkingSeconds": 284, "band": 5}]}, "geometry": {"type": "Point", "coordinates": [-122.2373037, 47.5887589]}}, {"type": "Feature", "properties": {"id": 10160503793, "name": "Memorial Benches", "category": "artwork", "tags": ["artwork"], "sources": ["osm"], "stations": [{"stopCode": 55, "lines": "2", "name": "Mercer Island Station", "walkingMeters": 829, "walkingSeconds": 596, "band": 10}]}, "geometry": {"type": "Point", "coordinates": [-122.2334304, 47.582721]}}, {"type": "Feature", "properties": {"id": "dbbdefef-3d2d-40a9-a3ad-ac6bf205a7df", "name": "The Hadley Apartments", "category": "attraction", "tags": ["attraction", "landmark", "historical", "building"], "sources": ["overture"], "website": "https://www.hadleymercerisland.com/", "phone": "+12069069673", "address": "2601 76th Ave SE", "stations": [{"stopCode": 55, "lines": "2", "name": "Mercer Island Station", "walkingMeters": 581, "walkingSeconds": 417, "band": 10}]}, "geometry": {"type": "Point", "coordinates": [-122.237854, 47.5870743]}}, {"type": "Feature", "properties": {"id": "35d29a02-88df-46b4-b73a-91896e6625a2", "name": "Island Square", "category": "attraction", "tags": ["attraction", "landmark", "historical", "building"], "sources": ["overture"], "website": "http://www.islandsquare.com/?PPC=LS", "phone": "+14255225763", "address": "2758 78th Ave SE", "stations": [{"stopCode": 55, "lines": "2", "name": "Mercer Island Station", "walkingMeters": 422, "walkingSeconds": 304, "band": 5}]}, "geometry": {"type": "Point", "coordinates": [-122.2333984, 47.5861053]}}, {"type": "Feature", "properties": {"id": "f6dece3c-80de-4131-a8c2-344a8a4dc81a", "name": "Clarke & Clarke Art + Artifacts", "category": "gallery", "tags": ["gallery", "art"], "sources": ["overture"], "website": "http://Www.ethnoarts.com/", "phone": "+12062324456", "address": "7605 SE 27th St #105", "stations": [{"stopCode": 55, "lines": "2", "name": "Mercer Island Station", "walkingMeters": 431, "walkingSeconds": 322, "band": 10}]}, "geometry": {"type": "Point", "coordinates": [-122.2370071, 47.586647]}}, {"type": "Feature", "properties": {"id": "fd920e73-b8d9-41de-8cf1-4a6ee5859c53", "name": "The Mercer Apartment Homes", "category": "attraction", "tags": ["attraction", "landmark", "historical", "building"], "sources": ["overture"], "website": "https://www.themercer.com/", "phone": "+18448044496", "address": "7650 SE 27th St", "stations": [{"stopCode": 55, "lines": "2", "name": "Mercer Island Station", "walkingMeters": 359, "walkingSeconds": 258, "band": 5}]}, "geometry": {"type": "Point", "coordinates": [-122.2355118, 47.5867958]}}, {"type": "Feature", "properties": {"id": "5e7f1d85-4c60-4c15-8bb5-8b7e1cfefecb", "name": "77 Central Apartments", "category": "attraction", "tags": ["attraction", "landmark", "historical", "building"], "sources": ["overture"], "website": "https://www.77central.com/", "phone": "+18335341650", "address": "2630 77th Ave SE", "stations": [{"stopCode": 55, "lines": "2", "name": "Mercer Island Station", "walkingMeters": 262, "walkingSeconds": 188, "band": 5}]}, "geometry": {"type": "Point", "coordinates": [-122.2349167, 47.5872726]}}, {"type": "Feature", "properties": {"id": "16549a38-eae7-418a-ab69-a6671d6c68c2", "name": "The Carlton", "category": "attraction", "tags": ["attraction", "landmark", "historical", "building"], "sources": ["overture"], "address": "2760 76th Ave SE", "stations": [{"stopCode": 55, "lines": "2", "name": "Mercer Island Station", "walkingMeters": 734, "walkingSeconds": 528, "band": 10}]}, "geometry": {"type": "Point", "coordinates": [-122.2373428, 47.5853577]}}, {"type": "Feature", "properties": {"id": "bafb7dfe-e977-4c3f-aeb0-21b28b64b983", "name": "Avellino Apartments", "category": "attraction", "tags": ["attraction", "landmark", "historical", "building"], "sources": ["overture"], "website": "http://www.avellinoapartments.com/", "phone": "+12062300238", "address": "2836 78th Ave SE", "stations": [{"stopCode": 55, "lines": "2", "name": "Mercer Island Station", "walkingMeters": 535, "walkingSeconds": 399, "band": 10}]}, "geometry": {"type": "Point", "coordinates": [-122.2328644, 47.584507]}}, {"type": "Feature", "properties": {"id": "727354f1-3d42-4551-b446-59fe260db608", "name": "Mercer Island Visual Arts League Gallery", "category": "gallery", "tags": ["gallery", "art"], "sources": ["overture"], "website": "http://www.mival.org/", "phone": "+12064144981", "address": "2836 78th Ave SE", "stations": [{"stopCode": 55, "lines": "2", "name": "Mercer Island Station", "walkingMeters": 539, "walkingSeconds": 402, "band": 10}]}, "geometry": {"type": "Point", "coordinates": [-122.2329559, 47.5844765]}}, {"type": "Feature", "properties": {"id": 12641853847, "name": "Bicentennial Park", "category": "park", "tags": ["park"], "sources": ["osm", "overture"], "phone": "+12062757609", "address": "SE 32nd St", "stations": [{"stopCode": 55, "lines": "2", "name": "Mercer Island Station", "walkingMeters": 911, "walkingSeconds": 656, "band": 15}]}, "geometry": {"type": "Point", "coordinates": [-122.2353325, 47.5817041]}}, {"type": "Feature", "properties": {"id": 56073104, "name": "Mercerdale Park", "category": "park", "tags": ["park"], "sources": ["osm", "overture"], "website": "http://www.mercergov.org", "phone": "+12062757609", "address": "3009 77th Ave SE", "stations": [{"stopCode": 55, "lines": "2", "name": "Mercer Island Station", "walkingMeters": 1005, "walkingSeconds": 723, "band": 15}]}, "geometry": {"type": "Point", "coordinates": [-122.2349406, 47.5809419]}}, {"type": "Feature", "properties": {"id": 501085037, "name": "Outdoor Sculpture Gallery", "category": "park", "tags": ["park"], "sources": ["osm"], "website": "http://www.mercergov.org/Page.asp?NavID=3179", "stations": [{"stopCode": 55, "lines": "2", "name": "Mercer Island Station", "walkingMeters": 290, "walkingSeconds": 208, "band": 5}]}, "geometry": {"type": "Point", "coordinates": [-122.2333723, 47.587533]}}, {"type": "Feature", "properties": {"id": "f81c4b97-e2e7-4b39-8ec3-fff3c6c5357d", "name": "North Mercerdale Hillside Park", "category": "park", "tags": ["park"], "sources": ["overture"], "phone": "+12062757609", "address": "7420 SE 27th St", "stations": [{"stopCode": 55, "lines": "2", "name": "Mercer Island Station", "walkingMeters": 842, "walkingSeconds": 606, "band": 15}]}, "geometry": {"type": "Point", "coordinates": [-122.2392731, 47.5853806]}}, {"type": "Feature", "properties": {"id": "f17baba1-6aba-40ea-8ffc-19f2f3cb04f3", "name": "N. Mercerdale Hillside Open Space", "category": "park", "tags": ["park"], "sources": ["overture"], "website": "http://www.mercergov.org", "phone": "12062757600", "address": "7415 SE 27th St", "stations": [{"stopCode": 55, "lines": "2", "name": "Mercer Island Station", "walkingMeters": 712, "walkingSeconds": 531, "band": 15}]}, "geometry": {"type": "Point", "coordinates": [-122.2397003, 47.5859184]}}, {"type": "Feature", "properties": {"id": "beffb6fe-2ba7-4ca1-9592-83e103e45454", "name": "Mercer Island Sculpture Park", "category": "park", "tags": ["park"], "sources": ["overture"], "stations": [{"stopCode": 55, "lines": "2", "name": "Mercer Island Station", "walkingMeters": 319, "walkingSeconds": 229, "band": 5}]}, "geometry": {"type": "Point", "coordinates": [-122.2336655, 47.5872421]}}, {"type": "Feature", "properties": {"id": "f40178cb-885e-4bf1-8beb-fc81b88b39bc", "name": "Parc Mercer Condos", "category": "park", "tags": ["park"], "sources": ["overture"], "phone": "+12063279778", "address": "2740 76th Ave SE", "stations": [{"stopCode": 55, "lines": "2", "name": "Mercer Island Station", "walkingMeters": 720, "walkingSeconds": 518, "band": 10}]}, "geometry": {"type": "Point", "coordinates": [-122.2368622, 47.5855865]}}, {"type": "Feature", "properties": {"id": "f438af3c-fc54-481c-97a0-17877a42eda8", "name": "Mercerdale Playground", "category": "playground", "tags": ["playground"], "sources": ["overture"], "website": "http://www.mercergov.org/page.asp?navid=406", "phone": "+12062757609", "stations": [{"stopCode": 55, "lines": "2", "name": "Mercer Island Station", "walkingMeters": 1088, "walkingSeconds": 784, "band": 15}]}, "geometry": {"type": "Point", "coordinates": [-122.2343216, 47.5804977]}}, {"type": "Feature", "properties": {"id": "eba87ada-3681-49a0-8a7b-1b5dba181864", "name": "77 Central Apartments", "category": "hotel", "tags": ["hotel"], "sources": ["overture"], "website": "https://www.77central.com/", "phone": "2062308888", "address": "2630 77th Ave SE #100", "stations": [{"stopCode": 55, "lines": "2", "name": "Mercer Island Station", "walkingMeters": 757, "walkingSeconds": 545, "band": 10}]}, "geometry": {"type": "Point", "coordinates": [-122.2309418, 47.5827026]}}, {"type": "Feature", "properties": {"id": 1728576393, "name": "QFC", "category": "supermarket", "tags": ["supermarket", "wifi"], "sources": ["osm", "overture"], "website": "https://www.qfc.com/stores/grocery/wa/mercer-island/north-mercer-island/705/00839?cid=loc_70500839_fb", "phone": "+12062300745", "address": "7823 SE 28th St", "hours": "24/7", "stations": [{"stopCode": 55, "lines": "2", "name": "Mercer Island Station", "walkingMeters": 518, "walkingSeconds": 373, "band": 10}]}, "geometry": {"type": "Point", "coordinates": [-122.2329051, 47.5850259]}}, {"type": "Feature", "properties": {"id": 10160503782, "name": "All The Best Pet Care", "category": "pet", "tags": ["pet"], "sources": ["osm", "overture"], "website": "https://www.allthebestpetcare.com/", "phone": "+12062324377", "address": "3037 78th Ave SE", "hours": "Mo-Sa 09:30-19:30; Su 10:00-19:00", "stations": [{"stopCode": 55, "lines": "2", "name": "Mercer Island Station", "walkingMeters": 898, "walkingSeconds": 646, "band": 10}]}, "geometry": {"type": "Point", "coordinates": [-122.2346883, 47.5825003]}}, {"type": "Feature", "properties": {"id": 111737058, "name": "Metropolitan Market", "category": "supermarket", "tags": ["supermarket", "wheelchair-accessible", "organic"], "sources": ["osm", "overture"], "website": "https://www.metropolitan-market.com/locations/mercer-island", "phone": "+12062322577", "address": "2755 77th Ave SE", "hours": "Mo-Su 06:00-23:00", "stations": [{"stopCode": 55, "lines": "2", "name": "Mercer Island Station", "walkingMeters": 580, "walkingSeconds": 417, "band": 10}]}, "geometry": {"type": "Point", "coordinates": [-122.2358141, 47.5852789]}}, {"type": "Feature", "properties": {"id": "1d8bd6cd-63c3-42ed-a619-c122ea518336", "name": "Mud Bay", "category": "pet", "tags": ["pet"], "sources": ["overture"], "website": "http://www.mudbay.com/pet-store/MCR-mercer-island-WA", "phone": "2068052090", "address": "2441 76th Ave SE Ste 100", "stations": [{"stopCode": 55, "lines": "2", "name": "Mercer Island Station", "walkingMeters": 695, "walkingSeconds": 500, "band": 10}]}, "geometry": {"type": "Point", "coordinates": [-122.2377319, 47.5879631]}}, {"type": "Feature", "properties": {"id": "f44f9b62-812f-44f8-b9aa-adfdd2528697", "name": "Mud Bay", "category": "pet", "tags": ["pet"], "sources": ["overture"], "website": "http://www.mudbay.us", "phone": "(206) 805-2090", "address": "2750 77th Ave SE", "stations": [{"stopCode": 55, "lines": "2", "name": "Mercer Island Station", "walkingMeters": 475, "walkingSeconds": 354, "band": 10}]}, "geometry": {"type": "Point", "coordinates": [-122.2346725, 47.5850601]}}, {"type": "Feature", "properties": {"id": 111737040, "name": "ExtraMile", "category": "convenience", "tags": ["convenience"], "sources": ["osm", "overture"], "website": "https://www.chevronextramile.com/station-finder/7655-sunset-hwy-mercer-island-wa-98040-id356816", "phone": "+12062328190", "address": "7655 Sunset Hwy", "stations": [{"stopCode": 55, "lines": "2", "name": "Mercer Island Station", "walkingMeters": 263, "walkingSeconds": 189, "band": 5}]}, "geometry": {"type": "Point", "coordinates": [-122.2355648, 47.5876294]}}, {"type": "Feature", "properties": {"id": 4170593610, "name": "Island Books", "category": "books", "tags": ["books"], "sources": ["osm", "overture"], "website": "http://www.mercerislandbooks.com", "phone": "+12062326920", "address": "3014 78th Ave SE", "hours": "Mo-Fr 09:00-20:00; Sa 09:00-18:00; Su 10:00-17:00", "stations": [{"stopCode": 55, "lines": "2", "name": "Mercer Island Station", "walkingMeters": 691, "walkingSeconds": 498, "band": 10}]}, "geometry": {"type": "Point", "coordinates": [-122.2327555, 47.5835057]}}, {"type": "Feature", "properties": {"id": 5092250972, "name": "Hip Zephyr", "category": "clothes", "tags": ["clothes"], "sources": ["osm"], "address": "2727 78th Avenue Southeast", "hours": "Mo-Fr 11:00-18:00; Sa 11:00-16:00", "stations": [{"stopCode": 55, "lines": "2", "name": "Mercer Island Station", "walkingMeters": 479, "walkingSeconds": 344, "band": 5}]}, "geometry": {"type": "Point", "coordinates": [-122.2340587, 47.5860126]}}, {"type": "Feature", "properties": {"id": 5755271071, "name": "True Value", "category": "hardware", "tags": ["hardware"], "sources": ["osm"], "website": "https://www.truevalue.com/mercerisland", "phone": "+1-206-232-7282", "address": "7707 Southeast 27th Street", "hours": "Mo-Fr 08:00-18:00; Sa 09:00-18:00; Su 10:00-17:00", "stations": [{"stopCode": 55, "lines": "2", "name": "Mercer Island Station", "walkingMeters": 502, "walkingSeconds": 362, "band": 5}]}, "geometry": {"type": "Point", "coordinates": [-122.2341244, 47.5862273]}}, {"type": "Feature", "properties": {"id": 5755271075, "name": "Chick's Shoes & Service", "category": "shoes", "tags": ["shoes"], "sources": ["osm"], "hours": "Tu-Fr 10:00-18:00; Sa 09:00-17:00", "stations": [{"stopCode": 55, "lines": "2", "name": "Mercer Island Station", "walkingMeters": 430, "walkingSeconds": 309, "band": 10}]}, "geometry": {"type": "Point", "coordinates": [-122.2360648, 47.5864196]}}, {"type": "Feature", "properties": {"id": 5755271077, "name": "Denise's Parrot Place", "category": "pet", "tags": ["pet"], "sources": ["osm"], "hours": "Mo-Su 10:00-18:00", "stations": [{"stopCode": 55, "lines": "2", "name": "Mercer Island Station", "walkingMeters": 454, "walkingSeconds": 327, "band": 10}]}, "geometry": {"type": "Point", "coordinates": [-122.235951, 47.5863697]}}, {"type": "Feature", "properties": {"id": "28cae318-ba45-4039-87af-cb08de63400e", "name": "Denise's Parrot Place", "category": "pet", "tags": ["pet"], "sources": ["overture"], "website": "http://www.myparrot.com/", "phone": "+12062328115", "address": "2707 76th Ave SE", "stations": [{"stopCode": 55, "lines": "2", "name": "Mercer Island Station", "walkingMeters": 585, "walkingSeconds": 421, "band": 10}]}, "geometry": {"type": "Point", "coordinates": [-122.2380447, 47.5864372]}}, {"type": "Feature", "properties": {"id": 6856459853, "name": "Mercer Island Florist", "category": "florist", "tags": ["florist"], "sources": ["osm"], "website": "https://mercerislandflorist.com", "address": "3006 78th Avenue Southeast", "hours": "Su 10:00-14:00; Mo-Fr 09:00-19:00; Sa 09:00-18:00", "stations": [{"stopCode": 55, "lines": "2", "name": "Mercer Island Station", "walkingMeters": 751, "walkingSeconds": 540, "band": 10}]}, "geometry": {"type": "Point", "coordinates": [-122.2334245, 47.5833716]}}, {"type": "Feature", "properties": {"id": 10162278548, "name": "Terra Bella", "category": "gift", "tags": ["gift"], "sources": ["osm"], "website": "https://terrabellagifts.com", "address": "3028 78th Avenue Southeast", "stations": [{"stopCode": 55, "lines": "2", "name": "Mercer Island Station", "walkingMeters": 908, "walkingSeconds": 653, "band": 10}]}, "geometry": {"type": "Point", "coordinates": [-122.232765, 47.5829756]}}, {"type": "Feature", "properties": {"id": 144684972, "name": "Jacksons", "category": "convenience", "tags": ["convenience"], "sources": ["osm"], "address": "2903 78th Avenue Southeast", "stations": [{"stopCode": 55, "lines": "2", "name": "Mercer Island Station", "walkingMeters": 744, "walkingSeconds": 535, "band": 10}]}, "geometry": {"type": "Point", "coordinates": [-122.2341048, 47.584018]}}, {"type": "Feature", "properties": {"id": 12768712040, "name": "Clarke & Clarke Art", "category": "art", "tags": ["art"], "sources": ["osm"], "address": "7605 Southeast 27th Street", "stations": [{"stopCode": 55, "lines": "2", "name": "Mercer Island Station", "walkingMeters": 488, "walkingSeconds": 351, "band": 10}]}, "geometry": {"type": "Point", "coordinates": [-122.2370829, 47.5865741]}}, {"type": "Feature", "properties": {"id": "83ce90e1-9174-4e7d-8634-6eaf8c3df922", "name": "Jacksons Food Stores", "category": "convenience", "tags": ["convenience"], "sources": ["overture"], "website": "http://www.jacksonsfoodstores.com/", "phone": "2062320263", "address": "2903 78th Ave SE", "stations": [{"stopCode": 55, "lines": "2", "name": "Mercer Island Station", "walkingMeters": 744, "walkingSeconds": 536, "band": 10}]}, "geometry": {"type": "Point", "coordinates": [-122.234108, 47.5840225]}}, {"type": "Feature", "properties": {"id": "6f29e442-941e-480b-aa6a-0f9cb63a3dec", "name": "Oh! Chocolate", "category": "supermarket", "tags": ["supermarket"], "sources": ["overture"], "website": "https://ohchocolatemercerisland.com", "address": "2703 76th Ave SE", "stations": [{"stopCode": 55, "lines": "2", "name": "Mercer Island Station", "walkingMeters": 567, "walkingSeconds": 423, "band": 10}]}, "geometry": {"type": "Point", "coordinates": [-122.2384644, 47.586483]}}, {"type": "Feature", "properties": {"id": "c57f8d04-8bcc-40ab-851b-145919c62b68", "name": "Building Specialties Northwest", "category": "doityourself", "tags": ["doityourself", "building", "supply"], "sources": ["overture"], "website": "http://www.lockedmail.com", "phone": "14254863693", "address": "7900 Se 28th St  Ste 212", "stations": [{"stopCode": 55, "lines": "2", "name": "Mercer Island Station", "walkingMeters": 372, "walkingSeconds": 278, "band": 5}]}, "geometry": {"type": "Point", "coordinates": [-122.2320557, 47.5857506]}}, {"type": "Feature", "properties": {"id": "1ed94d20-533b-44c6-8ba8-631990804d38", "name": "Chicks Shoes And Service", "category": "shoes", "tags": ["shoes", "shoe"], "sources": ["overture"], "website": "http://www.chicks-shoes.com", "phone": "(206) 232-9414", "address": "7667 SE 27th St", "stations": [{"stopCode": 55, "lines": "2", "name": "Mercer Island Station", "walkingMeters": 417, "walkingSeconds": 300, "band": 5}]}, "geometry": {"type": "Point", "coordinates": [-122.2357941, 47.5863991]}}, {"type": "Feature", "properties": {"id": "ec451421-b2b3-47d4-b48f-e879da067007", "name": "New Seasons Market", "category": "supermarket", "tags": ["supermarket"], "sources": ["overture"], "website": "https://www.newseasonsmarket.com", "address": "2755 77th Ave SE", "stations": [{"stopCode": 55, "lines": "2", "name": "Mercer Island Station", "walkingMeters": 499, "walkingSeconds": 372, "band": 10}]}, "geometry": {"type": "Point", "coordinates": [-122.235878, 47.585247]}}, {"type": "Feature", "properties": {"id": "94587621-6bf6-42b6-895c-bb27a4bf0acb", "name": "Stopsky's Deli", "category": "deli", "tags": ["deli", "delicatessen"], "sources": ["overture"], "website": "http://stopskysdelicatessen.com/stopskys-closing/", "phone": "20685578677", "address": "3016 78th Ave SE", "stations": [{"stopCode": 55, "lines": "2", "name": "Mercer Island Station", "walkingMeters": 689, "walkingSeconds": 514, "band": 10}]}, "geometry": {"type": "Point", "coordinates": [-122.2328262, 47.5834389]}}, {"type": "Feature", "properties": {"id": "d106c89c-f28e-4ca1-8540-32ff8c13eee8", "name": "Bente Catering Co", "category": "supermarket", "tags": ["supermarket"], "sources": ["overture"], "address": "8015 Se 28th St Ste 309", "stations": [{"stopCode": 55, "lines": "2", "name": "Mercer Island Station", "walkingMeters": 556, "walkingSeconds": 415, "band": 10}]}, "geometry": {"type": "Point", "coordinates": [-122.2310181, 47.5846558]}}, {"type": "Feature", "properties": {"id": 1728606861, "name": "Rite Aid", "category": "pharmacy", "tags": ["pharmacy", "wheelchair-accessible", "convenience"], "sources": ["osm", "overture"], "website": "https://www.riteaid.com/locations/wa/mercer-island/3023-78th-ave-se.html", "phone": "2062360776", "address": "3023 78th Ave SE", "hours": "Mo-Su 07:00-22:00", "stations": [{"stopCode": 55, "lines": "2", "name": "Mercer Island Station", "walkingMeters": 877, "walkingSeconds": 632, "band": 10}]}, "geometry": {"type": "Point", "coordinates": [-122.2343093, 47.5826234]}}, {"type": "Feature", "properties": {"id": 1728576396, "name": "Walgreens", "category": "pharmacy", "tags": ["pharmacy"], "sources": ["osm", "overture"], "website": "https://www.walgreens.com", "phone": "+12062321197", "address": "7707 SE 27th St", "hours": "Mo-Su 07:00-24:00", "stations": [{"stopCode": 55, "lines": "2", "name": "Mercer Island Station", "walkingMeters": 409, "walkingSeconds": 294, "band": 5}]}, "geometry": {"type": "Point", "coordinates": [-122.2343338, 47.5862332]}}, {"type": "Feature", "properties": {"id": 5755271076, "name": "The Dermatology Clinic", "category": "clinic", "tags": ["clinic"], "sources": ["osm"], "stations": [{"stopCode": 55, "lines": "2", "name": "Mercer Island Station", "walkingMeters": 502, "walkingSeconds": 362, "band": 5}]}, "geometry": {"type": "Point", "coordinates": [-122.2341795, 47.5862278]}}, {"type": "Feature", "properties": {"id": "51fb594d-4760-48f5-8790-e80dd7e76e3d", "name": "Swedish Express Care At Walgreens Bothell", "category": "clinic", "tags": ["clinic", "walk", "in"], "sources": ["overture"], "website": "https://washington.providence.org/contact-us", "phone": "+18882273312", "address": "7707 SE 27th St", "stations": [{"stopCode": 55, "lines": "2", "name": "Mercer Island Station", "walkingMeters": 299, "walkingSeconds": 223, "band": 5}]}, "geometry": {"type": "Point", "coordinates": [-122.2343216, 47.5862617]}}, {"type": "Feature", "properties": {"id": "7908803e-38f8-4bab-97df-7360e4db9ea4", "name": "Mercer Island Family Medicine", "category": "clinic", "tags": ["clinic", "medical"], "sources": ["overture"], "website": "http://mercerislandfamilymedicine.com/", "phone": "2062753487", "address": "3003 Island Crest Way", "stations": [{"stopCode": 55, "lines": "2", "name": "Mercer Island Station", "walkingMeters": 667, "walkingSeconds": 480, "band": 10}]}, "geometry": {"type": "Point", "coordinates": [-122.2309341, 47.5834732]}}, {"type": "Feature", "properties": {"id": 356551362, "name": "Mercer Island Post Office", "category": "post_office", "tags": ["post-office", "wheelchair-accessible"], "sources": ["osm"], "website": "https://tools.usps.com/locations/details/1372734", "address": "3040 78th Avenue SE", "hours": "Mo-Fr 08:30-17:00; Sa 10:00-14:00", "stations": [{"stopCode": 55, "lines": "2", "name": "Mercer Island Station", "walkingMeters": 861, "walkingSeconds": 620, "band": 10}]}, "geometry": {"type": "Point", "coordinates": [-122.233091, 47.5824317]}}, {"type": "Feature", "properties": {"id": 732239121, "name": "Bank of America", "category": "bank", "tags": ["bank", "drive-through"], "sources": ["osm"], "website": "https://locators.bankofamerica.com/wa/mercerisland/financial-centers-mercer-island-9914.html", "address": "2830 80th Ave SE", "stations": [{"stopCode": 55, "lines": "2", "name": "Mercer Island Station", "walkingMeters": 567, "walkingSeconds": 408, "band": 10}]}, "geometry": {"type": "Point", "coordinates": [-122.2313874, 47.584172]}}, {"type": "Feature", "properties": {"id": 5755213365, "name": "Umpqua Bank", "category": "bank", "tags": ["bank"], "sources": ["osm"], "hours": "Mo-Th 09:00-17:00; Fr 09:00-18:00", "stations": [{"stopCode": 55, "lines": "2", "name": "Mercer Island Station", "walkingMeters": 371, "walkingSeconds": 267, "band": 5}]}, "geometry": {"type": "Point", "coordinates": [-122.2334432, 47.5865657]}}, {"type": "Feature", "properties": {"id": 111737086, "name": "KeyBank", "category": "bank", "tags": ["bank"], "sources": ["osm"], "address": "2731 77th Avenue Southeast", "stations": [{"stopCode": 55, "lines": "2", "name": "Mercer Island Station", "walkingMeters": 460, "walkingSeconds": 331, "band": 10}]}, "geometry": {"type": "Point", "coordinates": [-122.2355616, 47.5861048]}}, {"type": "Feature", "properties": {"id": 119705083, "name": "U.S. Bank", "category": "bank", "tags": ["bank", "credit", "union"], "sources": ["osm", "overture"], "website": "https://www.usbank.com/locations/washington/mercer-island/2737-78th-ave-se-bank-atm/?utm_source=facebook&utm_medium=organic&utm_campaign=facebook_listing", "phone": "+12062365909", "address": "2737 78th Ave SE", "hours": "Mo-Fr 10:00-18:00; Sa 10:00-13:00", "stations": [{"stopCode": 55, "lines": "2", "name": "Mercer Island Station", "walkingMeters": 519, "walkingSeconds": 373, "band": 10}]}, "geometry": {"type": "Point", "coordinates": [-122.234083, 47.5856843]}}, {"type": "Feature", "properties": {"id": 5755271080, "name": "The UPS Store", "category": "post_office", "tags": ["post-office"], "sources": ["osm"], "address": "7683 Southeast 27th Street", "hours": "Mo-Fr 07:30-17:30; Sa 09:00-17:00; Su 10:00-16:00", "stations": [{"stopCode": 55, "lines": "2", "name": "Mercer Island Station", "walkingMeters": 396, "walkingSeconds": 285, "band": 5}]}, "geometry": {"type": "Point", "coordinates": [-122.2355163, 47.5864429]}}, {"type": "Feature", "properties": {"id": 144684932, "name": "Wells Fargo", "category": "bank", "tags": ["bank"], "sources": ["osm"], "address": "3001 78th Avenue Southeast", "stations": [{"stopCode": 55, "lines": "2", "name": "Mercer Island Station", "walkingMeters": 734, "walkingSeconds": 528, "band": 10}]}, "geometry": {"type": "Point", "coordinates": [-122.2344302, 47.5836863]}}, {"type": "Feature", "properties": {"id": 144685032, "name": "Banner Bank", "category": "bank", "tags": ["bank", "drive-through", "wheelchair-accessible", "credit", "union"], "sources": ["osm", "overture"], "website": "https://locations.bannerbank.com/wa/mercer-island/2918-78th-ave-se?y_source=1_ODQzOTYwMy01NTktbG9jYXRpb24ud2Vic2l0ZQ%3D%3D", "phone": "+12062322804", "address": "2918 78th Ave SE", "hours": "Mo-Th 09:00-17:00; Fr 09:00-18:00", "stations": [{"stopCode": 55, "lines": "2", "name": "Mercer Island Station", "walkingMeters": 699, "walkingSeconds": 503, "band": 10}]}, "geometry": {"type": "Point", "coordinates": [-122.2333263, 47.5839316]}}, {"type": "Feature", "properties": {"id": 5755271079, "name": "HSBC", "category": "bank", "tags": ["bank"], "sources": ["osm"], "hours": "Mo-We 09:00-17:00; Th 09:00-18:00; Fr 09:00-17:00", "stations": [{"stopCode": 55, "lines": "2", "name": "Mercer Island Station", "walkingMeters": 303, "walkingSeconds": 218, "band": 5}]}, "geometry": {"type": "Point", "coordinates": [-122.2347873, 47.5869023]}}, {"type": "Feature", "properties": {"id": "a87a4f7c-86d6-4f60-83d7-affc1e52b12a", "name": "USPS", "category": "post_office", "tags": ["post-office", "office"], "sources": ["overture"], "website": "https://www.usps.com", "phone": "+18002758777", "address": "3040 78 Th Ave Se", "stations": [{"stopCode": 55, "lines": "2", "name": "Mercer Island Station", "walkingMeters": 854, "walkingSeconds": 614, "band": 10}]}, "geometry": {"type": "Point", "coordinates": [-122.2331924, 47.5824318]}}, {"type": "Feature", "properties": {"id": 144685005, "name": "Mercer Island Auto Spa", "category": "bank", "tags": ["bank"], "sources": ["osm"], "address": "2730 80th Avenue Southeast", "stations": [{"stopCode": 55, "lines": "2", "name": "Mercer Island Station", "walkingMeters": 376, "walkingSeconds": 271, "band": 5}]}, "geometry": {"type": "Point", "coordinates": [-122.231383, 47.5857879]}}, {"type": "Feature", "properties": {"id": "8f4931d8-e145-44c2-a67d-f4159d2a431d", "name": "United States Postal Service", "category": "post_office", "tags": ["post-office", "office"], "sources": ["overture"], "website": "https://tools.usps.com/locations/details/1372734?utm_source=website-url&utm_medium=search&utm_campaign=yext", "phone": "8002758777", "address": "3040 78th Ave SE", "stations": [{"stopCode": 55, "lines": "2", "name": "Mercer Island Station", "walkingMeters": 841, "walkingSeconds": 628, "band": 10}]}, "geometry": {"type": "Point", "coordinates": [-122.233345, 47.5823822]}}, {"type": "Feature", "properties": {"id": "b1e726af-7b92-482d-aa2d-770361a838d2", "name": "Bank of America ATM", "category": "bank", "tags": ["bank", "credit", "union"], "sources": ["overture"], "website": "https://locators.bankofamerica.com/wa/mercerisland/financial-centers-mercer-island-9914.html", "phone": "8444018500", "address": "2830 80th Ave SE", "stations": [{"stopCode": 55, "lines": "2", "name": "Mercer Island Station", "walkingMeters": 607, "walkingSeconds": 453, "band": 10}]}, "geometry": {"type": "Point", "coordinates": [-122.2317734, 47.5841141]}}, {"type": "Feature", "properties": {"id": "79a72fc5-23f1-4356-a699-558d6aecedcf", "name": "U.S. Bank ATM", "category": "bank", "tags": ["bank", "credit", "union"], "sources": ["overture"], "website": "http://www.usbank.com/locations", "phone": "8008722657", "address": "2737 78th Ave SE #102", "stations": [{"stopCode": 55, "lines": "2", "name": "Mercer Island Station", "walkingMeters": 365, "walkingSeconds": 272, "band": 10}]}, "geometry": {"type": "Point", "coordinates": [-122.2336884, 47.5856934]}}, {"type": "Feature", "properties": {"id": "d21a43cf-1fc2-48e4-866a-9065c212db31", "name": "HSBC Bank", "category": "bank", "tags": ["bank", "credit", "union"], "sources": ["overture"], "website": "https://www.us.hsbc.com/", "phone": "8009754722", "address": "2630 77th Ave SE Ste 110", "stations": [{"stopCode": 55, "lines": "2", "name": "Mercer Island Station", "walkingMeters": 302, "walkingSeconds": 218, "band": 5}]}, "geometry": {"type": "Point", "coordinates": [-122.2348862, 47.5869064]}}, {"type": "Feature", "properties": {"id": "e7f5d0eb-bb4b-4a8c-8e78-c631c5df7800", "name": "Seattle NAD+", "category": "bank", "tags": ["bank", "credit", "union"], "sources": ["overture"], "website": "https://www.seattlenad.com/", "phone": "2066952707", "address": "2737 78th Ave Ste 100", "stations": [{"stopCode": 55, "lines": "2", "name": "Mercer Island Station", "walkingMeters": 519, "walkingSeconds": 374, "band": 10}]}, "geometry": {"type": "Point", "coordinates": [-122.2340927, 47.5856934]}}, {"type": "Feature", "properties": {"id": 10926763175, "name": "Club Pilates", "category": "fitness_centre", "tags": ["fitness-centre", "pilates", "studio"], "sources": ["osm", "overture"], "website": "https://www.clubpilates.com/mercerisland/", "phone": "+12066560880", "address": "2601 76th Ave SE Ste. 103", "stations": [{"stopCode": 55, "lines": "2", "name": "Mercer Island Station", "walkingMeters": 578, "walkingSeconds": 416, "band": 10}]}, "geometry": {"type": "Point", "coordinates": [-122.2379872, 47.5871251]}}, {"type": "Feature", "properties": {"id": 10926763176, "name": "Orangetheory Fitness", "category": "fitness_centre", "tags": ["fitness-centre", "gym"], "sources": ["osm", "overture"], "website": "https://www.orangetheory.com/en-us/locations/mercer-island-washington-0588?utm_medium=seo&utm_source=fb&utm_term=corporate&utm_campaign=soci", "phone": "+14252785709", "address": "2601 76th Ave SE", "stations": [{"stopCode": 55, "lines": "2", "name": "Mercer Island Station", "walkingMeters": 571, "walkingSeconds": 410, "band": 10}]}, "geometry": {"type": "Point", "coordinates": [-122.2379813, 47.5871886]}}, {"type": "Feature", "properties": {"id": 10160503795, "name": "1-on-1 Fitness", "category": "fitness_centre", "tags": ["fitness-centre"], "sources": ["osm"], "website": "https://1on1fitnesswa.com/", "phone": "+1-206-275-1313", "address": "3011 78th Avenue Southeast", "stations": [{"stopCode": 55, "lines": "2", "name": "Mercer Island Station", "walkingMeters": 732, "walkingSeconds": 527, "band": 10}]}, "geometry": {"type": "Point", "coordinates": [-122.233831, 47.5833683]}}, {"type": "Feature", "properties": {"id": 10926531905, "name": "Z-Ultimate Self Defense Studios", "category": "fitness_centre", "tags": ["fitness-centre", "martial-arts"], "sources": ["osm"], "website": "https://zultimate.com/locations/mercer-island/", "phone": "+1-206-232-2723", "address": "7858 Southeast 28th Street", "stations": [{"stopCode": 55, "lines": "2", "name": "Mercer Island Station", "walkingMeters": 412, "walkingSeconds": 296, "band": 5}]}, "geometry": {"type": "Point", "coordinates": [-122.2325652, 47.5856509]}}, {"type": "Feature", "properties": {"id": "1e163a16-cf1c-41ba-b46c-57043ecb525e", "name": "Fitness Together", "category": "fitness_centre", "tags": ["fitness-centre", "gym"], "sources": ["overture"], "website": "http://www.fitnesstogether.com/mercerisland", "phone": "2062751313", "address": "3011 78th Ave SE #140", "stations": [{"stopCode": 55, "lines": "2", "name": "Mercer Island Station", "walkingMeters": 743, "walkingSeconds": 535, "band": 10}]}, "geometry": {"type": "Point", "coordinates": [-122.2340775, 47.5832291]}}, {"type": "Feature", "properties": {"id": "7eedfc4e-0317-44ed-94a1-073b67304f81", "name": "StretchLab", "category": "fitness_centre", "tags": ["fitness-centre", "gym"], "sources": ["overture"], "website": "http://stretchlab.com/location/mercerisland", "phone": "+12065932211", "address": "2558 76th Ave SE", "stations": [{"stopCode": 55, "lines": "2", "name": "Mercer Island Station", "walkingMeters": 522, "walkingSeconds": 375, "band": 10}]}, "geometry": {"type": "Point", "coordinates": [-122.2374039, 47.5872917]}}, {"type": "Feature", "properties": {"id": 10926763174, "name": "YogaSix", "category": "fitness_centre", "tags": ["fitness-centre", "yoga"], "sources": ["osm"], "website": "https://www.yogasix.com/location/mercer-island", "phone": "+1-206-519-5617", "address": "2601 76th Avenue Southeast", "stations": [{"stopCode": 55, "lines": "2", "name": "Mercer Island Station", "walkingMeters": 578, "walkingSeconds": 415, "band": 10}]}, "geometry": {"type": "Point", "coordinates": [-122.2379852, 47.5870495]}}, {"type": "Feature", "properties": {"id": 5755213364, "name": "MI Athletic Club", "category": "fitness_centre", "tags": ["fitness-centre", "fitness", "trainer"], "sources": ["osm", "overture"], "website": "miathleticclub.com", "phone": "+12064533731", "address": "7785 Sunset Hwy Ste 118", "hours": "Mo-Fr 05:30-20:30; Sa,Su 07:00-17:00", "stations": [{"stopCode": 55, "lines": "2", "name": "Mercer Island Station", "walkingMeters": 376, "walkingSeconds": 270, "band": 5}]}, "geometry": {"type": "Point", "coordinates": [-122.2339073, 47.5868413]}}, {"type": "Feature", "properties": {"id": 5755271084, "name": "Mercer Island Martial Arts", "category": "fitness_centre", "tags": ["fitness-centre", "martial-arts"], "sources": ["osm"], "stations": [{"stopCode": 55, "lines": "2", "name": "Mercer Island Station", "walkingMeters": 282, "walkingSeconds": 203, "band": 5}]}, "geometry": {"type": "Point", "coordinates": [-122.2348318, 47.5870928]}}, {"type": "Feature", "properties": {"id": 10926533244, "name": "Technique Pilates & Fitness Studio", "category": "fitness_centre", "tags": ["fitness-centre", "pilates"], "sources": ["osm"], "website": "https://www.techniquepilatesandfitness.com/", "phone": "+1-206-234-3182", "address": "2729 78th Avenue Southeast", "stations": [{"stopCode": 55, "lines": "2", "name": "Mercer Island Station", "walkingMeters": 473, "walkingSeconds": 340, "band": 5}]}, "geometry": {"type": "Point", "coordinates": [-122.2340596, 47.5859606]}}, {"type": "Feature", "properties": {"id": 10926763172, "name": "Core Havn", "category": "fitness_centre", "tags": ["fitness-centre", "pilates", "studio"], "sources": ["osm", "overture"], "website": "http://www.corehavn.com", "phone": "+12067086495", "address": "7687 SE 27th St", "stations": [{"stopCode": 55, "lines": "2", "name": "Mercer Island Station", "walkingMeters": 388, "walkingSeconds": 279, "band": 5}]}, "geometry": {"type": "Point", "coordinates": [-122.2354111, 47.5864425]}}, {"type": "Feature", "properties": {"id": 10926763177, "name": "212 Health & Fitness LLC", "category": "fitness_centre", "tags": ["fitness-centre", "fitness"], "sources": ["osm"], "website": "https://www.212health.com/", "phone": "+1-206-854-4922", "address": "2558 76th Avenue Southeast", "stations": [{"stopCode": 55, "lines": "2", "name": "Mercer Island Station", "walkingMeters": 532, "walkingSeconds": 382, "band": 10}]}, "geometry": {"type": "Point", "coordinates": [-122.2374097, 47.5873846]}}, {"type": "Feature", "properties": {"id": 10926763178, "name": "Seattle Golf Fitness", "category": "fitness_centre", "tags": ["fitness-centre", "golf", "fitness"], "sources": ["osm"], "website": "https://www.seattlegolffitness.com/", "phone": "+1-425-354-3325", "address": "2448 76th Avenue Southeast", "stations": [{"stopCode": 55, "lines": "2", "name": "Mercer Island Station", "walkingMeters": 514, "walkingSeconds": 370, "band": 10}]}, "geometry": {"type": "Point", "coordinates": [-122.2373851, 47.5877986]}}, {"type": "Feature", "properties": {"id": 144684939, "name": "Mercer Island Pilates", "category": "fitness_centre", "tags": ["fitness-centre", "pilates", "studio"], "sources": ["osm", "overture"], "website": "https://mercerislandpilates.com", "phone": "12069200611", "address": "3003 80th Ave SE", "stations": [{"stopCode": 55, "lines": "2", "name": "Mercer Island Station", "walkingMeters": 646, "walkingSeconds": 465, "band": 10}]}, "geometry": {"type": "Point", "coordinates": [-122.2320548, 47.5834196]}}, {"type": "Feature", "properties": {"id": "21b7ab14-4c76-43a1-8547-35c0dde691d2", "name": "Power Within Pilates", "category": "fitness_centre", "tags": ["fitness-centre", "pilates", "studio"], "sources": ["overture"], "website": "http://www.powerwithinpilates.com", "phone": "+14252414214", "address": "7513 Se 27th St Ste A", "stations": [{"stopCode": 55, "lines": "2", "name": "Mercer Island Station", "walkingMeters": 542, "walkingSeconds": 404, "band": 10}]}, "geometry": {"type": "Point", "coordinates": [-122.2381821, 47.5864944]}}, {"type": "Feature", "properties": {"id": "5778d58f-4a39-4cf6-b8a0-de6da4e85db5", "name": "Pilates On Mercer", "category": "fitness_centre", "tags": ["fitness-centre", "pilates", "studio"], "sources": ["overture"], "website": "https://pilatesonmercerisland.com", "phone": "+12063100356", "address": "7513 Se 27th St Ste A", "stations": [{"stopCode": 55, "lines": "2", "name": "Mercer Island Station", "walkingMeters": 542, "walkingSeconds": 404, "band": 10}]}, "geometry": {"type": "Point", "coordinates": [-122.2381821, 47.5864944]}}, {"type": "Feature", "properties": {"id": "da03ace6-11ae-49fc-95ff-44e2fb134381", "name": "YogaSix Mercer Island", "category": "fitness_centre", "tags": ["fitness-centre", "yoga", "studio"], "sources": ["overture"], "website": "http://www.yogasix.com/mercer-island", "phone": "+12065195617", "address": "2601 76th Ave SE Ste 104", "stations": [{"stopCode": 55, "lines": "2", "name": "Mercer Island Station", "walkingMeters": 573, "walkingSeconds": 412, "band": 10}]}, "geometry": {"type": "Point", "coordinates": [-122.2378616, 47.5870094]}}, {"type": "Feature", "properties": {"id": "863fe75f-02de-4c62-8ff1-14f31db0389e", "name": "The Dailey Method", "category": "fitness_centre", "tags": ["fitness-centre", "gym"], "sources": ["overture"], "website": "http://www.thedaileymethod.com", "phone": "(206) 232-2614", "address": "2441 76th Ave SE", "stations": [{"stopCode": 55, "lines": "2", "name": "Mercer Island Station", "walkingMeters": 533, "walkingSeconds": 383, "band": 10}]}, "geometry": {"type": "Point", "coordinates": [-122.2380676, 47.5879326]}}, {"type": "Feature", "properties": {"id": "88459fc1-41c9-4e9f-b717-0058801047e0", "name": "Barre Rev Llc", "category": "fitness_centre", "tags": ["fitness-centre", "gym"], "sources": ["overture"], "phone": "2062322614", "address": "2441 76th Ave Se  Ste 120", "stations": [{"stopCode": 55, "lines": "2", "name": "Mercer Island Station", "walkingMeters": 511, "walkingSeconds": 381, "band": 10}]}, "geometry": {"type": "Point", "coordinates": [-122.2384567, 47.587925]}}, {"type": "Feature", "properties": {"id": "c4edbd32-b42d-4cea-8775-f82b3882bcd4", "name": "Yogabliss", "category": "fitness_centre", "tags": ["fitness-centre", "gym"], "sources": ["overture"], "website": "http://yogabliss.org/", "phone": "2062752300", "address": "7803 SE 27th St #174", "stations": [{"stopCode": 55, "lines": "2", "name": "Mercer Island Station", "walkingMeters": 325, "walkingSeconds": 243, "band": 5}]}, "geometry": {"type": "Point", "coordinates": [-122.2357635, 47.5867348]}}, {"type": "Feature", "properties": {"id": "155d61b1-c0da-40b1-8986-96b6b79c5e5c", "name": "212 Health & Fitness", "category": "fitness_centre", "tags": ["fitness-centre", "gym"], "sources": ["overture"], "website": "http://www.212health.com", "phone": "(206) 852-8377", "address": "2558 76th Ave SE Ste 138", "stations": [{"stopCode": 55, "lines": "2", "name": "Mercer Island Station", "walkingMeters": 525, "walkingSeconds": 377, "band": 10}]}, "geometry": {"type": "Point", "coordinates": [-122.2368927, 47.587265]}}, {"type": "Feature", "properties": {"id": "6089b8fe-80c8-4ce3-ab57-ff68ed4528b2", "name": "Raise The Bar", "category": "fitness_centre", "tags": ["fitness-centre", "fitness", "trainer"], "sources": ["overture"], "website": "https://raise-the-bar-mi.business.site", "phone": "12067453277", "address": "7605 Se 27th St  Ste 155", "stations": [{"stopCode": 55, "lines": "2", "name": "Mercer Island Station", "walkingMeters": 439, "walkingSeconds": 328, "band": 10}]}, "geometry": {"type": "Point", "coordinates": [-122.2369537, 47.586483]}}, {"type": "Feature", "properties": {"id": "86c61666-a030-45de-bfd4-779111293ec2", "name": "Technique Pilates and Fitness Studio", "category": "fitness_centre", "tags": ["fitness-centre", "pilates", "studio"], "sources": ["overture"], "website": "http://technique-pilates.com/", "phone": "+14256109345", "address": "2729 78th Ave SE", "stations": [{"stopCode": 55, "lines": "2", "name": "Mercer Island Station", "walkingMeters": 470, "walkingSeconds": 338, "band": 5}]}, "geometry": {"type": "Point", "coordinates": [-122.2339859, 47.5859756]}}, {"type": "Feature", "properties": {"id": "7565043e-03c6-4659-941f-457870b68f0a", "name": "Mercer Island CrossFit Gym", "category": "fitness_centre", "tags": ["fitness-centre", "gym"], "sources": ["overture"], "website": "http://www.mercerislandcrossfit.com/", "phone": "2069620063", "address": "2750 77th Ave SE", "stations": [{"stopCode": 55, "lines": "2", "name": "Mercer Island Station", "walkingMeters": 527, "walkingSeconds": 379, "band": 10}]}, "geometry": {"type": "Point", "coordinates": [-122.2350464, 47.5849915]}}, {"type": "Feature", "properties": {"id": "ef4dd1cd-a5b0-498d-a693-46a9c78ebcdd", "name": "OsteoStrong Mercer Island", "category": "fitness_centre", "tags": ["fitness-centre", "gym"], "sources": ["overture"], "website": "https://osteostrongmercerisland.com/blog/", "phone": "+12065199796", "address": "3045 78th Ave SE", "stations": [{"stopCode": 55, "lines": "2", "name": "Mercer Island Station", "walkingMeters": 929, "walkingSeconds": 669, "band": 15}]}, "geometry": {"type": "Point", "coordinates": [-122.2346802, 47.5822182]}}]}