{"type": "FeatureCollection", "features": [{"type": "Feature", "properties": {"id": "03e3aeeb-ee85-4f02-9645-9c786a80378f", "name": "SUBWAY", "category": "restaurant", "tags": ["restaurant", "sandwich"], "sources": ["overture"], "website": "http://subway.com", "address": "5170 Lakemont Blvd Suite #201"}, "geometry": {"type": "Point", "coordinates": [-122.1150055, 47.5582733]}}, {"type": "Feature", "properties": {"id": 2345239200, "name": "Starbucks", "category": "cafe", "tags": ["cafe", "coffee-shop", "outdoor-seating", "indoor-seating", "takeaway", "wheelchair-accessible", "wifi", "coffee"], "sources": ["osm", "overture"], "website": "https://www.starbucks.com/store-locator/store/16792/", "phone": "+14256492062", "address": "4851 Lakemont Blvd SE"}, "geometry": {"type": "Point", "coordinates": [-122.1147202, 47.5584895]}}, {"type": "Feature", "properties": {"id": 10644549377, "name": "Teriyaki House", "category": "restaurant", "tags": ["restaurant", "asian", "japanese"], "sources": ["osm", "overture"], "website": "http://www.teriyakihouse.info", "phone": "+14255627000", "address": "4957 Lakemont Blvd SE"}, "geometry": {"type": "Point", "coordinates": [-122.1146221, 47.5578277]}}, {"type": "Feature", "properties": {"id": "49923097-3473-41f8-9eef-a6e5963a1b41", "name": "The Ultimate Melt", "category": "restaurant", "tags": ["restaurant"], "sources": ["overture"], "website": "http://www.theultimatemelt.com/", "phone": "+14252694655", "address": "4957 Lakemont Blvd SE"}, "geometry": {"type": "Point", "coordinates": [-122.1149445, 47.5578079]}}, {"type": "Feature", "properties": {"id": "d4a26382-2d7e-4193-a76d-9a3f6e764043", "name": "Journey Cafe Llc", "category": "restaurant", "tags": ["restaurant"], "sources": ["overture"], "website": "https://juicejourney.com", "address": "4957 Lakemont Blvd Se # C-4-228"}, "geometry": {"type": "Point", "coordinates": [-122.1148605, 47.5578194]}}, {"type": "Feature", "properties": {"id": "8f88472d-f74e-42e5-b40d-14de7f311801", "name": "Sushi Avenue", "category": "restaurant", "tags": ["restaurant", "sushi"], "sources": ["overture"], "website": "sushiavenue.com", "phone": "+14256532261", "address": "4989 Lakemont Blvd SE"}, "geometry": {"type": "Point", "coordinates": [-122.1151657, 47.5580864]}}, {"type": "Feature", "properties": {"id": "614a3bb5-0f09-4760-b448-95f6b5c23f75", "name": "Markley Manor", "category": "attraction", "tags": ["attraction", "landmark", "historical", "building"], "sources": ["overture"], "address": "5776 168th Pl SE"}, "geometry": {"type": "Point", "coordinates": [-122.1171188, 47.5512047]}}, {"type": "Feature", "properties": {"id": "18707743-bf70-4985-a17d-8f2853cf7664", "name": "Overlook at Lakemont", "category": "attraction", "tags": ["attraction", "landmark", "historical", "building"], "sources": ["overture"], "website": "https://www.overlook-apts.com/?utm_source=facebook&utm_medium=social", "phone": "+14255330737", "address": "5305 Lakemont Blvd SE"}, "geometry": {"type": "Point", "coordinates": [-122.1196213, 47.5558281]}}, {"type": "Feature", "properties": {"id": 365894518, "name": "Lakemont Community Park", "category": "park", "tags": ["park"], "sources": ["osm", "overture"], "website": "http://www.ci.bellevue.wa.us/lakemont_community_park.htm", "phone": "+14254526914", "address": "5170 Village Park Dr SE"}, "geometry": {"type": "Point", "coordinates": [-122.1128584, 47.5568064]}}, {"type": "Feature", "properties": {"id": 883076487, "name": "Chandler Neighborhood Park", "category": "park", "tags": ["park"], "sources": ["osm"], "website": "https://bellevuewa.gov/city-government/departments/parks/parks-and-trails/parks/chandler-neighborhood-park"}, "geometry": {"type": "Point", "coordinates": [-122.1174064, 47.553411]}}, {"type": "Feature", "properties": {"id": "55ddd667-68db-4547-9060-70f84a56b23a", "name": "Skate Park at Lakemont Community Park", "category": "park", "tags": ["park"], "sources": ["overture"], "address": "4801 Lakemont Blvd SE"}, "geometry": {"type": "Point", "coordinates": [-122.1145935, 47.5584183]}}, {"type": "Feature", "properties": {"id": 152811028, "name": "Town and Country Market Lakemont", "category": "supermarket", "tags": ["supermarket"], "sources": ["osm"], "website": "https://townandcountrymarkets.com/lakemont/", "phone": "+1-425-653-2261", "address": "4989 Lakemont Boulevard Southeast"}, "geometry": {"type": "Point", "coordinates": [-122.1158817, 47.5578642]}}, {"type": "Feature", "properties": {"id": "c8a4de1c-c1c1-4615-b317-5a664631d129", "name": "Kara Kris Design", "category": "jewelry", "tags": ["jewelry"], "sources": ["overture"], "phone": "12064592531", "address": "4957 Lakemont Blvd SE"}, "geometry": {"type": "Point", "coordinates": [-122.1148605, 47.5578194]}}, {"type": "Feature", "properties": {"id": "233911eb-ae76-4881-89c6-9a84c30fae16", "name": "Silk Road Flavors", "category": "supermarket", "tags": ["supermarket"], "sources": ["overture"], "website": "silkroadflavors.com", "address": "4957 Lakemont Blvd Se Ste C"}, "geometry": {"type": "Point", "coordinates": [-122.1148605, 47.5578194]}}, {"type": "Feature", "properties": {"id": "04144a2b-58ca-4256-9820-fbec9bde5edd", "name": "Thomas Dean", "category": "clothes", "tags": ["clothes"], "sources": ["overture"], "website": "https://www.thomasdean.com", "phone": "18886010115", "address": "4957 Lakemont Blvd SE"}, "geometry": {"type": "Point", "coordinates": [-122.1148605, 47.5578194]}}, {"type": "Feature", "properties": {"id": "6d23d564-abca-4933-8de9-1827fa3bd0ca", "name": "Town & Country Market Lakemont", "category": "supermarket", "tags": ["supermarket"], "sources": ["overture"], "website": "https://townandcountrymarkets.com", "phone": "14256532261", "address": "4989 Lakemont Blvd SE"}, "geometry": {"type": "Point", "coordinates": [-122.1151657, 47.5580864]}}, {"type": "Feature", "properties": {"id": "bc285388-7c33-494f-a138-cf38145a8ae1", "name": "Matthews Fresh Market", "category": "supermarket", "tags": ["supermarket"], "sources": ["overture"], "website": "http://www.matthewsatlakemont.com", "phone": "+14256532261", "address": "4989 Lakemont Blvd SE"}, "geometry": {"type": "Point", "coordinates": [-122.1159744, 47.5580788]}}, {"type": "Feature", "properties": {"id": "cb51ebcf-ad0d-476a-95de-b64a354ade65", "name": "Bellevue Bloom Fresh Florist", "category": "florist", "tags": ["florist"], "sources": ["overture"], "website": "http://www.bloomfresh.com", "phone": "(425) 454-7598", "address": "4851 Lakemont Blvd SE"}, "geometry": {"type": "Point", "coordinates": [-122.1146851, 47.5584755]}}, {"type": "Feature", "properties": {"id": "8abfb847-f8d6-4914-92c8-856ac726353a", "name": "Lakemont Pharmacy", "category": "pharmacy", "tags": ["pharmacy"], "sources": ["overture"], "website": "http://www.lakemontpharmacy.com", "phone": "(425) 644-6080", "address": "4935 Lakemont Blvd SE Ste B4"}, "geometry": {"type": "Point", "coordinates": [-122.1141815, 47.5579109]}}, {"type": "Feature", "properties": {"id": 1655871801, "name": "Union Bank", "category": "bank", "tags": ["bank"], "sources": ["osm"], "address": "4851 Lakemont Boulevard SE"}, "geometry": {"type": "Point", "coordinates": [-122.1143655, 47.5586804]}}, {"type": "Feature", "properties": {"id": 9737137877, "name": "The UPS Store", "category": "post_office", "tags": ["post-office"], "sources": ["osm"]}, "geometry": {"type": "Point", "coordinates": [-122.1149449, 47.5578662]}}, {"type": "Feature", "properties": {"id": "d2fe6c88-96f5-45a2-b9b0-085411464485", "name": "U.S. Bank Branch", "category": "bank", "tags": ["bank", "credit", "union"], "sources": ["overture"], "website": "https://www.usbank.com/locations/washington/bellevue/4851-lakemont-blvd-se-ste-a1-bank-atm/?utm_source=facebook&utm_medium=organic&utm_campaign=facebook_listing", "phone": "+14254363274", "address": "4851 Lakemont Blvd SE a1"}, "geometry": {"type": "Point", "coordinates": [-122.1142426, 47.5587425]}}]}